{
"type": "FeatureCollection",
"name": "borough_Enfield",
"crs": { "type": "name", "properties": { "name": "urn:ogc:def:crs:OGC:1.3:CRS84" } },
"features": [
{ "type": "Feature", "properties": { "DISTRICT": "Enfield", "NAME": "Chase", "GSS_CODE": "E05000195", "LAGSSCODE": "E09000010", "HECTARES": 1693.541, "NONLD_AREA": 0.0 }, "geometry": { "type": "Polygon", "coordinates": [ [ [ -0.045329875937772, 51.606325278257628 ], [ -0.047606199214916, 51.606790299694573 ], [ -0.048031074017581, 51.606884573052803 ], [ -0.04843815464971, 51.606957871928465 ], [ -0.048800760377922, 51.60705479244988 ], [ -0.049061264747525, 51.607111267068618 ], [ -0.049288759527088, 51.607160000216034 ], [ -0.049612573486905, 51.607220223390144 ], [ -0.049918710802147, 51.607290040787817 ], [ -0.050206040584707, 51.607356937693432 ], [ -0.051527158225664, 51.607736780047837 ], [ -0.051505625031409, 51.60776968526465 ], [ -0.051484088184516, 51.607799893425138 ], [ -0.051751279104891, 51.607900525244304 ], [ -0.052159018005185, 51.607991895149603 ], [ -0.052581275829102, 51.60808071784647 ], [ -0.052890798446242, 51.60810204019473 ], [ -0.052890104039481, 51.608321473676526 ], [ -0.052966040405592, 51.608336219603146 ], [ -0.052958909153569, 51.608399929923337 ], [ -0.052954285542122, 51.608441206976032 ], [ -0.052943748341834, 51.608450920959704 ], [ -0.052885043116501, 51.608506582880835 ], [ -0.052923419815219, 51.608522503096353 ], [ -0.05298711866653, 51.608550530730653 ], [ -0.053046691228291, 51.608577590816552 ], [ -0.053954688137718, 51.608788735194857 ], [ -0.054354409617764, 51.608864591610661 ], [ -0.055590783729458, 51.608895888928153 ], [ -0.056116369055351, 51.608865946222807 ], [ -0.058052952327561, 51.608801842607654 ], [ -0.059034552498299, 51.60874527706342 ], [ -0.061198349110545, 51.608669510346999 ], [ -0.062370109919215, 51.608624152140287 ], [ -0.062955530743374, 51.608612248969607 ], [ -0.065020397239817, 51.608588807007067 ], [ -0.06521809056388, 51.608593867232614 ], [ -0.065451968979638, 51.608630089783169 ], [ -0.066279225619251, 51.608668907202642 ], [ -0.067044089584629, 51.608920740871604 ], [ -0.067047178924186, 51.608918094788855 ], [ -0.067115519126255, 51.608940797459709 ], [ -0.067451973900972, 51.608670262052158 ], [ -0.067483305052397, 51.608644707768065 ], [ -0.067605874788641, 51.608649424782442 ], [ -0.06772701660891, 51.608654118137096 ], [ -0.067794767677575, 51.608657032581107 ], [ -0.067969803736233, 51.608819936720366 ], [ -0.068332416482825, 51.608682072934542 ], [ -0.069261717840735, 51.60873513693695 ], [ -0.069339545687719, 51.60873911546652 ], [ -0.069646797342795, 51.608746871338951 ], [ -0.069650303148861, 51.60866422219059 ], [ -0.070326654783482, 51.608687042339767 ], [ -0.070689586649018, 51.608712792611684 ], [ -0.070771850792839, 51.608713247238619 ], [ -0.070836479725771, 51.608722401519998 ], [ -0.070873734902185, 51.608728408419061 ], [ -0.070851334902018, 51.608779282141022 ], [ -0.070845013770976, 51.608793561933574 ], [ -0.071477576735593, 51.608725756210532 ], [ -0.071702240563871, 51.608706976613931 ], [ -0.072056918894732, 51.608685839578975 ], [ -0.072069381221446, 51.608734589794516 ], [ -0.072151987956381, 51.608726958203469 ], [ -0.072847977813129, 51.608662884964204 ], [ -0.073835656132113, 51.608597217051418 ], [ -0.074750396827462, 51.608516049351948 ], [ -0.075602264120508, 51.608454519317895 ], [ -0.075673251285531, 51.608448492522264 ], [ -0.076119071434465, 51.608426142125474 ], [ -0.07664824117726, 51.608412349230932 ], [ -0.077066482256782, 51.608425502252608 ], [ -0.078118664633239, 51.608476016328318 ], [ -0.078680945251052, 51.608498716397712 ], [ -0.078979548752483, 51.608505407122699 ], [ -0.079155890019621, 51.608502902288294 ], [ -0.079301659862206, 51.608505290298154 ], [ -0.079610572999482, 51.608510350331279 ], [ -0.080688189685775, 51.608502823876712 ], [ -0.081344159146529, 51.608464025971436 ], [ -0.081962093863065, 51.608468742335589 ], [ -0.082135308610605, 51.60846977781631 ], [ -0.083248783007492, 51.608504257532147 ], [ -0.084354194224229, 51.608489870017152 ], [ -0.084519030533532, 51.608486270169159 ], [ -0.084817271371999, 51.60847046551595 ], [ -0.085826679608214, 51.608470768742215 ], [ -0.086561050932453, 51.608524109836289 ], [ -0.08710663740525, 51.608567264267883 ], [ -0.087499652463523, 51.608597049689791 ], [ -0.087980499013747, 51.608633660151469 ], [ -0.088370653541824, 51.608697557371734 ], [ -0.088697679897552, 51.608750535340235 ], [ -0.089659681104927, 51.608816557636935 ], [ -0.089691258916233, 51.608818870142684 ], [ -0.090851786476952, 51.608904299822953 ], [ -0.090880934881389, 51.608794198725732 ], [ -0.090883941536966, 51.608790651752493 ], [ -0.091418264318038, 51.608793058573426 ], [ -0.091714313225376, 51.608897665568577 ], [ -0.091744428923075, 51.608866690996109 ], [ -0.091771656980099, 51.608839265388767 ], [ -0.091802895941373, 51.608849662775263 ], [ -0.092060899975744, 51.608932973250866 ], [ -0.092076538349456, 51.608937722715957 ], [ -0.092069837317057, 51.609029400859058 ], [ -0.092067053575981, 51.609061719307881 ], [ -0.092446766982703, 51.609099362895996 ], [ -0.092448009528072, 51.609069716347086 ], [ -0.092461559742608, 51.608848694660495 ], [ -0.092534955550129, 51.608856181791552 ], [ -0.092940157432654, 51.608905026424488 ], [ -0.093555610142451, 51.609003227297443 ], [ -0.093999215613606, 51.608826056849637 ], [ -0.095132679940578, 51.608659198095992 ], [ -0.095311946055858, 51.608825815564195 ], [ -0.095327589602862, 51.608901584928127 ], [ -0.095568112231895, 51.60926338076321 ], [ -0.095787582949262, 51.609300208319191 ], [ -0.096193544192496, 51.60926275071845 ], [ -0.09641920940167, 51.609216970497201 ], [ -0.096785016441515, 51.609140202290206 ], [ -0.0967967471287, 51.609135897767629 ], [ -0.097045840632849, 51.60905094109998 ], [ -0.097238530527044, 51.608896655322511 ], [ -0.097333021500522, 51.608917966661245 ], [ -0.097357309716915, 51.608923754778935 ], [ -0.097365921447931, 51.608925692518881 ], [ -0.097427956904423, 51.608925800275308 ], [ -0.097634449474579, 51.608925555156574 ], [ -0.097656107093378, 51.608925906582968 ], [ -0.097460609279991, 51.608523494834678 ], [ -0.09782430611343, 51.60849703290252 ], [ -0.099074840444657, 51.6084660738696 ], [ -0.09994288335365, 51.608463963545752 ], [ -0.100359967390302, 51.608470722391054 ], [ -0.100789984782383, 51.608478588252844 ], [ -0.101064501612289, 51.608511802470183 ], [ -0.10125193517267, 51.608520232126295 ], [ -0.101485951807826, 51.608519527016703 ], [ -0.101758575420852, 51.608492475910573 ], [ -0.101960592992259, 51.608462393034387 ], [ -0.102179107168343, 51.608416484934047 ], [ -0.102513672273757, 51.608046032916562 ], [ -0.102993875538366, 51.608238182443117 ], [ -0.103489831625028, 51.608429595815387 ], [ -0.103699034031011, 51.608435675382268 ], [ -0.103922635073614, 51.608441987349273 ], [ -0.104130409658106, 51.608448043063433 ], [ -0.105257014288115, 51.608444673078957 ], [ -0.105684937710017, 51.608362585995366 ], [ -0.105877259489384, 51.608359399196772 ], [ -0.105873125913746, 51.608387200930871 ], [ -0.105869111329071, 51.608415004586384 ], [ -0.105877947579815, 51.608411551354749 ], [ -0.106254422109068, 51.60842122660975 ], [ -0.106947036981659, 51.608299358269129 ], [ -0.10707042491097, 51.608281572115793 ], [ -0.107087910418616, 51.608279157371257 ], [ -0.109262725774923, 51.608281783974583 ], [ -0.109864673619641, 51.608255526977878 ], [ -0.109870962691943, 51.608279001890416 ], [ -0.109870888099106, 51.608280798654469 ], [ -0.110399765726115, 51.608342450537442 ], [ -0.110455566433002, 51.608355036312872 ], [ -0.110509976494986, 51.608366700675084 ], [ -0.110442688702736, 51.608524736629597 ], [ -0.110429878271844, 51.608555095665295 ], [ -0.110587576637545, 51.608582807728077 ], [ -0.110603410427015, 51.608585759749452 ], [ -0.110788515688179, 51.608613014060602 ], [ -0.110798555908579, 51.608614973751166 ], [ -0.110811440665924, 51.608582817908193 ], [ -0.110851940002565, 51.608479188225871 ], [ -0.111490733134735, 51.608466102103684 ], [ -0.112753095052548, 51.608427987679633 ], [ -0.113812884573658, 51.608401884798198 ], [ -0.113813470095994, 51.608353259255978 ], [ -0.113825012795259, 51.60835344488472 ], [ -0.11404578928129, 51.608356096192772 ], [ -0.114283976566656, 51.608358128033892 ], [ -0.114436756648292, 51.608401128437329 ], [ -0.114451006473065, 51.608404953455924 ], [ -0.114633227741038, 51.608435751256145 ], [ -0.115332485130904, 51.608429010060959 ], [ -0.115540403003054, 51.60842875497999 ], [ -0.115891467093313, 51.60842810220548 ], [ -0.115882083517099, 51.608303802002062 ], [ -0.115931043364981, 51.608309083410923 ], [ -0.117264502228389, 51.608437565175485 ], [ -0.117492233405842, 51.608202900442144 ], [ -0.118115737378415, 51.608424167198955 ], [ -0.118711226352495, 51.608654955917615 ], [ -0.119178129595796, 51.60836658513557 ], [ -0.119499217928637, 51.608425669835079 ], [ -0.121330665911255, 51.608594435981999 ], [ -0.121566499763416, 51.608618887799217 ], [ -0.121787211306407, 51.608626016456057 ], [ -0.122008145260483, 51.608627754366942 ], [ -0.122410253349813, 51.608680036780342 ], [ -0.123121495279872, 51.608769625761596 ], [ -0.123351088123296, 51.608734641388303 ], [ -0.123467412878563, 51.608717622963873 ], [ -0.123518238329661, 51.608709445879249 ], [ -0.123999286971781, 51.609091203192996 ], [ -0.123969822329949, 51.609106913826601 ], [ -0.123916522997373, 51.609137526096305 ], [ -0.124058086690917, 51.609207302673397 ], [ -0.12413673855932, 51.609260700866074 ], [ -0.124157803729004, 51.609275421291514 ], [ -0.12409814233273, 51.6092870533396 ], [ -0.124991369635646, 51.609864270391924 ], [ -0.124872457568485, 51.60994687462982 ], [ -0.125330133488482, 51.610020711310895 ], [ -0.125969694168757, 51.609642476683646 ], [ -0.125863550521544, 51.609588640711557 ], [ -0.12631144248038, 51.609304433091914 ], [ -0.126349541282214, 51.609324818964545 ], [ -0.126442898936799, 51.609373955464463 ], [ -0.1273784152612, 51.609381695664482 ], [ -0.12787717857349, 51.609440895401164 ], [ -0.128667287584103, 51.609541597429597 ], [ -0.129715187093923, 51.609802016288256 ], [ -0.13087897071848, 51.610195522430097 ], [ -0.131289215612759, 51.610334295659051 ], [ -0.131798873084719, 51.610409833629895 ], [ -0.133258063399896, 51.610784644548183 ], [ -0.134941292009607, 51.611190865961355 ], [ -0.135258032895514, 51.611217473644636 ], [ -0.135476951718372, 51.611091498284537 ], [ -0.135941489319972, 51.610891122201096 ], [ -0.136174473303659, 51.610811216784185 ], [ -0.137703871975617, 51.610423668694551 ], [ -0.138760310000606, 51.610194913276516 ], [ -0.139599611468836, 51.610825996805978 ], [ -0.13966388458561, 51.610879156244167 ], [ -0.140246516255712, 51.611360532482067 ], [ -0.140820072764078, 51.611851560997479 ], [ -0.141391834222196, 51.612348941074309 ], [ -0.142071606744566, 51.613033217772845 ], [ -0.142855629417765, 51.613818926717997 ], [ -0.142924922717501, 51.613889334321101 ], [ -0.14381125870704, 51.614786331072835 ], [ -0.144510675478831, 51.615487175983688 ], [ -0.144115796824918, 51.615605891252166 ], [ -0.14391902124741, 51.615650425725256 ], [ -0.143731043612165, 51.615692402063651 ], [ -0.143142236580233, 51.615855782774283 ], [ -0.142770770878093, 51.615966773037428 ], [ -0.142706526650851, 51.615985534038707 ], [ -0.142685745897793, 51.61596362972795 ], [ -0.14203194366795, 51.616161036520829 ], [ -0.142041399562502, 51.616177367813833 ], [ -0.142057711859607, 51.616203696400099 ], [ -0.142000277773824, 51.616230655614132 ], [ -0.14209559532548, 51.616372494951484 ], [ -0.142028081062639, 51.616398395644438 ], [ -0.141938538002364, 51.616432937374725 ], [ -0.141873471076678, 51.616611703081816 ], [ -0.141805530987091, 51.616822876386053 ], [ -0.141716168422088, 51.616960803327821 ], [ -0.141635778769764, 51.617054013231645 ], [ -0.141532628771963, 51.617173742163452 ], [ -0.141421021272519, 51.617255579989944 ], [ -0.141354924780911, 51.617316652793235 ], [ -0.141327030697945, 51.617363856950824 ], [ -0.141292317073109, 51.617400165369517 ], [ -0.141265984127165, 51.617548978800862 ], [ -0.141046570030145, 51.617651673390071 ], [ -0.140987520875182, 51.617683101408105 ], [ -0.140969739250352, 51.617692708544141 ], [ -0.140886249648568, 51.617686891300394 ], [ -0.140750893936747, 51.617676656534314 ], [ -0.140614173125205, 51.617734722349219 ], [ -0.139901708796309, 51.618343009815895 ], [ -0.139726560454777, 51.618493060382576 ], [ -0.139807074965584, 51.618536678289473 ], [ -0.139457042073765, 51.618722612803765 ], [ -0.139343372818662, 51.618819698584389 ], [ -0.138504617241636, 51.619512367232367 ], [ -0.138305482690597, 51.619645853639717 ], [ -0.137548021114718, 51.620222847676644 ], [ -0.137206126675092, 51.6204943973773 ], [ -0.136653323584328, 51.620869576481027 ], [ -0.136144612633342, 51.62122657458125 ], [ -0.135436459078155, 51.621691965575671 ], [ -0.135443075371335, 51.62173971650617 ], [ -0.135546212743548, 51.622395990496997 ], [ -0.135412797714344, 51.622338134581888 ], [ -0.13532479455998, 51.622299878482757 ], [ -0.135044361537747, 51.622338574049003 ], [ -0.13493847006611, 51.622596786009446 ], [ -0.134841505380505, 51.622776838744365 ], [ -0.134718482691931, 51.623063545551297 ], [ -0.134523412519605, 51.623416530526114 ], [ -0.134466962855021, 51.62352360058027 ], [ -0.1342541876347, 51.623849334389945 ], [ -0.134196357240051, 51.623958090427863 ], [ -0.13418043247544, 51.623991998443984 ], [ -0.1342061710827, 51.624104869690314 ], [ -0.134279391804535, 51.624186941549375 ], [ -0.134340438816956, 51.624284102485426 ], [ -0.134324279987684, 51.624396217854148 ], [ -0.134298341663042, 51.624465116748397 ], [ -0.134210416074794, 51.624529344524866 ], [ -0.134154985499619, 51.624541948078374 ], [ -0.134098126422848, 51.624554528897825 ], [ -0.134094752857789, 51.624567060957176 ], [ -0.134039077899528, 51.624797303060447 ], [ -0.134031423519664, 51.624914048470565 ], [ -0.133754618627356, 51.62553102117527 ], [ -0.133558440045368, 51.62598026824412 ], [ -0.133531297171304, 51.626043664164726 ], [ -0.133522241948927, 51.62629892014629 ], [ -0.133523338360697, 51.626307028392475 ], [ -0.133523043145658, 51.626314215531082 ], [ -0.133522711028587, 51.626322301061997 ], [ -0.133522415813272, 51.626329488200575 ], [ -0.133520655166028, 51.626337551016164 ], [ -0.133518931420085, 51.626344715439359 ], [ -0.133515742241073, 51.626352755539493 ], [ -0.133514166102162, 51.626356326393342 ], [ -0.133511013823503, 51.626363468100976 ], [ -0.1335063139685, 51.626370585200057 ], [ -0.133501733156129, 51.626377704191881 ], [ -0.13349560476641, 51.626384798574882 ], [ -0.133489632321602, 51.626390996458206 ], [ -0.133483503927807, 51.626398090840517 ], [ -0.133476102947131, 51.626404266007292 ], [ -0.133462454519559, 51.626417533661673 ], [ -0.133459486744213, 51.626420183406324 ], [ -0.133444455009831, 51.626435227019847 ], [ -0.133427949494601, 51.626448449237252 ], [ -0.133410097574733, 51.626462549020737 ], [ -0.13339371108213, 51.626475773126025 ], [ -0.133378707879919, 51.626487221268498 ], [ -0.133344424170161, 51.626512746464407 ], [ -0.133310177324884, 51.626537373257463 ], [ -0.133274538809073, 51.626561078929363 ], [ -0.133237508622786, 51.626583863478849 ], [ -0.133199046166021, 51.626606715135893 ], [ -0.133159076683548, 51.626628553935248 ], [ -0.133119226204064, 51.626650394613755 ], [ -0.133077901920647, 51.626670413879808 ], [ -0.133043987001755, 51.626686955062873 ], [ -0.132829932104622, 51.626834578762868 ], [ -0.132674782466907, 51.626951764804076 ], [ -0.132545769117689, 51.627102538784527 ], [ -0.132393726567611, 51.627288995272671 ], [ -0.132274977862112, 51.627436336354521 ], [ -0.13218165993619, 51.627596757589671 ], [ -0.132071378473394, 51.627749627071729 ], [ -0.131942479529172, 51.627862734984227 ], [ -0.131730771087707, 51.628054443992177 ], [ -0.131486092408472, 51.628314939066769 ], [ -0.131279839748474, 51.628515813794266 ], [ -0.131369574737107, 51.628546908658265 ], [ -0.131082361143175, 51.628784251276528 ], [ -0.131107361540164, 51.628810719713712 ], [ -0.131143112945188, 51.62888860111299 ], [ -0.131155124141547, 51.6289499229106 ], [ -0.131114547250926, 51.629021195182631 ], [ -0.130824601648753, 51.629327715040212 ], [ -0.130527865773145, 51.629304110896719 ], [ -0.130440988536017, 51.629380129295754 ], [ -0.130631084973258, 51.62946496392739 ], [ -0.131121293437988, 51.629665151233588 ], [ -0.13076623364786, 51.630146923936955 ], [ -0.130684494637261, 51.630413607823463 ], [ -0.130419935589575, 51.630734015611431 ], [ -0.13017964483132, 51.631023345125804 ], [ -0.129777545469685, 51.630963000535033 ], [ -0.12952988076275, 51.631468865092366 ], [ -0.12928989185225, 51.63182292405051 ], [ -0.129121284767111, 51.632269006968222 ], [ -0.129151534274058, 51.632272186025183 ], [ -0.129616364984342, 51.632351511869039 ], [ -0.130321615867117, 51.632419382899762 ], [ -0.130808497648564, 51.632492762386867 ], [ -0.13133077982303, 51.632580277980637 ], [ -0.132017949649915, 51.632806970113982 ], [ -0.132060771247705, 51.632820237246143 ], [ -0.132555291594222, 51.632989112604577 ], [ -0.13295965906339, 51.633133987618166 ], [ -0.133269180526175, 51.633267554081222 ], [ -0.133612604150264, 51.633492365658626 ], [ -0.133845819364927, 51.633653484591918 ], [ -0.133661910240867, 51.633768326805765 ], [ -0.133815463634294, 51.633899412090379 ], [ -0.133896408791316, 51.633970819446496 ], [ -0.133977198263557, 51.634043123251132 ], [ -0.133978590173176, 51.634044044358816 ], [ -0.134252966751633, 51.633873104498996 ], [ -0.13441060174544, 51.633974497802178 ], [ -0.134229892778318, 51.634083998227517 ], [ -0.134506235658162, 51.634251195686026 ], [ -0.134239157611911, 51.634421353158686 ], [ -0.134266271716261, 51.634463227132372 ], [ -0.134308348862134, 51.634529521502756 ], [ -0.134508146167954, 51.634698109344171 ], [ -0.134718173529871, 51.634826495167538 ], [ -0.135257740430658, 51.635094873360238 ], [ -0.13546910107414, 51.635190915751139 ], [ -0.136178624773065, 51.635472866845646 ], [ -0.137658663146608, 51.636136611348086 ], [ -0.138103592883544, 51.636351333844445 ], [ -0.13830595048252, 51.636458015955 ], [ -0.138411833867256, 51.636517229904726 ], [ -0.139861378787365, 51.63732789494729 ], [ -0.140411810326347, 51.637684610886765 ], [ -0.140800072819201, 51.63798032214158 ], [ -0.141054275930252, 51.638194799003365 ], [ -0.141356995845125, 51.638461285284897 ], [ -0.141739248638787, 51.638796453198374 ], [ -0.1420281921485, 51.639047436931016 ], [ -0.142063645811282, 51.639098340881979 ], [ -0.142293302344162, 51.639316022321502 ], [ -0.142117714792354, 51.639367182192956 ], [ -0.142581682223203, 51.639790841362668 ], [ -0.143025964608736, 51.640200702523494 ], [ -0.143918215096685, 51.641000790159872 ], [ -0.145076522312002, 51.642649398425007 ], [ -0.147894872770508, 51.642084206994035 ], [ -0.148131835919499, 51.642404476974292 ], [ -0.148479431567933, 51.642954923727238 ], [ -0.148553965167522, 51.643111623419806 ], [ -0.148855519277026, 51.643868198881272 ], [ -0.149022013263929, 51.644181063325107 ], [ -0.149153945160307, 51.644634522991169 ], [ -0.14915134797772, 51.644698309863038 ], [ -0.149106464185661, 51.644840630475223 ], [ -0.149097711267896, 51.644915108091993 ], [ -0.149100579576057, 51.645055394713381 ], [ -0.149132104289644, 51.6452411721922 ], [ -0.14914845901003, 51.645263904620059 ], [ -0.149217712990406, 51.645304551704925 ], [ -0.150312212648757, 51.645260670712041 ], [ -0.15078931948945, 51.645256500181169 ], [ -0.151092370748203, 51.645268465247526 ], [ -0.151304248261615, 51.645283488732289 ], [ -0.151725921532261, 51.645364743859631 ], [ -0.151573865369019, 51.645654609076516 ], [ -0.152142300086143, 51.645825464738394 ], [ -0.151283378289172, 51.646828062021513 ], [ -0.151359746169166, 51.646869718801234 ], [ -0.151247891780609, 51.646988511000416 ], [ -0.151042427688629, 51.64720822297889 ], [ -0.151360543109143, 51.64731310958944 ], [ -0.152357437019365, 51.647642638047984 ], [ -0.152248088246084, 51.647987115142001 ], [ -0.151702719510678, 51.648174508353037 ], [ -0.149893768652048, 51.648795260600139 ], [ -0.150993586707832, 51.650078713945241 ], [ -0.151792542143111, 51.649910598717398 ], [ -0.152244639791583, 51.649848493487262 ], [ -0.152304095519856, 51.650057094102493 ], [ -0.152321569729063, 51.650160841951909 ], [ -0.152332499990188, 51.65035519409426 ], [ -0.152375995998984, 51.650742532868954 ], [ -0.152472612372943, 51.651318687461384 ], [ -0.152486556607124, 51.651365654352304 ], [ -0.152538696768438, 51.651469948544822 ], [ -0.152864683835895, 51.651845551448325 ], [ -0.153064300353427, 51.652054650393247 ], [ -0.153329953881305, 51.652454474455944 ], [ -0.153422942336806, 51.652621351087902 ], [ -0.153476180471781, 51.652698692417076 ], [ -0.153770357752808, 51.652645693704066 ], [ -0.154025161269558, 51.652564296407128 ], [ -0.154205036288406, 51.65297805244203 ], [ -0.153960642486157, 51.653228713661683 ], [ -0.153775921895731, 51.653257273598641 ], [ -0.153464495117548, 51.653306405085708 ], [ -0.15351866308218, 51.653431317529304 ], [ -0.153481660297096, 51.653632199005585 ], [ -0.153584010773653, 51.654029453791338 ], [ -0.153672074988797, 51.654461544352827 ], [ -0.153756229874315, 51.654667028140146 ], [ -0.153855236040781, 51.65465060524177 ], [ -0.154170751008216, 51.65485334372071 ], [ -0.154376238145972, 51.654956451849216 ], [ -0.154697090580348, 51.655030717397267 ], [ -0.154687741553188, 51.655190590444946 ], [ -0.154761912657777, 51.655533551696514 ], [ -0.15488668839654, 51.655560684388064 ], [ -0.155531217325635, 51.655707458125079 ], [ -0.157706306872515, 51.656154334614349 ], [ -0.157800304596607, 51.656190959993054 ], [ -0.157825655570275, 51.656206640567397 ], [ -0.15795397930069, 51.656322825472728 ], [ -0.158274650863939, 51.65625773513495 ], [ -0.160489765366598, 51.656753732879082 ], [ -0.160593159206289, 51.65680569610717 ], [ -0.160950211122481, 51.656987580970942 ], [ -0.161375984550879, 51.657218187286453 ], [ -0.16275393092159, 51.657966319775404 ], [ -0.163260803500501, 51.658090219774408 ], [ -0.163478861840218, 51.658169235714333 ], [ -0.165016206747432, 51.658227434549765 ], [ -0.17245325334734, 51.659888339842759 ], [ -0.175528723944409, 51.660571033837357 ], [ -0.176482310294411, 51.660767442816855 ], [ -0.179010449441476, 51.66132827091019 ], [ -0.180473452856949, 51.661659393570581 ], [ -0.182269098875257, 51.662026213575551 ], [ -0.182605715250788, 51.6621051411108 ], [ -0.183651315307601, 51.662390206997678 ], [ -0.183888433234567, 51.662426238305983 ], [ -0.185866011058467, 51.662836271004849 ], [ -0.185682563878717, 51.663158059584909 ], [ -0.185206115304653, 51.663863860403779 ], [ -0.183977053181466, 51.665746747662176 ], [ -0.183175382565479, 51.666918577253689 ], [ -0.182136423814674, 51.668524802432479 ], [ -0.182085560752476, 51.668604024494847 ], [ -0.181543936835084, 51.668948129144852 ], [ -0.179932196013681, 51.669978833834072 ], [ -0.179398651448328, 51.670334740712541 ], [ -0.178300134265065, 51.67104165468421 ], [ -0.177846396238348, 51.671357439446581 ], [ -0.176711713276084, 51.672099646938392 ], [ -0.177006585014897, 51.672679754370876 ], [ -0.17638611311402, 51.672644948427077 ], [ -0.175440927847065, 51.672592508397521 ], [ -0.175658052566357, 51.673163320323866 ], [ -0.175329836035977, 51.673449581129418 ], [ -0.174958840815606, 51.673215383900256 ], [ -0.17247334398044, 51.673091323801316 ], [ -0.171575459810861, 51.674020649933581 ], [ -0.170320755997821, 51.675367022277335 ], [ -0.169942648746171, 51.675777449812401 ], [ -0.168233424815516, 51.677633812730839 ], [ -0.167824030643739, 51.67810047100474 ], [ -0.167034789508942, 51.678912701236293 ], [ -0.165445046158776, 51.680598278153965 ], [ -0.16533346086274, 51.680673847071063 ], [ -0.165173233499995, 51.680807988576589 ], [ -0.164667603285806, 51.681328867102806 ], [ -0.163607285134289, 51.682403111661479 ], [ -0.163568583739456, 51.684398781951529 ], [ -0.163534967802835, 51.68451332516846 ], [ -0.163477240475408, 51.685082553372652 ], [ -0.16347265779262, 51.685626542561508 ], [ -0.163503973349588, 51.685922885777529 ], [ -0.163554547443569, 51.68624739853729 ], [ -0.163565201341368, 51.686700739444262 ], [ -0.163497052633596, 51.687489244619826 ], [ -0.163493454566653, 51.688115055886399 ], [ -0.163168379790683, 51.68810367687508 ], [ -0.162688396760773, 51.688097064311727 ], [ -0.162075956733719, 51.68800027633354 ], [ -0.161487595717049, 51.687880399044616 ], [ -0.161017885364065, 51.687761568583589 ], [ -0.16049970398722, 51.687696814264562 ], [ -0.159993637238406, 51.687618673037051 ], [ -0.159649138852785, 51.687586303450246 ], [ -0.159228779833085, 51.68749790581645 ], [ -0.15799218409421, 51.687241089046324 ], [ -0.157688785528682, 51.687157218117839 ], [ -0.157647417023115, 51.687144882201601 ], [ -0.15760739628733, 51.687131668448771 ], [ -0.157567567684224, 51.687116659748057 ], [ -0.157527619899221, 51.687101649163573 ], [ -0.157489102645989, 51.687086661018888 ], [ -0.157454996140315, 51.687071742092478 ], [ -0.157418138008617, 51.687054083041495 ], [ -0.157381279906062, 51.687036423979791 ], [ -0.157345852335189, 51.68701878736163 ], [ -0.157310378493797, 51.68699935205688 ], [ -0.157277884894123, 51.686979963523683 ], [ -0.157253951355829, 51.686964215356447 ], [ -0.157230087101763, 51.686946760219719 ], [ -0.157209083865365, 51.6869293499904 ], [ -0.157188117102539, 51.686911041355145 ], [ -0.157167113899004, 51.686893631119226 ], [ -0.157147395377103, 51.686879836946986 ], [ -0.157126209911307, 51.686866918717577 ], [ -0.157105107206889, 51.686854900758661 ], [ -0.157083885305735, 51.68684288092485 ], [ -0.157061196459892, 51.686831737032485 ], [ -0.157054070609858, 51.68682802926287 ], [ -0.15688147983473, 51.686765987257139 ], [ -0.156204875765149, 51.686540417335216 ], [ -0.155595218152759, 51.686378913566649 ], [ -0.154878959467355, 51.68620485364508 ], [ -0.154666836497687, 51.686152974793714 ], [ -0.153966889886295, 51.686006224939341 ], [ -0.153258203488797, 51.685857445641986 ], [ -0.15263719623423, 51.685761373324809 ], [ -0.151994939827388, 51.685689235546526 ], [ -0.151444702870795, 51.685627532385858 ], [ -0.150986186873998, 51.685592351223058 ], [ -0.150461508293063, 51.685544528826618 ], [ -0.149815144967508, 51.685535239582443 ], [ -0.149370319149364, 51.685518337293196 ], [ -0.148750284789407, 51.685609333351508 ], [ -0.147898814215555, 51.685771198919277 ], [ -0.147338178150734, 51.685862136055974 ], [ -0.146626621970262, 51.685927403829865 ], [ -0.146115534364731, 51.686008329932825 ], [ -0.145592514887612, 51.686133115018102 ], [ -0.145347991254205, 51.686238116809648 ], [ -0.145019706378099, 51.686270685348646 ], [ -0.144658271641202, 51.686335091983977 ], [ -0.144062339388677, 51.686510049026104 ], [ -0.143488650978949, 51.686706840426716 ], [ -0.14326857713603, 51.686782558537892 ], [ -0.142383645406249, 51.68708778073772 ], [ -0.141579877621895, 51.687356524660103 ], [ -0.140978009413586, 51.687533080224085 ], [ -0.140322092779417, 51.687721451842698 ], [ -0.139586265352995, 51.687921048854555 ], [ -0.138911397323014, 51.6880767491418 ], [ -0.138401153661269, 51.688208896800191 ], [ -0.137656822978036, 51.688365286029914 ], [ -0.136912387424636, 51.688489215909918 ], [ -0.136152457870101, 51.688603995177743 ], [ -0.135379239090598, 51.688725660315022 ], [ -0.134649676772878, 51.688806661394402 ], [ -0.134211739633714, 51.68868822710165 ], [ -0.133802965453919, 51.688707798096416 ], [ -0.13372998476907, 51.688724617097975 ], [ -0.133687606599521, 51.688768891961139 ], [ -0.133684722794088, 51.688839056065653 ], [ -0.133256077444861, 51.68888348047507 ], [ -0.132768737023837, 51.688913484871925 ], [ -0.132161138401749, 51.688911907196101 ], [ -0.131241574343462, 51.688896369611356 ], [ -0.130249719570803, 51.688915632169007 ], [ -0.129784419269472, 51.688902824486746 ], [ -0.129431856597022, 51.688892710847561 ], [ -0.12871207691407, 51.688874943660714 ], [ -0.127891013207963, 51.68885735441475 ], [ -0.127189706339643, 51.688811105323076 ], [ -0.126622471590762, 51.688779577882883 ], [ -0.126007508189476, 51.688745487641228 ], [ -0.125080954913683, 51.688688437251201 ], [ -0.124133515264858, 51.688649025222155 ], [ -0.123039731792495, 51.688580205968336 ], [ -0.122623886753278, 51.688560070002524 ], [ -0.122538717826759, 51.688554212686078 ], [ -0.122452163313151, 51.688550131094317 ], [ -0.122365452456462, 51.688546945913927 ], [ -0.122356750099441, 51.688546806687377 ], [ -0.122269964953819, 51.688545418201024 ], [ -0.122183224718193, 51.688545828322205 ], [ -0.122096328116871, 51.688547134853934 ], [ -0.122029660115133, 51.68854966398851 ], [ -0.121954252592595, 51.688552952210799 ], [ -0.121880320475503, 51.688558061948598 ], [ -0.121806194809976, 51.688564966495775 ], [ -0.12173215117056, 51.688572771285671 ], [ -0.121666727820313, 51.688579815017214 ], [ -0.121580852849835, 51.688591026261932 ], [ -0.121496486689866, 51.688603250468546 ], [ -0.121413517559169, 51.688616306055749 ], [ -0.121330354829614, 51.688631156438895 ], [ -0.121247236912143, 51.688647805434158 ], [ -0.121191760414481, 51.688659503016254 ], [ -0.120878851532879, 51.688703038088526 ], [ -0.120717315655816, 51.68872652189917 ], [ -0.120195127963996, 51.688828733248457 ], [ -0.119421286998127, 51.688929696964017 ], [ -0.118928522609573, 51.688983829419591 ], [ -0.118417115356798, 51.689035862973292 ], [ -0.118247609467842, 51.688937853729627 ], [ -0.117970742349822, 51.688983757042365 ], [ -0.117988581554004, 51.689111697841504 ], [ -0.117794495317981, 51.689221047454829 ], [ -0.116850894443102, 51.689436948203614 ], [ -0.116177283244603, 51.689666254939105 ], [ -0.115693827559777, 51.689846470240177 ], [ -0.115174250029513, 51.690026013585999 ], [ -0.114770767131065, 51.690158964626683 ], [ -0.114133907344208, 51.690304256295022 ], [ -0.113768426812856, 51.690429723741467 ], [ -0.11337957099954, 51.690595178401182 ], [ -0.112897014106996, 51.690822143560325 ], [ -0.112611521006488, 51.690902955749564 ], [ -0.11222798699838, 51.691011946530729 ], [ -0.111238889863768, 51.691207293212848 ], [ -0.110534907123731, 51.69133089870035 ], [ -0.109620893924048, 51.691493279396013 ], [ -0.109749317214873, 51.691675233198339 ], [ -0.109257388759424, 51.691745520587801 ], [ -0.108150328372066, 51.69181937696623 ], [ -0.107494562144663, 51.69186193451268 ], [ -0.106721300373283, 51.691875533897168 ], [ -0.106087526938469, 51.691876995469997 ], [ -0.105779317641563, 51.691875617573757 ], [ -0.105542080577159, 51.691874485481208 ], [ -0.10484863785398, 51.691850704808765 ], [ -0.104164942562021, 51.691799209155263 ], [ -0.103815789066194, 51.691775589245573 ], [ -0.103340549394243, 51.691686013456774 ], [ -0.102813024823104, 51.691568711130294 ], [ -0.102307429461044, 51.691480528299287 ], [ -0.101681410007852, 51.691365134289775 ], [ -0.100990182484873, 51.691285630589334 ], [ -0.100273681521459, 51.691188633275431 ], [ -0.09953593916578, 51.691114661111378 ], [ -0.099350381160621, 51.691018971841494 ], [ -0.098719548847143, 51.690950321582228 ], [ -0.098436999663988, 51.690925966926969 ], [ -0.098182961114636, 51.690841841964236 ], [ -0.0972289748574, 51.690610536065499 ], [ -0.096862470097946, 51.690554251312072 ], [ -0.096648699757189, 51.690474371839422 ], [ -0.096535018633094, 51.690494103844621 ], [ -0.095856023278994, 51.69033107342085 ], [ -0.095295043988943, 51.690184427772699 ], [ -0.094777156783651, 51.690113993140265 ], [ -0.094289398418358, 51.690081802511585 ], [ -0.093061557298592, 51.690034891578414 ], [ -0.092031179674395, 51.689973108290644 ], [ -0.091457317576164, 51.689923324606504 ], [ -0.091115676645099, 51.689928556755525 ], [ -0.090150417517229, 51.689898471141511 ], [ -0.089495645205286, 51.689917481695552 ], [ -0.08900005372056, 51.689935484411258 ], [ -0.088487241330161, 51.689985657730134 ], [ -0.087850463673785, 51.690058890897092 ], [ -0.087100637689364, 51.690133874211767 ], [ -0.0866056488821, 51.690137492976184 ], [ -0.08633270680264, 51.690160012693745 ], [ -0.086207875089789, 51.690169664133748 ], [ -0.085824837101648, 51.690160721221311 ], [ -0.08537407503036, 51.690145278496743 ], [ -0.084820983274441, 51.690086812152558 ], [ -0.08391017789121, 51.689964975592183 ], [ -0.083358101418703, 51.689814736506115 ], [ -0.082655314381567, 51.689668416953381 ], [ -0.082347229296618, 51.68956270064443 ], [ -0.08208197313725, 51.689471077828266 ], [ -0.082052072994239, 51.689461599695171 ], [ -0.082012300193076, 51.689442970517888 ], [ -0.081972489477703, 51.689425239686685 ], [ -0.081931329525993, 51.689408385782833 ], [ -0.081888581915412, 51.689392404910407 ], [ -0.08184583433643, 51.68937642402318 ], [ -0.081803010885542, 51.689362239838502 ], [ -0.081767345458648, 51.689350869501588 ], [ -0.08172301562411, 51.689338458638368 ], [ -0.081677255287452, 51.68932602439007 ], [ -0.08163141906684, 51.689315386841685 ], [ -0.081584033131489, 51.689304723958401 ], [ -0.081538158999728, 51.689294984733174 ], [ -0.08147797429136, 51.689282314755324 ], [ -0.081374738652612, 51.689260850562484 ], [ -0.081269877457619, 51.689241157676264 ], [ -0.081236845541241, 51.689235224080953 ], [ -0.081143477257057, 51.689220213764472 ], [ -0.081048521338443, 51.689206076408887 ], [ -0.08095361255243, 51.689193647806341 ], [ -0.080937833530796, 51.689191591987282 ], [ -0.080858504873276, 51.689183103731857 ], [ -0.080762047957437, 51.689173436507701 ], [ -0.080665395926475, 51.689165563972509 ], [ -0.080570217710113, 51.689159513404825 ], [ -0.08050520494958, 51.689156652778628 ], [ -0.079854468797842, 51.689080388736997 ], [ -0.079825538799072, 51.689079016710423 ], [ -0.079798158530087, 51.689077670017674 ], [ -0.079773677291873, 51.689075471745312 ], [ -0.0797448232869, 51.689072302984883 ], [ -0.079717519013702, 51.68906915955943 ], [ -0.079690133529667, 51.689065115821293 ], [ -0.079678646170554, 51.689063130014155 ], [ -0.07966151273422, 51.689059253919133 ], [ -0.079644260091227, 51.689055375872243 ], [ -0.079628595174155, 51.689050624809028 ], [ -0.07961138053406, 51.689045848400504 ], [ -0.079589988338711, 51.689038306736514 ], [ -0.079560089048538, 51.689028827988622 ], [ -0.079530108559945, 51.689018448926966 ], [ -0.079501596599828, 51.689007194896284 ], [ -0.079481792166547, 51.688998780201359 ], [ -0.079268351437253, 51.688945845483332 ], [ -0.078994833214804, 51.688914402065912 ], [ -0.078170041161112, 51.688573588755339 ], [ -0.077843467954787, 51.688428812228743 ], [ -0.077458554865111, 51.688258897193862 ], [ -0.076823256546988, 51.687990398039105 ], [ -0.076402425994059, 51.687815306580575 ], [ -0.075943164657616, 51.687657653431991 ], [ -0.075495761450024, 51.687462345875275 ], [ -0.075051735719094, 51.687288757367817 ], [ -0.074248170332087, 51.687028273863113 ], [ -0.073961883108056, 51.686957953396615 ], [ -0.073020949801537, 51.686595422001034 ], [ -0.072432087354012, 51.686358226615198 ], [ -0.071990053579079, 51.686171983796172 ], [ -0.071574329397205, 51.686012331620994 ], [ -0.070756733611398, 51.68560865672174 ], [ -0.070046189972971, 51.685274158882095 ], [ -0.069465812433431, 51.685006523053723 ], [ -0.068956856106039, 51.684795795413017 ], [ -0.068531334858036, 51.684631476635666 ], [ -0.067960825391746, 51.684404449621489 ], [ -0.067886417538911, 51.684384346902725 ], [ -0.067538085179123, 51.684276131918942 ], [ -0.067184132170784, 51.684129077459147 ], [ -0.066341246188184, 51.683845418345228 ], [ -0.065864541491659, 51.683726994096851 ], [ -0.065481115084825, 51.683628084101514 ], [ -0.065054232350712, 51.683530164872558 ], [ -0.064514934442498, 51.683419693561653 ], [ -0.064104419162636, 51.683346402812916 ], [ -0.063782432548205, 51.683331205660785 ], [ -0.063743649143551, 51.683326071328374 ], [ -0.063564579562148, 51.683318623782455 ], [ -0.063465699411509, 51.683296316832312 ], [ -0.063249482668315, 51.683209056619781 ], [ -0.062016909198772, 51.683008028216797 ], [ -0.06151267981747, 51.682959252019451 ], [ -0.061104151706251, 51.682906659946156 ], [ -0.060969864589148, 51.682900756893829 ], [ -0.060621822594781, 51.682886918776006 ], [ -0.060436953544382, 51.682878471697755 ], [ -0.059741062551685, 51.682846299583709 ], [ -0.059295472554758, 51.682848825248641 ], [ -0.059043795886041, 51.683016459702813 ], [ -0.058818905976416, 51.682998358850547 ], [ -0.058769971123907, 51.682923834047855 ], [ -0.057838111954547, 51.682931799446038 ], [ -0.057268796063592, 51.682982613666653 ], [ -0.057030031137035, 51.682984956252511 ], [ -0.056600253480499, 51.682988632285486 ], [ -0.055899791917136, 51.683096601765058 ], [ -0.055439513367475, 51.68316907953308 ], [ -0.055114654283543, 51.683257193084167 ], [ -0.054797368799658, 51.683335542472982 ], [ -0.054389395791201, 51.683336874678673 ], [ -0.054135081325567, 51.683329065037142 ], [ -0.053439394726094, 51.683361585123791 ], [ -0.05284539617207, 51.683381403639665 ], [ -0.052161157582012, 51.683483416920311 ], [ -0.051694489742275, 51.683535007737781 ], [ -0.051464079606123, 51.683578830715895 ], [ -0.051117557030272, 51.683699027470773 ], [ -0.051086739481632, 51.68370840481186 ], [ -0.050635507012295, 51.683839358456986 ], [ -0.050463946171668, 51.683893146676297 ], [ -0.050195682395012, 51.683976793754262 ], [ -0.04980402912318, 51.684103430728946 ], [ -0.0491804898921, 51.684271973877969 ], [ -0.049067105170261, 51.684082202486962 ], [ -0.048929680938673, 51.684049354162482 ], [ -0.048754979122998, 51.684006896474116 ], [ -0.048581596554555, 51.684003116866428 ], [ -0.048580047087016, 51.68400309112203 ], [ -0.048319474756018, 51.684076973401915 ], [ -0.048077527953365, 51.68388137816229 ], [ -0.047867831703369, 51.683712480396466 ], [ -0.047831175846983, 51.683691194641618 ], [ -0.047794362197582, 51.683670805228381 ], [ -0.047754807238638, 51.683650370235043 ], [ -0.047715094486584, 51.683630831581354 ], [ -0.047675466180822, 51.683612103396293 ], [ -0.047634245949513, 51.683594337608234 ], [ -0.047591556844858, 51.68357744636338 ], [ -0.047577328237094, 51.683572714940219 ], [ -0.047534639174482, 51.683555823673949 ], [ -0.047490442592818, 51.683540705283484 ], [ -0.047446207395607, 51.683526485210791 ], [ -0.047400503319091, 51.683513139676862 ], [ -0.047354799269944, 51.68349979412465 ], [ -0.04730901795196, 51.683488245224012 ], [ -0.047261687209546, 51.683476670542682 ], [ -0.047214437030151, 51.683465996158539 ], [ -0.047208754642132, 51.68346500269832 ], [ -0.047159916389547, 51.683455200863591 ], [ -0.04710968978407, 51.683447173877312 ], [ -0.047059344008766, 51.683439144887323 ], [ -0.047009040132104, 51.683432914527231 ], [ -0.046958617081701, 51.683426682163343 ], [ -0.04690684432009, 51.683421326309507 ], [ -0.046856343983847, 51.683416890571102 ], [ -0.046818915694029, 51.683413571186108 ], [ -0.046745370200981, 51.683406954184846 ], [ -0.04667186659748, 51.683402135789308 ], [ -0.046596736241712, 51.683399088246077 ], [ -0.046521567233744, 51.683396938989524 ], [ -0.0464479090138, 51.683395713792891 ], [ -0.046372624021334, 51.683396259445587 ], [ -0.0462988498049, 51.68339772916017 ], [ -0.046223487470745, 51.683400071387197 ], [ -0.04614947804462, 51.683404234030121 ], [ -0.046075549121664, 51.683409296944461 ], [ -0.046065379463629, 51.683410026729561 ], [ -0.045837865255416, 51.683419726007727 ], [ -0.045213241296912, 51.683444391374486 ], [ -0.044666960618212, 51.68343349965388 ], [ -0.044243018077949, 51.683434531473679 ], [ -0.044126788406002, 51.68341371731421 ], [ -0.043657842646944, 51.68335196792529 ], [ -0.043629305958032, 51.683341603787369 ], [ -0.043719105657128, 51.683173102537459 ], [ -0.043637092715484, 51.683160948635418 ], [ -0.043671703541482, 51.683096798623488 ], [ -0.042498456876214, 51.683032300047103 ], [ -0.042487622096627, 51.68311482567912 ], [ -0.042445745751068, 51.683112329721538 ], [ -0.04146490409278, 51.683047431743162 ], [ -0.041063859323118, 51.683020965386149 ], [ -0.039627383216265, 51.682920582530414 ], [ -0.037141253023151, 51.682807946990771 ], [ -0.037100768688517, 51.682806371356634 ], [ -0.037077685487744, 51.682805086556463 ], [ -0.037081835243389, 51.682742227016384 ], [ -0.03708350580426, 51.68270359861399 ], [ -0.037083777755674, 51.682697310269404 ], [ -0.037083202233576, 51.682677522995427 ], [ -0.037006685150854, 51.682676244041929 ], [ -0.037010104092383, 51.682597190566341 ], [ -0.036894569466389, 51.682590764429385 ], [ -0.034495806385327, 51.682466143250736 ], [ -0.034241736703859, 51.682452814288013 ], [ -0.034237997717957, 51.682539144455717 ], [ -0.033392263454623, 51.682494430476197 ], [ -0.033093453964128, 51.682478642291073 ], [ -0.032967907199901, 51.68247204619491 ], [ -0.032934449275087, 51.682509243843967 ], [ -0.030672968875851, 51.682420129347904 ], [ -0.030634297733429, 51.682544441947144 ], [ -0.029412447015813, 51.682432263824516 ], [ -0.02837674167225, 51.682332095278603 ], [ -0.027687319539535, 51.682250404940014 ], [ -0.027561139377667, 51.682192548944933 ], [ -0.027102668165611, 51.682123720787217 ], [ -0.026602347565884, 51.682084754177353 ], [ -0.025950911625997, 51.681996408608079 ], [ -0.025201163737531, 51.681873233499481 ], [ -0.024691515761898, 51.68178285768024 ], [ -0.024459550664222, 51.681730411520483 ], [ -0.024152931030245, 51.681661336442282 ], [ -0.023373232878033, 51.681527755471812 ], [ -0.023170748523703, 51.681595371538911 ], [ -0.022890289478985, 51.681558288398186 ], [ -0.022123981884096, 51.681481561939883 ], [ -0.020934479747049, 51.681293326592012 ], [ -0.019771826893911, 51.681151470600298 ], [ -0.019629003370212, 51.681141871232441 ], [ -0.01818960677589, 51.681044781225033 ], [ -0.017771577742873, 51.681011662825632 ], [ -0.017483752237276, 51.681009507300061 ], [ -0.015995603335392, 51.681001488052026 ], [ -0.015042817962969, 51.680989003500066 ], [ -0.014008700276528, 51.680951762733365 ], [ -0.01217772211533, 51.680879467122644 ], [ -0.011918859370785, 51.680877787591221 ], [ -0.011213183669847, 51.680871247934085 ], [ -0.011065715951049, 51.680869652569129 ], [ -0.011112028284418, 51.680735491610093 ], [ -0.011128694470696, 51.680687225918867 ], [ -0.011121028549533, 51.680070182088642 ], [ -0.010985340765094, 51.679601200515712 ], [ -0.010962748651255, 51.679520714789561 ], [ -0.01077716423702, 51.678938510136128 ], [ -0.010666418402504, 51.678428504809922 ], [ -0.010570383138538, 51.677944820111975 ], [ -0.010433887951919, 51.67729862529017 ], [ -0.010358282317914, 51.676844144894652 ], [ -0.010328583948563, 51.676664645454871 ], [ -0.010324044120133, 51.676634900638781 ], [ -0.010350094306825, 51.676405189725486 ], [ -0.010450122596098, 51.676201813514098 ], [ -0.010524473533148, 51.675958445423277 ], [ -0.010546490630788, 51.675883299407126 ], [ -0.010654194506347, 51.675504741961745 ], [ -0.010734249047623, 51.675229106398575 ], [ -0.01080228388117, 51.67499642072827 ], [ -0.01083736015515, 51.674791946285552 ], [ -0.010888520668392, 51.674481658845586 ], [ -0.011094898248888, 51.673336823831178 ], [ -0.011350809152292, 51.671918443262889 ], [ -0.011412064176897, 51.671246827708082 ], [ -0.011416366348625, 51.671181271538266 ], [ -0.011417848091581, 51.671114768639796 ], [ -0.011416474006466, 51.67104812753778 ], [ -0.011412117080356, 51.670981525889189 ], [ -0.01141131674296, 51.67096712792921 ], [ -0.011405529955823, 51.670900502096316 ], [ -0.011402263337778, 51.670877072158746 ], [ -0.011396883440964, 51.670833827895606 ], [ -0.011385337864707, 51.670768003687641 ], [ -0.01137081736481, 51.67070203925924 ], [ -0.011350534164103, 51.670636966290033 ], [ -0.011344132433042, 51.670619776509696 ], [ -0.011327037168651, 51.670579930198208 ], [ -0.011307082210105, 51.670540035515273 ], [ -0.011292454360744, 51.67051191827688 ], [ -0.011285697425471, 51.670500116644313 ], [ -0.011262843470227, 51.670461071945603 ], [ -0.011240032837248, 51.670421039045479 ], [ -0.011217059804993, 51.670381992322724 ], [ -0.011203665169057, 51.670358391064319 ], [ -0.010889794503675, 51.66979820231608 ], [ -0.010635722393578, 51.669489942808696 ], [ -0.010621331443171, 51.66945643532457 ], [ -0.010608409699109, 51.669422053670523 ], [ -0.010596798646616, 51.669387694191812 ], [ -0.010586775946815, 51.669352462560106 ], [ -0.010579692698322, 51.669318179690393 ], [ -0.010578379885919, 51.669312763316256 ], [ -0.010571336009597, 51.669277582085108 ], [ -0.010565602811867, 51.669242423030497 ], [ -0.010561418592823, 51.669207290184751 ], [ -0.010558548981927, 51.669172089679748 ], [ -0.010558654223521, 51.6691370294131 ], [ -0.010561619095442, 51.669102017532566 ], [ -0.010566013776549, 51.66906702984474 ], [ -0.010566131857179, 51.669064334762105 ], [ -0.01057307234787, 51.669039279445627 ], [ -0.010579854319578, 51.669015120473368 ], [ -0.010589615058979, 51.668991011902143 ], [ -0.010600805599037, 51.668966927522533 ], [ -0.010613425937498, 51.668942867334103 ], [ -0.010626046262227, 51.668918807144081 ], [ -0.010638666573223, 51.668894746952489 ], [ -0.010666731347196, 51.668847483472945 ], [ -0.010679431408713, 51.66882432365319 ], [ -0.010685662283941, 51.668812741726768 ], [ -0.010729636851091, 51.668734371377703 ], [ -0.010777861312412, 51.668656971941807 ], [ -0.010827515405051, 51.668579596673219 ], [ -0.010879993500899, 51.668503078284083 ], [ -0.010910796460696, 51.668461345134972 ], [ -0.010935170756086, 51.668432988625526 ], [ -0.010958154578137, 51.668403709561332 ], [ -0.010978159634628, 51.6683743801009 ], [ -0.010998283814104, 51.668345052652306 ], [ -0.011017017526089, 51.668314802651309 ], [ -0.011034202273159, 51.668284526444225 ], [ -0.011038845791318, 51.668276513754243 ], [ -0.01105321421491, 51.668245200972358 ], [ -0.011066228695071, 51.668214854214646 ], [ -0.011076184634069, 51.668183556689677 ], [ -0.011086299056163, 51.668151362817781 ], [ -0.011094944329833, 51.668120043119721 ], [ -0.011112155038911, 51.668056503343998 ], [ -0.01112076092709, 51.668026082004516 ], [ -0.011155343465715, 51.667895319156834 ], [ -0.011185671884105, 51.667763675213692 ], [ -0.011187574920148, 51.667755616161536 ], [ -0.011218693979128, 51.667605915140065 ], [ -0.011242540916198, 51.667456181004134 ], [ -0.011262141681734, 51.667305386108431 ], [ -0.011276019355244, 51.667154584324329 ], [ -0.011285488627549, 51.667003708305536 ], [ -0.011289242776297, 51.666852645712169 ], [ -0.011288612472763, 51.666769025729472 ], [ -0.011380123183719, 51.665403606016859 ], [ -0.011494893103244, 51.663939776587746 ], [ -0.011494157894681, 51.663891216787476 ], [ -0.011491838497416, 51.663843439314377 ], [ -0.011488243994278, 51.663794831150661 ], [ -0.011481671066725, 51.663746172608533 ], [ -0.011472199526306, 51.663698364062554 ], [ -0.011466190894441, 51.663669493620041 ], [ -0.011455289741608, 51.663621660890449 ], [ -0.011441529328072, 51.66357377979562 ], [ -0.011426184763766, 51.663526681025509 ], [ -0.011409525794928, 51.663479649921825 ], [ -0.011389888449768, 51.663432568435113 ], [ -0.011367233400824, 51.663386334923814 ], [ -0.011343267899616, 51.66334007923988 ], [ -0.011320535390262, 51.663298339534009 ], [ -0.011293394893016, 51.663256525256948 ], [ -0.011263478916838, 51.663215473144398 ], [ -0.011231970957068, 51.663175383019997 ], [ -0.011198994085636, 51.663136167061879 ], [ -0.011164468509584, 51.663096924893424 ], [ -0.011130062128424, 51.663057684729949 ], [ -0.011094226183236, 51.663018420369902 ], [ -0.011059819921945, 51.662979180185168 ], [ -0.011039199578002, 51.662954557634272 ], [ -0.010774919473367, 51.662648822640001 ], [ -0.010619027613199, 51.662476178954904 ], [ -0.010183908227259, 51.662045283853786 ], [ -0.009831613179112, 51.661770421642423 ], [ -0.009698782453416, 51.661667481917675 ], [ -0.009642695461465, 51.661625177125124 ], [ -0.009589709927181, 51.661582834912593 ], [ -0.009536680165294, 51.6615387837752 ], [ -0.009486509653778, 51.661494781025119 ], [ -0.009437927315472, 51.661449906117099 ], [ -0.00939212445718, 51.661404179225592 ], [ -0.009346480196179, 51.661357555973382 ], [ -0.009303734539104, 51.661310082759464 ], [ -0.00926389141664, 51.661261669751013 ], [ -0.009224163571491, 51.661213348581917 ], [ -0.009221382195224, 51.661208806348128 ], [ -0.009184552943827, 51.661159635223562 ], [ -0.009149192710672, 51.661109589937276 ], [ -0.009115142984363, 51.661059566832684 ], [ -0.009085540514779, 51.661008720007949 ], [ -0.009056100557823, 51.660956886997241 ], [ -0.009029396708608, 51.660905190219843 ], [ -0.009005671154272, 51.660853543877003 ], [ -0.008984844135904, 51.660801047593218 ], [ -0.008966915644426, 51.660747701370042 ], [ -0.008958010485706, 51.660719680717783 ], [ -0.008946994487342, 51.660674542806625 ], [ -0.008937411993635, 51.66062933927072 ], [ -0.008930724049702, 51.660583375635341 ], [ -0.008925426279333, 51.660538334571591 ], [ -0.008923146110933, 51.660492445590869 ], [ -0.008922295485737, 51.660446580822516 ], [ -0.008922874399376, 51.660400740266596 ], [ -0.008924886785622, 51.660354834087116 ], [ -0.008928324763847, 51.660309041955941 ], [ -0.008934621801875, 51.660263298249632 ], [ -0.008941037953569, 51.660217556560355 ], [ -0.008948764494518, 51.660171837065192 ], [ -0.008954195120484, 51.660145857270663 ], [ -0.008966723148726, 51.660091228831348 ], [ -0.00898223326378, 51.66003656099609 ], [ -0.008999049799567, 51.659982005188539 ], [ -0.009018725339788, 51.659927497801398 ], [ -0.009039910100925, 51.659873914999345 ], [ -0.009063953850213, 51.659820380615244 ], [ -0.009089387682001, 51.659767768796435 ], [ -0.009117684424108, 51.659715115556637 ], [ -0.009147525802403, 51.659662578373229 ], [ -0.009170781798183, 51.659627011162847 ], [ -0.009802327018442, 51.657982146543006 ], [ -0.010356458776361, 51.656587695710144 ], [ -0.010361495707117, 51.656573396528735 ], [ -0.011101840380134, 51.654785623921249 ], [ -0.011452019274075, 51.653887757003282 ], [ -0.011709102059524, 51.653232040672414 ], [ -0.011728615034533, 51.653183823316503 ], [ -0.011748052103041, 51.653134615744015 ], [ -0.011764785004821, 51.653084553296239 ], [ -0.011779930139552, 51.653035363012918 ], [ -0.011792255945108, 51.652985226004795 ], [ -0.011793960443133, 51.652978961649318 ], [ -0.011803427611474, 51.652928776279218 ], [ -0.011811385661084, 51.65287766635079 ], [ -0.011816449711731, 51.652827316587484 ], [ -0.011818704577723, 51.652808475159752 ], [ -0.011821063335916, 51.652754573422705 ], [ -0.01182195347936, 51.652701545867423 ], [ -0.011819985032708, 51.652648469951473 ], [ -0.011818016589032, 51.65259539403494 ], [ -0.011818370400627, 51.652587308774159 ], [ -0.011810158477692, 51.652409971547556 ], [ -0.011796229481776, 51.652232537592162 ], [ -0.011776540237472, 51.652055995103723 ], [ -0.011750979569179, 51.65188016239091 ], [ -0.011718149733097, 51.651704296577378 ], [ -0.011680800415302, 51.651533658537929 ], [ -0.011589292326105, 51.65078393936993 ], [ -0.011599713359428, 51.650347009110192 ], [ -0.011634204871574, 51.649757743394254 ], [ -0.011837445663383, 51.648847504683516 ], [ -0.01187322944338, 51.648688893068723 ], [ -0.012074034607616, 51.647305636602567 ], [ -0.012077757578254, 51.647285921072339 ], [ -0.012257975944519, 51.646239449952496 ], [ -0.012259876639438, 51.646228693825414 ], [ -0.012694675474544, 51.643524773906663 ], [ -0.013138088256291, 51.640589807953134 ], [ -0.013141927916606, 51.640567397847761 ], [ -0.013251425899192, 51.639848070463394 ], [ -0.013317843814199, 51.639618060399236 ], [ -0.013488472617137, 51.639187537322918 ], [ -0.013960400741744, 51.638111860887868 ], [ -0.014563458057696, 51.637009721558186 ], [ -0.014765935876265, 51.63674155573716 ], [ -0.014767639306472, 51.636735291518207 ], [ -0.014836398204132, 51.636451380291085 ], [ -0.014822091921627, 51.636249672203256 ], [ -0.014971794789592, 51.635932067988314 ], [ -0.015240381694871, 51.635505895559987 ], [ -0.015411194774034, 51.635269557785563 ], [ -0.015951173815787, 51.634584472405081 ], [ -0.016625757201793, 51.633763124302639 ], [ -0.016809329191937, 51.633528895350523 ], [ -0.017020895927979, 51.633250999297871 ], [ -0.017793082695741, 51.632277592568009 ], [ -0.018667163420644, 51.631185360887592 ], [ -0.019865180720401, 51.629690382941497 ], [ -0.022402499691882, 51.62646812757194 ], [ -0.022922225988048, 51.625814165386991 ], [ -0.023155768322813, 51.625560905111783 ], [ -0.023337582502571, 51.625332842386499 ], [ -0.023499123799254, 51.625173748897382 ], [ -0.023791953260768, 51.62488552680832 ], [ -0.024024857830965, 51.624643940152595 ], [ -0.024256426801793, 51.624369967227587 ], [ -0.024426995611739, 51.624134521294479 ], [ -0.024565231700991, 51.623913902992278 ], [ -0.024661006370907, 51.623735630413556 ], [ -0.024746835247527, 51.623523028970709 ], [ -0.024829007455067, 51.623361697637051 ], [ -0.024950488059544, 51.623126323029233 ], [ -0.025100325378576, 51.622770063491984 ], [ -0.025221386474074, 51.62250861107011 ], [ -0.025316178629831, 51.622355582695874 ], [ -0.02554881953379, 51.622056453621873 ], [ -0.025931062848846, 51.621738267007288 ], [ -0.025974804956611, 51.621762376844167 ], [ -0.026098271399815, 51.621645699812007 ], [ -0.026249307319781, 51.621527778610364 ], [ -0.026970104838157, 51.620964380750713 ], [ -0.02700595015054, 51.620937115434984 ], [ -0.027312196767452, 51.620670685400412 ], [ -0.027424758549599, 51.620574589940823 ], [ -0.027785196187243, 51.620258727230571 ], [ -0.027936888949566, 51.620125442256708 ], [ -0.028645496339585, 51.619506990914338 ], [ -0.029437588565892, 51.618830605248107 ], [ -0.029767860601608, 51.618578057005685 ], [ -0.030260841598113, 51.618201484481858 ], [ -0.03120361187727, 51.617578859243743 ], [ -0.031443832866988, 51.617403095596266 ], [ -0.031596233798101, 51.617285999288711 ], [ -0.031678379364635, 51.617223550374497 ], [ -0.031841398117336, 51.617095033055634 ], [ -0.032067569166531, 51.616910846321204 ], [ -0.032285047657175, 51.616723816167905 ], [ -0.03239492833307, 51.616623172940514 ], [ -0.03249758486838, 51.616518812350336 ], [ -0.032596156928294, 51.61641249520418 ], [ -0.032690398721673, 51.616304397191584 ], [ -0.03278460121787, 51.616197197425763 ], [ -0.032881663563777, 51.616089955626357 ], [ -0.032907463153289, 51.616060721091856 ], [ -0.033349223095047, 51.615600555406893 ], [ -0.033386955042654, 51.615562530732774 ], [ -0.033973373999715, 51.614827712869101 ], [ -0.0345947935063, 51.614087274257699 ], [ -0.034993385402719, 51.613652358211191 ], [ -0.035048497719093, 51.613581360483899 ], [ -0.035099245272454, 51.613509390613252 ], [ -0.035147175213215, 51.613436474518252 ], [ -0.035168842720651, 51.613403574027096 ], [ -0.035213958866557, 51.613329621865979 ], [ -0.035256095731119, 51.613255709691671 ], [ -0.03529398690796, 51.613180827385371 ], [ -0.035317974710194, 51.613127288478196 ], [ -0.035336094807631, 51.61307724733954 ], [ -0.035351282315841, 51.613026168172482 ], [ -0.035361521983551, 51.612990379225927 ], [ -0.035364998999401, 51.612976053282871 ], [ -0.035380182553849, 51.612925063946989 ], [ -0.035391772675786, 51.612891095636193 ], [ -0.035424455250623, 51.612804438918303 ], [ -0.035426077344283, 51.612799971029006 ], [ -0.03546130685387, 51.612717762108339 ], [ -0.035501209832667, 51.612632125299008 ], [ -0.035512373011862, 51.61260803894713 ], [ -0.035527013102864, 51.612569626644763 ], [ -0.035540225074742, 51.612531190425223 ], [ -0.03555200893133, 51.612492730289041 ], [ -0.035560856374922, 51.612453321967763 ], [ -0.035569826688043, 51.61241382580225 ], [ -0.035575779128873, 51.612375268011213 ], [ -0.035576322255409, 51.612362690953347 ], [ -0.035581004398739, 51.612323212878756 ], [ -0.035584139441888, 51.61228370889642 ], [ -0.035584418313731, 51.612244157084973 ], [ -0.035584539383038, 51.612205501641718 ], [ -0.035581962092846, 51.612165902000974 ], [ -0.035577956728196, 51.612126278445515 ], [ -0.035570980089137, 51.612086515231645 ], [ -0.03556110463685, 51.612047692385389 ], [ -0.035549801127347, 51.612008845623386 ], [ -0.035548525610469, 51.612002531186455 ], [ -0.035535483690413, 51.611970847398723 ], [ -0.035522441789214, 51.611939163609442 ], [ -0.035504957892638, 51.611908304441215 ], [ -0.035487593026739, 51.611877447263304 ], [ -0.035468681110944, 51.611846564174094 ], [ -0.03544830235768, 51.611816555527177 ], [ -0.03542796630944, 51.611785558679259 ], [ -0.035406159547457, 51.611755526108794 ], [ -0.035384352815817, 51.611725493534273 ], [ -0.035363974178195, 51.611695484872733 ], [ -0.035350389305408, 51.611676378122013 ], [ -0.035286397497744, 51.611586304273274 ], [ -0.035219430838548, 51.61149618055908 ], [ -0.035149614829212, 51.611408616208628 ], [ -0.035076820117334, 51.611321091818851 ], [ -0.03499966394736, 51.611235292342656 ], [ -0.034919498019888, 51.611150251519703 ], [ -0.034848980408555, 51.611078947457997 ], [ -0.034355977865211, 51.610554566359262 ], [ -0.034318656826081, 51.610514294703904 ], [ -0.034284345850799, 51.610473264362895 ], [ -0.034251501783258, 51.610431359582151 ], [ -0.034218696593423, 51.610388556436128 ], [ -0.03419017554245, 51.610345825065828 ], [ -0.034161773544957, 51.610303095686085 ], [ -0.034136186286044, 51.610258615443662 ], [ -0.034112107277909, 51.610215059480502 ], [ -0.034089499038653, 51.610170539247164 ], [ -0.034069781820599, 51.610125258344119 ], [ -0.034051453835688, 51.610080899728132 ], [ -0.034034592723969, 51.610035666679742 ], [ -0.034019317483318, 51.609989561193295 ], [ -0.034006779298527, 51.609943501569184 ], [ -0.033994360138326, 51.609897443939239 ], [ -0.033984800906109, 51.609851344330046 ], [ -0.033978132652028, 51.609804484053782 ], [ -0.033972972595709, 51.609758548059865 ], [ -0.033971550512221, 51.609722563815069 ], [ -0.033970588384868, 51.609711759568569 ], [ -0.033969751183414, 51.609664996999264 ], [ -0.033973197994415, 51.609618306213477 ], [ -0.03397803397684, 51.609572537714385 ], [ -0.033980050737202, 51.609561693481169 ], [ -0.03398743212554, 51.609523159714932 ], [ -0.033994660743037, 51.609490916460686 ], [ -0.033996360500753, 51.60948465186835 ], [ -0.034006559036979, 51.609447064312931 ], [ -0.034019890372852, 51.609408630236736 ], [ -0.034033063864546, 51.609371092523354 ], [ -0.034049093324978, 51.609333602659369 ], [ -0.03406655075309, 51.609296136717155 ], [ -0.034085516324433, 51.609259595049735 ], [ -0.03410583356007, 51.609222087112272 ], [ -0.034127616231304, 51.609186491643989 ], [ -0.034150865677562, 51.60915002173342 ], [ -0.034175504256976, 51.609114474099989 ], [ -0.034176971064268, 51.609113599663942 ], [ -0.034204701032035, 51.609075406782189 ], [ -0.034236518279652, 51.60903908038788 ], [ -0.034269882461349, 51.609002779897594 ], [ -0.03430463575905, 51.608967401676814 ], [ -0.034340820868372, 51.608931957527481 ], [ -0.034378391208726, 51.608897525480941 ], [ -0.034417469659379, 51.608864017693143 ], [ -0.034456467818191, 51.608829609633347 ], [ -0.034495426838625, 51.608796100456296 ], [ -0.034535971583211, 51.608761718830245 ], [ -0.034574930491331, 51.608728209618469 ], [ -0.034585472150336, 51.608718497254145 ], [ -0.034707223488096, 51.608609870305152 ], [ -0.034833096504926, 51.608502301117916 ], [ -0.034967580392217, 51.608399371150085 ], [ -0.034997349897158, 51.608380091958232 ], [ -0.035058236576832, 51.608340657131365 ], [ -0.035120438606999, 51.608303851387909 ], [ -0.035185572761157, 51.608268083616601 ], [ -0.03525209597151, 51.608233238068031 ], [ -0.035318422509819, 51.60820018717552 ], [ -0.035387723838261, 51.608167186066368 ], [ -0.035458533221863, 51.608135109165701 ], [ -0.035527795563713, 51.608103006313335 ], [ -0.035598485749452, 51.608070927330061 ], [ -0.035669137054736, 51.608039746646604 ], [ -0.035739830916396, 51.608007577738306 ], [ -0.035754539544741, 51.608000632076759 ], [ -0.035806120648554, 51.607978121925058 ], [ -0.035957769780644, 51.607910539524809 ], [ -0.036163777531254, 51.607822291101378 ], [ -0.036368123948937, 51.607739408466287 ], [ -0.036429742611553, 51.607716077164248 ], [ -0.037919631570203, 51.607161964367641 ], [ -0.038646301675693, 51.606887247232798 ], [ -0.040543066856751, 51.606171610858866 ], [ -0.040606301547334, 51.606146596224171 ], [ -0.040669455851697, 51.606120681216495 ], [ -0.040729950651574, 51.606092923763704 ], [ -0.040741686084777, 51.606088624791525 ], [ -0.040790326385874, 51.606065164290428 ], [ -0.040849351504653, 51.606035584237418 ], [ -0.040908376545045, 51.606006004152626 ], [ -0.040964623082783, 51.605974579644965 ], [ -0.04100164377503, 51.605952722996342 ], [ -0.041019480328761, 51.605942232913307 ], [ -0.041055034421021, 51.605921250751301 ], [ -0.041106997987156, 51.605886967764043 ], [ -0.041159076596236, 51.60585277657357 ], [ -0.041208257710503, 51.605816738985538 ], [ -0.041254582994977, 51.605780653690672 ], [ -0.041300985527129, 51.605742771675089 ], [ -0.041345921446538, 51.605705764148333 ], [ -0.041389506738775, 51.605666936061482 ], [ -0.041422629943268, 51.605636024243701 ], [ -0.041772206656567, 51.605700295020071 ], [ -0.04283569158792, 51.605887953338645 ], [ -0.044290152317435, 51.606121766712263 ], [ -0.045329875937772, 51.606325278257628 ] ] ] } }
]
}
