{
"type": "FeatureCollection",
"name": "borough_Croydon",
"crs": { "type": "name", "properties": { "name": "urn:ogc:def:crs:OGC:1.3:CRS84" } },
"features": [
{ "type": "Feature", "properties": { "DISTRICT": "Croydon", "NAME": "Coulsdon Town", "GSS_CODE": "E05011466", "LAGSSCODE": "E09000008", "HECTARES": 452.138, "NONLD_AREA": 0.0 }, "geometry": { "type": "Polygon", "coordinates": [ [ [ -0.095520415584142, 51.299533427659512 ], [ -0.095329755465816, 51.299496163223544 ], [ -0.095121132416405, 51.299475687745677 ], [ -0.094413043568165, 51.299463266475883 ], [ -0.09427639064111, 51.299438566627479 ], [ -0.094324366434462, 51.299353939857546 ], [ -0.097829930474431, 51.297729316072711 ], [ -0.099251593289581, 51.297101241148468 ], [ -0.099349537325149, 51.297057879983349 ], [ -0.099569199717436, 51.296948168683166 ], [ -0.100150331079884, 51.296631164527973 ], [ -0.10036267534703, 51.296526727227068 ], [ -0.100545227516401, 51.296447788024544 ], [ -0.100699628304412, 51.296391856396866 ], [ -0.100820120480946, 51.296355153049937 ], [ -0.100902871075901, 51.296333120781753 ], [ -0.101102380669193, 51.29629320379383 ], [ -0.101140024949284, 51.296286622177973 ], [ -0.10147815084233, 51.296226477170443 ], [ -0.102130329030526, 51.296133568630552 ], [ -0.102289363818073, 51.296102881279111 ], [ -0.102445820960595, 51.296065858792026 ], [ -0.102637596295863, 51.296006932573498 ], [ -0.103002278249332, 51.295859015969057 ], [ -0.106419994593661, 51.294334282250354 ], [ -0.108260473529902, 51.293526851963811 ], [ -0.108973693154935, 51.293204741915282 ], [ -0.109361134815046, 51.293025708131559 ], [ -0.110164330518166, 51.292640313983149 ], [ -0.111052400154465, 51.292252597462024 ], [ -0.114647786263444, 51.2924355801266 ], [ -0.114735056674613, 51.292441479946788 ], [ -0.114822878797531, 51.292433903297614 ], [ -0.114878647711537, 51.292403335230482 ], [ -0.114852009092253, 51.292317409790186 ], [ -0.114834072035978, 51.292299140714782 ], [ -0.114689142462103, 51.291848109268948 ], [ -0.114594474576101, 51.291532739297985 ], [ -0.11479582640555, 51.291484736635745 ], [ -0.114873525361212, 51.291548019278828 ], [ -0.115116569558554, 51.291463827545485 ], [ -0.115049891253455, 51.291411510615589 ], [ -0.11505847386495, 51.291409850716569 ], [ -0.115134486290789, 51.291375922584244 ], [ -0.115287048880604, 51.291292072391265 ], [ -0.115533961592093, 51.291113545699552 ], [ -0.115419954170874, 51.291024416955779 ], [ -0.115729049917056, 51.290728130853196 ], [ -0.115830600152565, 51.290630873169519 ], [ -0.115940161896136, 51.290511268968139 ], [ -0.116253583462615, 51.290143939483983 ], [ -0.116355492957581, 51.289965776065053 ], [ -0.116402597575244, 51.289935967276044 ], [ -0.116431038145761, 51.289908555316131 ], [ -0.11645420392269, 51.289868472328308 ], [ -0.116591321488371, 51.289812151909757 ], [ -0.11672286550918, 51.289750437540519 ], [ -0.116868826636005, 51.289550506932365 ], [ -0.116980707104841, 51.289374211627845 ], [ -0.117058345649443, 51.289193769615579 ], [ -0.117071926054036, 51.289107682784078 ], [ -0.117017761215698, 51.288995334260434 ], [ -0.117056932678299, 51.28866863367108 ], [ -0.117097345707074, 51.288487593084149 ], [ -0.117413685669053, 51.288048477521357 ], [ -0.117599323207247, 51.287716939663163 ], [ -0.117714315404606, 51.287502036526192 ], [ -0.117780485332478, 51.287321409947999 ], [ -0.117775464034473, 51.287094778205621 ], [ -0.11825209067543, 51.287080863135984 ], [ -0.118648534665389, 51.287067452401601 ], [ -0.121207312773332, 51.2869573945326 ], [ -0.12429306347426, 51.286758627274757 ], [ -0.124351943712976, 51.286863045780564 ], [ -0.124459794973955, 51.286996027615622 ], [ -0.12451072595627, 51.287048985435668 ], [ -0.124613065122357, 51.287143221542799 ], [ -0.124750611920748, 51.287249798127959 ], [ -0.125447980040924, 51.287874261374093 ], [ -0.125762908395637, 51.288203931264924 ], [ -0.125920672416556, 51.288310739784464 ], [ -0.126056712738766, 51.288384836372678 ], [ -0.126109452564965, 51.288605127290467 ], [ -0.126155939084022, 51.28904827157411 ], [ -0.126212518882878, 51.289417948638778 ], [ -0.126248348734356, 51.289490442123011 ], [ -0.126278244470154, 51.289528678476351 ], [ -0.127057880412023, 51.290283003281182 ], [ -0.127256890870646, 51.290466075242435 ], [ -0.127954816958088, 51.291078842178116 ], [ -0.128111104391539, 51.291187421585725 ], [ -0.128228740268922, 51.291254928137931 ], [ -0.128610873535044, 51.291558692098192 ], [ -0.129490354678033, 51.292221096350787 ], [ -0.130094400063818, 51.292603108379062 ], [ -0.130129269582849, 51.292629736185532 ], [ -0.130188726585775, 51.292682827693284 ], [ -0.130531067078294, 51.293117208773346 ], [ -0.130631098897391, 51.293269029595841 ], [ -0.130831506584893, 51.293738903772052 ], [ -0.131167256323742, 51.294228107139581 ], [ -0.13133058145112, 51.294446474596079 ], [ -0.131452807365021, 51.294686751644313 ], [ -0.131458913520907, 51.294711122327399 ], [ -0.131465388448864, 51.294764267266757 ], [ -0.131463158853558, 51.294819161334061 ], [ -0.131449650869945, 51.294869290603593 ], [ -0.131421586342384, 51.294925480842444 ], [ -0.131376119920514, 51.29498498963428 ], [ -0.131328218239105, 51.295034570447243 ], [ -0.131230518186133, 51.295107630430216 ], [ -0.131077883363558, 51.295298573694282 ], [ -0.131050256176535, 51.295343982687541 ], [ -0.131083468090913, 51.295443493568122 ], [ -0.131109565982398, 51.295473577170526 ], [ -0.131261942213941, 51.295606363870434 ], [ -0.131390268428879, 51.295696513316308 ], [ -0.131933705029315, 51.295982162845277 ], [ -0.132124228467715, 51.296130929508692 ], [ -0.132307104753294, 51.296325333629163 ], [ -0.132772504555202, 51.296768051084456 ], [ -0.132884204553692, 51.296880409113321 ], [ -0.132950915518444, 51.296932715567046 ], [ -0.133037464584017, 51.296991631094428 ], [ -0.133148139713, 51.297056414845983 ], [ -0.133293762135651, 51.297180999958243 ], [ -0.13389114219639, 51.297799323699401 ], [ -0.134409642523673, 51.298315699256285 ], [ -0.134408439859047, 51.298345347445256 ], [ -0.134431476798265, 51.298378078520209 ], [ -0.134453970029024, 51.298389224693047 ], [ -0.134486692382137, 51.298396038636717 ], [ -0.134522579497732, 51.298394811855722 ], [ -0.135559843871121, 51.298322228326924 ], [ -0.135754166894129, 51.298374855669969 ], [ -0.135922701148456, 51.298287546176311 ], [ -0.135981302572997, 51.298257013132776 ], [ -0.136178116186403, 51.298216092545026 ], [ -0.13627274863892, 51.298215799798534 ], [ -0.136328000047099, 51.298267922129661 ], [ -0.136512709853609, 51.299091924598756 ], [ -0.136608941788834, 51.299513381890748 ], [ -0.136643551366896, 51.299791815792467 ], [ -0.13664493340101, 51.299792736777697 ], [ -0.136795267249947, 51.300014575194012 ], [ -0.137313661701188, 51.300780864561105 ], [ -0.137376120897734, 51.300795342725756 ], [ -0.137442079820815, 51.300796391125935 ], [ -0.137531660429854, 51.300780733476209 ], [ -0.137826056110561, 51.300666741026859 ], [ -0.137900241699242, 51.300642747244204 ], [ -0.138021963514135, 51.30061321559235 ], [ -0.138525041866771, 51.300445810327822 ], [ -0.138689210438246, 51.300396275641141 ], [ -0.138788138758336, 51.300360088659104 ], [ -0.138967845946377, 51.300280234167055 ], [ -0.13970293968708, 51.299982558115865 ], [ -0.139984347489188, 51.299870963533976 ], [ -0.140280016673971, 51.299760583565927 ], [ -0.140460956032432, 51.299685241531975 ], [ -0.140560175946471, 51.299641775830779 ], [ -0.140660454899544, 51.299575042606399 ], [ -0.140698088523724, 51.299565750688714 ], [ -0.140774529066509, 51.299556175491752 ], [ -0.140855006917079, 51.299552058335294 ], [ -0.140962317410195, 51.299560053897828 ], [ -0.141213302626036, 51.299633258906638 ], [ -0.141368259854499, 51.299668081038149 ], [ -0.141697321801973, 51.299761492343933 ], [ -0.142129290174536, 51.29986363641089 ], [ -0.142366837983001, 51.299912352649081 ], [ -0.142459329351969, 51.299930000925741 ], [ -0.142768772951729, 51.299976259961198 ], [ -0.142833203564616, 51.299979978126643 ], [ -0.143559137447664, 51.301260348715644 ], [ -0.144423062704799, 51.300541150154999 ], [ -0.144852263328395, 51.300712556344145 ], [ -0.14562528963486, 51.299828212863808 ], [ -0.145649422214986, 51.299833988768896 ], [ -0.146557244589031, 51.300053323550877 ], [ -0.148064444455337, 51.300600552242834 ], [ -0.148451924355936, 51.300703769243107 ], [ -0.149496363575241, 51.300700488650641 ], [ -0.149814769369618, 51.300203781106653 ], [ -0.149993623086555, 51.300285716768286 ], [ -0.150055876899964, 51.300308275538917 ], [ -0.150244851203218, 51.300388572555562 ], [ -0.151023345900561, 51.300721894794471 ], [ -0.151048800247087, 51.300733084629805 ], [ -0.151342080398989, 51.300858269905866 ], [ -0.15249789597249, 51.301371953911875 ], [ -0.152606027283451, 51.301430387423984 ], [ -0.152663839337554, 51.30145467368709 ], [ -0.153360681666427, 51.30167783000757 ], [ -0.155317877151134, 51.301274357824212 ], [ -0.155379696927643, 51.301378717917892 ], [ -0.156684198493877, 51.303588976378428 ], [ -0.156963320206909, 51.303640116576112 ], [ -0.157009286311829, 51.303709254421605 ], [ -0.157735213574219, 51.304427473730293 ], [ -0.15764498104528, 51.304530339899259 ], [ -0.157702707037518, 51.304592380296896 ], [ -0.155023534240974, 51.305791216559513 ], [ -0.154509340092448, 51.306448568244917 ], [ -0.15514007312499, 51.306425237006898 ], [ -0.155763619123881, 51.306439547774346 ], [ -0.15641596489482, 51.306452510297262 ], [ -0.156572158415831, 51.306492726099904 ], [ -0.156738700414488, 51.306561063685557 ], [ -0.156883889707969, 51.306660440596389 ], [ -0.157061996071079, 51.306691111233668 ], [ -0.15716325429652, 51.306708885915434 ], [ -0.156478479331964, 51.307289843388226 ], [ -0.15639678233451, 51.30735957995698 ], [ -0.156165779295887, 51.307648213926967 ], [ -0.155571771134586, 51.308469822628695 ], [ -0.155048857999431, 51.309273588016772 ], [ -0.154345395300632, 51.310251804701537 ], [ -0.154315538034364, 51.310317862722549 ], [ -0.155350788703341, 51.310406983790529 ], [ -0.15561355517637, 51.310365268928258 ], [ -0.155800824521355, 51.31041856172979 ], [ -0.156228283914661, 51.310420792447502 ], [ -0.156466197232708, 51.310464991615156 ], [ -0.156617346418833, 51.310522210084308 ], [ -0.157015384764745, 51.310724548984915 ], [ -0.157337759997553, 51.310842896159734 ], [ -0.1576384547362, 51.310929525448557 ], [ -0.158065083870519, 51.310991072544866 ], [ -0.158330670231428, 51.310985357174296 ], [ -0.158332224511346, 51.311020443823367 ], [ -0.158266069212086, 51.311165946287538 ], [ -0.158215088825675, 51.311292897440772 ], [ -0.157821936039979, 51.312118501577778 ], [ -0.157607654234556, 51.31266911582437 ], [ -0.157272561285037, 51.313225921169362 ], [ -0.157169818791563, 51.313389727176421 ], [ -0.15741591994238, 51.313767773615254 ], [ -0.157494258805852, 51.313888576451831 ], [ -0.157581409191968, 51.314005022624627 ], [ -0.157643355708949, 51.31410677789961 ], [ -0.157745341811476, 51.31431965349325 ], [ -0.157879685940056, 51.314513348904235 ], [ -0.158304898152473, 51.314966041662778 ], [ -0.158358981000918, 51.31505149044429 ], [ -0.158540997123882, 51.315198195818652 ], [ -0.158965154728762, 51.315609514334582 ], [ -0.159167731783041, 51.315783602651713 ], [ -0.159314302711552, 51.315955821960905 ], [ -0.159485606293046, 51.316409107050852 ], [ -0.159562632877097, 51.316707986032718 ], [ -0.159581198064, 51.317104840170636 ], [ -0.159917587040824, 51.317054383194822 ], [ -0.160250561694896, 51.316947232671872 ], [ -0.160481665847012, 51.316872555285748 ], [ -0.160919421402434, 51.317267088988402 ], [ -0.161088270071632, 51.317459434779089 ], [ -0.161177552593351, 51.317522869139864 ], [ -0.161197222281267, 51.317605079663061 ], [ -0.16117406900365, 51.317681134079173 ], [ -0.161091661072098, 51.317732883747205 ], [ -0.161182393109662, 51.317976237229857 ], [ -0.161231506160868, 51.317967118584747 ], [ -0.161380196299285, 51.3183057797971 ], [ -0.161362788382501, 51.318309102774812 ], [ -0.161446114691049, 51.318521682840654 ], [ -0.16176917707853, 51.319344241513413 ], [ -0.161773265286397, 51.319351497907 ], [ -0.161863040900229, 51.319580451326615 ], [ -0.161879930455831, 51.319625667886406 ], [ -0.158689083055093, 51.320679850033692 ], [ -0.158498655655937, 51.320739879528311 ], [ -0.156440644310328, 51.321387364977134 ], [ -0.156484512146379, 51.321438400927519 ], [ -0.156543352368866, 51.321508552078754 ], [ -0.156489751090008, 51.321520295198958 ], [ -0.156452176195414, 51.321527795293775 ], [ -0.156178571618732, 51.321587411277946 ], [ -0.155801904911231, 51.321711842940275 ], [ -0.155780057983901, 51.321719590363323 ], [ -0.155902040644449, 51.321861759102163 ], [ -0.155622761356657, 51.321953649573757 ], [ -0.155519626224802, 51.321843153428972 ], [ -0.154755931017621, 51.322170153638304 ], [ -0.153514276299305, 51.322674008815476 ], [ -0.152705834415418, 51.323006583460803 ], [ -0.152081786429699, 51.322286329174602 ], [ -0.152063895403824, 51.322266268338254 ], [ -0.151968232069484, 51.322288134358352 ], [ -0.151735117585578, 51.322341096339159 ], [ -0.151488849614562, 51.322397447120267 ], [ -0.151483054922623, 51.322397355748265 ], [ -0.151354648002291, 51.322380047406071 ], [ -0.150696525564417, 51.322184467062925 ], [ -0.150569394218595, 51.322170774093685 ], [ -0.150476253364858, 51.322203467825112 ], [ -0.15047180557237, 51.322205195714169 ], [ -0.150302670949174, 51.322270853506019 ], [ -0.149567700548792, 51.322488597355282 ], [ -0.149428131715593, 51.322534042874693 ], [ -0.149011852844614, 51.322786481687068 ], [ -0.148743569357278, 51.322675170774197 ], [ -0.148358719646108, 51.322681679184463 ], [ -0.147930885955545, 51.322683012097542 ], [ -0.147581013714187, 51.322781861640216 ], [ -0.147133669178506, 51.322915040966578 ], [ -0.146529595124684, 51.32312584446175 ], [ -0.145911203311819, 51.323368783589537 ], [ -0.145627061465508, 51.323474870255438 ], [ -0.145560057581848, 51.323498983253067 ], [ -0.145556965804944, 51.32350522756721 ], [ -0.145068636084004, 51.324402197469986 ], [ -0.144247198867347, 51.325908116527678 ], [ -0.144447509931587, 51.325923873703267 ], [ -0.144364321767476, 51.326313730856178 ], [ -0.144429472438221, 51.326479376861656 ], [ -0.14601339378569, 51.327242727493456 ], [ -0.146493175052474, 51.327448191887925 ], [ -0.146908090770131, 51.327624668781318 ], [ -0.14855479279834, 51.32843581240116 ], [ -0.149305172840049, 51.328764209006081 ], [ -0.14914475295424, 51.328827306871979 ], [ -0.1480318408055, 51.329266537589127 ], [ -0.14621893430113, 51.329906060307856 ], [ -0.144613796122825, 51.330449051108886 ], [ -0.144042157043459, 51.330668453038818 ], [ -0.1450019497326, 51.331394959964392 ], [ -0.145146720651748, 51.331541186170192 ], [ -0.145419905661767, 51.332101293631254 ], [ -0.145591780938793, 51.33242955396782 ], [ -0.145725309325079, 51.332928025521937 ], [ -0.145757443309158, 51.333340384176786 ], [ -0.145865257896069, 51.333836740628406 ], [ -0.145919695316888, 51.334089422023041 ], [ -0.146137581640401, 51.334524494347278 ], [ -0.14646232599383, 51.335371396394748 ], [ -0.14683503654937, 51.33659674146655 ], [ -0.146991775515947, 51.337371671701945 ], [ -0.147183816401177, 51.338093216854496 ], [ -0.147282283549243, 51.338073195069555 ], [ -0.147522264441097, 51.338780302927873 ], [ -0.147368787703488, 51.33881114370098 ], [ -0.147358659567692, 51.338812781830768 ], [ -0.145686253312479, 51.339164044683486 ], [ -0.145131555967749, 51.339318900481594 ], [ -0.144501367407501, 51.339493327444892 ], [ -0.144238290315291, 51.339857861907937 ], [ -0.144246314979963, 51.33990833502051 ], [ -0.144298972588771, 51.340205041643955 ], [ -0.144083821656978, 51.340306016470805 ], [ -0.143779380540024, 51.340413579547295 ], [ -0.143550133790471, 51.3405088462208 ], [ -0.143438874194338, 51.340561117721627 ], [ -0.143546478682253, 51.340704868716891 ], [ -0.143828647500993, 51.341219268384904 ], [ -0.143938377933106, 51.341383730523198 ], [ -0.14408883504588, 51.341354644539734 ], [ -0.144524238184703, 51.342020706939444 ], [ -0.144570307689073, 51.342090661548276 ], [ -0.14416093411095, 51.342237112763328 ], [ -0.144156520321788, 51.342237941980891 ], [ -0.144159105798311, 51.342244276178576 ], [ -0.144172668932105, 51.342266067758068 ], [ -0.144188808099536, 51.342291496256742 ], [ -0.143871493762657, 51.342397957331642 ], [ -0.143384819697726, 51.342611510351809 ], [ -0.142975550138286, 51.34279032494954 ], [ -0.14291579169852, 51.342739841748596 ], [ -0.142115631657116, 51.342996974621627 ], [ -0.142073522737105, 51.343010692392227 ], [ -0.142201672979834, 51.343144071934809 ], [ -0.142227759038945, 51.343172355343036 ], [ -0.142034014073055, 51.343241210310183 ], [ -0.141767507758702, 51.343332287494597 ], [ -0.141531721128892, 51.343413152141387 ], [ -0.141128845169111, 51.343538928056518 ], [ -0.138993699426997, 51.344140877347982 ], [ -0.137914926141794, 51.344435815614268 ], [ -0.137061006055917, 51.34467138201363 ], [ -0.13670584555816, 51.344755645303501 ], [ -0.13651258849847, 51.344774152451613 ], [ -0.136325283564886, 51.344791854800803 ], [ -0.136247528758854, 51.34440574022149 ], [ -0.136237480939432, 51.344408277706087 ], [ -0.13615611538626, 51.344429460973565 ], [ -0.13585914146435, 51.344459804712443 ], [ -0.135467687751597, 51.344481453712056 ], [ -0.135000484718114, 51.344493805770277 ], [ -0.13475425462698, 51.344510658642044 ], [ -0.134101238498284, 51.344503869528403 ], [ -0.133445599961448, 51.344453791214868 ], [ -0.133053277950615, 51.344391807471141 ], [ -0.132569719169193, 51.344311288258851 ], [ -0.132488437500953, 51.344298306755277 ], [ -0.13265387067933, 51.344818967207985 ], [ -0.13285859561906, 51.345401297636542 ], [ -0.132867262085511, 51.34543568900223 ], [ -0.131303773466865, 51.345463835854517 ], [ -0.131101010038786, 51.345471394060503 ], [ -0.131122465992844, 51.345508596524645 ], [ -0.131274991938941, 51.345784424428764 ], [ -0.131396548878683, 51.346006625568656 ], [ -0.131405981448635, 51.346022149404043 ], [ -0.130534535416639, 51.346125139547404 ], [ -0.130103371123286, 51.346202776990495 ], [ -0.129831041047854, 51.346261368298649 ], [ -0.129643972812971, 51.346307922782763 ], [ -0.129436814950848, 51.346385533083264 ], [ -0.12927211862689, 51.346446738442282 ], [ -0.129067259185283, 51.346540567441572 ], [ -0.12896770544333, 51.346586628638228 ], [ -0.128995100556076, 51.346620419957439 ], [ -0.129110719519064, 51.346813759418332 ], [ -0.129126852128215, 51.346839189820329 ], [ -0.128861710763339, 51.347003170982632 ], [ -0.128722074125374, 51.347082756062257 ], [ -0.128710304151068, 51.347089760613088 ], [ -0.1288395116574, 51.347266325261437 ], [ -0.128843551808496, 51.347271783943519 ], [ -0.128346674363024, 51.347450857023297 ], [ -0.128328930594648, 51.347427198887985 ], [ -0.128262049473692, 51.347342521075895 ], [ -0.128221526771189, 51.34734906677722 ], [ -0.128175251344266, 51.347357318744585 ], [ -0.12753124991863, 51.347445035675541 ], [ -0.127417699253745, 51.347305670062859 ], [ -0.127322005902909, 51.3471871774208 ], [ -0.127145214541177, 51.346839034001462 ], [ -0.127101379969867, 51.346645040734678 ], [ -0.127012079902551, 51.345948477876675 ], [ -0.126977481652583, 51.345705094964735 ], [ -0.126756039246657, 51.345465021706111 ], [ -0.126805518815119, 51.345447831061612 ], [ -0.126898880264071, 51.345414259364624 ], [ -0.126895198207492, 51.345397118824849 ], [ -0.12687045854212, 51.345266273190823 ], [ -0.12712300980839, 51.345164219077205 ], [ -0.126858619888815, 51.344885700647609 ], [ -0.126831158949462, 51.34485649288483 ], [ -0.126310675441684, 51.345048756037741 ], [ -0.126005062812948, 51.345183225166366 ], [ -0.125899463430355, 51.345238177570167 ], [ -0.125578681023252, 51.345251032933795 ], [ -0.124810097152511, 51.34529368030924 ], [ -0.120692282583836, 51.345529049104606 ], [ -0.119219168471777, 51.345593544809141 ], [ -0.118905311764295, 51.345509396773743 ], [ -0.118809230940654, 51.345612144385349 ], [ -0.118637983359422, 51.345795498839983 ], [ -0.118384858281522, 51.345630510974487 ], [ -0.117287214051158, 51.345679408074467 ], [ -0.117221949449041, 51.345694541882239 ], [ -0.116893567125266, 51.345753994578061 ], [ -0.116965759298075, 51.346656259362945 ], [ -0.117339636178866, 51.346642489845642 ], [ -0.117348941750914, 51.346695682579089 ], [ -0.117530775026944, 51.347621286513061 ], [ -0.117877210890259, 51.348699764708634 ], [ -0.117997424197739, 51.349129728083732 ], [ -0.118135887413998, 51.349501547244081 ], [ -0.118264363348673, 51.350045011393007 ], [ -0.118349078362858, 51.350607548458662 ], [ -0.118493336119624, 51.351257340174428 ], [ -0.118707668476886, 51.35202063400186 ], [ -0.118984502984159, 51.352764342526335 ], [ -0.119074184447753, 51.353067044199079 ], [ -0.119089673963763, 51.353142810736692 ], [ -0.120152202217507, 51.353044681723865 ], [ -0.120285231816819, 51.353477627438458 ], [ -0.120496898506145, 51.354168056019049 ], [ -0.120706514006642, 51.355186686227945 ], [ -0.120965260931928, 51.356130585540704 ], [ -0.121403970722021, 51.357730241836855 ], [ -0.124171063793627, 51.35743013042535 ], [ -0.124253527686707, 51.35759156705641 ], [ -0.124548529479921, 51.358354348850632 ], [ -0.124510176861454, 51.358377110071622 ], [ -0.124492575783639, 51.358387616847494 ], [ -0.124678174636166, 51.358836684804047 ], [ -0.124689901164241, 51.358865641316612 ], [ -0.123431525699081, 51.359151261684275 ], [ -0.123313180176181, 51.358917329588671 ], [ -0.121894114755028, 51.359057416379478 ], [ -0.121834999760427, 51.359063661466024 ], [ -0.122695850285196, 51.359649318246461 ], [ -0.122903140225321, 51.359917938987536 ], [ -0.122409414522295, 51.359978357965936 ], [ -0.12236611306896, 51.359983058554363 ], [ -0.122332786081151, 51.359920492241869 ], [ -0.121875068084755, 51.359977889613965 ], [ -0.12181445820926, 51.35998590878674 ], [ -0.12197701277567, 51.360505630467316 ], [ -0.121983424236798, 51.360525511661351 ], [ -0.121881764375496, 51.360552651721903 ], [ -0.122028103105943, 51.360979514237535 ], [ -0.121434638960374, 51.361054513703543 ], [ -0.12135521695533, 51.361064928246151 ], [ -0.121454857340448, 51.36129856251641 ], [ -0.121318467702874, 51.361505848941235 ], [ -0.121556043453145, 51.362125665713613 ], [ -0.121451759795489, 51.362147369230797 ], [ -0.121370540027196, 51.36216404813058 ], [ -0.121328591409913, 51.362173265127154 ], [ -0.121404200204067, 51.362325602322407 ], [ -0.121412325986698, 51.362338318840521 ], [ -0.121087205578862, 51.362523790890542 ], [ -0.121167120882478, 51.362782191905758 ], [ -0.121221096518687, 51.363008801283044 ], [ -0.121251165962258, 51.363116266754169 ], [ -0.120902827936396, 51.363310356410189 ], [ -0.121276943357496, 51.364732760862275 ], [ -0.121447362740682, 51.36471301631893 ], [ -0.121439731054771, 51.364653468713691 ], [ -0.121436454131483, 51.364626445561754 ], [ -0.121502833154963, 51.364619418040512 ], [ -0.122326706194936, 51.364530128386029 ], [ -0.122345518210436, 51.364527732630464 ], [ -0.122380305391593, 51.364589423252518 ], [ -0.122470986358975, 51.364726717722696 ], [ -0.122651381169199, 51.364848277532325 ], [ -0.123039251100928, 51.365057756978814 ], [ -0.123446073627921, 51.36519193082384 ], [ -0.124038954687368, 51.365271543389113 ], [ -0.124066055217416, 51.365347494830573 ], [ -0.124082845016824, 51.365394602500487 ], [ -0.123044371915701, 51.365601836689713 ], [ -0.122069050514846, 51.365808365188563 ], [ -0.122079620894975, 51.365937993562895 ], [ -0.122073601827753, 51.366258937590771 ], [ -0.122102269726048, 51.36654267836272 ], [ -0.122195527586602, 51.366932729087779 ], [ -0.122305856139214, 51.367290597458506 ], [ -0.122344828170715, 51.367391910953856 ], [ -0.122465211633937, 51.36764295509618 ], [ -0.122492738771154, 51.367743186225987 ], [ -0.122577293879509, 51.367888472087081 ], [ -0.122652403518966, 51.368053294973897 ], [ -0.122668803911309, 51.368179419201667 ], [ -0.122890419084986, 51.369013923979267 ], [ -0.122999278689288, 51.369549859382978 ], [ -0.123062407464113, 51.369692014831571 ], [ -0.12317667744438, 51.369953748325585 ], [ -0.123245490842833, 51.370240825339941 ], [ -0.123260770595827, 51.370321980931621 ], [ -0.123277438743659, 51.370406844690166 ], [ -0.123334813716977, 51.370550705871729 ], [ -0.123330454598043, 51.370622556971661 ], [ -0.123260507977122, 51.370678973994153 ], [ -0.123268359566228, 51.370875173971164 ], [ -0.12326123644473, 51.370907424339229 ], [ -0.123267123314892, 51.370974944395449 ], [ -0.123280828284307, 51.371097519167272 ], [ -0.123314408740736, 51.371188856808047 ], [ -0.123556941673208, 51.371442753782581 ], [ -0.123646555075178, 51.371534089112117 ], [ -0.124206153463973, 51.372256139086879 ], [ -0.124699109543549, 51.372884522144339 ], [ -0.124748344937785, 51.372946532273517 ], [ -0.12465005138109, 51.372960243225961 ], [ -0.124505493074792, 51.372981305109384 ], [ -0.124541122511115, 51.373199435585093 ], [ -0.124576711873069, 51.37341855431012 ], [ -0.124719154550474, 51.373660958417936 ], [ -0.125026203512663, 51.373777346500937 ], [ -0.125745407835099, 51.374003799298336 ], [ -0.126513385313813, 51.374303846790852 ], [ -0.127739257528681, 51.374719982287097 ], [ -0.127746287745245, 51.374721892570896 ], [ -0.127824192358825, 51.374749207869442 ], [ -0.127165414748055, 51.374838476636619 ], [ -0.126648161422525, 51.374908516766965 ], [ -0.126822228249458, 51.375430116434728 ], [ -0.12684026131701, 51.375481737994569 ], [ -0.126303877222675, 51.375492046474029 ], [ -0.126206055550484, 51.375494079184286 ], [ -0.125944409641984, 51.375568111187391 ], [ -0.125924217579869, 51.375572283485972 ], [ -0.125807899202724, 51.375603687550495 ], [ -0.12603889242166, 51.376071358962761 ], [ -0.126115415905213, 51.376059995874726 ], [ -0.126200810671606, 51.376046077485327 ], [ -0.126203432022414, 51.376051513439606 ], [ -0.126536254206506, 51.376662944531084 ], [ -0.126620925531532, 51.376913413063441 ], [ -0.126693767317158, 51.377064801430038 ], [ -0.126751848266105, 51.377188893719421 ], [ -0.126934078197247, 51.377336545541503 ], [ -0.127037853828104, 51.37761249114245 ], [ -0.127291894095758, 51.37839266376713 ], [ -0.127555726458367, 51.379145032778943 ], [ -0.127773121032804, 51.379734837875219 ], [ -0.12786333222187, 51.380024051014892 ], [ -0.127938428588024, 51.380262678241621 ], [ -0.128053815942035, 51.380498262679069 ], [ -0.128216397901136, 51.380669062593547 ], [ -0.128623735869102, 51.380971427829962 ], [ -0.129628797670534, 51.381731122967487 ], [ -0.130258947190793, 51.382207038180525 ], [ -0.13027145124179, 51.382217126638977 ], [ -0.130277106932793, 51.382220812847613 ], [ -0.129109485469372, 51.382413456853378 ], [ -0.128632005786225, 51.382494030712579 ], [ -0.128770667271287, 51.382722793550293 ], [ -0.128870120665442, 51.382997768915381 ], [ -0.128970235097485, 51.38339600873055 ], [ -0.129028069524655, 51.383424800727774 ], [ -0.129081389463133, 51.383738596136823 ], [ -0.129321368992983, 51.384652502693108 ], [ -0.129412620736119, 51.384916472651938 ], [ -0.129509724016143, 51.385286800191203 ], [ -0.129437230249692, 51.385405213810351 ], [ -0.129235457057395, 51.385419076733641 ], [ -0.129148522570164, 51.385438367435746 ], [ -0.129109277534489, 51.385447630609249 ], [ -0.128914571694196, 51.385500263681656 ], [ -0.128825914079458, 51.385524021772071 ], [ -0.12873599518684, 51.385651237122289 ], [ -0.128822489165996, 51.385680486872531 ], [ -0.129761111876231, 51.385994024076204 ], [ -0.130638305755031, 51.386262522189206 ], [ -0.130560035143609, 51.386313417796501 ], [ -0.130193775702392, 51.386554000758288 ], [ -0.129955906706608, 51.386714729081767 ], [ -0.129750432181159, 51.386923711585759 ], [ -0.12954124611583, 51.387119059367663 ], [ -0.129468185257102, 51.387184511655832 ], [ -0.12969702206001, 51.387352681969233 ], [ -0.129888589735766, 51.387481689525721 ], [ -0.13013253726197, 51.387633917440141 ], [ -0.130783040600431, 51.388068713972494 ], [ -0.131115344069358, 51.388274580772517 ], [ -0.131127922923147, 51.388282872383037 ], [ -0.131845701481464, 51.388727724464047 ], [ -0.131848386538001, 51.388766514980375 ], [ -0.132054315333762, 51.38886329270138 ], [ -0.132419409255859, 51.389111032483619 ], [ -0.132881841053288, 51.389366523678419 ], [ -0.133235166385847, 51.389548444925374 ], [ -0.133040894857684, 51.389729741747416 ], [ -0.13263926725949, 51.390099228510593 ], [ -0.132609316817029, 51.390127520321876 ], [ -0.132687029837258, 51.390160223130017 ], [ -0.1328115754617, 51.390209853710999 ], [ -0.132991143094109, 51.390281936364048 ], [ -0.133461987485869, 51.390473818222844 ], [ -0.133966239202637, 51.390692301020181 ], [ -0.134156859753475, 51.390775345801792 ], [ -0.134366083881547, 51.390861383179057 ], [ -0.134377389127209, 51.390866058068212 ], [ -0.134353608260069, 51.390885458246331 ], [ -0.134294156002955, 51.390933958671745 ], [ -0.134259905800653, 51.390963081517675 ], [ -0.134046705355387, 51.391114411373948 ], [ -0.133912779261743, 51.391193192602238 ], [ -0.133773077289129, 51.39126828573059 ], [ -0.133515429701298, 51.391384744903078 ], [ -0.133287799974992, 51.391468327640219 ], [ -0.132055879671554, 51.391999996224875 ], [ -0.130225951253046, 51.392742387728845 ], [ -0.129557007328937, 51.393036583851611 ], [ -0.128731038356322, 51.393481195791381 ], [ -0.12887751268978, 51.393484431290801 ], [ -0.129093689978199, 51.393469898738374 ], [ -0.12950416579422, 51.393590621185069 ], [ -0.129664200910352, 51.393650710685769 ], [ -0.129344976617425, 51.393829112024825 ], [ -0.128576245861774, 51.394314102587522 ], [ -0.127884876673868, 51.394735682435346 ], [ -0.127077640134204, 51.39531813177809 ], [ -0.126415862971563, 51.395858756418797 ], [ -0.125163867626045, 51.396872991160535 ], [ -0.124496616792006, 51.397407223340743 ], [ -0.124326127212163, 51.397498085669476 ], [ -0.124125679673165, 51.397617147527797 ], [ -0.124519511988522, 51.397829412111832 ], [ -0.124394403324774, 51.397937991702918 ], [ -0.124464603347663, 51.397977772322477 ], [ -0.124610680742226, 51.398095273181681 ], [ -0.124752119759806, 51.398152375112396 ], [ -0.124988108710333, 51.398219079604686 ], [ -0.125251738870034, 51.398273639085787 ], [ -0.125698788053642, 51.398309552514526 ], [ -0.125667843105709, 51.398364797605836 ], [ -0.125470674240057, 51.398722335710794 ], [ -0.125408411692674, 51.398801353888018 ], [ -0.125391701274527, 51.398824461475328 ], [ -0.125370350638834, 51.39885378807444 ], [ -0.125360771628954, 51.398911172603654 ], [ -0.125353247290611, 51.398956003614813 ], [ -0.125412090457412, 51.399027157979532 ], [ -0.125619687729531, 51.399260626258346 ], [ -0.125891486752048, 51.399573425198696 ], [ -0.126116396499978, 51.399838725095449 ], [ -0.126196482248528, 51.399920916891325 ], [ -0.126286662043976, 51.399999763694083 ], [ -0.126498985372447, 51.400187455731441 ], [ -0.126622020646686, 51.400306384243606 ], [ -0.126734349628435, 51.400408869271786 ], [ -0.127008481034094, 51.400665064162034 ], [ -0.127193413909671, 51.400853216301108 ], [ -0.127484287540873, 51.401158224750894 ], [ -0.127615132352756, 51.401335713451438 ], [ -0.127691759900885, 51.401395373402686 ], [ -0.127761308328867, 51.401451324203485 ], [ -0.127743801093603, 51.401459135935873 ], [ -0.127711511216056, 51.401474802888849 ], [ -0.12796399659195, 51.401698285408351 ], [ -0.127985483259521, 51.40170042644138 ], [ -0.128008354771628, 51.401703488600809 ], [ -0.128244706537302, 51.401866388533307 ], [ -0.128310758616348, 51.401903493648732 ], [ -0.128464549063317, 51.402079459927833 ], [ -0.128623022994332, 51.402213336508048 ], [ -0.128855363214967, 51.402367181181482 ], [ -0.12922762931147, 51.402580885350382 ], [ -0.1294032235995, 51.402681680327134 ], [ -0.130455319667604, 51.403256034945422 ], [ -0.130480338868856, 51.403276212431201 ], [ -0.130500763419235, 51.403304407906035 ], [ -0.130595395649069, 51.403486621087794 ], [ -0.130608912245106, 51.403541767145811 ], [ -0.130652238443397, 51.40360718783127 ], [ -0.130885758368909, 51.403805100349942 ], [ -0.131144120751692, 51.40399271002299 ], [ -0.131189932355826, 51.404032098372937 ], [ -0.131253582638024, 51.404093347684629 ], [ -0.131288661433664, 51.404148837357702 ], [ -0.131303143884973, 51.404183231231535 ], [ -0.131507233874376, 51.404925664632017 ], [ -0.131525130451994, 51.404978093467584 ], [ -0.131381536838402, 51.405010867135026 ], [ -0.131416962320407, 51.405200317504935 ], [ -0.131455145562602, 51.405249473552907 ], [ -0.131474699468199, 51.405264169632709 ], [ -0.131642173256502, 51.405352246216836 ], [ -0.132292578115735, 51.406927368629766 ], [ -0.132455161404982, 51.40840661349673 ], [ -0.132233109321631, 51.408421056058017 ], [ -0.132231687568321, 51.408421033403513 ], [ -0.131929693722909, 51.408456677247209 ], [ -0.131982137728487, 51.408792940415502 ], [ -0.132016564309378, 51.408902361340274 ], [ -0.132025500259716, 51.408930373606069 ], [ -0.132047485059744, 51.409025121871359 ], [ -0.132063154484217, 51.409170115040077 ], [ -0.131290559543185, 51.409215427727482 ], [ -0.131288844767775, 51.409222592604849 ], [ -0.131259969190994, 51.409506314662622 ], [ -0.130930504566279, 51.409511849674395 ], [ -0.130486572734357, 51.409536235643884 ], [ -0.13047482347102, 51.40954234142432 ], [ -0.12945259363307, 51.409574579471091 ], [ -0.129452791161471, 51.409851572362832 ], [ -0.129331470402167, 51.409864020510597 ], [ -0.129145926632142, 51.410076015935886 ], [ -0.128916551481749, 51.410377123850061 ], [ -0.128735929226086, 51.410610773605171 ], [ -0.128582133969816, 51.41078551574077 ], [ -0.128614669217757, 51.410833683549413 ], [ -0.128517552816656, 51.410921136245626 ], [ -0.128496281577561, 51.410951363411939 ], [ -0.128454920205115, 51.411011926492414 ], [ -0.128296322336215, 51.410987727271106 ], [ -0.128201570923433, 51.410947555991676 ], [ -0.128167641901282, 51.410933528744138 ], [ -0.128015136241139, 51.411218870547231 ], [ -0.127783647883512, 51.411850063425952 ], [ -0.12770077740149, 51.412012451727726 ], [ -0.127589409747614, 51.412204861536956 ], [ -0.127508776760968, 51.412312444955177 ], [ -0.127725812215058, 51.412316811596078 ], [ -0.127402223751399, 51.412491446092361 ], [ -0.127313265093897, 51.412524187457223 ], [ -0.126835841426608, 51.412700047842591 ], [ -0.126589081063734, 51.412790500696353 ], [ -0.126245613808608, 51.412926245808485 ], [ -0.126233936576551, 51.412930554207279 ], [ -0.126204456030134, 51.412912102376247 ], [ -0.12599271945135, 51.412780965512951 ], [ -0.125760031485693, 51.412631602696202 ], [ -0.125650968792609, 51.412767408724626 ], [ -0.125563136385228, 51.41291173530557 ], [ -0.124912027393435, 51.413289785935959 ], [ -0.124910568741441, 51.413290661617076 ], [ -0.124471987776627, 51.413360059769701 ], [ -0.124441551829241, 51.413364966764725 ], [ -0.124482964351002, 51.413477198062367 ], [ -0.124521904551078, 51.413580309672348 ], [ -0.124502064449568, 51.413679783448863 ], [ -0.124469861167741, 51.413832191469375 ], [ -0.124432778786021, 51.41400241188709 ], [ -0.124367897627035, 51.414005868492801 ], [ -0.12428468021249, 51.414176339286612 ], [ -0.124166306408592, 51.414397491363147 ], [ -0.124048421344193, 51.414609570983984 ], [ -0.123889237831568, 51.414631295940623 ], [ -0.123649788192458, 51.414649937349083 ], [ -0.123379664354184, 51.414714026912982 ], [ -0.123096804659008, 51.41491537190501 ], [ -0.122989993149453, 51.415030623366015 ], [ -0.122967433464889, 51.415054535501319 ], [ -0.122556923353307, 51.415034473403587 ], [ -0.122455045686733, 51.415029244917434 ], [ -0.122468418035429, 51.415194878681774 ], [ -0.122505657355433, 51.415232335166365 ], [ -0.122478279390815, 51.415269655270855 ], [ -0.12245546169173, 51.415299856288811 ], [ -0.122248481701746, 51.415506999767253 ], [ -0.122179783664804, 51.415568830109109 ], [ -0.121910180349282, 51.415796545658907 ], [ -0.121677731241853, 51.415994289481759 ], [ -0.121577822954973, 51.416186875703517 ], [ -0.12154819984729, 51.416241330780032 ], [ -0.121458870032408, 51.416352275813345 ], [ -0.121308170068191, 51.416519773860806 ], [ -0.12118600939293, 51.41665635360544 ], [ -0.12110911557675, 51.416779184947515 ], [ -0.121024598490308, 51.416876811371587 ], [ -0.12094228029426, 51.416955503716174 ], [ -0.120895919042329, 51.416998812004472 ], [ -0.120830642917777, 51.416977087639196 ], [ -0.120745693250607, 51.417047646460162 ], [ -0.120769744011162, 51.41705971945882 ], [ -0.120826480169041, 51.417078609833631 ], [ -0.120820452591009, 51.417083907258736 ], [ -0.120823341437382, 51.417085751628989 ], [ -0.120760364000013, 51.41714677368212 ], [ -0.120658139392767, 51.417254005071825 ], [ -0.120447320005974, 51.417557278520761 ], [ -0.120308590336712, 51.417782594529321 ], [ -0.120202638574342, 51.418018235591525 ], [ -0.120107071829235, 51.418174120402185 ], [ -0.120026842081772, 51.418305887822918 ], [ -0.119996005763449, 51.418566198375892 ], [ -0.119820700233472, 51.418807109164135 ], [ -0.119481210131376, 51.418985959298858 ], [ -0.119069669844931, 51.419166438673678 ], [ -0.118841023254124, 51.419267952788239 ], [ -0.118426449388026, 51.419452876262795 ], [ -0.118344065185884, 51.419498302095697 ], [ -0.118208639157842, 51.419573442362221 ], [ -0.118082339940315, 51.419637131260679 ], [ -0.117821559600823, 51.419787571845205 ], [ -0.117756956238486, 51.419821595336813 ], [ -0.117720356561327, 51.419800329703094 ], [ -0.117081875094786, 51.420077842490407 ], [ -0.11689966992143, 51.420136945340992 ], [ -0.11653342624247, 51.420265099822693 ], [ -0.116140510364049, 51.420375652893895 ], [ -0.115882017116467, 51.420473083885319 ], [ -0.115689233175666, 51.420578853561153 ], [ -0.115568065715409, 51.420656017716588 ], [ -0.115422676794003, 51.4208002184089 ], [ -0.115356193389811, 51.420842391407959 ], [ -0.115301116322303, 51.420921517787555 ], [ -0.114828351393812, 51.421225958509133 ], [ -0.11484622610849, 51.421246923650436 ], [ -0.114554596896034, 51.421518317925873 ], [ -0.114510384864281, 51.421612902164455 ], [ -0.114486782707134, 51.421661968228655 ], [ -0.114466643300124, 51.421664341061387 ], [ -0.114436311865281, 51.421666549806545 ], [ -0.114430467815841, 51.421667354740023 ], [ -0.114195000781323, 51.421936955235012 ], [ -0.114104738245157, 51.422035292931717 ], [ -0.114056414673113, 51.422088545836338 ], [ -0.113960415578832, 51.422254217453059 ], [ -0.113934079084802, 51.422300542318361 ], [ -0.113796920726637, 51.422454852663279 ], [ -0.113269235561735, 51.422764695815125 ], [ -0.113000970090443, 51.42292039931813 ], [ -0.112727642207814, 51.423132748720661 ], [ -0.112686195130883, 51.423229174868759 ], [ -0.112659729639315, 51.423244031717616 ], [ -0.112027009736436, 51.42320416656495 ], [ -0.111498888591474, 51.423175873812745 ], [ -0.110878948258676, 51.423142501638118 ], [ -0.110465269996481, 51.423128636332862 ], [ -0.110041532373624, 51.423148769963731 ], [ -0.109914809628921, 51.423150321090816 ], [ -0.109824152639432, 51.423151555114728 ], [ -0.10957746208513, 51.423169150095653 ], [ -0.109347875648313, 51.423157353033538 ], [ -0.10918613238177, 51.423136761587116 ], [ -0.108662365655186, 51.423037503810711 ], [ -0.107861210998769, 51.422863549314179 ], [ -0.106994941942891, 51.422698516004949 ], [ -0.106489197955566, 51.422613924054239 ], [ -0.106159702511057, 51.422583424071981 ], [ -0.106029049006256, 51.422576816250491 ], [ -0.105961459057532, 51.422576622253999 ], [ -0.105771681487177, 51.422574452118639 ], [ -0.105089948298213, 51.422607476295752 ], [ -0.10459099260081, 51.422639858510394 ], [ -0.104202339692569, 51.422646154468147 ], [ -0.100747478000234, 51.42257759642203 ], [ -0.100118567603663, 51.422583579855861 ], [ -0.098786909860804, 51.422577256788067 ], [ -0.098362869101475, 51.42257037345987 ], [ -0.09808224952486, 51.422573908587985 ], [ -0.097784109837212, 51.422585249716747 ], [ -0.09748697525743, 51.422603798581193 ], [ -0.09720984509398, 51.422628964802485 ], [ -0.096880246050759, 51.422666763229884 ], [ -0.09616016581907, 51.422757640086509 ], [ -0.095623120512244, 51.422773183681336 ], [ -0.094813644251384, 51.422797779428691 ], [ -0.09456560283876, 51.422813523303432 ], [ -0.094320853970819, 51.422818531960779 ], [ -0.094075206070601, 51.422810939174305 ], [ -0.093893106155056, 51.422798086829737 ], [ -0.093618358858451, 51.42276304889878 ], [ -0.093408625746272, 51.422724573449337 ], [ -0.093180613939011, 51.422672224834749 ], [ -0.092982782378046, 51.422621356046243 ], [ -0.092708559384905, 51.422539575344821 ], [ -0.092282008992841, 51.422353723695238 ], [ -0.092114845546415, 51.422221451951991 ], [ -0.091743080462015, 51.421927618983588 ], [ -0.091369033825083, 51.421722840723184 ], [ -0.091075612113187, 51.421584014925557 ], [ -0.090816973975956, 51.421472815904515 ], [ -0.090171466330005, 51.421225759901645 ], [ -0.090018166591058, 51.421176511079587 ], [ -0.08988366650474, 51.421125770580367 ], [ -0.089788966675445, 51.421084669228307 ], [ -0.089694651456654, 51.421037191006526 ], [ -0.089558313161583, 51.420959449451992 ], [ -0.089341548569772, 51.420811171062155 ], [ -0.089021899005709, 51.420545149845623 ], [ -0.088426336674707, 51.420065062763655 ], [ -0.088164572189262, 51.41992683595204 ], [ -0.087985028952914, 51.419850185315248 ], [ -0.087738697977501, 51.419757070732011 ], [ -0.086944913442395, 51.419477997633422 ], [ -0.086800840472703, 51.419415319913888 ], [ -0.08659359554865, 51.419349002888069 ], [ -0.086399870759559, 51.419305381975676 ], [ -0.086159485550969, 51.419274483694359 ], [ -0.086053375282567, 51.419268254722319 ], [ -0.085837585865207, 51.419267425478978 ], [ -0.085513219156607, 51.419288195805358 ], [ -0.084985599354141, 51.419351492537103 ], [ -0.083869453485177, 51.419558982832648 ], [ -0.08330819339433, 51.419669369627655 ], [ -0.082861288372918, 51.419727774053733 ], [ -0.082851140245701, 51.419729405994303 ], [ -0.082320145680282, 51.419771058591678 ], [ -0.08171704362875, 51.419747697001014 ], [ -0.080569257364139, 51.419679446170612 ], [ -0.080266153613393, 51.419670882374206 ], [ -0.080066203671666, 51.419671200989143 ], [ -0.079688847529771, 51.419685692217662 ], [ -0.079299011586068, 51.419720655200493 ], [ -0.079077710452925, 51.41974939085933 ], [ -0.078648811639956, 51.419825066284979 ], [ -0.078522771451229, 51.419847272333982 ], [ -0.07843030299334, 51.419790015610062 ], [ -0.078503219111456, 51.41973097704394 ], [ -0.078650176987369, 51.419622807552784 ], [ -0.078853721596663, 51.419466029692131 ], [ -0.079269609836006, 51.419151808173019 ], [ -0.079516638586833, 51.418956185176803 ], [ -0.079632666718267, 51.418830425868819 ], [ -0.079822070947309, 51.418600593439606 ], [ -0.080031922447562, 51.418327043630313 ], [ -0.080204136196033, 51.418097018751411 ], [ -0.080385959240599, 51.417909315506556 ], [ -0.080429590683459, 51.417864180283914 ], [ -0.080785046693375, 51.417619087454185 ], [ -0.080909748396094, 51.417526733135716 ], [ -0.080969967069386, 51.417462090950565 ], [ -0.081064168614984, 51.417308013007492 ], [ -0.081086128608845, 51.417194196463754 ], [ -0.081047199307484, 51.417163891164158 ], [ -0.080967798705396, 51.41710046855782 ], [ -0.080927221857751, 51.417075530393532 ], [ -0.08094660301526, 51.416955380618738 ], [ -0.080905556854156, 51.416664237832968 ], [ -0.080817626226609, 51.416258152357265 ], [ -0.080737185253273, 51.416015809369235 ], [ -0.080472964785019, 51.415696735136599 ], [ -0.080400565920047, 51.415638910708161 ], [ -0.080443601926078, 51.415573988366475 ], [ -0.080449628433626, 51.415565996054973 ], [ -0.080390184210493, 51.415544254490534 ], [ -0.080102441293643, 51.415444242174843 ], [ -0.079699349638344, 51.415315367259687 ], [ -0.079377231746422, 51.415246254725794 ], [ -0.079010941683449, 51.415167336620506 ], [ -0.078077176748061, 51.414938049786826 ], [ -0.077929984570896, 51.414882502181264 ], [ -0.0776388571538, 51.414724890931161 ], [ -0.077292810710297, 51.414576266260603 ], [ -0.076852876597996, 51.414401735217709 ], [ -0.076730232752472, 51.414377245514586 ], [ -0.076617838217602, 51.414382591509913 ], [ -0.076501866735455, 51.414436425430061 ], [ -0.076397239339898, 51.414395150045436 ], [ -0.076003345619691, 51.414152147735827 ], [ -0.075877160334764, 51.414073657979849 ], [ -0.075725510073476, 51.414019922012088 ], [ -0.075680365819426, 51.413999401769964 ], [ -0.075541610923732, 51.413915310936957 ], [ -0.07548400269424, 51.413881010620898 ], [ -0.075302684221026, 51.413782734642851 ], [ -0.075150519389397, 51.413707413008659 ], [ -0.075006627360023, 51.413641217321761 ], [ -0.075018498241657, 51.413632422322074 ], [ -0.075150352340929, 51.413539204372022 ], [ -0.074430298489292, 51.413222508432121 ], [ -0.074099805478596, 51.413079523150522 ], [ -0.073901898121082, 51.41299805315824 ], [ -0.073745610363176, 51.412953228222847 ], [ -0.073653071537148, 51.41292914040838 ], [ -0.073628927459751, 51.412922450047816 ], [ -0.073631306709633, 51.412865851091006 ], [ -0.073315837943204, 51.412811214288553 ], [ -0.072731172701663, 51.412692810513349 ], [ -0.072882067460044, 51.4123526784173 ], [ -0.072991608726002, 51.412073897828911 ], [ -0.073159131939768, 51.411716058867391 ], [ -0.073300437648201, 51.411465670464089 ], [ -0.073428896833026, 51.411148543221017 ], [ -0.073464227777551, 51.411058323830979 ], [ -0.073486701011597, 51.410831152224276 ], [ -0.073517687490108, 51.410471965077669 ], [ -0.073499455908392, 51.410084907515447 ], [ -0.073413382393548, 51.409599729324114 ], [ -0.07326621467382, 51.409236710866686 ], [ -0.073180397911298, 51.409089567416039 ], [ -0.073012446770424, 51.408738794306636 ], [ -0.072834695718806, 51.408485854549639 ], [ -0.072830732874315, 51.408478597261009 ], [ -0.072610936363707, 51.408233145780905 ], [ -0.072293778390056, 51.407912281997191 ], [ -0.071924397831586, 51.407601345032269 ], [ -0.071497217180273, 51.407294848427249 ], [ -0.071011620043855, 51.406979296249432 ], [ -0.070609844577114, 51.406652537485236 ], [ -0.070183662824313, 51.406255162204495 ], [ -0.069744582581188, 51.405756074347508 ], [ -0.069653039217643, 51.405641199601078 ], [ -0.069600939296156, 51.405546843431217 ], [ -0.069500749610848, 51.405434612846932 ], [ -0.06936719930745, 51.405258811352859 ], [ -0.069224397332428, 51.405100028098694 ], [ -0.06920370253517, 51.405011583846864 ], [ -0.069193590185255, 51.404877374838158 ], [ -0.068949731423148, 51.404624236084857 ], [ -0.068954900828856, 51.404535319511723 ], [ -0.068978156130023, 51.404357609587827 ], [ -0.068902147131065, 51.404251171363022 ], [ -0.068879143955682, 51.404217528458204 ], [ -0.068886711066816, 51.404209562244134 ], [ -0.06891685612528, 51.404174998321245 ], [ -0.068715008466147, 51.403982785690275 ], [ -0.068662268514266, 51.403903701534965 ], [ -0.068571530892818, 51.403840172402212 ], [ -0.0685072451709, 51.403795958966029 ], [ -0.068287504006274, 51.40362053131404 ], [ -0.068281565220364, 51.403589866965092 ], [ -0.068253313518211, 51.403579511514138 ], [ -0.068203554749504, 51.403598468492156 ], [ -0.068143122572101, 51.403566904767494 ], [ -0.068131896660894, 51.403560426419055 ], [ -0.068113633807095, 51.403549336876686 ], [ -0.068178559836067, 51.403510852046438 ], [ -0.068216746944237, 51.403490805082832 ], [ -0.068105606634656, 51.403433232148089 ], [ -0.068074754580849, 51.403448006086712 ], [ -0.068011785188673, 51.403476634048864 ], [ -0.067999057160378, 51.403469231881232 ], [ -0.06774420224352, 51.403308507278041 ], [ -0.067580459064663, 51.403202417815656 ], [ -0.067324849233259, 51.403059659849788 ], [ -0.067172807806177, 51.402982531266062 ], [ -0.067053401057657, 51.402915830539342 ], [ -0.066986236870466, 51.402872467779275 ], [ -0.066903539914454, 51.402820757326076 ], [ -0.066792065447269, 51.402771178606912 ], [ -0.06662288671939, 51.402692867105017 ], [ -0.066381745313216, 51.402581002002307 ], [ -0.066205815687805, 51.402525053574067 ], [ -0.066031535457371, 51.402463738033738 ], [ -0.065809477166859, 51.402377269368905 ], [ -0.065559975626919, 51.402292234556327 ], [ -0.065096057281982, 51.402178482056023 ], [ -0.064908336564479, 51.402129528640685 ], [ -0.064473646094676, 51.402039541202917 ], [ -0.06455939342243, 51.401847671202624 ], [ -0.064613665007317, 51.401719020764624 ], [ -0.063951552215495, 51.401636147896355 ], [ -0.063773431006095, 51.401564875855627 ], [ -0.06375333095765, 51.401563644282369 ], [ -0.063427631419018, 51.401548365884402 ], [ -0.062907706970972, 51.401534366902716 ], [ -0.0621601325967, 51.401532778491614 ], [ -0.060688537965498, 51.400090201235869 ], [ -0.06015237267317, 51.399547210211431 ], [ -0.060688814594344, 51.399268328284343 ], [ -0.060701026661894, 51.399251449442239 ], [ -0.060559825596426, 51.39912315737304 ], [ -0.060298760726084, 51.399244781611479 ], [ -0.059387026392924, 51.399252139212251 ], [ -0.059239843974314, 51.399332407372569 ], [ -0.058831699059675, 51.399601724363194 ], [ -0.058192653778765, 51.399923846557982 ], [ -0.057439015832372, 51.400270134817731 ], [ -0.05682816234118, 51.40050281677189 ], [ -0.056080910547229, 51.400698080170883 ], [ -0.055698052734788, 51.400842845701106 ], [ -0.055234562202096, 51.40095741137845 ], [ -0.054640750704933, 51.401061807651267 ], [ -0.053931422927863, 51.401175877583924 ], [ -0.053540767898251, 51.401233211412979 ], [ -0.053207182598627, 51.401303270703636 ], [ -0.052964585521844, 51.401461059907547 ], [ -0.052451184724748, 51.400992123676787 ], [ -0.051907540345417, 51.400487529283659 ], [ -0.051468557641801, 51.399991875443412 ], [ -0.051115053356016, 51.399819679431637 ], [ -0.050628575325127, 51.399563370152485 ], [ -0.052104461383962, 51.398291174274313 ], [ -0.051365566902672, 51.397916481724295 ], [ -0.050833548243843, 51.397716953571667 ], [ -0.05044605965847, 51.398037842856276 ], [ -0.050321662727108, 51.397989024676534 ], [ -0.050798317653782, 51.397597696941958 ], [ -0.050952096113551, 51.397125391166881 ], [ -0.051785711396898, 51.396453123055068 ], [ -0.053401422277635, 51.395170685903508 ], [ -0.053253768943148, 51.395091812103438 ], [ -0.053483880623691, 51.394920242575942 ], [ -0.05320645428961, 51.39478526798414 ], [ -0.053111988207793, 51.394843930148383 ], [ -0.052593390107451, 51.39463023127098 ], [ -0.052613706201662, 51.394592810623386 ], [ -0.052591405862396, 51.39454299323797 ], [ -0.052507703124847, 51.394348220375747 ], [ -0.052425265886104, 51.39415715447182 ], [ -0.052026021673019, 51.394080382825692 ], [ -0.051698938463393, 51.393995731584049 ], [ -0.051694169846018, 51.393700683203164 ], [ -0.051692178247459, 51.39358018114519 ], [ -0.051536270483836, 51.393628830082292 ], [ -0.051527777319016, 51.393625092816876 ], [ -0.051362256395741, 51.393495579249937 ], [ -0.050468391289971, 51.3933197013924 ], [ -0.050314237739037, 51.393296459960609 ], [ -0.049668879709085, 51.393227287540668 ], [ -0.049113570893413, 51.393270189952794 ], [ -0.048743216381208, 51.393258631332714 ], [ -0.04841908253988, 51.393241547938615 ], [ -0.048039840484969, 51.39316870567751 ], [ -0.047737814099535, 51.393036014798859 ], [ -0.047599040149115, 51.392852011239803 ], [ -0.047228984669728, 51.392326931874976 ], [ -0.047184251063095, 51.392264154167798 ], [ -0.046995446260779, 51.39203886239175 ], [ -0.046805299620112, 51.391845104209608 ], [ -0.046797040280682, 51.39183867352326 ], [ -0.046471983418513, 51.391977098354886 ], [ -0.046209647800196, 51.391995201403581 ], [ -0.046119172581513, 51.391823780694708 ], [ -0.045987008510381, 51.391618311814909 ], [ -0.045685891096953, 51.391297650220366 ], [ -0.045236810426146, 51.390908893309089 ], [ -0.044683497747323, 51.390502214471027 ], [ -0.043685456502134, 51.389872261661203 ], [ -0.043152972473834, 51.389619654471595 ], [ -0.042746209544856, 51.389450953554146 ], [ -0.042251468759637, 51.389322226476864 ], [ -0.041811751962512, 51.389251053779653 ], [ -0.041748365735898, 51.389289551305431 ], [ -0.041656933110178, 51.389343762412459 ], [ -0.041252982347578, 51.389242618906941 ], [ -0.041016585838687, 51.389191921040286 ], [ -0.040450245644517, 51.389091567610251 ], [ -0.039850861647234, 51.388957485914673 ], [ -0.039537470458367, 51.388856052811704 ], [ -0.039249984231662, 51.388858437448015 ], [ -0.039103569968795, 51.388854190812644 ], [ -0.03864488610532, 51.388824942562749 ], [ -0.03821586279399, 51.388739461836501 ], [ -0.037773622062441, 51.388694303364737 ], [ -0.037088962278325, 51.3885731650102 ], [ -0.03649861863348, 51.388460794321681 ], [ -0.036509341997766, 51.388412338004912 ], [ -0.036695793569382, 51.387582806299108 ], [ -0.037127109774974, 51.386031609612722 ], [ -0.037170022279021, 51.385867720829808 ], [ -0.037443504096041, 51.384850762909579 ], [ -0.037872019686551, 51.383231184677832 ], [ -0.037830112302142, 51.382565037468368 ], [ -0.037660558183339, 51.381589203850062 ], [ -0.037140818583573, 51.379863760744776 ], [ -0.036902376389307, 51.378953300186147 ], [ -0.036325478331534, 51.379002978803889 ], [ -0.036925194018686, 51.377009485761121 ], [ -0.036764793560831, 51.376995114412601 ], [ -0.036736985450118, 51.377041397489123 ], [ -0.03662275619776, 51.377025101608211 ], [ -0.03662621417504, 51.376944248698592 ], [ -0.036529306253777, 51.376924646594524 ], [ -0.036179857686822, 51.376898120079311 ], [ -0.035697508418557, 51.376884650419051 ], [ -0.034717913280017, 51.376942861846501 ], [ -0.033359804728428, 51.377047764433236 ], [ -0.032615929975235, 51.377104606768746 ], [ -0.031321692170297, 51.377159313051358 ], [ -0.031316009272067, 51.377159217696274 ], [ -0.031213995252402, 51.377159303935784 ], [ -0.031113324918189, 51.377161210645191 ], [ -0.031011195332159, 51.377163991783746 ], [ -0.030910370889719, 51.377169491751793 ], [ -0.03080950790222, 51.377175889990177 ], [ -0.030708567836723, 51.377184084856687 ], [ -0.03060900993692, 51.377193201839852 ], [ -0.03050795421666, 51.377204091603623 ], [ -0.030409662840867, 51.377216825693147 ], [ -0.030309873623536, 51.377231332561685 ], [ -0.030211428005363, 51.377247659909372 ], [ -0.030146402374839, 51.377258255246197 ], [ -0.030076762134555, 51.377271470079968 ], [ -0.030007240253403, 51.377284686858196 ], [ -0.029937718337525, 51.37729790359311 ], [ -0.029869578572065, 51.377312042498353 ], [ -0.029801400226424, 51.377327079718789 ], [ -0.029733179442481, 51.377343105089821 ], [ -0.029666344654233, 51.377359962798892 ], [ -0.029599471275763, 51.377377718824015 ], [ -0.029534018581606, 51.377395498669053 ], [ -0.029468607137974, 51.377415077176437 ], [ -0.029404420880221, 51.377436474231139 ], [ -0.029341655300943, 51.377457895110751 ], [ -0.02928035169015, 51.377481138518867 ], [ -0.029219009470395, 51.37750528024786 ], [ -0.029158930977035, 51.37753034217419 ], [ -0.029147176830482, 51.377536437753534 ], [ -0.029079724700755, 51.377567668798562 ], [ -0.029015155238322, 51.377600746235402 ], [ -0.028951849475324, 51.377634743866743 ], [ -0.028891461080925, 51.377669779377271 ], [ -0.028830999338204, 51.377706521727518 ], [ -0.028773378986397, 51.377743311782467 ], [ -0.028717102165302, 51.377781922386376 ], [ -0.028662207435996, 51.377821455185561 ], [ -0.028608694798588, 51.377861910182027 ], [ -0.0285581033915, 51.377903313240424 ], [ -0.028507508045753, 51.377944806107593 ], [ -0.028485150178309, 51.377963309474261 ], [ -0.028447849358726, 51.377995945780377 ], [ -0.028411850842185, 51.378028603957482 ], [ -0.028377471248383, 51.378062188330837 ], [ -0.028343011783709, 51.378094872346772 ], [ -0.028308475133274, 51.378129353059656 ], [ -0.02827681850721, 51.378162983159065 ], [ -0.028245123267286, 51.378197511602188 ], [ -0.028214928559437, 51.378232964256703 ], [ -0.02818607088182, 51.37826763027023 ], [ -0.028160099778271, 51.378304052895572 ], [ -0.028134167211367, 51.378339577158272 ], [ -0.028109616789021, 51.378376023647057 ], [ -0.02808644851277, 51.378413392362901 ], [ -0.028066121717401, 51.378450808832369 ], [ -0.028047334046903, 51.378488251166885 ], [ -0.028031269471002, 51.378525739267971 ], [ -0.028015242257022, 51.378565115899654 ], [ -0.028006901334437, 51.378591046782013 ], [ -0.027995258622187, 51.378630407206337 ], [ -0.027984956834996, 51.378668891165276 ], [ -0.027977457983524, 51.378708321239792 ], [ -0.027970077516773, 51.378747753303081 ], [ -0.027965420174251, 51.378787231138659 ], [ -0.027962301988921, 51.378826734845582 ], [ -0.027962025335946, 51.378866286316033 ], [ -0.027961824643487, 51.378906827966084 ], [ -0.027964389530326, 51.378946427200326 ], [ -0.027968532168054, 51.378985153952591 ], [ -0.027973938608972, 51.379024800951022 ], [ -0.027980884229705, 51.379064473821792 ], [ -0.02801424257825, 51.379358199336224 ], [ -0.026794931531306, 51.379374556465002 ], [ -0.026795008728981, 51.379372759759711 ], [ -0.026743058890566, 51.379109287534057 ], [ -0.026668181666433, 51.378847227657211 ], [ -0.026607540028257, 51.378617861170476 ], [ -0.0265033685205, 51.378301368370998 ], [ -0.026393305151352, 51.377884897304298 ], [ -0.026183930148216, 51.377408410257246 ], [ -0.02612477949513, 51.377414607147074 ], [ -0.026078678220091, 51.377282577299667 ], [ -0.026025268727666, 51.377221355712763 ], [ -0.025985417398615, 51.37697975279557 ], [ -0.025945737143905, 51.376830660016495 ], [ -0.025910562186269, 51.376480266666732 ], [ -0.026125924621151, 51.376450626856027 ], [ -0.025889039079799, 51.376043798836193 ], [ -0.025839721521096, 51.376055555093075 ], [ -0.025795890702985, 51.37593965551455 ], [ -0.025659984595961, 51.375689154420982 ], [ -0.025447706962882, 51.375379919027218 ], [ -0.025376303062236, 51.375268947256508 ], [ -0.025172971351669, 51.375019104554383 ], [ -0.025110902596804, 51.374892197487135 ], [ -0.025080085873975, 51.374807171197844 ], [ -0.025034047448589, 51.374640887262444 ], [ -0.024989021954842, 51.374552924827398 ], [ -0.024959190926901, 51.374511067996728 ], [ -0.024379754133107, 51.373718002818535 ], [ -0.024243950435582, 51.373201390308417 ], [ -0.024158537235469, 51.372950835620919 ], [ -0.023917865204665, 51.372632938793544 ], [ -0.023566384881545, 51.372219679356007 ], [ -0.023593290549856, 51.371795618066884 ], [ -0.023617737894901, 51.371593751475515 ], [ -0.02371169856276, 51.371414541134776 ], [ -0.023777011502701, 51.371331132940824 ], [ -0.023789152102761, 51.371316054003387 ], [ -0.02370727225032, 51.371316474120732 ], [ -0.023655500300187, 51.371316501863618 ], [ -0.023661726493103, 51.371306717493283 ], [ -0.023705035867521, 51.371236334339521 ], [ -0.023699273793011, 51.371235338358098 ], [ -0.023610520777167, 51.371227551641255 ], [ -0.023620228557416, 51.371002062567456 ], [ -0.023603532100369, 51.370490062970717 ], [ -0.023591804496883, 51.370159837680418 ], [ -0.023589530217907, 51.369945744230542 ], [ -0.023552676927224, 51.369767119451325 ], [ -0.02353991038371, 51.369697680602698 ], [ -0.023482418617592, 51.369698511335585 ], [ -0.023479803795201, 51.369591394832071 ], [ -0.02353691916378, 51.369566284377022 ], [ -0.023537073866638, 51.369562690925022 ], [ -0.02355504025681, 51.369346240975837 ], [ -0.023558894479172, 51.3690558344544 ], [ -0.023536906902471, 51.368864873649976 ], [ -0.023480650697636, 51.368603123448352 ], [ -0.023336737707213, 51.368410021834841 ], [ -0.023275274769304, 51.368335268820047 ], [ -0.023233860014978, 51.368127799146826 ], [ -0.023219284670343, 51.367833486831508 ], [ -0.0231507353756, 51.367590409410717 ], [ -0.023128454109504, 51.367373282654405 ], [ -0.023128492787764, 51.367372384292253 ], [ -0.023092404394183, 51.367008481405648 ], [ -0.023252669806013, 51.366992297275694 ], [ -0.023322984923354, 51.366993479890773 ], [ -0.023327881924117, 51.367047504409513 ], [ -0.023329031310003, 51.36705381699214 ], [ -0.024018430836516, 51.366991688634485 ], [ -0.024017510070391, 51.366779410841467 ], [ -0.024468671821362, 51.366780701957985 ], [ -0.024452823642916, 51.366414438240113 ], [ -0.023702661527206, 51.365685114801224 ], [ -0.023768928548927, 51.36541463037095 ], [ -0.02356006584558, 51.3652942433405 ], [ -0.02328483533181, 51.365413681336193 ], [ -0.022975790068744, 51.365583794956365 ], [ -0.022243110706397, 51.365880825851605 ], [ -0.022115554932514, 51.365740227560217 ], [ -0.021931874767344, 51.365470032294958 ], [ -0.021825372178528, 51.365407105155882 ], [ -0.02154086785803, 51.36527465269095 ], [ -0.021317215358705, 51.365096384206119 ], [ -0.021220861203989, 51.364932845244965 ], [ -0.021047398532989, 51.364758208248126 ], [ -0.020937833711426, 51.364601638841094 ], [ -0.02077358432074, 51.364345344092406 ], [ -0.020733333316422, 51.364278946526689 ], [ -0.020340611976769, 51.364090725895309 ], [ -0.020137258937826, 51.363977527543753 ], [ -0.020046544272053, 51.363913965560805 ], [ -0.019921120228559, 51.363757217735476 ], [ -0.019859132512832, 51.363697735770529 ], [ -0.019784361384892, 51.36363255422502 ], [ -0.019713149327584, 51.363583705194941 ], [ -0.01958275239169, 51.363476320257881 ], [ -0.01944939891475, 51.363371582444152 ], [ -0.019354871764829, 51.363264711850398 ], [ -0.019141660913045, 51.363045348774186 ], [ -0.019057700785993, 51.362926968517478 ], [ -0.018907007451254, 51.362790471333817 ], [ -0.018849845016932, 51.362682432096953 ], [ -0.018771465385541, 51.362536365368719 ], [ -0.018743951885356, 51.362342518192321 ], [ -0.018572270993788, 51.362091488653803 ], [ -0.018449759060731, 51.361903231764899 ], [ -0.018342755309736, 51.361717933367387 ], [ -0.018328061720445, 51.361693411508561 ], [ -0.018255001018289, 51.361588789835281 ], [ -0.018181905327868, 51.361485065015735 ], [ -0.018138667055884, 51.361422211211682 ], [ -0.018372963338908, 51.361353342920225 ], [ -0.018260887056745, 51.361252558456854 ], [ -0.018128248400649, 51.361131645618151 ], [ -0.017827064593973, 51.360986219201052 ], [ -0.017643987379317, 51.360769066052825 ], [ -0.017298514684548, 51.360587918150841 ], [ -0.016509193672925, 51.359805636705374 ], [ -0.016111119508041, 51.359345706292046 ], [ -0.015622867038409, 51.358876070054528 ], [ -0.015020479097662, 51.358490894466051 ], [ -0.014427553908549, 51.358149929923847 ], [ -0.014195194814123, 51.358010244497855 ], [ -0.013947235138373, 51.357831546087908 ], [ -0.013584383943845, 51.3575547061508 ], [ -0.013334731262993, 51.35738236154107 ], [ -0.013103586315705, 51.357212037939519 ], [ -0.013095221090761, 51.357208300229566 ], [ -0.012849867766603, 51.357166388808714 ], [ -0.01241389693901, 51.357117654578666 ], [ -0.012301845369833, 51.357085190592947 ], [ -0.012154806058152, 51.357195980710813 ], [ -0.012080065737476, 51.357297295956272 ], [ -0.011991264102764, 51.35729129740281 ], [ -0.011866681483954, 51.357282894911584 ], [ -0.011855201907631, 51.357282700553178 ], [ -0.011498213548015, 51.357168681331451 ], [ -0.011090693649913, 51.356990962632459 ], [ -0.010082510781725, 51.356523286367512 ], [ -0.009687471338694, 51.356358361981812 ], [ -0.009415053589358, 51.356217001870576 ], [ -0.00927421365796, 51.356119317079312 ], [ -0.009013371966252, 51.355940483034395 ], [ -0.008657698181459, 51.35582647938169 ], [ -0.008422854505233, 51.355646287174238 ], [ -0.008219210476539, 51.355372135515033 ], [ -0.00802351672607, 51.355214992677389 ], [ -0.007790206958249, 51.354931347362687 ], [ -0.007662629158546, 51.354760165844766 ], [ -0.00736937627711, 51.354501575430405 ], [ -0.00701806766878, 51.354257283269853 ], [ -0.006633127135994, 51.353958478117612 ], [ -0.006569028561556, 51.353880074088543 ], [ -0.00642733984767, 51.353802151545025 ], [ -0.006247616553277, 51.353705602895339 ], [ -0.006061039709698, 51.353537824677346 ], [ -0.006068609544313, 51.353529861897783 ], [ -0.006114064958509, 51.353475792629105 ], [ -0.005873167979472, 51.353299001203268 ], [ -0.005517081472647, 51.352933256798075 ], [ -0.005513055470393, 51.352927794302964 ], [ -0.005454093118469, 51.352862063576019 ], [ -0.005416006095141, 51.352814667710597 ], [ -0.005357082973171, 51.352748038605696 ], [ -0.005304196567583, 51.352676027907286 ], [ -0.005303010691255, 51.352670613621875 ], [ -0.00526352661588, 51.352587232996569 ], [ -0.005311329756578, 51.352577256153083 ], [ -0.005346117069747, 51.35256975542741 ], [ -0.005258190454833, 51.352478360299969 ], [ -0.005193264328433, 51.352386366663126 ], [ -0.005164844833987, 51.352345428075623 ], [ -0.005101446427056, 51.352152859416591 ], [ -0.005064503828671, 51.352010995400391 ], [ -0.004963788368683, 51.351717911589191 ], [ -0.004892194048997, 51.351446898779805 ], [ -0.004829304698155, 51.351242651532878 ], [ -0.004717566671721, 51.35090622753772 ], [ -0.004705665856003, 51.350749505302851 ], [ -0.004717912980994, 51.350268643395225 ], [ -0.004646834113244, 51.349822236928908 ], [ -0.004604752491593, 51.349567007032597 ], [ -0.004479854152261, 51.349435426325783 ], [ -0.004344842072537, 51.349171426395571 ], [ -0.0043154760769, 51.348953362434685 ], [ -0.004230111965722, 51.348835848241862 ], [ -0.004177665330972, 51.348688415773296 ], [ -0.003976130544341, 51.348268562760168 ], [ -0.003886332554621, 51.347757197651624 ], [ -0.003761468109365, 51.347589565672266 ], [ -0.003439562459123, 51.34680086303436 ], [ -0.003276393744273, 51.346326819641639 ], [ -0.003216277225197, 51.346124415601849 ], [ -0.00298143693393, 51.345711187435505 ], [ -0.002894058193638, 51.345574848353316 ], [ -0.002892063863466, 51.345522670692283 ], [ -0.002956822032718, 51.345517477663613 ], [ -0.00280971102825, 51.345036514192628 ], [ -0.002703928414527, 51.344827849932464 ], [ -0.002648296115237, 51.344587762506634 ], [ -0.00257837718511, 51.344314078256474 ], [ -0.002572827689841, 51.344144876272601 ], [ -0.002579428725838, 51.343993052231937 ], [ -0.00255134373341, 51.343879207231964 ], [ -0.002382717562559, 51.343430332645177 ], [ -0.002117398695286, 51.342795423304473 ], [ -0.001969831727823, 51.342423323674147 ], [ -0.001951671953623, 51.342378063475799 ], [ -0.001826552477536, 51.342118723417862 ], [ -0.00168949611332, 51.341703645063838 ], [ -0.001623529580679, 51.341437217252206 ], [ -0.001736700598382, 51.341410372083786 ], [ -0.001551831444427, 51.340741758972783 ], [ -0.001455107476972, 51.34075269686776 ], [ -0.001396000346642, 51.340758881666737 ], [ -0.00136959947142, 51.340508408800098 ], [ -0.001417778169174, 51.340489451206011 ], [ -0.00145728310661, 51.340473941901067 ], [ -0.001380151120085, 51.340363753430452 ], [ -0.00127204302338, 51.340209073766914 ], [ -0.001065942762204, 51.339732485170224 ], [ -0.000988539428403, 51.33943259413455 ], [ -0.000862398918616, 51.339031179282152 ], [ -0.000750873877287, 51.338590455556705 ], [ -0.0005309416543, 51.338100143223208 ], [ -0.000363261597885, 51.337829278483582 ], [ -0.000027255226583, 51.336807358265851 ], [ 0.000078618189394, 51.336468320648251 ], [ 0.000157283185212, 51.33613244430704 ], [ 0.000420828605588, 51.335458877870209 ], [ 0.00058469045755, 51.334902089740297 ], [ 0.000574491260886, 51.334537162300599 ], [ 0.0008591602942, 51.333952238004692 ], [ 0.000939193202711, 51.333713429421032 ], [ 0.00095269437997, 51.333659254711371 ], [ 0.000869290543745, 51.333592350026294 ], [ 0.000988222227559, 51.333521090400204 ], [ 0.001353488737048, 51.333303479785009 ], [ 0.001699535463053, 51.333008876323291 ], [ 0.001963966185312, 51.332718363654159 ], [ 0.00229859092127, 51.332490484390249 ], [ 0.002636702150484, 51.332342651559394 ], [ 0.002973499604494, 51.332232601074359 ], [ 0.003310440170952, 51.332155722809816 ], [ 0.003241388808624, 51.331628160179271 ], [ 0.003114379478224, 51.331413566240236 ], [ 0.00291410776119, 51.331264148885069 ], [ 0.002911174861925, 51.331164312296849 ], [ 0.002870568497946, 51.331022953486332 ], [ 0.00287516681526, 51.33093296780369 ], [ 0.00287489260982, 51.330926678998466 ], [ 0.002919952724323, 51.330477991507827 ], [ 0.002924081595726, 51.330374527776534 ], [ 0.002915417768149, 51.330341410314496 ], [ 0.002892600021801, 51.330312131167638 ], [ 0.002848057484092, 51.330278638245481 ], [ 0.002344646692247, 51.329924830104105 ], [ 0.002210181601546, 51.329772488737966 ], [ 0.002225603440183, 51.329466451342142 ], [ 0.002252135169766, 51.329317561282942 ], [ 0.00228454322918, 51.329173156004032 ], [ 0.002294527091308, 51.329138820649462 ], [ 0.001084899957027, 51.329015553201742 ], [ 0.000027997154607, 51.328909534997052 ], [ -0.000503085369213, 51.32877834841095 ], [ -0.000749164918849, 51.329357143441996 ], [ -0.001155858919544, 51.329840770320885 ], [ -0.001676809589514, 51.33030737226543 ], [ -0.002300684288419, 51.330683109733393 ], [ -0.003529975606753, 51.331432547288927 ], [ -0.004663728863188, 51.332134398909126 ], [ -0.005028818963943, 51.332321406735147 ], [ -0.005638416617332, 51.332632142764133 ], [ -0.006700156240762, 51.333142951260726 ], [ -0.007209324249095, 51.333387238339959 ], [ -0.007118444726263, 51.333695057894317 ], [ -0.008102133146617, 51.33385290518806 ], [ -0.008227954984871, 51.333866727796135 ], [ -0.008353776014397, 51.333877852840246 ], [ -0.008479674870777, 51.333887181018355 ], [ -0.008607189237221, 51.333894738418081 ], [ -0.008734663107578, 51.333900496944821 ], [ -0.008860795328437, 51.333904434530389 ], [ -0.008886699716132, 51.333904873921959 ], [ -0.009014367966022, 51.333906140332815 ], [ -0.009140812803608, 51.33390558781548 ], [ -0.009268675327803, 51.33390236214634 ], [ -0.009395196108652, 51.333897315549407 ], [ -0.009523332248786, 51.33389049817329 ], [ -0.009649969480273, 51.333882756229173 ], [ -0.009776684334644, 51.333873217434167 ], [ -0.009902018742392, 51.333862756006546 ], [ -0.009925200924298, 51.333860451910859 ], [ -0.010086570360563, 51.333846105845019 ], [ -0.01024943685741, 51.333829986872765 ], [ -0.010408396521948, 51.333808407245783 ], [ -0.010456099108553, 51.333800225397468 ], [ -0.010522723875066, 51.333786970014302 ], [ -0.010587929182136, 51.333773690542237 ], [ -0.01065309390175, 51.333758612277826 ], [ -0.010658967580684, 51.333756913748523 ], [ -0.010874166468074, 51.333628312393159 ], [ -0.01099346928171, 51.333557512140473 ], [ -0.010855898593654, 51.333418527304843 ], [ -0.010663450658609, 51.333089724333199 ], [ -0.010918197442787, 51.332908750595422 ], [ -0.011886470522667, 51.332891892997097 ], [ -0.013320331981222, 51.331536704092983 ], [ -0.013603675315371, 51.331526218020905 ], [ -0.013684433616106, 51.331317122852063 ], [ -0.013686960252662, 51.330861178730977 ], [ -0.013745588746007, 51.3306985483758 ], [ -0.013947395190777, 51.330514877657386 ], [ -0.014203190862079, 51.33030883608555 ], [ -0.014307531896222, 51.329953599274049 ], [ -0.014328283886926, 51.329804622396935 ], [ -0.014485631557407, 51.329984484115059 ], [ -0.01461004855482, 51.330195163991363 ], [ -0.014828780967119, 51.330480350609768 ], [ -0.015072431859596, 51.330657176161594 ], [ -0.015152851319041, 51.330754732364191 ], [ -0.01522195743311, 51.331018506184947 ], [ -0.015349046933099, 51.331266179264809 ], [ -0.015528977416898, 51.331520948973029 ], [ -0.015939842692761, 51.332014447374128 ], [ -0.01621645397101, 51.33222329143436 ], [ -0.01653421323383, 51.332512842548596 ], [ -0.017029872559723, 51.332904289954243 ], [ -0.017205820392392, 51.332985477021332 ], [ -0.017358574796191, 51.333003340826686 ], [ -0.017782279580518, 51.332933182309702 ], [ -0.017814029488072, 51.332995750525164 ], [ -0.017942423080367, 51.333315360660947 ], [ -0.018134369827461, 51.333824926048074 ], [ -0.018284639048997, 51.33410444359685 ], [ -0.018773161516618, 51.334529007614854 ], [ -0.018986822695616, 51.334868026452099 ], [ -0.019102389843926, 51.335084925551001 ], [ -0.019160539149243, 51.33520277581335 ], [ -0.019378458320924, 51.335712766243354 ], [ -0.019446013810795, 51.335810098239754 ], [ -0.019515338962957, 51.335902066088671 ], [ -0.019738311618419, 51.33602458351487 ], [ -0.020047467864614, 51.336213191787486 ], [ -0.020413934242253, 51.336506240755874 ], [ -0.020502068084303, 51.336595828532147 ], [ -0.020510006520181, 51.336609447369781 ], [ -0.020445434217734, 51.33684218920434 ], [ -0.020557461931299, 51.337144434171968 ], [ -0.021203032616517, 51.337689503229839 ], [ -0.021421376733421, 51.337823538637217 ], [ -0.022056967964951, 51.338099545069625 ], [ -0.022371227323261, 51.33820552815903 ], [ -0.022871930687282, 51.338281477440667 ], [ -0.02362973704178, 51.33835537065255 ], [ -0.023886680730844, 51.338356999163587 ], [ -0.024069860166193, 51.338372668750992 ], [ -0.024258602457446, 51.338391128736099 ], [ -0.024666591739808, 51.338451036533122 ], [ -0.025103544750871, 51.338608524043906 ], [ -0.025470690856864, 51.338519404585398 ], [ -0.025958474184789, 51.338559973064392 ], [ -0.026180883455979, 51.338530449329809 ], [ -0.026440100108316, 51.338479068457666 ], [ -0.026868261759374, 51.338405354156329 ], [ -0.027431788262855, 51.33832213553336 ], [ -0.027701251015386, 51.338266428509101 ], [ -0.027965188881903, 51.338207031853962 ], [ -0.02845333881053, 51.338073184875547 ], [ -0.028790316006289, 51.337947495668317 ], [ -0.028969780414929, 51.337881283702757 ], [ -0.029115469707317, 51.337832484953914 ], [ -0.029476193837101, 51.337757627379041 ], [ -0.030185473089911, 51.337657060996086 ], [ -0.030363438764465, 51.337592619314321 ], [ -0.030485599725651, 51.337556909257451 ], [ -0.030681176456622, 51.337515238204809 ], [ -0.030867309833229, 51.337492288097032 ], [ -0.031009885759286, 51.337482991755905 ], [ -0.031818862852776, 51.337470393644367 ], [ -0.032075685336563, 51.337472001413126 ], [ -0.032298508742735, 51.337465846528289 ], [ -0.032770754291048, 51.337437798414143 ], [ -0.033330298079015, 51.337513791186758 ], [ -0.033675275106787, 51.33760497822707 ], [ -0.034278799339576, 51.337998167093232 ], [ -0.034494789294975, 51.338082697472124 ], [ -0.03462934454641, 51.338058877888301 ], [ -0.034867254290119, 51.338070951988335 ], [ -0.035349055432827, 51.338184311950933 ], [ -0.035806260559199, 51.338302563766419 ], [ -0.036274980012099, 51.338320313742784 ], [ -0.036821684850599, 51.338496702015462 ], [ -0.03694551966768, 51.338521343857465 ], [ -0.037071011272699, 51.338543226295805 ], [ -0.037372147185252, 51.338585134122908 ], [ -0.037642964827672, 51.338596864678124 ], [ -0.037892528860292, 51.338704436259597 ], [ -0.037966858533443, 51.338643647504497 ], [ -0.038476783592028, 51.338336535036156 ], [ -0.039282559978934, 51.337789744409854 ], [ -0.039469471118405, 51.337614863021734 ], [ -0.039816161340255, 51.337226705671078 ], [ -0.039989175285775, 51.336975082339343 ], [ -0.040156959073423, 51.336676710911114 ], [ -0.040404448659871, 51.336393967892676 ], [ -0.040508310569152, 51.336212211135823 ], [ -0.040606532266732, 51.336029460886579 ], [ -0.040678082819822, 51.335867032213592 ], [ -0.040896263667581, 51.335330177851219 ], [ -0.041060077665926, 51.3349552303862 ], [ -0.041305622206929, 51.334581649898794 ], [ -0.041967343186336, 51.333810281115767 ], [ -0.042882865470844, 51.333649377428181 ], [ -0.043380860792072, 51.333654103296382 ], [ -0.044494934651484, 51.333720361605707 ], [ -0.044980865135201, 51.333669139320449 ], [ -0.045424664423626, 51.333628899052371 ], [ -0.045878401669066, 51.333560862789767 ], [ -0.046553535468855, 51.333483122259167 ], [ -0.046889822249142, 51.333337692872988 ], [ -0.047363002555091, 51.333115339181646 ], [ -0.047782263161177, 51.333011656656943 ], [ -0.048155121106539, 51.332885711836795 ], [ -0.048473575254753, 51.33278942651588 ], [ -0.048665730782038, 51.33276026248528 ], [ -0.049065437587412, 51.332712888454644 ], [ -0.049267227516658, 51.332693773316571 ], [ -0.049659496948578, 51.332685022184435 ], [ -0.050261413898208, 51.332639302555087 ], [ -0.050100976313792, 51.332157347893492 ], [ -0.050072396124576, 51.33205249238641 ], [ -0.050608343316916, 51.331873510616148 ], [ -0.050834232879308, 51.331757605408569 ], [ -0.051042145704742, 51.331593840553111 ], [ -0.051099509913989, 51.331360051842367 ], [ -0.05110638892752, 51.331060691353485 ], [ -0.051081068393626, 51.330845306362299 ], [ -0.050660083299121, 51.330210584884838 ], [ -0.050444680486167, 51.330009210252719 ], [ -0.05023393231208, 51.329832097463729 ], [ -0.049792034137665, 51.329624257061987 ], [ -0.049441493160308, 51.329394470852826 ], [ -0.048944197672517, 51.328935591893085 ], [ -0.048749477765524, 51.328718377856696 ], [ -0.049070060867354, 51.32860764633606 ], [ -0.048545871891131, 51.328035130417632 ], [ -0.048373422649251, 51.327837077412909 ], [ -0.048118690896598, 51.327447057387573 ], [ -0.048008081264777, 51.32721137490028 ], [ -0.047986640769492, 51.327108527012143 ], [ -0.048034204963397, 51.327069760758427 ], [ -0.047956651034613, 51.326900258800109 ], [ -0.047828231230753, 51.32650964460047 ], [ -0.04782364758581, 51.32631348692783 ], [ -0.047882541097292, 51.325535715391716 ], [ -0.047868942030357, 51.325245015811092 ], [ -0.048187522844178, 51.325181091674509 ], [ -0.048205963851002, 51.32525421907755 ], [ -0.048417032035369, 51.325286498874185 ], [ -0.048758101937361, 51.325364992513741 ], [ -0.049238158600583, 51.325383763854745 ], [ -0.04952620041953, 51.325328318439638 ], [ -0.049765626073756, 51.325266670007153 ], [ -0.049995182989973, 51.324965627126844 ], [ -0.050444859319463, 51.324614299897846 ], [ -0.050683813878588, 51.3243286946336 ], [ -0.050826390756689, 51.324147572494525 ], [ -0.050867608939721, 51.324088022605707 ], [ -0.050889980893086, 51.324001188919212 ], [ -0.050944002244478, 51.323708914544532 ], [ -0.050975171438007, 51.323649107756154 ], [ -0.051012017510759, 51.323592182218434 ], [ -0.051266934296742, 51.323438187686079 ], [ -0.051293375547496, 51.32288015273209 ], [ -0.051313651907785, 51.322638561905777 ], [ -0.05130727924694, 51.322447862853018 ], [ -0.051762950856405, 51.322398706439969 ], [ -0.052224981615043, 51.322366834979398 ], [ -0.052481253605192, 51.322381885482734 ], [ -0.052588645853937, 51.322321638543109 ], [ -0.052878622240462, 51.322216778935882 ], [ -0.05308082916159, 51.322119449645726 ], [ -0.053632274400763, 51.321805684701374 ], [ -0.054178742682447, 51.321542359199199 ], [ -0.054882560956283, 51.321257280044243 ], [ -0.055020432468542, 51.321254175473413 ], [ -0.055714260623948, 51.321343012243318 ], [ -0.055927685997189, 51.321453540067161 ], [ -0.056251799122989, 51.321663989344636 ], [ -0.056484812862758, 51.321585145175639 ], [ -0.056708359035523, 51.321523135138442 ], [ -0.057013414580695, 51.32136906703051 ], [ -0.057662669987415, 51.320949107383619 ], [ -0.057817789569657, 51.320842806199934 ], [ -0.058111015235201, 51.320595847383544 ], [ -0.058392625964971, 51.320382948359395 ], [ -0.058755269576576, 51.320257609199722 ], [ -0.058847901394224, 51.32023846637626 ], [ -0.058924313920457, 51.320230742224361 ], [ -0.059036480080434, 51.320225408539279 ], [ -0.059592141539889, 51.320082676510872 ], [ -0.059742619913708, 51.320055500695098 ], [ -0.059929698359899, 51.32004151742543 ], [ -0.060115021943017, 51.32003829329161 ], [ -0.060219671766928, 51.320040026277695 ], [ -0.060462781200575, 51.320061133593427 ], [ -0.060657772923936, 51.320064361986546 ], [ -0.060855136635767, 51.319980332174815 ], [ -0.060975625535937, 51.319912201239006 ], [ -0.061378095381058, 51.319624784952403 ], [ -0.06153923852911, 51.31947910908881 ], [ -0.06174112015186, 51.319388858795399 ], [ -0.062006836969808, 51.319314138730867 ], [ -0.062079076297255, 51.319200255811296 ], [ -0.062421664291293, 51.319109634385704 ], [ -0.063279871321794, 51.31887119214926 ], [ -0.063792696077162, 51.318722244830056 ], [ -0.063994378297924, 51.31863657171499 ], [ -0.064048490210184, 51.318613191501669 ], [ -0.064086455068384, 51.318596736858652 ], [ -0.06412536951788, 51.318625250411834 ], [ -0.064126906708489, 51.318625275810916 ], [ -0.067738298967175, 51.318816154184333 ], [ -0.070028388838491, 51.31889258670445 ], [ -0.071016697254728, 51.321232763381147 ], [ -0.071561920326687, 51.321064542490426 ], [ -0.072664784346969, 51.320776037529129 ], [ -0.072765038313564, 51.320747120182226 ], [ -0.072955617629161, 51.32065226039029 ], [ -0.073443932344499, 51.320573988644163 ], [ -0.073889851073072, 51.320482340539542 ], [ -0.074202515082668, 51.320416459241407 ], [ -0.074776969733131, 51.320270281656107 ], [ -0.075120203397581, 51.320197708208809 ], [ -0.07543551130537, 51.320173223774646 ], [ -0.076110692425342, 51.320156451862928 ], [ -0.07612756956553, 51.320027264836874 ], [ -0.07685227913364, 51.319926701256236 ], [ -0.077343223870425, 51.319887115948383 ], [ -0.07840806952192, 51.319785026402201 ], [ -0.07892405131378, 51.319769220982785 ], [ -0.078903962829358, 51.319422663881078 ], [ -0.078841529214606, 51.318548383649471 ], [ -0.078830507339803, 51.318089503033661 ], [ -0.079268640584589, 51.318078711801171 ], [ -0.079353940332318, 51.31806482741559 ], [ -0.079437740349455, 51.31805001930293 ], [ -0.079457991703095, 51.318046755332041 ], [ -0.079512989294253, 51.318035969896599 ], [ -0.079567986861392, 51.318025184434859 ], [ -0.079623021885329, 51.318013500503064 ], [ -0.079676557197065, 51.318000892883859 ], [ -0.079730285682397, 51.317986490291638 ], [ -0.080004485071773, 51.317914568106758 ], [ -0.080193511482753, 51.317822278280623 ], [ -0.080412871632846, 51.317689218790946 ], [ -0.08055754580719, 51.317593593773395 ], [ -0.08079958895201, 51.31743294476837 ], [ -0.081123498084924, 51.3171675484434 ], [ -0.08104945358625, 51.317118684666212 ], [ -0.081082488742584, 51.317049998892514 ], [ -0.081236100487742, 51.3168420478587 ], [ -0.08137265880834, 51.31676786636482 ], [ -0.081543250285334, 51.316703233020071 ], [ -0.081777453630918, 51.316764610685276 ], [ -0.081982052198118, 51.316985624854951 ], [ -0.08209147886834, 51.317011692309009 ], [ -0.082208231456363, 51.316964157015661 ], [ -0.082240363260086, 51.316951197576984 ], [ -0.082554278327032, 51.316823189612329 ], [ -0.083071979797806, 51.316762441032473 ], [ -0.083556094871953, 51.316681360978158 ], [ -0.083662087945384, 51.316650640190261 ], [ -0.083591492153156, 51.316382464225896 ], [ -0.084195679130712, 51.316242121053328 ], [ -0.084802524205995, 51.315867163679592 ], [ -0.084261540285757, 51.315452746486123 ], [ -0.083871454255713, 51.315136996301248 ], [ -0.083467296171746, 51.314710340572077 ], [ -0.083194156151527, 51.31430839523555 ], [ -0.082875819612135, 51.313960551875098 ], [ -0.082318648384509, 51.313211322746895 ], [ -0.082162251140497, 51.313003685991653 ], [ -0.081893206337408, 51.312608997889313 ], [ -0.081826137043213, 51.312358770348915 ], [ -0.081721999017385, 51.311862402942133 ], [ -0.081822470216215, 51.311583453104049 ], [ -0.081896951521385, 51.311278004713287 ], [ -0.081931862407209, 51.310647258341902 ], [ -0.082243298246381, 51.31054087613429 ], [ -0.082439271405282, 51.310488343914237 ], [ -0.08255302071106, 51.310444354623478 ], [ -0.082715780758199, 51.310359811011139 ], [ -0.083390019959038, 51.310052491854471 ], [ -0.083695106963739, 51.309927930485067 ], [ -0.084012589062236, 51.309815348736713 ], [ -0.085442882669059, 51.309269457048778 ], [ -0.086577683619138, 51.308859063486238 ], [ -0.08664959102843, 51.308819691824176 ], [ -0.086716827025554, 51.308756059714831 ], [ -0.086799525425262, 51.308698973440372 ], [ -0.087541656908, 51.308208354413495 ], [ -0.088403364715651, 51.307601010115057 ], [ -0.088482175339535, 51.307534868876616 ], [ -0.088610882091697, 51.307406609482761 ], [ -0.088825233667303, 51.307218523389743 ], [ -0.088724235665989, 51.306852675441313 ], [ -0.088724183548151, 51.306748386387099 ], [ -0.088753194582579, 51.30660222707575 ], [ -0.088752506947436, 51.306413418235998 ], [ -0.088761623619789, 51.306088025987322 ], [ -0.088741737091812, 51.305877237001219 ], [ -0.08863992620466, 51.305217300759004 ], [ -0.088732139749696, 51.305104538365441 ], [ -0.088791519469837, 51.305021897154475 ], [ -0.088832140907631, 51.304872421061276 ], [ -0.08885797994667, 51.30480271793801 ], [ -0.089147011275399, 51.304510662942235 ], [ -0.089169345271738, 51.304491248598829 ], [ -0.089496086522359, 51.304430860492566 ], [ -0.089576941088357, 51.304349468318833 ], [ -0.089605954342, 51.304305888886638 ], [ -0.08965158620506, 51.304209537428399 ], [ -0.089682874311176, 51.304111063971909 ], [ -0.089705792664778, 51.303974784341079 ], [ -0.090716638146592, 51.303953511404814 ], [ -0.090864343061821, 51.303817378245384 ], [ -0.091171781995692, 51.303391662241367 ], [ -0.091040218541309, 51.303278036994051 ], [ -0.090876539727401, 51.303177283612449 ], [ -0.090958869858407, 51.302748796747032 ], [ -0.09090492514301, 51.30266610494494 ], [ -0.090952102685834, 51.302460904938961 ], [ -0.090962508254421, 51.302349594101223 ], [ -0.09096716411293, 51.301994370893333 ], [ -0.091168091862623, 51.301472519560221 ], [ -0.093666992799402, 51.300782045076687 ], [ -0.094386978466216, 51.300613058943966 ], [ -0.094779852402712, 51.300685980948089 ], [ -0.095279871663751, 51.301326317546213 ], [ -0.095642507285997, 51.301404138849364 ], [ -0.09571935047202, 51.301488189726989 ], [ -0.096030843597089, 51.301518428222266 ], [ -0.096359324238164, 51.301380732659041 ], [ -0.097377393356069, 51.301113994170294 ], [ -0.097259695405405, 51.300942164063919 ], [ -0.097354120699123, 51.300843815733977 ], [ -0.097374195472997, 51.300775815312427 ], [ -0.09734761250517, 51.300689076029997 ], [ -0.097175429884968, 51.300344556693126 ], [ -0.097244883748982, 51.300295339916772 ], [ -0.096922720355254, 51.300105713811909 ], [ -0.096325698509247, 51.299798340858523 ], [ -0.096106827643352, 51.299713869665545 ], [ -0.095775800869949, 51.29960150225395 ], [ -0.095520415584142, 51.299533427659512 ] ] ] } }
]
}
