{
"type": "FeatureCollection",
"name": "borough_Redbridge",
"crs": { "type": "name", "properties": { "name": "urn:ogc:def:crs:OGC:1.3:CRS84" } },
"features": [
{ "type": "Feature", "properties": { "DISTRICT": "Redbridge", "NAME": "Wanstead Park", "GSS_CODE": "E05011254", "LAGSSCODE": "E09000026", "HECTARES": 474.224, "NONLD_AREA": 0.0 }, "geometry": { "type": "Polygon", "coordinates": [ [ [ 0.088037670243756, 51.547693212023674 ], [ 0.087680548210895, 51.547643829474929 ], [ 0.086695287583498, 51.547513921899693 ], [ 0.086285744951451, 51.547454589475734 ], [ 0.086015894847354, 51.54738656828038 ], [ 0.08572526333374, 51.547277561201646 ], [ 0.085217689521963, 51.546996112864662 ], [ 0.084896209410809, 51.546841712288838 ], [ 0.084341377492698, 51.546598049570775 ], [ 0.084146501711232, 51.546499833299926 ], [ 0.083962110314232, 51.546441077089248 ], [ 0.083390360461371, 51.546240773233727 ], [ 0.083293498436778, 51.54620293676787 ], [ 0.083177575689722, 51.546159145596768 ], [ 0.082970782169776, 51.546083704299278 ], [ 0.082853069285987, 51.546034550483128 ], [ 0.082761155588516, 51.545946190826228 ], [ 0.082517125839738, 51.54581567075541 ], [ 0.082349020955749, 51.545733248356321 ], [ 0.082180957741032, 51.545654331137762 ], [ 0.081968600804952, 51.54561584650034 ], [ 0.081821538566806, 51.545616658493323 ], [ 0.081727252634304, 51.545603947475314 ], [ 0.081709699943554, 51.545599763811161 ], [ 0.081679150725681, 51.545592214657582 ], [ 0.081628192610612, 51.545551763926149 ], [ 0.081610659449785, 51.545482850623721 ], [ 0.081642899800185, 51.545431034622545 ], [ 0.081735233354625, 51.545335808670835 ], [ 0.081703982947482, 51.545284220121133 ], [ 0.081619009741947, 51.545222796446552 ], [ 0.081604304731506, 51.545215865189782 ], [ 0.081527649464585, 51.545180365391282 ], [ 0.081520237562912, 51.545176900810937 ], [ 0.081425943847641, 51.545132723678989 ], [ 0.0812444209565, 51.545105377084546 ], [ 0.081205161498256, 51.545099780341076 ], [ 0.080789848565517, 51.545004568378836 ], [ 0.080137164535851, 51.544796780971005 ], [ 0.07962617731049, 51.544629541460033 ], [ 0.078800501607149, 51.544424722584296 ], [ 0.078564119798747, 51.544365080032058 ], [ 0.078453219865469, 51.54433737696796 ], [ 0.078257318569356, 51.544278814740615 ], [ 0.078147261799617, 51.544204347479358 ], [ 0.078111611959995, 51.544150048846383 ], [ 0.078096052527474, 51.544126949936114 ], [ 0.077936225766501, 51.544035383560633 ], [ 0.077797026680719, 51.544208752101774 ], [ 0.077640112895492, 51.544405718748045 ], [ 0.077506205808419, 51.544570003064287 ], [ 0.077500788880915, 51.544576392107828 ], [ 0.077409638145902, 51.54453844916776 ], [ 0.077061039805762, 51.544390798556144 ], [ 0.076839656777798, 51.544595288436405 ], [ 0.076821619575773, 51.54461179004047 ], [ 0.076768224075477, 51.544580370463862 ], [ 0.076735269166871, 51.544551286131799 ], [ 0.076646634297383, 51.544474550346443 ], [ 0.07623886313794, 51.54429387170385 ], [ 0.075832436028354, 51.544140048496779 ], [ 0.075568640834884, 51.544016155448702 ], [ 0.074934615221101, 51.543901416689721 ], [ 0.074485456038064, 51.543856316620605 ], [ 0.074268390004648, 51.543839476736807 ], [ 0.073830025509772, 51.543809466642763 ], [ 0.073464238670325, 51.543822224336857 ], [ 0.073337298486813, 51.543820871407512 ], [ 0.073239152650191, 51.543819908581078 ], [ 0.073247251867774, 51.543775713505482 ], [ 0.073075310426674, 51.543767963278398 ], [ 0.072968327871251, 51.543763560272765 ], [ 0.072724346765445, 51.543758880287584 ], [ 0.07272284441593, 51.543820040174758 ], [ 0.072275727994043, 51.543819846515568 ], [ 0.072004459664927, 51.543816545979602 ], [ 0.071965565939953, 51.543816333777791 ], [ 0.071865164682319, 51.5436400108239 ], [ 0.071848016040873, 51.54361064596862 ], [ 0.0718144158325, 51.543569884341892 ], [ 0.071662069332945, 51.543613929198813 ], [ 0.071141133651455, 51.543766159813103 ], [ 0.071058095155637, 51.543778413791017 ], [ 0.070880374023816, 51.543803127084566 ], [ 0.070378242325209, 51.543924365881089 ], [ 0.069741234494706, 51.544063355062157 ], [ 0.069664261597716, 51.544080895188458 ], [ 0.069624149005283, 51.54408789587518 ], [ 0.069574018433986, 51.544096871290222 ], [ 0.069482508961859, 51.54411376867823 ], [ 0.06939381029123, 51.544129717401411 ], [ 0.069130725073706, 51.54417840909845 ], [ 0.069141520690124, 51.544259130568342 ], [ 0.068353900463576, 51.544415152535677 ], [ 0.06839210065913, 51.544525957695356 ], [ 0.068481697969929, 51.544750122279609 ], [ 0.06859211207486, 51.54511866208076 ], [ 0.068650646960071, 51.545646433921682 ], [ 0.068652970940919, 51.545857662745597 ], [ 0.068690158311627, 51.546040497152774 ], [ 0.068738019131391, 51.546332823829303 ], [ 0.068694080307431, 51.546698690684593 ], [ 0.068631413634219, 51.547225902227034 ], [ 0.068706435934773, 51.547354038391127 ], [ 0.068743624906618, 51.547536872697172 ], [ 0.068708689345979, 51.547818072865695 ], [ 0.068586549884126, 51.548240158644553 ], [ 0.068561747618791, 51.548393429343449 ], [ 0.068503434972883, 51.548762336434592 ], [ 0.068421207651791, 51.549238558575723 ], [ 0.068401820108336, 51.549351277870173 ], [ 0.068269782041585, 51.549969614055634 ], [ 0.068200872162426, 51.550296363933789 ], [ 0.068103169139212, 51.551131745764245 ], [ 0.067956662382798, 51.551877096497336 ], [ 0.067822825022564, 51.553062023034727 ], [ 0.066973052359469, 51.55302575371136 ], [ 0.066846565884946, 51.553769851432172 ], [ 0.066716246894896, 51.554329717923245 ], [ 0.066614525914039, 51.554728066465998 ], [ 0.066476679981536, 51.554869932263195 ], [ 0.066285630236093, 51.555016241169881 ], [ 0.065997220163447, 51.555239871775683 ], [ 0.06569951817602, 51.555547273954339 ], [ 0.065824446310974, 51.555661047389115 ], [ 0.065706516577518, 51.555764802881306 ], [ 0.065382658567351, 51.556035805146131 ], [ 0.064988440160997, 51.556410533089007 ], [ 0.064758324134979, 51.556329985842943 ], [ 0.064644218935585, 51.556455249399619 ], [ 0.064244493004361, 51.556803101271839 ], [ 0.064059902812444, 51.556929514617956 ], [ 0.063771558341716, 51.557126168240693 ], [ 0.063615276658233, 51.557307822018501 ], [ 0.062439489719285, 51.556955316635957 ], [ 0.061478142657899, 51.556686235984813 ], [ 0.061123428055827, 51.556596273621942 ], [ 0.060880321126709, 51.556546603465144 ], [ 0.060521278390973, 51.556518747581784 ], [ 0.060182245153814, 51.556423022879279 ], [ 0.060136744305641, 51.556437397107743 ], [ 0.060077467271731, 51.556465408617051 ], [ 0.060004664395418, 51.556515234064122 ], [ 0.059754107106773, 51.556685053022903 ], [ 0.059707453495351, 51.556737116227254 ], [ 0.059679463372048, 51.556788941641656 ], [ 0.059667192254855, 51.556835906075804 ], [ 0.059667345118375, 51.556905127857569 ], [ 0.059639922113312, 51.556935276947691 ], [ 0.059614661768432, 51.556950104739343 ], [ 0.059553473558684, 51.556970058377154 ], [ 0.059470002431468, 51.556973321807298 ], [ 0.05943216152474, 51.556967692976869 ], [ 0.05931488827686, 51.556925699712934 ], [ 0.059256839927768, 51.556917728486972 ], [ 0.059207754504376, 51.556918590097034 ], [ 0.059145137104319, 51.556935871552831 ], [ 0.059101747136234, 51.556965401762497 ], [ 0.059072123119515, 51.557012670721974 ], [ 0.059069061329888, 51.557039695037453 ], [ 0.059075942484202, 51.557065645815619 ], [ 0.059099240534325, 51.557102186573552 ], [ 0.05909691541227, 51.55711391463354 ], [ 0.059073648879174, 51.557141293584358 ], [ 0.059047208222167, 51.557164233146594 ], [ 0.059019135683277, 51.557180009191867 ], [ 0.05896935383569, 51.557197065274451 ], [ 0.058903602441088, 51.557210805535227 ], [ 0.058796992477814, 51.557212676551501 ], [ 0.05868751925723, 51.557280226122366 ], [ 0.05866424838645, 51.55734176780301 ], [ 0.0586466835749, 51.557366349558393 ], [ 0.058617471232825, 51.557391135704748 ], [ 0.058487999241182, 51.557463621035815 ], [ 0.058439227844861, 51.557500437593106 ], [ 0.058401987865168, 51.55753974885473 ], [ 0.05835658889083, 51.557619659131106 ], [ 0.058304648203167, 51.557844516175145 ], [ 0.058287860491976, 51.557854699937089 ], [ 0.05815769337003, 51.557911823889768 ], [ 0.058098995253965, 51.557889479196618 ], [ 0.057988236617229, 51.557865350721954 ], [ 0.057901549154595, 51.557863275366309 ], [ 0.057795505155366, 51.557877721836178 ], [ 0.057777010070938, 51.557884339398598 ], [ 0.057590406685401, 51.558000888939276 ], [ 0.05729138958175, 51.558025012608219 ], [ 0.057149444937486, 51.558108503474777 ], [ 0.057018806129179, 51.558250142300146 ], [ 0.057040778493313, 51.558544725325369 ], [ 0.057033682511891, 51.55857991151467 ], [ 0.057017907356905, 51.558612552833722 ], [ 0.056980989474671, 51.558659050174491 ], [ 0.056938086840003, 51.55869944920795 ], [ 0.05690435080868, 51.558718920148941 ], [ 0.05686466654417, 51.558733101257623 ], [ 0.056828858562569, 51.558740921252294 ], [ 0.056760746098384, 51.558734024294417 ], [ 0.05671064301144, 51.55870973018007 ], [ 0.056656186947714, 51.558654855790962 ], [ 0.056617531952123, 51.558628562888927 ], [ 0.056573215146637, 51.55860596530988 ], [ 0.056516105204884, 51.558587188064188 ], [ 0.056447709418064, 51.558574002749658 ], [ 0.056397193205098, 51.558572191230255 ], [ 0.056364316137492, 51.558579060685148 ], [ 0.056330218025883, 51.558593143692221 ], [ 0.056301000993168, 51.558615232307659 ], [ 0.056278380215473, 51.558656983726614 ], [ 0.056263542945377, 51.558713072925762 ], [ 0.056263250947357, 51.558738250595525 ], [ 0.056326422271376, 51.558796478578287 ], [ 0.056351303342778, 51.558836498318634 ], [ 0.056360498114823, 51.55887948987084 ], [ 0.056358698866297, 51.558902895788904 ], [ 0.056083952936639, 51.559114574805662 ], [ 0.055811651431731, 51.559280270696703 ], [ 0.055731953704367, 51.559338305255338 ], [ 0.055631848914199, 51.559389595141042 ], [ 0.055509581307759, 51.559429496190667 ], [ 0.055386584606447, 51.559453227626022 ], [ 0.055254263304218, 51.559462738066095 ], [ 0.054981701217964, 51.559527746969323 ], [ 0.054755550709957, 51.559569466959019 ], [ 0.054672155399652, 51.559574523706281 ], [ 0.054612223324742, 51.559588159597972 ], [ 0.054544062385724, 51.559614525781413 ], [ 0.054490847312617, 51.559650519333914 ], [ 0.054459346814868, 51.559685323462141 ], [ 0.054436807349735, 51.559731567935877 ], [ 0.054377260302039, 51.559817118125672 ], [ 0.054358015953208, 51.559870496994257 ], [ 0.054348591263183, 51.559917410795023 ], [ 0.054359571860769, 51.560002714778662 ], [ 0.054396619149719, 51.56008837138161 ], [ 0.054432934196679, 51.560316174979434 ], [ 0.054370293481302, 51.560399082295376 ], [ 0.054272992972679, 51.560449332994189 ], [ 0.05421993861762, 51.560488919664678 ], [ 0.054173072579632, 51.560536489079489 ], [ 0.054146212971167, 51.560581910126892 ], [ 0.054132391582435, 51.560626293752271 ], [ 0.054130341008206, 51.560678472493933 ], [ 0.054146736867291, 51.560754601619863 ], [ 0.054124093356504, 51.560859283784318 ], [ 0.053936638803618, 51.560894031516 ], [ 0.053806912798744, 51.560929566305319 ], [ 0.053710471932275, 51.560964608143273 ], [ 0.053594712998317, 51.561022373538798 ], [ 0.053547157960995, 51.561054671518924 ], [ 0.053488642162257, 51.561102444590979 ], [ 0.053437697990236, 51.561154580168861 ], [ 0.053375418457978, 51.561245571755094 ], [ 0.053194174522438, 51.56148167870515 ], [ 0.053131459642151, 51.561531323119922 ], [ 0.053094867182392, 51.561550842849648 ], [ 0.053036644040268, 51.561573438171713 ], [ 0.052961027887015, 51.561592831694426 ], [ 0.052833138220336, 51.561603160869836 ], [ 0.052777279790792, 51.561612229467627 ], [ 0.052724516728452, 51.561626637960998 ], [ 0.052675008324836, 51.56164728258117 ], [ 0.052625785435147, 51.561676912327897 ], [ 0.05258136485614, 51.56171544817056 ], [ 0.052524543249467, 51.561798252674706 ], [ 0.052328961526581, 51.561877191739164 ], [ 0.052058983728347, 51.561968309961614 ], [ 0.05173977688902, 51.56208896714395 ], [ 0.051532893536815, 51.56220496213227 ], [ 0.051392542202341, 51.562324378300623 ], [ 0.051007536085272, 51.562907558216644 ], [ 0.050745982527347, 51.563217885593922 ], [ 0.050665479434308, 51.563321780500402 ], [ 0.050438929215478, 51.563833863367876 ], [ 0.050344957943225, 51.563990136274427 ], [ 0.048672376961357, 51.563501345982274 ], [ 0.048112905289695, 51.563316032519033 ], [ 0.047463325200916, 51.563116021448607 ], [ 0.046966668939651, 51.562980852641289 ], [ 0.046309162250286, 51.562765690561434 ], [ 0.045641258300791, 51.562573181687931 ], [ 0.044629901842736, 51.56225270716714 ], [ 0.04391960846649, 51.562048341960633 ], [ 0.043739163643752, 51.561982264086879 ], [ 0.042653193131326, 51.561671165008221 ], [ 0.042321958595154, 51.561555569795026 ], [ 0.041955229533039, 51.561452189232149 ], [ 0.042120072468166, 51.561138169650732 ], [ 0.042275179926288, 51.560670588343136 ], [ 0.042571249755299, 51.559810199406648 ], [ 0.04286193979823, 51.559084844899061 ], [ 0.043055777963347, 51.558451975124122 ], [ 0.042877677666527, 51.558374167660681 ], [ 0.043520825384451, 51.558076978474801 ], [ 0.044087141999527, 51.557774832312674 ], [ 0.044212240338479, 51.557699829980095 ], [ 0.044422507495467, 51.557563916756962 ], [ 0.044483284791441, 51.557407326191459 ], [ 0.044574928084902, 51.557100869941941 ], [ 0.044680581750334, 51.556884071161249 ], [ 0.044861067310842, 51.556662370605473 ], [ 0.045074971840898, 51.556414104909379 ], [ 0.045464276256392, 51.55599268304055 ], [ 0.045891390575505, 51.555544617931666 ], [ 0.046118395941506, 51.555299627476266 ], [ 0.046244190585727, 51.555113131894537 ], [ 0.046309175439955, 51.554984246353449 ], [ 0.046327505241097, 51.554814910324275 ], [ 0.04616398962433, 51.55483664473423 ], [ 0.045316411531434, 51.55488110737182 ], [ 0.043664432942184, 51.554972857289862 ], [ 0.042007766449909, 51.555055675233675 ], [ 0.041775334010205, 51.554986005269662 ], [ 0.041531598869411, 51.554956088569696 ], [ 0.041155775121, 51.554969826793624 ], [ 0.040136455232111, 51.555014545699223 ], [ 0.039254404972582, 51.555064958425149 ], [ 0.03810634487268, 51.55513527400894 ], [ 0.037192475921304, 51.555181729338699 ], [ 0.036130568431952, 51.55524243669943 ], [ 0.035440070465007, 51.555254430850638 ], [ 0.035372327954028, 51.555255607338182 ], [ 0.035036048126071, 51.555217395210406 ], [ 0.034864296536533, 51.555185315781756 ], [ 0.034102639254709, 51.555023229717058 ], [ 0.033844626570281, 51.554961090548559 ], [ 0.03344782674407, 51.554861892221687 ], [ 0.033039620737915, 51.554765587504761 ], [ 0.032323603858453, 51.554591820434148 ], [ 0.032204632381984, 51.554577701228482 ], [ 0.031776297524037, 51.554547369259765 ], [ 0.030931385937296, 51.554459523681217 ], [ 0.029463315553994, 51.554338320925702 ], [ 0.029258680053659, 51.554376925156895 ], [ 0.02900028225089, 51.554404772460835 ], [ 0.028767072772281, 51.55441600102322 ], [ 0.028206071541527, 51.554384354517943 ], [ 0.027573640602496, 51.554340455698323 ], [ 0.026743478784009, 51.554257718842145 ], [ 0.025368773577842, 51.554063828686658 ], [ 0.025320106411881, 51.55472202720604 ], [ 0.025303584996957, 51.555549673390011 ], [ 0.024735771611708, 51.555563078456807 ], [ 0.023789452042988, 51.555529974441583 ], [ 0.023725735880578, 51.555621874631107 ], [ 0.023588901425993, 51.555888636167218 ], [ 0.023597520980723, 51.556503591048013 ], [ 0.023572946320779, 51.556601108509199 ], [ 0.023554416262954, 51.556639186863777 ], [ 0.023513506158139, 51.556690237701019 ], [ 0.023451244934788, 51.556750647189652 ], [ 0.023379673545305, 51.556796923063295 ], [ 0.023318987993887, 51.556825839882094 ], [ 0.023257784872719, 51.556845775488114 ], [ 0.023182120977333, 51.556864162619874 ], [ 0.023084665918559, 51.55687663270276 ], [ 0.022823212274754, 51.556803829679822 ], [ 0.022602117190842, 51.556699673450119 ], [ 0.022534705037979, 51.556609137425774 ], [ 0.022503527056035, 51.556166372893792 ], [ 0.022184581068856, 51.556197047699172 ], [ 0.021809776609176, 51.556234079133688 ], [ 0.021353364673208, 51.556286900778396 ], [ 0.020904578000676, 51.556251486101296 ], [ 0.020524683837398, 51.556208589185836 ], [ 0.020368685962798, 51.556268814647325 ], [ 0.020093748707347, 51.556476729375248 ], [ 0.019764400594466, 51.556793552123544 ], [ 0.019056882001772, 51.557428934591528 ], [ 0.018674665527334, 51.557723290403658 ], [ 0.018275602977559, 51.557997257712579 ], [ 0.018158983761171, 51.558100853641115 ], [ 0.01815759726966, 51.558101776521127 ], [ 0.01805472630154, 51.558188144356919 ], [ 0.017907638961034, 51.558288668488267 ], [ 0.017774698569563, 51.55841322219451 ], [ 0.017158334812346, 51.558797997752436 ], [ 0.016813397807736, 51.55898912816199 ], [ 0.01662431180579, 51.559084169659101 ], [ 0.016307494344194, 51.559228066323577 ], [ 0.0161025907218, 51.559293621914932 ], [ 0.015979892933074, 51.559324500233181 ], [ 0.015815594909761, 51.559358790794363 ], [ 0.015649513179718, 51.559387717755264 ], [ 0.015406929843451, 51.559416251624874 ], [ 0.015031378569044, 51.559439788675839 ], [ 0.014781815280166, 51.559439582948947 ], [ 0.014499886530421, 51.560340916955035 ], [ 0.014217367226405, 51.561326047666881 ], [ 0.014208888413575, 51.561785675339294 ], [ 0.01420924563806, 51.561793760255973 ], [ 0.014220497863406, 51.562244957837905 ], [ 0.014215694385477, 51.562984292931148 ], [ 0.01425832801692, 51.563426860200565 ], [ 0.01430059744256, 51.563764250010408 ], [ 0.014316739214242, 51.563900711436474 ], [ 0.014344322001021, 51.564392982532112 ], [ 0.014389721052307, 51.564701550307667 ], [ 0.014481621683822, 51.56521438217429 ], [ 0.014458359738331, 51.565603242188303 ], [ 0.015623963947113, 51.565597591399261 ], [ 0.016530859631493, 51.565614359354143 ], [ 0.017194297407202, 51.56560833954024 ], [ 0.017536264808978, 51.565642011084314 ], [ 0.017777550962769, 51.565682898526084 ], [ 0.017993873434088, 51.565745701430565 ], [ 0.018178973580739, 51.565818031501067 ], [ 0.018364750997931, 51.565908329735024 ], [ 0.018507421706855, 51.566003055823103 ], [ 0.018508848208181, 51.566003031261459 ], [ 0.018712983225431, 51.566147852211728 ], [ 0.018779805313747, 51.566224915025572 ], [ 0.018847068790268, 51.566309252146517 ], [ 0.018848654454796, 51.566312820862677 ], [ 0.018885395955267, 51.566360734440941 ], [ 0.018920750809676, 51.566409570893619 ], [ 0.018954719015857, 51.56645933022196 ], [ 0.018984407746901, 51.566509163242088 ], [ 0.019009737904681, 51.566559970325152 ], [ 0.019029286936145, 51.5666118658744 ], [ 0.019037891360481, 51.566642283877826 ], [ 0.019049275278041, 51.566703220203486 ], [ 0.019053447522215, 51.566765179737899 ], [ 0.019053181530611, 51.566826316704365 ], [ 0.019045782899715, 51.566887576513189 ], [ 0.019035495377563, 51.566948076969801 ], [ 0.019033119833498, 51.566958905950372 ], [ 0.019015576763102, 51.567019441462314 ], [ 0.018993714253932, 51.567079152355397 ], [ 0.018967532290237, 51.567138038627427 ], [ 0.018935366239272, 51.567196128756777 ], [ 0.018590299246899, 51.567842427091087 ], [ 0.018588992006017, 51.567845146593818 ], [ 0.018444827954722, 51.568305308657919 ], [ 0.018176651122132, 51.568896252090632 ], [ 0.017933430102843, 51.569465189378079 ], [ 0.01771487409793, 51.569938317964883 ], [ 0.017694672937545, 51.570003393491042 ], [ 0.017737042578955, 51.570049412132697 ], [ 0.017822173384607, 51.570080400683764 ], [ 0.017999317057352, 51.570104321428936 ], [ 0.018182326492849, 51.570131736914924 ], [ 0.018274661373619, 51.57013194529307 ], [ 0.01837178759545, 51.570108697166745 ], [ 0.018463083114921, 51.570053185436393 ], [ 0.018644998207392, 51.569956467466483 ], [ 0.018863018693186, 51.56986371233333 ], [ 0.019104743687712, 51.569814599416532 ], [ 0.019156662277754, 51.569845170116608 ], [ 0.019155633521158, 51.569854177811813 ], [ 0.019091283717836, 51.57032465277954 ], [ 0.019052115150163, 51.570874794672221 ], [ 0.01897250392237, 51.571747564004419 ], [ 0.01892563718199, 51.572252888465165 ], [ 0.018909682677723, 51.572349355944866 ], [ 0.018787890348107, 51.572304705506809 ], [ 0.018786463652773, 51.572304730075608 ], [ 0.01804231323, 51.572021682506694 ], [ 0.017919403870413, 51.572180223807237 ], [ 0.017809809501911, 51.572311655773653 ], [ 0.017652062526469, 51.572465402446191 ], [ 0.01749903097905, 51.572593985728709 ], [ 0.017338140996781, 51.572674068284826 ], [ 0.017087605114722, 51.572752996140785 ], [ 0.016699750235562, 51.57285855877933 ], [ 0.016486222219514, 51.572891898831152 ], [ 0.016370228307462, 51.572911064862026 ], [ 0.016492079512669, 51.573121132330058 ], [ 0.016859769227638, 51.573605839382736 ], [ 0.017222908280964, 51.574113907543364 ], [ 0.017344443531043, 51.574252149612896 ], [ 0.017409264841901, 51.574412853600357 ], [ 0.017417379679331, 51.574596199271646 ], [ 0.017383188248246, 51.57493130451256 ], [ 0.01737774878684, 51.575397168508822 ], [ 0.017347495237484, 51.575886017846997 ], [ 0.017406667447938, 51.576505476705165 ], [ 0.01744008160936, 51.577457192849785 ], [ 0.017388373405701, 51.577592929865553 ], [ 0.016642104833855, 51.579190312967341 ], [ 0.016400888327897, 51.579316723151969 ], [ 0.016003804946018, 51.580127420031843 ], [ 0.015259541881978, 51.581707586528097 ], [ 0.015359279694832, 51.581742820329261 ], [ 0.015456001074694, 51.581777117020721 ], [ 0.015696536797029, 51.58186377918878 ], [ 0.015557214392418, 51.581977647716819 ], [ 0.015499945448861, 51.582052438395387 ], [ 0.015405654961833, 51.58220508775819 ], [ 0.015273403929299, 51.58251130592474 ], [ 0.01543029897584, 51.582533780691328 ], [ 0.015412875582788, 51.582726551748003 ], [ 0.015440362990642, 51.582958016075622 ], [ 0.015528483284715, 51.583384595588939 ], [ 0.014892574612458, 51.583397322994493 ], [ 0.014126807042768, 51.583412279919422 ], [ 0.013395619591338, 51.583787218541033 ], [ 0.013351909934768, 51.584104500020381 ], [ 0.013299958898309, 51.584563961854201 ], [ 0.013164144156106, 51.585409806902717 ], [ 0.01305919592623, 51.586008711324823 ], [ 0.01294533800091, 51.586961157386902 ], [ 0.0129454173312, 51.586962953983701 ], [ 0.012858700498908, 51.587613685796015 ], [ 0.01270717401999, 51.588627009644462 ], [ 0.012648316475857, 51.588994983359882 ], [ 0.012601862223246, 51.589315008307096 ], [ 0.012539789937637, 51.589807006303758 ], [ 0.012518438261672, 51.590369414465073 ], [ 0.012417151796928, 51.590757803874197 ], [ 0.012417119027779, 51.590951174783662 ], [ 0.012478858330794, 51.591271140371354 ], [ 0.012301995094339, 51.591449476957017 ], [ 0.012306599493631, 51.591553769359322 ], [ 0.012274367340773, 51.591643321463557 ], [ 0.012290829769687, 51.592016204963329 ], [ 0.0122173637203, 51.592118151464952 ], [ 0.012224980532043, 51.592158564676154 ], [ 0.012116266078432, 51.592149642714027 ], [ 0.012111331250844, 51.592690112203194 ], [ 0.012160707687965, 51.592991416636991 ], [ 0.012200929053446, 51.59337918159062 ], [ 0.012214337041911, 51.593453657875756 ], [ 0.012330225176912, 51.594115306314876 ], [ 0.012368692814315, 51.594301636878754 ], [ 0.01237357544427, 51.594344794690237 ], [ 0.012379208262523, 51.594407627592659 ], [ 0.012402566412544, 51.594513308011535 ], [ 0.01243842059299, 51.594670106532398 ], [ 0.01245444493371, 51.594803781620747 ], [ 0.01256252492474, 51.595355886863722 ], [ 0.012562802765473, 51.595362175053111 ], [ 0.012638054746201, 51.595920237656529 ], [ 0.01262341059629, 51.596405136580586 ], [ 0.012710955597551, 51.596918038564311 ], [ 0.012817629565629, 51.597696714511805 ], [ 0.012883023714552, 51.598392492430413 ], [ 0.012931133133027, 51.599055394088779 ], [ 0.013017310979723, 51.599208542256356 ], [ 0.013256614916331, 51.599593789964679 ], [ 0.013427194864777, 51.599892115458552 ], [ 0.013796270451788, 51.600368720610938 ], [ 0.014169652881975, 51.60094234682326 ], [ 0.014843199900724, 51.601771530676579 ], [ 0.015765192913171, 51.603058718999627 ], [ 0.01707223551064, 51.604854597471721 ], [ 0.017212791353706, 51.60505994257808 ], [ 0.017427442246486, 51.605308964584147 ], [ 0.017458385663644, 51.605354282110881 ], [ 0.017482384006424, 51.60537454684038 ], [ 0.018014600006338, 51.605816790473924 ], [ 0.01800914478172, 51.605889793524497 ], [ 0.018084992427575, 51.605970299254203 ], [ 0.018155834078606, 51.606005041743799 ], [ 0.018013339797515, 51.606048845258286 ], [ 0.018300272737437, 51.606525959415443 ], [ 0.018732884241237, 51.607162389032581 ], [ 0.019130915416729, 51.607767946640237 ], [ 0.019144881556468, 51.607790181577656 ], [ 0.019472500892057, 51.60765410132705 ], [ 0.019578826567521, 51.607610918232496 ], [ 0.019454213005786, 51.607797447541842 ], [ 0.019333743591431, 51.608074704904908 ], [ 0.019268094748798, 51.608224169750528 ], [ 0.019264329352412, 51.60823592156985 ], [ 0.019434131463578, 51.608254577249859 ], [ 0.019502353865612, 51.608262393868394 ], [ 0.019531454335362, 51.608365368769753 ], [ 0.019613361615364, 51.608550053865414 ], [ 0.019650506901254, 51.608638416380764 ], [ 0.019682655620382, 51.608713469664593 ], [ 0.019598295273387, 51.60873110286628 ], [ 0.01955819740456, 51.60873988362701 ], [ 0.019666668378504, 51.608873767747241 ], [ 0.019708129298969, 51.608927894173419 ], [ 0.019877617436157, 51.609103072463633 ], [ 0.020212392234822, 51.609779841389624 ], [ 0.020394236893961, 51.609710185629261 ], [ 0.020449268625299, 51.60978026046611 ], [ 0.020713495907948, 51.61016867074806 ], [ 0.020638518733118, 51.610268942150228 ], [ 0.020861405609746, 51.610603223927633 ], [ 0.021075543515642, 51.61054739548748 ], [ 0.021217558976008, 51.610752622245258 ], [ 0.021401004809849, 51.611145208554213 ], [ 0.021204907852372, 51.611183645801866 ], [ 0.021334283834408, 51.611431343489194 ], [ 0.021378874410923, 51.611587992547577 ], [ 0.021400815394741, 51.611757527766592 ], [ 0.02140596732856, 51.611873501301787 ], [ 0.021391612504255, 51.612038267313942 ], [ 0.021343373777428, 51.612156059003517 ], [ 0.021290479109043, 51.612233385458957 ], [ 0.021259034089809, 51.612273483225096 ], [ 0.021073963360094, 51.612463753005123 ], [ 0.02058756150304, 51.612894749014977 ], [ 0.016278067130896, 51.616852728771363 ], [ 0.016158629351941, 51.61689622388198 ], [ 0.016067987859702, 51.616936437534399 ], [ 0.0158234352553, 51.617056608166735 ], [ 0.015300396791762, 51.617216619066156 ], [ 0.014729243207384, 51.617400914885764 ], [ 0.013549864832066, 51.617744869893698 ], [ 0.010640611051633, 51.618531168840939 ], [ 0.009122415467157, 51.618955583991792 ], [ 0.009028273164097, 51.618984164214382 ], [ 0.008704427482164, 51.619076006735391 ], [ 0.009051404227639, 51.619181547955264 ], [ 0.009484112764142, 51.619165155836022 ], [ 0.009674462323232, 51.619189768029607 ], [ 0.009750355578962, 51.619174085510309 ], [ 0.009860366914193, 51.619148829154277 ], [ 0.009908726270348, 51.619097657769927 ], [ 0.009928125561484, 51.619078446855909 ], [ 0.009951214937692, 51.619078051742953 ], [ 0.010029171332894, 51.619076717694014 ], [ 0.010139420404157, 51.619054153991222 ], [ 0.010148148463963, 51.619057600609537 ], [ 0.010228487094907, 51.61911016552525 ], [ 0.010237891225701, 51.619158550456383 ], [ 0.010253442627921, 51.619151991311142 ], [ 0.010355796274953, 51.619112481577432 ], [ 0.010400902931043, 51.619087436586739 ], [ 0.010513570081552, 51.619022578236532 ], [ 0.010706890504864, 51.618950046112431 ], [ 0.010897481465375, 51.619047471032424 ], [ 0.011221923841145, 51.619066188914871 ], [ 0.011477495840883, 51.619097772341867 ], [ 0.011853234095255, 51.619099428042546 ], [ 0.012263288637044, 51.619095999639683 ], [ 0.012663700532214, 51.619068462061897 ], [ 0.014016469953779, 51.618887049814752 ], [ 0.01422518364615, 51.618869086771625 ], [ 0.014360070865144, 51.618881157507978 ], [ 0.014525665820558, 51.618903489407941 ], [ 0.014702635564073, 51.619408478842111 ], [ 0.014746178714935, 51.619544469837138 ], [ 0.01473530057794, 51.61975331430861 ], [ 0.014672999892149, 51.619946768896646 ], [ 0.014583398899457, 51.620075154591007 ], [ 0.014470067290739, 51.620192170297507 ], [ 0.014340666701691, 51.620304067452061 ], [ 0.014378002678526, 51.620329498152664 ], [ 0.014466249486629, 51.620399095602714 ], [ 0.014515603891267, 51.620402744150617 ], [ 0.014654700818465, 51.620412944459794 ], [ 0.014741392241564, 51.620447417501822 ], [ 0.014858721501383, 51.620552385927198 ], [ 0.015059090511655, 51.620671212714264 ], [ 0.015150474059229, 51.620744351647225 ], [ 0.015262247278469, 51.620823343727096 ], [ 0.015270069614796, 51.620868159501605 ], [ 0.015273602835065, 51.620883381873874 ], [ 0.01551743398067, 51.620843237582008 ], [ 0.015557941675103, 51.620846138397084 ], [ 0.0156180904851, 51.620864884114141 ], [ 0.015689471409992, 51.620911306034401 ], [ 0.015841145852496, 51.620912298739036 ], [ 0.015850391898617, 51.620924726041999 ], [ 0.016010716020252, 51.621150410088276 ], [ 0.016023455827845, 51.621177161415631 ], [ 0.016033493562847, 51.621177888110729 ], [ 0.016169981352736, 51.621225889140973 ], [ 0.016269415242237, 51.621284415166748 ], [ 0.016314894211285, 51.621332270322945 ], [ 0.016312765886452, 51.621415913923634 ], [ 0.016286266670003, 51.62143614687362 ], [ 0.01622806780835, 51.621458722018346 ], [ 0.016183434444271, 51.621462185244127 ], [ 0.016159115163232, 51.621469794732072 ], [ 0.016140075402113, 51.621494394594073 ], [ 0.016143449665751, 51.621506023676687 ], [ 0.016247576629243, 51.621605913101511 ], [ 0.016258490162723, 51.62162370575674 ], [ 0.016261073383938, 51.621649732426661 ], [ 0.016216143275031, 51.621778161829461 ], [ 0.01629157166737, 51.6218164229577 ], [ 0.016581798590367, 51.621844703144397 ], [ 0.016971665664387, 51.621938786493722 ], [ 0.017011343689914, 51.621955186106021 ], [ 0.017055824068587, 51.621980493241274 ], [ 0.017091854733907, 51.622011339485397 ], [ 0.017114911731567, 51.622042408535656 ], [ 0.017133729739689, 51.622106813426051 ], [ 0.017129172475249, 51.622135659730013 ], [ 0.017114832836741, 51.622236684025985 ], [ 0.017047165660005, 51.622338534254638 ], [ 0.017040343347912, 51.622348540429243 ], [ 0.017052048206208, 51.622351935418905 ], [ 0.017101843299442, 51.62236546426233 ], [ 0.017184608050698, 51.622375729841337 ], [ 0.017273723094801, 51.622397573308966 ], [ 0.017367475575463, 51.622395064024921 ], [ 0.017459587432181, 51.622320662743668 ], [ 0.017482479148707, 51.622315774520693 ], [ 0.017596306388706, 51.622309324209432 ], [ 0.017717048352226, 51.622359392088491 ], [ 0.017932905366193, 51.622472553822362 ], [ 0.018086787343264, 51.622552707919489 ], [ 0.018219913713361, 51.62262413856795 ], [ 0.018281461714205, 51.622677021055075 ], [ 0.018308565020904, 51.622699929358589 ], [ 0.018413199704552, 51.622746677359245 ], [ 0.018487761869505, 51.622800235103981 ], [ 0.018523246924204, 51.622850958278171 ], [ 0.018581666872343, 51.622929965442871 ], [ 0.01865224496956, 51.623086976797886 ], [ 0.018775379991391, 51.623161365516701 ], [ 0.018834862368434, 51.623197202218911 ], [ 0.018855304318951, 51.623236406948436 ], [ 0.018834964428883, 51.623298787699731 ], [ 0.018775064270307, 51.623347464365416 ], [ 0.018716273924233, 51.623391626911527 ], [ 0.018598757316005, 51.62341162665745 ], [ 0.018490658915292, 51.623482797433617 ], [ 0.018487139014475, 51.623535000028596 ], [ 0.018573679277182, 51.62356317986255 ], [ 0.018689575699399, 51.623571077061634 ], [ 0.018811224809565, 51.623577077267882 ], [ 0.018891015724994, 51.623584695835078 ], [ 0.018930535688554, 51.623594804567645 ], [ 0.01898453851966, 51.623609159349918 ], [ 0.019068661219115, 51.623647269413354 ], [ 0.019081802305611, 51.623683003606224 ], [ 0.01907288871721, 51.623742490973875 ], [ 0.019031752211851, 51.623760369038429 ], [ 0.018921118706652, 51.623710038700047 ], [ 0.018837767572017, 51.623751027447582 ], [ 0.018797986783283, 51.623799448192344 ], [ 0.018775739721265, 51.623851073672895 ], [ 0.018827027459074, 51.623965264421003 ], [ 0.018768442992236, 51.624046282504715 ], [ 0.018640089491106, 51.624050286454398 ], [ 0.018607489335147, 51.62409678570706 ], [ 0.018610121006663, 51.624156074599767 ], [ 0.018645875273857, 51.624180632186885 ], [ 0.018859175608349, 51.624168875218196 ], [ 0.019026242526376, 51.624288267881433 ], [ 0.019035443364985, 51.624755770589481 ], [ 0.019048160873381, 51.624846351193469 ], [ 0.019165217222245, 51.624880299156025 ], [ 0.019270647223513, 51.624909951862179 ], [ 0.019289103507505, 51.624936604649207 ], [ 0.019294265569035, 51.624953596949972 ], [ 0.019147520999935, 51.625034422601424 ], [ 0.01944522909221, 51.625230681256319 ], [ 0.0195021977473, 51.625343965026524 ], [ 0.019500346004699, 51.625398835998674 ], [ 0.019468739123965, 51.625467703556659 ], [ 0.019474436558284, 51.625563798281235 ], [ 0.01943402495728, 51.625630209499924 ], [ 0.01948550818793, 51.6257138298757 ], [ 0.019630911000732, 51.625801229472984 ], [ 0.019821318353061, 51.625922915853366 ], [ 0.019815178644784, 51.625948283163801 ], [ 0.019818155199033, 51.625950928966311 ], [ 0.019814029581669, 51.625954595881723 ], [ 0.019788504496268, 51.626063813082311 ], [ 0.019826128493596, 51.626098226938417 ], [ 0.019954814410743, 51.626131074951445 ], [ 0.020091849180216, 51.626225809868885 ], [ 0.020088614100468, 51.62628169305448 ], [ 0.020095000267545, 51.626425422336979 ], [ 0.020128259674608, 51.626458113173364 ], [ 0.020161887587308, 51.626533949395387 ], [ 0.02016360793334, 51.626572666468903 ], [ 0.020164525984995, 51.626593327552108 ], [ 0.020164965053564, 51.626603208939713 ], [ 0.019947610799068, 51.626784048497711 ], [ 0.019949406810916, 51.626824472357178 ], [ 0.019949188070721, 51.62688389963958 ], [ 0.019948015833102, 51.626954041348682 ], [ 0.019943699644947, 51.626988277347749 ], [ 0.019948263673027, 51.626991794845608 ], [ 0.019948033271638, 51.627021465617545 ], [ 0.02026076590999, 51.627231037268189 ], [ 0.020317398848527, 51.627269619049606 ], [ 0.020438179626487, 51.627255854849935 ], [ 0.020502664142664, 51.627275422621153 ], [ 0.020547351399618, 51.62730521981436 ], [ 0.020589462007129, 51.627344051256053 ], [ 0.020618046670226, 51.627400196235534 ], [ 0.020620561972241, 51.627456789622777 ], [ 0.020577693505961, 51.627534930403939 ], [ 0.020561049390942, 51.627613429201894 ], [ 0.020489999226156, 51.62767398488004 ], [ 0.020492274854252, 51.627725188420534 ], [ 0.02057469003618, 51.627856012972998 ], [ 0.020588401688735, 51.627936686626647 ], [ 0.020582187163621, 51.62799253116961 ], [ 0.020695756922918, 51.628140799672302 ], [ 0.020698751524586, 51.628208172743058 ], [ 0.020663610239988, 51.628264514854664 ], [ 0.020674207823847, 51.628275120501414 ], [ 0.020695442934596, 51.628297230099641 ], [ 0.020815077317877, 51.628289778250874 ], [ 0.021008846994518, 51.628326000635298 ], [ 0.021061817826343, 51.628316998384641 ], [ 0.021119272246259, 51.628307019977072 ], [ 0.021127173483631, 51.628323964936683 ], [ 0.021143055080203, 51.628356954498777 ], [ 0.021145451305829, 51.628410852946928 ], [ 0.021085241286113, 51.628484797284138 ], [ 0.020982495475146, 51.628580060320147 ], [ 0.020921101931362, 51.628694389771404 ], [ 0.020915259460508, 51.628788075597278 ], [ 0.020971106112345, 51.628843751528692 ], [ 0.020987476148994, 51.628919884441189 ], [ 0.021051603832652, 51.628931367150543 ], [ 0.021208599703465, 51.628855847585797 ], [ 0.021301245812274, 51.628825485743718 ], [ 0.021348073181891, 51.628839063944142 ], [ 0.021375812333634, 51.628846677606283 ], [ 0.021408324979733, 51.628894663883919 ], [ 0.021294301278869, 51.628961353410219 ], [ 0.021358638996799, 51.629012388102559 ], [ 0.02137356239162, 51.629023818255853 ], [ 0.021589441639533, 51.628938295045593 ], [ 0.021818845239947, 51.628832760777129 ], [ 0.022048088779209, 51.628726329795384 ], [ 0.022574649902943, 51.628479840686374 ], [ 0.022989483105934, 51.628287414879303 ], [ 0.023963916204002, 51.627847113667571 ], [ 0.024587920225387, 51.627518026489234 ], [ 0.024911671206407, 51.627324466222738 ], [ 0.025890322553766, 51.626720368058834 ], [ 0.026387848430673, 51.62630984507647 ], [ 0.02649151285646, 51.626171409205256 ], [ 0.02662331134836, 51.62604947889163 ], [ 0.026687570249284, 51.625999824389623 ], [ 0.026833667926814, 51.625907403918845 ], [ 0.026968111908003, 51.62584485125916 ], [ 0.02704805369044, 51.625820996850557 ], [ 0.027142355531192, 51.625798602668311 ], [ 0.027423375921905, 51.625750600839993 ], [ 0.027571287713444, 51.625730966899432 ], [ 0.02779879384141, 51.625711756773114 ], [ 0.027934998829226, 51.625688728467566 ], [ 0.028046442402841, 51.625660733519538 ], [ 0.028145978980789, 51.625624853065091 ], [ 0.028281928848676, 51.625564070835239 ], [ 0.028574391252643, 51.625382725669809 ], [ 0.029082461199221, 51.625113147915833 ], [ 0.029090589459053, 51.625100421384616 ], [ 0.028963151444346, 51.624673705737948 ], [ 0.029318444839608, 51.624637900703711 ], [ 0.029330096538137, 51.624608032108284 ], [ 0.029441965372635, 51.624394742316234 ], [ 0.029486691420837, 51.624329240887356 ], [ 0.029587301623159, 51.624218722368653 ], [ 0.02966416490918, 51.624160666724379 ], [ 0.029851268398505, 51.62404775429841 ], [ 0.030727128680243, 51.62363606143284 ], [ 0.030524057441035, 51.623292464561921 ], [ 0.031470470176707, 51.623100702235725 ], [ 0.031695467475157, 51.62293229147572 ], [ 0.032166867600901, 51.62265074574789 ], [ 0.03239587595115, 51.622505547902392 ], [ 0.032620642093454, 51.622361411928416 ], [ 0.032781539424886, 51.622243463526011 ], [ 0.03290356055987, 51.622129873848223 ], [ 0.033020252379696, 51.621993002008551 ], [ 0.034026930677478, 51.62108258143148 ], [ 0.034194178558581, 51.62091237829096 ], [ 0.034270133113373, 51.620802282110454 ], [ 0.034303161273474, 51.620765749475517 ], [ 0.034585476783517, 51.620553096735613 ], [ 0.034707266053382, 51.62046647940609 ], [ 0.035485447648909, 51.61997184174276 ], [ 0.035678917337289, 51.619807564781716 ], [ 0.035987208457875, 51.619531527307828 ], [ 0.036123230955925, 51.61943836855378 ], [ 0.036373128350337, 51.6192442536192 ], [ 0.036700458258038, 51.618909448159208 ], [ 0.037056683560382, 51.618605605875111 ], [ 0.037386578471652, 51.618392120565396 ], [ 0.037477584001704, 51.618325812588701 ], [ 0.037531222054469, 51.61813788720827 ], [ 0.037545232618435, 51.617900214808138 ], [ 0.037605709463059, 51.617865002889332 ], [ 0.037742571131113, 51.617921063704998 ], [ 0.038398020864537, 51.617493354227719 ], [ 0.038434142468399, 51.617525990646122 ], [ 0.040214395736851, 51.616410502107428 ], [ 0.040110189508979, 51.616245995224503 ], [ 0.040013964526886, 51.616097441927039 ], [ 0.040177805350443, 51.616046048544469 ], [ 0.040408634141089, 51.615974611600102 ], [ 0.04070343479767, 51.615882284097282 ], [ 0.040714857631614, 51.615879388529919 ], [ 0.040671729971262, 51.615818016240375 ], [ 0.040654735429446, 51.615794937244281 ], [ 0.040784726786279, 51.615729747054516 ], [ 0.040787661665825, 51.615728797031252 ], [ 0.040902229588348, 51.615675561950148 ], [ 0.040999898207249, 51.615792534077222 ], [ 0.041110742774802, 51.615911165014566 ], [ 0.041281256569822, 51.616043052852966 ], [ 0.041544647726218, 51.616182405677762 ], [ 0.041867932589695, 51.616369173249751 ], [ 0.042186392095166, 51.616512062104356 ], [ 0.042515707840346, 51.616639388131077 ], [ 0.042911963107969, 51.616780022749602 ], [ 0.043250042979839, 51.61684516230811 ], [ 0.043705056345647, 51.616941529232037 ], [ 0.044315776998624, 51.617030778427988 ], [ 0.044857999083195, 51.617138208752628 ], [ 0.045432039803254, 51.617245981396088 ], [ 0.046156292894228, 51.617227069699204 ], [ 0.046203548017506, 51.617377370666468 ], [ 0.046302259399694, 51.617390034687681 ], [ 0.046421753564768, 51.617348395510703 ], [ 0.047080527169815, 51.617348599603275 ], [ 0.047860468123222, 51.617410516943337 ], [ 0.047951798649829, 51.617513209864747 ], [ 0.049121560946548, 51.617762596056977 ], [ 0.049944208494784, 51.617875986601071 ], [ 0.050633873926844, 51.617985310970006 ], [ 0.051353515671607, 51.618117482028175 ], [ 0.052372809692795, 51.618296644174194 ], [ 0.053097930464455, 51.618423314753038 ], [ 0.053270445828286, 51.618405913821107 ], [ 0.053372859626041, 51.618305231035535 ], [ 0.053527512003576, 51.618277353907445 ], [ 0.053711153848066, 51.618279536089979 ], [ 0.054036595567821, 51.617937521221116 ], [ 0.054248626509337, 51.617769201840552 ], [ 0.054287348878653, 51.617732563691199 ], [ 0.054380706083322, 51.61762394727976 ], [ 0.054391195492863, 51.617600389310809 ], [ 0.054397855107529, 51.617555321946057 ], [ 0.054390198229658, 51.617515000159322 ], [ 0.054334460574199, 51.617399013287944 ], [ 0.054302580076368, 51.617333942847473 ], [ 0.054214057305814, 51.617196144010087 ], [ 0.054176712456166, 51.617105007853333 ], [ 0.05417313469158, 51.617057422632072 ], [ 0.054198244036945, 51.616975172940116 ], [ 0.054254955308557, 51.616917542776449 ], [ 0.054274954630213, 51.616883030285784 ], [ 0.054282096903439, 51.616848652837675 ], [ 0.054274599788947, 51.616809227328986 ], [ 0.054250952719078, 51.616765589299384 ], [ 0.05421127742595, 51.616720433655743 ], [ 0.054138112277161, 51.616666873747818 ], [ 0.053686857631484, 51.61646161094145 ], [ 0.053623771269118, 51.616409672457486 ], [ 0.053585310684747, 51.616388768774051 ], [ 0.053489829681122, 51.616352680062214 ], [ 0.053430115255236, 51.616341138195331 ], [ 0.053347397082497, 51.616334493669108 ], [ 0.053270996791449, 51.61633852678596 ], [ 0.053208011642687, 51.616349517387505 ], [ 0.053148169020846, 51.616369443157438 ], [ 0.053008562013158, 51.616442906510791 ], [ 0.052955482862594, 51.616483391273448 ], [ 0.05282369930254, 51.61660355630989 ], [ 0.052746390348669, 51.616653454750164 ], [ 0.052657332163286, 51.616696366418786 ], [ 0.052557793322033, 51.616731370097455 ], [ 0.052449402015658, 51.616760235328861 ], [ 0.052326126781017, 51.616781269484342 ], [ 0.052147826226975, 51.616799669184282 ], [ 0.052000936280455, 51.616809428530168 ], [ 0.051795397641998, 51.616802232277287 ], [ 0.051727197927271, 51.616795332898 ], [ 0.051677558588643, 51.616782715068922 ], [ 0.0515862815232, 51.616744753323132 ], [ 0.051476049617578, 51.61667206109653 ], [ 0.051421518605594, 51.616646043399513 ], [ 0.051343861997441, 51.616622227736869 ], [ 0.050767238844091, 51.616520732711024 ], [ 0.05054106291617, 51.616502207519773 ], [ 0.050214733109239, 51.61640991348915 ], [ 0.050176355021696, 51.616390805284233 ], [ 0.050109312263205, 51.616346126130544 ], [ 0.050029305163107, 51.616270117863401 ], [ 0.049959175171272, 51.616188632906535 ], [ 0.049840168111138, 51.616013604634134 ], [ 0.049777701348992, 51.615943583077602 ], [ 0.04968591311179, 51.615862476058524 ], [ 0.049569528939564, 51.61578000028522 ], [ 0.049456808237279, 51.615712743709139 ], [ 0.049356398575575, 51.615664960579572 ], [ 0.049066995279778, 51.615556735596215 ], [ 0.048951705266565, 51.615498513528102 ], [ 0.048853509556897, 51.615436396994944 ], [ 0.048790549115534, 51.61538445373548 ], [ 0.048743574283835, 51.615335737670812 ], [ 0.048483471976972, 51.614981478943434 ], [ 0.048374482801293, 51.614774808870145 ], [ 0.048334012558244, 51.614677432327937 ], [ 0.048311813025651, 51.614602302323227 ], [ 0.048304253286264, 51.614529613970909 ], [ 0.048308439070926, 51.614461215794037 ], [ 0.048354105168495, 51.614290415360522 ], [ 0.048363452025384, 51.614273171010829 ], [ 0.04850426417622, 51.614128580041807 ], [ 0.048527160896013, 51.614092219948724 ], [ 0.048537288576935, 51.61406057771314 ], [ 0.048535761899523, 51.613992279186405 ], [ 0.048513752094118, 51.613953106522061 ], [ 0.048467968493473, 51.613899065370241 ], [ 0.048410924944617, 51.613851513752017 ], [ 0.048258122932168, 51.613761490958602 ], [ 0.048201403263468, 51.613721125698113 ], [ 0.048148603815808, 51.613672600889991 ], [ 0.048107345268962, 51.613621177700693 ], [ 0.048074250536122, 51.613560621942085 ], [ 0.048055872090804, 51.613504214653886 ], [ 0.048051977660227, 51.61344944265123 ], [ 0.048062118383155, 51.613386334694646 ], [ 0.048093917108537, 51.613322848949494 ], [ 0.04814618835335, 51.613264400168752 ], [ 0.048213181934189, 51.613212886664044 ], [ 0.048231539112519, 51.61320267726316 ], [ 0.048416517509726, 51.613399031659533 ], [ 0.048566045644583, 51.613511586718246 ], [ 0.048707836124278, 51.613579235930224 ], [ 0.048815267422751, 51.613592644596082 ], [ 0.048921240215425, 51.613571017015204 ], [ 0.049060509501633, 51.613521837796497 ], [ 0.05006891336705, 51.613107589339371 ], [ 0.050860504067858, 51.612758342402756 ], [ 0.051602070592904, 51.612417156292196 ], [ 0.051878881820845, 51.612309831278246 ], [ 0.052631108123506, 51.612015201111916 ], [ 0.05283576485996, 51.611910933256574 ], [ 0.053148880990745, 51.611742646471797 ], [ 0.05345172211109, 51.611571032379047 ], [ 0.054080886434352, 51.611238988300506 ], [ 0.056015659544193, 51.610296847549073 ], [ 0.056494884028428, 51.610068105721737 ], [ 0.057443273924547, 51.609672914429446 ], [ 0.058342014357581, 51.609265100556378 ], [ 0.059310600139745, 51.608837984418983 ], [ 0.059999499889297, 51.608583076603544 ], [ 0.060697618697421, 51.608276849137887 ], [ 0.061163502073834, 51.608006969154275 ], [ 0.061144013927517, 51.607929007417745 ], [ 0.061635016441863, 51.607672259572624 ], [ 0.061772859820444, 51.607652757799215 ], [ 0.062059613441227, 51.607448051419759 ], [ 0.062545430497997, 51.607077126364452 ], [ 0.062567739518113, 51.607059653230763 ], [ 0.062770874061967, 51.607048892349781 ], [ 0.062998643425408, 51.606911746735939 ], [ 0.063376153418029, 51.607117369369853 ], [ 0.064010712354526, 51.607224885066159 ], [ 0.064698947475271, 51.606922313140807 ], [ 0.065418458652935, 51.606642650916719 ], [ 0.06548876318709, 51.606601767622486 ], [ 0.065967084150911, 51.606320950723273 ], [ 0.066665531868082, 51.606212373542419 ], [ 0.067305748528081, 51.606127382765202 ], [ 0.067684150343124, 51.606064081109963 ], [ 0.068093461259347, 51.605981354462862 ], [ 0.068909503356958, 51.60573044610333 ], [ 0.069518944685322, 51.605508346430014 ], [ 0.070321875435258, 51.605252265005369 ], [ 0.071015362992743, 51.605100686166509 ], [ 0.071690698145768, 51.604961110666558 ], [ 0.072256942652942, 51.604836852198858 ], [ 0.072817803997115, 51.604691199540909 ], [ 0.072832036382504, 51.604687352188087 ], [ 0.073513463727414, 51.60493522375851 ], [ 0.073840952491071, 51.605087665740669 ], [ 0.075179208976059, 51.605583828455828 ], [ 0.076296392112419, 51.606137827298625 ], [ 0.076910697253074, 51.606403858200267 ], [ 0.077909147528333, 51.606729794560295 ], [ 0.078821050276973, 51.606995942235372 ], [ 0.078949279587078, 51.60702163103845 ], [ 0.079080192163929, 51.607040889169163 ], [ 0.079170035510627, 51.607047389243895 ], [ 0.079372106819248, 51.607044709444544 ], [ 0.07953898398426, 51.607032763511945 ], [ 0.080036582499292, 51.606985290799578 ], [ 0.080494123281758, 51.606915960510882 ], [ 0.080974224977733, 51.606866096793965 ], [ 0.081519401782225, 51.60678630878494 ], [ 0.082027449510758, 51.60665503350652 ], [ 0.08281247136403, 51.606419860157715 ], [ 0.083200809590646, 51.606480396092735 ], [ 0.083306225074367, 51.606478525436387 ], [ 0.083412825926902, 51.606473936590447 ], [ 0.083844873519292, 51.606415024150245 ], [ 0.084474831522553, 51.606358889235906 ], [ 0.084886507694778, 51.606169886596881 ], [ 0.085231357410625, 51.605912844730447 ], [ 0.085483203379664, 51.6057024949124 ], [ 0.085545238515711, 51.605543974095013 ], [ 0.085620852399957, 51.60555701503872 ], [ 0.08645798832132, 51.604882975122393 ], [ 0.086691770643118, 51.604691822595115 ], [ 0.086804319962899, 51.604689821727611 ], [ 0.086892616349496, 51.604631523568081 ], [ 0.086898281265464, 51.604627826757678 ], [ 0.08714500160682, 51.604467009915091 ], [ 0.088921773229871, 51.604853539806477 ], [ 0.088926841536299, 51.605184380960075 ], [ 0.08935803190115, 51.605389865923115 ], [ 0.08962957254936, 51.605518088329475 ], [ 0.089998072852225, 51.605615904981121 ], [ 0.090245841524193, 51.605667233046191 ], [ 0.090310541020322, 51.605564490895979 ], [ 0.090464862361003, 51.605655241629201 ], [ 0.091428727359303, 51.605918659660027 ], [ 0.09232847321572, 51.606139160805924 ], [ 0.092497609828233, 51.606173905305916 ], [ 0.092499078876565, 51.606174778149722 ], [ 0.092580938931932, 51.606196693737509 ], [ 0.092504408902057, 51.606290657956357 ], [ 0.09171425902145, 51.607480129586314 ], [ 0.091873664254708, 51.608214672703077 ], [ 0.092650968069954, 51.609476897183846 ], [ 0.093716571750248, 51.609754667368819 ], [ 0.093908536720024, 51.609876298000032 ], [ 0.094075244799229, 51.610046836014412 ], [ 0.094184331594194, 51.610220289464493 ], [ 0.09423467189631, 51.610372225199164 ], [ 0.09423082416822, 51.610539601653798 ], [ 0.094236116291446, 51.610654581962876 ], [ 0.094692432233956, 51.610747132656186 ], [ 0.09483539992093, 51.61077694682605 ], [ 0.094815874709319, 51.61079257853271 ], [ 0.094689515531589, 51.610965736728787 ], [ 0.094556123144422, 51.611174981079351 ], [ 0.094340958468342, 51.611457605505926 ], [ 0.093994208814176, 51.611988907916718 ], [ 0.093713609256868, 51.612389570689693 ], [ 0.093641311335141, 51.612479952765334 ], [ 0.093554822313986, 51.612577690078268 ], [ 0.093356200635875, 51.612782701779508 ], [ 0.092823429133955, 51.613226515540084 ], [ 0.092284679989592, 51.613574238086713 ], [ 0.092844612049447, 51.613718081963135 ], [ 0.092846040022812, 51.613718056511949 ], [ 0.093643509808824, 51.613971838273564 ], [ 0.094882468920953, 51.614403836398608 ], [ 0.096079165189815, 51.614794322093196 ], [ 0.096513355740264, 51.61490712942436 ], [ 0.097029106181523, 51.615001307341608 ], [ 0.097140072471448, 51.61502899327197 ], [ 0.097457156046383, 51.615138404552674 ], [ 0.097621994481107, 51.615205673593827 ], [ 0.098068211961446, 51.615421557934937 ], [ 0.099469324589721, 51.613605218773635 ], [ 0.100168266133818, 51.612724896622147 ], [ 0.101577744744993, 51.613062978535687 ], [ 0.103414366944116, 51.613453628916758 ], [ 0.103837704796818, 51.612551339203279 ], [ 0.104097437341238, 51.612607819745094 ], [ 0.104976518905133, 51.612815024752294 ], [ 0.105589457005164, 51.612950667998788 ], [ 0.106019031598792, 51.613056242531442 ], [ 0.107053256467472, 51.613275124236033 ], [ 0.107647725648742, 51.613448847115542 ], [ 0.109631692042751, 51.61396172054085 ], [ 0.10990485029124, 51.614089059894994 ], [ 0.113449624157618, 51.615552316275441 ], [ 0.115735928443133, 51.616508440592192 ], [ 0.116710005576055, 51.616921613533357 ], [ 0.116720204546085, 51.616923227790011 ], [ 0.118606484386751, 51.615366723668231 ], [ 0.119307111619985, 51.615368468879225 ], [ 0.119928003629429, 51.615578514465739 ], [ 0.12034340629506, 51.615751810284074 ], [ 0.120873553915478, 51.616061482579589 ], [ 0.120982979300259, 51.616117044284437 ], [ 0.121115861677483, 51.616177576446098 ], [ 0.121379116815254, 51.616278008088607 ], [ 0.122045069786826, 51.616557352604168 ], [ 0.122216160477509, 51.616601999739657 ], [ 0.122327557869444, 51.61663594798771 ], [ 0.122532263309163, 51.616719454459243 ], [ 0.123319534847585, 51.617122462876317 ], [ 0.123497252621791, 51.617183979965986 ], [ 0.123900970028139, 51.617353879038504 ], [ 0.124198448067454, 51.617505919436134 ], [ 0.124292136454573, 51.617563560921234 ], [ 0.124419487228513, 51.617661049749024 ], [ 0.124809145899292, 51.618024490879911 ], [ 0.12492261241491, 51.618166372567551 ], [ 0.125001269626453, 51.618302500795387 ], [ 0.125189702454805, 51.618779352131007 ], [ 0.125354004283486, 51.618958881903261 ], [ 0.125702331170102, 51.619270924297375 ], [ 0.126098265911113, 51.619643237793191 ], [ 0.126816554701602, 51.619835302351142 ], [ 0.127043488053934, 51.619899519215686 ], [ 0.127090630580608, 51.619919343152404 ], [ 0.12728524710335, 51.620033681173943 ], [ 0.127410552890994, 51.620087151438149 ], [ 0.127469113886775, 51.62010407133284 ], [ 0.127619188240465, 51.620131919994733 ], [ 0.127906407815207, 51.620219316922359 ], [ 0.128067024031748, 51.620286621140522 ], [ 0.128223739077709, 51.62042582810377 ], [ 0.128412139461418, 51.620529398652408 ], [ 0.128573051798876, 51.620602990002759 ], [ 0.128879458703958, 51.620698128089053 ], [ 0.129187356498079, 51.621443414846361 ], [ 0.130203567962288, 51.621609380303717 ], [ 0.130602680591426, 51.62174059173983 ], [ 0.131039124304649, 51.621898185263134 ], [ 0.131289962991111, 51.621979041729453 ], [ 0.132218051243097, 51.622208621916499 ], [ 0.132334175198947, 51.622251465354609 ], [ 0.132650522683935, 51.6224337089171 ], [ 0.133069561033594, 51.622621189221931 ], [ 0.134178030391399, 51.623150540692983 ], [ 0.135528172075192, 51.623475814455396 ], [ 0.135810383835547, 51.623547100845563 ], [ 0.136005525718692, 51.623580502569808 ], [ 0.136106242711303, 51.623602045799444 ], [ 0.136158423382841, 51.623604692998526 ], [ 0.136240371092671, 51.623596909532885 ], [ 0.137303582771887, 51.623592852592836 ], [ 0.137430120153688, 51.623611227798996 ], [ 0.137519665626736, 51.623610497408336 ], [ 0.137591496360583, 51.623602897095012 ], [ 0.137673013903621, 51.623583433097046 ], [ 0.13794157332126, 51.623582141591733 ], [ 0.138184044228212, 51.623545363249114 ], [ 0.139229865547344, 51.622313173836545 ], [ 0.140111744542073, 51.621342072600463 ], [ 0.140300047190376, 51.621169534526992 ], [ 0.140567839861321, 51.620964980647116 ], [ 0.1406883766244, 51.620886366624291 ], [ 0.140832997269711, 51.620767756295756 ], [ 0.140884065983802, 51.620716479952321 ], [ 0.140964665499056, 51.620616926943299 ], [ 0.141986251104482, 51.619487732636642 ], [ 0.142105469215361, 51.619287682404185 ], [ 0.142189238349741, 51.619227717864014 ], [ 0.142235395252213, 51.619193612025335 ], [ 0.142488553272319, 51.618956955475483 ], [ 0.142653153368699, 51.618769652218198 ], [ 0.142886149564199, 51.61850459363076 ], [ 0.143124384761097, 51.61825472245912 ], [ 0.143201507178807, 51.618175099809733 ], [ 0.143292571294791, 51.618022311482292 ], [ 0.143388927959435, 51.617860526116246 ], [ 0.143764831410325, 51.617377900087149 ], [ 0.14392712285218, 51.617205021545111 ], [ 0.144061117362041, 51.617043358027118 ], [ 0.144238790385427, 51.616921443200091 ], [ 0.144346707276357, 51.6168205801672 ], [ 0.144497669712135, 51.616682880164035 ], [ 0.144727611893889, 51.616227280335202 ], [ 0.144844099432701, 51.616063238514705 ], [ 0.14496242960656, 51.615877676168729 ], [ 0.145047520937157, 51.615628799865952 ], [ 0.145135581905736, 51.615351999404496 ], [ 0.145192834473948, 51.615250262735131 ], [ 0.145252942969721, 51.615176253819399 ], [ 0.145311084842117, 51.615093380418699 ], [ 0.145321958610292, 51.615015865460663 ], [ 0.145325030846507, 51.614929502717985 ], [ 0.145381168470014, 51.614801624608894 ], [ 0.145446373491105, 51.614653892145704 ], [ 0.145502480827841, 51.614555682428097 ], [ 0.145597630783717, 51.614459546483168 ], [ 0.145766899707316, 51.614344075894657 ], [ 0.145938134280193, 51.614237469514137 ], [ 0.146036138524079, 51.614141281049086 ], [ 0.146113756941248, 51.614072435806165 ], [ 0.146119248584922, 51.614065143244908 ], [ 0.1464795538143, 51.613742910761964 ], [ 0.146637448058056, 51.613568220997955 ], [ 0.14685665931138, 51.61328722402223 ], [ 0.146961826385567, 51.613095606861748 ], [ 0.147245960819878, 51.612721721512443 ], [ 0.147349516977408, 51.612589379361893 ], [ 0.147407177094307, 51.612493927250362 ], [ 0.147495706613549, 51.612351071348847 ], [ 0.147588854584076, 51.612121914132274 ], [ 0.147783081655017, 51.61152392522434 ], [ 0.147827926118817, 51.611157110783104 ], [ 0.147849342841901, 51.610692640727848 ], [ 0.147948693092757, 51.610380569194156 ], [ 0.148063132124956, 51.610113173020693 ], [ 0.148166386532049, 51.609883830377932 ], [ 0.148249706666846, 51.609751857414835 ], [ 0.148390283029546, 51.609394978977008 ], [ 0.148546753515804, 51.609099842615493 ], [ 0.148609613513667, 51.608930574360478 ], [ 0.148707607333248, 51.608683256929517 ], [ 0.148720247582143, 51.608461774674751 ], [ 0.14872450560881, 51.608337630785982 ], [ 0.148758751059748, 51.608265980998091 ], [ 0.148751347135373, 51.607988226597342 ], [ 0.148758558306517, 51.607742569852256 ], [ 0.148753502958835, 51.607544786049353 ], [ 0.148793278498558, 51.607375939928033 ], [ 0.148747900920113, 51.607027856916787 ], [ 0.148624212462999, 51.606519291350615 ], [ 0.148511815258781, 51.606249750755616 ], [ 0.148477169551229, 51.606126318492571 ], [ 0.14847849695214, 51.605940105264168 ], [ 0.14849697588321, 51.605721213229657 ], [ 0.148587105809594, 51.605214220102447 ], [ 0.148571914798559, 51.6048925555937 ], [ 0.14859621529764, 51.604824683845059 ], [ 0.148613919856312, 51.604496124326282 ], [ 0.148644857944769, 51.604357017904469 ], [ 0.148716003474397, 51.604151546732773 ], [ 0.14882084336006, 51.60386283823015 ], [ 0.148913032698661, 51.603704630461621 ], [ 0.149025203711638, 51.603543449809443 ], [ 0.148974685422394, 51.603482251220655 ], [ 0.149110153898086, 51.603353009260601 ], [ 0.149222677890593, 51.603229581186916 ], [ 0.149512041744168, 51.602905040174846 ], [ 0.149118936438284, 51.601797077569671 ], [ 0.149059775894829, 51.601646134172441 ], [ 0.148981675877057, 51.601550468019667 ], [ 0.14897750567198, 51.601522674398751 ], [ 0.148967574358885, 51.601312393222713 ], [ 0.148906425419443, 51.601119321626236 ], [ 0.148891322893017, 51.60104407944479 ], [ 0.148632981546844, 51.600252893984674 ], [ 0.148350825389576, 51.599322791538846 ], [ 0.148262542852991, 51.599074385118023 ], [ 0.148240242470449, 51.599030740354237 ], [ 0.14820676250456, 51.598962127117709 ], [ 0.148148583167837, 51.598985666987176 ], [ 0.148049371465715, 51.599025240799257 ], [ 0.147586293187017, 51.599155078163733 ], [ 0.146590294641558, 51.599438589943688 ], [ 0.145658501451804, 51.598849485875853 ], [ 0.14283755287758, 51.59714291465913 ], [ 0.141967507348127, 51.596606592957642 ], [ 0.14192587273033, 51.596579481903902 ], [ 0.141273043375564, 51.596145369956169 ], [ 0.140577566816574, 51.595728123724506 ], [ 0.138841076725173, 51.594663550342588 ], [ 0.137693076577059, 51.593953253107074 ], [ 0.137587037806365, 51.593877864745146 ], [ 0.137476528713388, 51.59386189443763 ], [ 0.137414207502551, 51.593794700963244 ], [ 0.136777101279156, 51.593508616435876 ], [ 0.135748152531089, 51.592997608168815 ], [ 0.133201823795808, 51.591775846383172 ], [ 0.132110646370044, 51.591258734507598 ], [ 0.130579941214644, 51.590511333256245 ], [ 0.129582546602112, 51.590053634280657 ], [ 0.129758732756654, 51.589593629907043 ], [ 0.129868988784251, 51.589357786502653 ], [ 0.130039468183131, 51.588989588779199 ], [ 0.130223551364778, 51.588698462979991 ], [ 0.130463623372817, 51.588367662052391 ], [ 0.130642876012588, 51.588095503215079 ], [ 0.131030313043291, 51.587520990773946 ], [ 0.130212727706605, 51.587386574763244 ], [ 0.129904361046513, 51.587336424220538 ], [ 0.129739505293792, 51.587300753439841 ], [ 0.12951210075985, 51.587253629440916 ], [ 0.128532219338749, 51.587074403849229 ], [ 0.126493419455568, 51.586756108769421 ], [ 0.126401091677753, 51.586726313026311 ], [ 0.127382355353733, 51.584435014813394 ], [ 0.127246426283922, 51.58393571319943 ], [ 0.127657187427022, 51.583890513467388 ], [ 0.128029405373147, 51.582989858922794 ], [ 0.128083759169861, 51.582856626102519 ], [ 0.128000228250949, 51.582365377980302 ], [ 0.127980174021138, 51.582244371478311 ], [ 0.12780031786318, 51.582134261230962 ], [ 0.127770572927181, 51.581900061859798 ], [ 0.127781087830977, 51.581628362641354 ], [ 0.129252218135715, 51.581511711006748 ], [ 0.131752017186733, 51.581353091618659 ], [ 0.132169595524797, 51.581332030225148 ], [ 0.132561377091612, 51.581314132598578 ], [ 0.132615182392535, 51.581261011985774 ], [ 0.13264013024173, 51.58123718425761 ], [ 0.132785396765935, 51.581073530230483 ], [ 0.132964841180187, 51.580897658058028 ], [ 0.132887326587695, 51.580876499159551 ], [ 0.132906195141469, 51.58084738748353 ], [ 0.133036904088044, 51.580649923800102 ], [ 0.133050401366344, 51.580628101896117 ], [ 0.133056193119821, 51.580629794840164 ], [ 0.13321234567574, 51.580665618889633 ], [ 0.133376966826088, 51.580419800260614 ], [ 0.133488754664855, 51.580219892497524 ], [ 0.133559047101966, 51.579962390460643 ], [ 0.130856676571717, 51.579368440470382 ], [ 0.130826057372869, 51.579362612789787 ], [ 0.13070922578286, 51.579055463491265 ], [ 0.130847506384634, 51.579080825060267 ], [ 0.130881016922694, 51.57908740941037 ], [ 0.131101956381055, 51.57868944277979 ], [ 0.131000459074342, 51.578649029569391 ], [ 0.13111500237424, 51.578350179109428 ], [ 0.13120678067189, 51.578091299220752 ], [ 0.131323460454303, 51.577777126075027 ], [ 0.131400563889544, 51.577573443457574 ], [ 0.13140817780532, 51.577397903062952 ], [ 0.131411398122179, 51.577342104294516 ], [ 0.131637627455739, 51.57708797623426 ], [ 0.129846643421854, 51.576504447668 ], [ 0.129198778516626, 51.576322901578841 ], [ 0.129220274576319, 51.576041922468058 ], [ 0.129264332430794, 51.575749745856413 ], [ 0.129304502251827, 51.575621354331737 ], [ 0.129311267933065, 51.575147265033678 ], [ 0.129298213226017, 51.574776115354105 ], [ 0.129333597071554, 51.574484100497791 ], [ 0.129373433093685, 51.574470791924789 ], [ 0.129383371113696, 51.574467015648359 ], [ 0.129376233114288, 51.574314221254049 ], [ 0.129393087588175, 51.574180860259538 ], [ 0.129397738310867, 51.574155603292077 ], [ 0.129444947599463, 51.573961367466623 ], [ 0.129452962238338, 51.573949534848573 ], [ 0.129656246086887, 51.573665263682727 ], [ 0.129829600516115, 51.573484113444621 ], [ 0.130084546382265, 51.573103608077417 ], [ 0.130100766641888, 51.573078950352198 ], [ 0.130608361918207, 51.57325682958097 ], [ 0.130865559170912, 51.573387915861971 ], [ 0.130913316882399, 51.573358280590853 ], [ 0.130880353538462, 51.573271673398132 ], [ 0.130932348083484, 51.573210495419019 ], [ 0.131055741229262, 51.572948348724424 ], [ 0.131203656342196, 51.572622825215106 ], [ 0.131242489372523, 51.572590654677136 ], [ 0.131582463409997, 51.571835417886568 ], [ 0.131585064648552, 51.57182997652945 ], [ 0.130806767246171, 51.571697469613554 ], [ 0.129929257986532, 51.571539876171848 ], [ 0.129934833632521, 51.571475854476738 ], [ 0.129953020960098, 51.571307407218015 ], [ 0.130015749336649, 51.57125952029152 ], [ 0.130021198510915, 51.57116223700843 ], [ 0.130003782610362, 51.570942292100675 ], [ 0.130015888646131, 51.570799037870195 ], [ 0.130052706821772, 51.570754317921008 ], [ 0.130116902451887, 51.5706767365307 ], [ 0.130329752520436, 51.570722321915028 ], [ 0.130384976650668, 51.570699743563225 ], [ 0.130413200572288, 51.570687544253943 ], [ 0.130451227914318, 51.570635610046985 ], [ 0.130463466186993, 51.570528314296951 ], [ 0.130484251885386, 51.57032385881007 ], [ 0.130470327558368, 51.570272867059003 ], [ 0.130394576155976, 51.570008939337562 ], [ 0.130234461278582, 51.569671023909883 ], [ 0.130074978370112, 51.569346582173466 ], [ 0.129834821238341, 51.56902450242125 ], [ 0.129712874559351, 51.568823444739571 ], [ 0.129641794585745, 51.568631353754917 ], [ 0.129627440374416, 51.568385191629197 ], [ 0.129679766301758, 51.568178366229432 ], [ 0.129703702047956, 51.568102414137314 ], [ 0.129744904489912, 51.567840860056933 ], [ 0.129751526141934, 51.567766120977495 ], [ 0.129756472490715, 51.56771919212111 ], [ 0.129664339005481, 51.56741510496753 ], [ 0.129521377388269, 51.566855717769371 ], [ 0.129406143634529, 51.566642850856212 ], [ 0.129370761650487, 51.566629108072505 ], [ 0.129343169543684, 51.56653251385238 ], [ 0.129329075676492, 51.566477839072995 ], [ 0.128790292207354, 51.566466031002335 ], [ 0.128632262750071, 51.566450016220038 ], [ 0.128478505851534, 51.566431226714791 ], [ 0.128236078815355, 51.566370890962496 ], [ 0.127983164082485, 51.566299956502569 ], [ 0.127648235178375, 51.56614141437543 ], [ 0.127478932186201, 51.566039296154038 ], [ 0.127314907014456, 51.565894738123802 ], [ 0.127094491764172, 51.565653297803216 ], [ 0.126905858078641, 51.565475921189908 ], [ 0.126676139994016, 51.565284904030626 ], [ 0.126466547838548, 51.565152947379367 ], [ 0.126005854125233, 51.564927453619653 ], [ 0.125726333128963, 51.564750012657221 ], [ 0.125536244302182, 51.564605025179404 ], [ 0.125346905015526, 51.564504165829497 ], [ 0.125016110038865, 51.564341945793217 ], [ 0.124756967959802, 51.56419829670758 ], [ 0.119979029801024, 51.563287374553532 ], [ 0.119666317085157, 51.56323458387115 ], [ 0.119527502235658, 51.563196543940833 ], [ 0.119337249609347, 51.563137046711638 ], [ 0.119059719469545, 51.563065639042492 ], [ 0.118899879825208, 51.562731301590489 ], [ 0.119777586531046, 51.562493311549488 ], [ 0.118726276046967, 51.560951140304098 ], [ 0.117506395609052, 51.559163782446525 ], [ 0.117848006985364, 51.559032657006 ], [ 0.118264194216284, 51.558924458510987 ], [ 0.11893487833961, 51.558794494447426 ], [ 0.120514371454474, 51.558542121465543 ], [ 0.118964298263354, 51.557348886196678 ], [ 0.118104422234149, 51.557346423159686 ], [ 0.118022671410961, 51.557389252784525 ], [ 0.117159906636526, 51.557388632942953 ], [ 0.117178798035233, 51.556893654541526 ], [ 0.113355313764438, 51.557318685500974 ], [ 0.113166791075552, 51.55683113257416 ], [ 0.112751303803829, 51.556520279920996 ], [ 0.114131329433015, 51.555822762209885 ], [ 0.114132422461719, 51.555815550395621 ], [ 0.114186887161137, 51.555620291544379 ], [ 0.114208058708492, 51.555610020624819 ], [ 0.114754671810989, 51.555326772595414 ], [ 0.114742727544947, 51.555317997903849 ], [ 0.112736781984225, 51.553777742850642 ], [ 0.11238552278965, 51.553512480246383 ], [ 0.11238527318834, 51.553507090664553 ], [ 0.112353923424183, 51.553482483131155 ], [ 0.11238058312445, 51.553000041823232 ], [ 0.111937978492212, 51.552662614697681 ], [ 0.111131962873674, 51.552482944386767 ], [ 0.109841631391365, 51.552593376288947 ], [ 0.108428600821864, 51.552699707497808 ], [ 0.108296546835378, 51.552058209341084 ], [ 0.108151264512179, 51.552067114906286 ], [ 0.108113831464928, 51.552067788000542 ], [ 0.108027485578036, 51.552072936615652 ], [ 0.107785714706237, 51.552086273626465 ], [ 0.107600259819246, 51.552036565900764 ], [ 0.107455837385409, 51.552002302539201 ], [ 0.107411745788894, 51.551982417809739 ], [ 0.10733553105719, 51.551926250947979 ], [ 0.107217673187681, 51.551810508771361 ], [ 0.106598739640543, 51.551308205472687 ], [ 0.10620905595196, 51.550959107908156 ], [ 0.106036157109901, 51.550869525721311 ], [ 0.10576229880787, 51.550687450269933 ], [ 0.105455477577089, 51.550445642393548 ], [ 0.105292869133275, 51.550328993787858 ], [ 0.1051033464257, 51.550224425485816 ], [ 0.104808219294477, 51.550078690124337 ], [ 0.104600047939193, 51.549977152834352 ], [ 0.104461681049528, 51.549916705706821 ], [ 0.104251876734904, 51.549808094897003 ], [ 0.104039914017919, 51.54974806915407 ], [ 0.103655909323304, 51.549645190570907 ], [ 0.103218064748839, 51.549535275376208 ], [ 0.102658343843842, 51.549407766124304 ], [ 0.102542224864782, 51.549360312993201 ], [ 0.10225156016998, 51.549220784178935 ], [ 0.101341089486096, 51.548932251035737 ], [ 0.100740617644181, 51.548764018419455 ], [ 0.100299666810034, 51.548617288336352 ], [ 0.100041381874323, 51.548522124586547 ], [ 0.099765905414112, 51.548428077274707 ], [ 0.099600818619559, 51.548350122618587 ], [ 0.099486899993605, 51.548288332701908 ], [ 0.09887171991869, 51.547960329341194 ], [ 0.098453661057741, 51.547744767449863 ], [ 0.098168325115672, 51.547624909223387 ], [ 0.097987111401367, 51.547542654215867 ], [ 0.097842809609997, 51.547476909955925 ], [ 0.097519491286614, 51.547314576144522 ], [ 0.097121006813301, 51.547180465783448 ], [ 0.096604840376185, 51.546998202586366 ], [ 0.096451927793378, 51.546902853095467 ], [ 0.096382589386422, 51.546869030739892 ], [ 0.095659109006452, 51.546597779730753 ], [ 0.095096393546347, 51.546403755142364 ], [ 0.094402070999268, 51.546171532082177 ], [ 0.094163658282522, 51.546099372314629 ], [ 0.093858346349284, 51.545984264573164 ], [ 0.09352904098856, 51.545848996784066 ], [ 0.093352092902636, 51.546014876411 ], [ 0.093316664417107, 51.546092823957956 ], [ 0.093259242640155, 51.546098343728268 ], [ 0.093180345301618, 51.546296725850198 ], [ 0.093030331790404, 51.546640219300393 ], [ 0.092899635400424, 51.547000449200425 ], [ 0.09286393270127, 51.547100966789216 ], [ 0.092622139165806, 51.547709598557255 ], [ 0.092353664375719, 51.548397819102902 ], [ 0.092322381858338, 51.548470298314044 ], [ 0.092264877076367, 51.548632247740201 ], [ 0.092252137508158, 51.548795286609653 ], [ 0.092280010305497, 51.548899974208943 ], [ 0.09244810813228, 51.549292722123361 ], [ 0.09255894034449, 51.549538873105078 ], [ 0.092623318287545, 51.549653787435439 ], [ 0.092035460723209, 51.549415156380689 ], [ 0.091866512292559, 51.549255357838533 ], [ 0.09171272521556, 51.549109762820201 ], [ 0.091666614184886, 51.549017087497781 ], [ 0.091615232957955, 51.548902839862599 ], [ 0.09154842273172, 51.54879704835168 ], [ 0.091517539800811, 51.54869151521568 ], [ 0.091618620034208, 51.548442393760375 ], [ 0.091632195190726, 51.548390907825727 ], [ 0.091604788689405, 51.548327476533096 ], [ 0.091517732321056, 51.548285876084975 ], [ 0.091406172201546, 51.548275278983667 ], [ 0.090872557601305, 51.548212870610321 ], [ 0.090769368911036, 51.548164365028683 ], [ 0.090662999288097, 51.548108723923654 ], [ 0.090562999532148, 51.548005231468196 ], [ 0.09051524872126, 51.547970121862392 ], [ 0.090417532340105, 51.547947589885027 ], [ 0.090202485726772, 51.547944229905475 ], [ 0.090122735369873, 51.547934862774227 ], [ 0.089960382942688, 51.547916179157156 ], [ 0.089761537434834, 51.547890054315936 ], [ 0.089564483738531, 51.547869291310782 ], [ 0.088995850136748, 51.547800305998699 ], [ 0.088499994195718, 51.547741619462371 ], [ 0.088246454174532, 51.547718263865825 ], [ 0.088037670243756, 51.547693212023674 ] ] ] } }
]
}
