{
"type": "FeatureCollection",
"name": "borough_Hounslow",
"crs": { "type": "name", "properties": { "name": "urn:ogc:def:crs:OGC:1.3:CRS84" } },
"features": [
{ "type": "Feature", "properties": { "DISTRICT": "Hounslow", "NAME": "Bedfont", "GSS_CODE": "E05000346", "LAGSSCODE": "E09000018", "HECTARES": 444.841, "NONLD_AREA": 0.0 }, "geometry": { "type": "Polygon", "coordinates": [ [ [ -0.382849605821337, 51.44504868779439 ], [ -0.381818192562914, 51.444874344332568 ], [ -0.381466227415657, 51.444815545699306 ], [ -0.380549056908116, 51.444628475183897 ], [ -0.379768908540842, 51.444388365490312 ], [ -0.379732196811339, 51.444329425412754 ], [ -0.379610353836174, 51.444275600786227 ], [ -0.379784641595718, 51.444108017464806 ], [ -0.379791384559208, 51.443917441174058 ], [ -0.37970091910099, 51.443872141126626 ], [ -0.379530331543, 51.443770896323329 ], [ -0.379463444726969, 51.443709740872229 ], [ -0.379403673252784, 51.443648683790926 ], [ -0.379370352411859, 51.443574418223335 ], [ -0.379442620609274, 51.443443270547256 ], [ -0.379607625413114, 51.443336778393665 ], [ -0.379608479267313, 51.44322882501325 ], [ -0.379496321370893, 51.443105914102645 ], [ -0.379296168491403, 51.442948434419257 ], [ -0.379069503309301, 51.442805959783996 ], [ -0.378491367416637, 51.442594704666746 ], [ -0.378222988292885, 51.442491205218687 ], [ -0.377894615819593, 51.442420136099116 ], [ -0.377605829545978, 51.442407147798924 ], [ -0.377356088020041, 51.442430658053389 ], [ -0.377125526978116, 51.442478705463031 ], [ -0.37688410261063, 51.442592226226068 ], [ -0.376687474708035, 51.442861078736833 ], [ -0.376569103738946, 51.44295382973857 ], [ -0.376391006864573, 51.443027863628068 ], [ -0.376071330088583, 51.443072876217208 ], [ -0.375940285545184, 51.443074655679155 ], [ -0.375677210732194, 51.443069210862177 ], [ -0.375539338011881, 51.443062804538251 ], [ -0.374859299372804, 51.44296527541799 ], [ -0.374695233984985, 51.442964797520204 ], [ -0.374532464033506, 51.442967933222775 ], [ -0.373931910873218, 51.443024325349356 ], [ -0.373649021191725, 51.443129173661603 ], [ -0.373586478511427, 51.443229888552167 ], [ -0.373540443780441, 51.443390254173991 ], [ -0.373503318443155, 51.443463453948951 ], [ -0.373460660469318, 51.443532082084481 ], [ -0.373394313758328, 51.443576199181294 ], [ -0.37332389254648, 51.443614775989111 ], [ -0.373147204748239, 51.443645584555078 ], [ -0.372872473766939, 51.443640870670045 ], [ -0.372593807134011, 51.443586658355699 ], [ -0.372346260219546, 51.443468062218642 ], [ -0.372097858124529, 51.443370219746107 ], [ -0.371950512366619, 51.44334659723544 ], [ -0.37148335382787, 51.443291560790158 ], [ -0.371221461079468, 51.44325286065186 ], [ -0.370972138835137, 51.443180983013356 ], [ -0.370857447320331, 51.44312994511747 ], [ -0.370748544010115, 51.443076290687635 ], [ -0.370601176896241, 51.44296996112854 ], [ -0.370569275070492, 51.442936255669025 ], [ -0.369691008410388, 51.442508534906125 ], [ -0.369661281747556, 51.442493737757971 ], [ -0.369399502379081, 51.442368733941734 ], [ -0.369196808098247, 51.442323661171116 ], [ -0.368955539449408, 51.442269061331736 ], [ -0.368275886885836, 51.442081511465787 ], [ -0.367752747794108, 51.441903329751455 ], [ -0.367430793519705, 51.441812542518946 ], [ -0.36707889096636, 51.441713246237384 ], [ -0.366829516758625, 51.441643246308949 ], [ -0.368772477752632, 51.440783661102977 ], [ -0.370380611801279, 51.440073200332044 ], [ -0.374858095870359, 51.438131861150744 ], [ -0.377870577499647, 51.43680232196575 ], [ -0.377912448321735, 51.436310086164617 ], [ -0.376116848056007, 51.435539784169954 ], [ -0.37619167322724, 51.435500367646021 ], [ -0.376260593038226, 51.435463566137564 ], [ -0.376490016616035, 51.435322820557737 ], [ -0.376960451059977, 51.435159433539837 ], [ -0.377433371998111, 51.435009473743349 ], [ -0.377844110300595, 51.434866831673055 ], [ -0.378181800112481, 51.43471679423228 ], [ -0.378865333195467, 51.434387253143626 ], [ -0.379363800335948, 51.434084814104459 ], [ -0.381509487615722, 51.433048027858852 ], [ -0.382523532039357, 51.432524268238119 ], [ -0.382750036628305, 51.43242491257881 ], [ -0.382915159456804, 51.432350689491088 ], [ -0.383292756942778, 51.432127562274296 ], [ -0.383687449260331, 51.431829965149689 ], [ -0.384083468508741, 51.431571939744856 ], [ -0.384437708839423, 51.431358285434065 ], [ -0.384889540076858, 51.431030907163233 ], [ -0.385643695354888, 51.43052870811259 ], [ -0.386001144038148, 51.430263941653266 ], [ -0.386799906242916, 51.429723693872901 ], [ -0.387101744747589, 51.429485037524216 ], [ -0.387293316861704, 51.429315971207103 ], [ -0.387889212267754, 51.428732469386937 ], [ -0.387964304197982, 51.428644414564396 ], [ -0.387423768754533, 51.428511119351207 ], [ -0.387126147129566, 51.42817880755544 ], [ -0.388067386559041, 51.427878829978496 ], [ -0.388195668705843, 51.428035218190828 ], [ -0.388360471560386, 51.428053666971223 ], [ -0.388360977203304, 51.42799883662898 ], [ -0.388103274614495, 51.427758861502724 ], [ -0.387725639396345, 51.427330968273061 ], [ -0.387626735611643, 51.427199256116999 ], [ -0.387326691572818, 51.426774227370728 ], [ -0.386680903173993, 51.42595608093032 ], [ -0.386462176144246, 51.425711155097801 ], [ -0.386273430396913, 51.425392924717627 ], [ -0.385837227374607, 51.424750256088906 ], [ -0.385542074561113, 51.424352345056782 ], [ -0.3851865052367, 51.423952701769409 ], [ -0.384903432654701, 51.423616086738328 ], [ -0.384663473945208, 51.423284470345976 ], [ -0.3842081496739, 51.422778267901414 ], [ -0.384091041911922, 51.422672370899143 ], [ -0.384080264794975, 51.422527396332029 ], [ -0.384197417945588, 51.422265520591502 ], [ -0.384376862795004, 51.421989221000239 ], [ -0.384591828373399, 51.421727884434887 ], [ -0.384835211436339, 51.421390345891886 ], [ -0.384856596834797, 51.421355580397204 ], [ -0.384908408482651, 51.421271790267696 ], [ -0.385091908254102, 51.421085443141848 ], [ -0.385144721641915, 51.421016949331928 ], [ -0.385246413979306, 51.420863725721603 ], [ -0.385307721049804, 51.420799843770538 ], [ -0.38537163057501, 51.420739503670433 ], [ -0.385496423698975, 51.420748414947184 ], [ -0.385711407358685, 51.420853051659236 ], [ -0.386340376120235, 51.421085561372912 ], [ -0.387008515520232, 51.421387918775437 ], [ -0.388182394642395, 51.421873521312214 ], [ -0.389250238966829, 51.422346777658497 ], [ -0.390092390594154, 51.422692864210688 ], [ -0.39031482119979, 51.422788605641642 ], [ -0.390413971609251, 51.422832220085851 ], [ -0.390728571971063, 51.42296779342761 ], [ -0.391108565167668, 51.423162787977624 ], [ -0.391877834695122, 51.423292015138138 ], [ -0.39232188666871, 51.423385310799979 ], [ -0.392749128114973, 51.423467676287522 ], [ -0.392884979031456, 51.423283359465138 ], [ -0.392354533089486, 51.423110668643353 ], [ -0.392072264896469, 51.422959271497454 ], [ -0.392004508688075, 51.422923281139639 ], [ -0.391750395891965, 51.422784046423892 ], [ -0.391546304335508, 51.422577983985036 ], [ -0.391391059765308, 51.422409450322483 ], [ -0.391342164494001, 51.422326072269406 ], [ -0.391363421716818, 51.422335353976045 ], [ -0.391561975233144, 51.422415392593948 ], [ -0.391763584226696, 51.422492865776434 ], [ -0.391968049469202, 51.422566691988408 ], [ -0.392174150906069, 51.422637843357883 ], [ -0.392383160833727, 51.422707236319148 ], [ -0.392579416556362, 51.422768363070091 ], [ -0.392593716759296, 51.422773144088282 ], [ -0.392807215817467, 51.422836305010115 ], [ -0.393022232431017, 51.422896789414388 ], [ -0.393240275983678, 51.422955516978398 ], [ -0.39327448554238, 51.422964076994511 ], [ -0.393518275521311, 51.423025854091051 ], [ -0.39376361460085, 51.423084055987573 ], [ -0.394012040522422, 51.423138793649109 ], [ -0.394260446153977, 51.423190743662573 ], [ -0.394511854652416, 51.423238239373255 ], [ -0.394764899093477, 51.423283060009851 ], [ -0.39486218612102, 51.423298776692071 ], [ -0.39499523172329, 51.423319478094285 ], [ -0.395114029221971, 51.423337287216093 ], [ -0.395367302551286, 51.423372220844186 ], [ -0.395622243124227, 51.423403580810614 ], [ -0.395877309933695, 51.423431346004016 ], [ -0.396133922193762, 51.423455625748204 ], [ -0.396392054681027, 51.423477138877942 ], [ -0.396650281786304, 51.423495955771443 ], [ -0.396908603465384, 51.423512076425759 ], [ -0.397122600446302, 51.423523994167091 ], [ -0.397451395248442, 51.423539279760043 ], [ -0.397781888417468, 51.423550092707536 ], [ -0.398096655176406, 51.423556194753054 ], [ -0.398112420366904, 51.423556410301217 ], [ -0.398441655691523, 51.423559113274443 ], [ -0.39877262052965, 51.423556445008693 ], [ -0.399102201440318, 51.423549261935463 ], [ -0.399432057823061, 51.423537586731939 ], [ -0.399636646609621, 51.423526896567537 ], [ -0.399943608113771, 51.423508614231743 ], [ -0.400249394199091, 51.423486629161445 ], [ -0.400553792829813, 51.423460219273885 ], [ -0.400856925594651, 51.423429296336714 ], [ -0.401160183458598, 51.423394778331712 ], [ -0.401460752877152, 51.423355727874146 ], [ -0.401759937930384, 51.423312161986239 ], [ -0.402010129403196, 51.423272421935813 ], [ -0.402283779587195, 51.42322311222177 ], [ -0.402551725005346, 51.423167341245602 ], [ -0.402818519469069, 51.423107148893415 ], [ -0.403082475225001, 51.423043321270022 ], [ -0.403346611457465, 51.422977697515371 ], [ -0.403609271789816, 51.422910165166272 ], [ -0.40387189692146, 51.422843620635888 ], [ -0.404136030939896, 51.422777995050936 ], [ -0.404315902519665, 51.422734595487881 ], [ -0.404906089536753, 51.422596003593313 ], [ -0.405361719907493, 51.422479940696505 ], [ -0.405910495921833, 51.422665497164743 ], [ -0.406345730351141, 51.422845821320301 ], [ -0.406491559499243, 51.422911632863268 ], [ -0.406954483341178, 51.423168835741336 ], [ -0.40777583734778, 51.42357834217237 ], [ -0.40825738260816, 51.423753984426675 ], [ -0.408441597682902, 51.423834698847003 ], [ -0.408521882623213, 51.423964435311504 ], [ -0.408537224730472, 51.424103088888778 ], [ -0.408637068492992, 51.424250171779953 ], [ -0.408720806943097, 51.424406834955391 ], [ -0.40875204814172, 51.424586249053867 ], [ -0.408785111084023, 51.424958971793671 ], [ -0.408849199034185, 51.425100984145764 ], [ -0.40895126004211, 51.42526967275343 ], [ -0.409006744194526, 51.425451123988545 ], [ -0.409341393136728, 51.425756012552526 ], [ -0.409511142208187, 51.425877968362911 ], [ -0.409719914810442, 51.426040816837549 ], [ -0.410055882658053, 51.426222560594553 ], [ -0.410158822731519, 51.426284187502688 ], [ -0.410326552662351, 51.426464457187848 ], [ -0.410400704038254, 51.426566236584378 ], [ -0.410467565319331, 51.426669625078858 ], [ -0.410525865744911, 51.42685569186505 ], [ -0.410789735507224, 51.427211752895218 ], [ -0.410868585125734, 51.427342272448421 ], [ -0.411187627359409, 51.427516591001314 ], [ -0.411306463274256, 51.427574836257293 ], [ -0.411565167369658, 51.427662844606182 ], [ -0.411722524135978, 51.427691046701327 ], [ -0.41203879747049, 51.427736683827611 ], [ -0.412190716567514, 51.427754113970771 ], [ -0.412639600972544, 51.427792556022027 ], [ -0.412817304688634, 51.42781204251505 ], [ -0.413086223297313, 51.427855237596987 ], [ -0.412452797143223, 51.428781849012537 ], [ -0.41435250512011, 51.429295783538095 ], [ -0.413806256528027, 51.430075252567356 ], [ -0.416041943839368, 51.430695372517327 ], [ -0.416144202937807, 51.430564517481201 ], [ -0.416363768679517, 51.430622319537896 ], [ -0.417900589118871, 51.431027998415274 ], [ -0.41777626406428, 51.431210606452282 ], [ -0.417294334110339, 51.431918142086865 ], [ -0.417704734672761, 51.432031554983027 ], [ -0.418356396543475, 51.431866755869621 ], [ -0.418475272924728, 51.43200688593965 ], [ -0.41855459154981, 51.432083466455317 ], [ -0.418583924587013, 51.432109931212899 ], [ -0.418632642797358, 51.432155535096094 ], [ -0.418788586266323, 51.432266498718889 ], [ -0.418987853654783, 51.432328513200197 ], [ -0.418989276371244, 51.432328532358426 ], [ -0.419078832676054, 51.432359403792027 ], [ -0.419256033949084, 51.432352800166086 ], [ -0.419994003330171, 51.432268343273556 ], [ -0.42013565559898, 51.432250382509729 ], [ -0.420322409829458, 51.43221783602943 ], [ -0.420560050199305, 51.432209346661509 ], [ -0.420880449275615, 51.432219050100684 ], [ -0.421154071701106, 51.432171489314577 ], [ -0.421428782728691, 51.432088883107923 ], [ -0.421746683860453, 51.431964515787875 ], [ -0.422072275502627, 51.431868208457708 ], [ -0.422421701822134, 51.431747948441625 ], [ -0.422726619988738, 51.431538901365379 ], [ -0.422940670009542, 51.431423113659847 ], [ -0.423498425291322, 51.431184198090747 ], [ -0.423579760615327, 51.431161018078392 ], [ -0.423575098458102, 51.431044899538861 ], [ -0.423498897172636, 51.430877568639254 ], [ -0.424193093096641, 51.430978580461804 ], [ -0.424337489730788, 51.430963437796628 ], [ -0.424922900768587, 51.430923646399137 ], [ -0.42564185370481, 51.430808331487569 ], [ -0.425861583512732, 51.43077891440911 ], [ -0.426347453382401, 51.430788123326359 ], [ -0.426728342076762, 51.43083907419124 ], [ -0.427076861025031, 51.430827561584628 ], [ -0.427374649038053, 51.430828853058451 ], [ -0.427485751091542, 51.430819553281992 ], [ -0.427534465699422, 51.430699654054685 ], [ -0.427653061342667, 51.430344261917675 ], [ -0.427816193998308, 51.429534497916563 ], [ -0.427833561218278, 51.429405189068504 ], [ -0.427831573265589, 51.429252337850016 ], [ -0.429424912231581, 51.429395015844896 ], [ -0.42953459282564, 51.428797588077543 ], [ -0.429748969885427, 51.428795959312858 ], [ -0.429972869332072, 51.428810638924894 ], [ -0.430646674732336, 51.428876278752888 ], [ -0.43108291399222, 51.428907277773526 ], [ -0.431471332843364, 51.428949323287561 ], [ -0.431812974598436, 51.428971954482776 ], [ -0.432189553730639, 51.428978779612834 ], [ -0.432411909171566, 51.428997029982227 ], [ -0.432639981584899, 51.429018053158373 ], [ -0.432899250892661, 51.429049380876442 ], [ -0.433436091469615, 51.429124864451694 ], [ -0.433715116281072, 51.42916814064499 ], [ -0.434792153004223, 51.429391151318683 ], [ -0.436151500876616, 51.429687122751069 ], [ -0.438159020447653, 51.43017238881756 ], [ -0.439064669603697, 51.430403862336647 ], [ -0.439983441585361, 51.430626423523563 ], [ -0.439988421192817, 51.430650852000625 ], [ -0.440043387214974, 51.430938356456615 ], [ -0.440042567752669, 51.431171271455156 ], [ -0.440042552678343, 51.431509377847327 ], [ -0.44002612586464, 51.431866144953219 ], [ -0.440031958803309, 51.432032623669819 ], [ -0.440043696251229, 51.432196393923483 ], [ -0.440104948306633, 51.432508344139116 ], [ -0.44012776748924, 51.432809895381304 ], [ -0.439997185431437, 51.433519525045504 ], [ -0.439906776404613, 51.434143290440645 ], [ -0.439752474034862, 51.434619580204362 ], [ -0.441252828068212, 51.434709613478056 ], [ -0.4424341968448, 51.434747754500556 ], [ -0.443436411786651, 51.434807872569813 ], [ -0.444387183932866, 51.434856423647553 ], [ -0.445176577904758, 51.434910023483965 ], [ -0.445968674125669, 51.434929492868712 ], [ -0.44696839390725, 51.434975973981601 ], [ -0.447717058515003, 51.435002948417441 ], [ -0.447529361444624, 51.435574196022024 ], [ -0.447458148066683, 51.435935632797083 ], [ -0.44731185111839, 51.436387772630574 ], [ -0.447162526071048, 51.437058503126323 ], [ -0.44702285597238, 51.437486457158997 ], [ -0.446948376223907, 51.437814587537773 ], [ -0.446667517622121, 51.438631008615879 ], [ -0.446449357645252, 51.439504803165363 ], [ -0.446288769249626, 51.439996395123721 ], [ -0.448236921978265, 51.439575279845918 ], [ -0.449598225566721, 51.439271339439991 ], [ -0.450956055112256, 51.43898891127634 ], [ -0.45210864308349, 51.438772998645966 ], [ -0.453660535787324, 51.438494039434282 ], [ -0.453791814708846, 51.438481388258275 ], [ -0.454224391061728, 51.438413379456868 ], [ -0.454331363629463, 51.438396811041933 ], [ -0.456053399512176, 51.438147932878138 ], [ -0.456467747893299, 51.438106645089121 ], [ -0.456475280714466, 51.438224511483632 ], [ -0.456444432047073, 51.438330185407295 ], [ -0.456387611276728, 51.438435607037306 ], [ -0.456361481836018, 51.438654615322491 ], [ -0.4562838586772, 51.438908994449108 ], [ -0.456201935367394, 51.439164215827901 ], [ -0.456015631712402, 51.439650988777871 ], [ -0.456006027960663, 51.439809083678398 ], [ -0.455920897653661, 51.439986949769064 ], [ -0.455797177263583, 51.440155227401725 ], [ -0.455783421787324, 51.440309761496366 ], [ -0.455853948335794, 51.440392498738994 ], [ -0.455856698959921, 51.440441080207265 ], [ -0.455835134747689, 51.440651248478545 ], [ -0.455780303281969, 51.440869878207067 ], [ -0.455733033587588, 51.441121060941093 ], [ -0.455692583951092, 51.441250970525218 ], [ -0.455647925907875, 51.44138253268671 ], [ -0.455399847679926, 51.441952095597138 ], [ -0.455391360898237, 51.442119194938009 ], [ -0.455457163372783, 51.442215445313295 ], [ -0.455574492500124, 51.44227902296398 ], [ -0.455856409267418, 51.442366345940343 ], [ -0.456289950088811, 51.442527676018159 ], [ -0.457443906681098, 51.442998757926894 ], [ -0.457436336619913, 51.443138991815268 ], [ -0.457317641813332, 51.44422548582412 ], [ -0.457301836162897, 51.444441127019189 ], [ -0.457298629876949, 51.444663137207847 ], [ -0.457314068921263, 51.445314394556135 ], [ -0.457377578778104, 51.445651635765579 ], [ -0.457406186631037, 51.446000014402657 ], [ -0.457484567699432, 51.446706040290948 ], [ -0.457522229138148, 51.446954749372445 ], [ -0.457604003546941, 51.447176080462967 ], [ -0.457615628681304, 51.447299486060764 ], [ -0.457622681727861, 51.447562176032726 ], [ -0.45761941419113, 51.447701477583131 ], [ -0.457601187187081, 51.447858652001536 ], [ -0.457532888937671, 51.448304644179679 ], [ -0.457461227228545, 51.448892723412669 ], [ -0.457461800344801, 51.449090600204343 ], [ -0.457556655372636, 51.449180849983364 ], [ -0.457687874285904, 51.449213143681348 ], [ -0.457900682533656, 51.449222238459981 ], [ -0.458851531961348, 51.449147549735748 ], [ -0.460098721907441, 51.449078457465568 ], [ -0.460800908993254, 51.449040938534687 ], [ -0.461317353189213, 51.449004571652608 ], [ -0.461481870653173, 51.448992348628124 ], [ -0.461411384174892, 51.450316905162303 ], [ -0.461358606206518, 51.451503255800262 ], [ -0.461320121120054, 51.452391236131056 ], [ -0.461203971657573, 51.452379821257821 ], [ -0.459838537323788, 51.452239520786407 ], [ -0.459557064807191, 51.452648642064212 ], [ -0.459538840238699, 51.452675372506846 ], [ -0.459294224398031, 51.452715307384786 ], [ -0.459066474514038, 51.453411017318551 ], [ -0.458997550849258, 51.453875974377986 ], [ -0.458949717458445, 51.454655860150091 ], [ -0.458881496855853, 51.455360860264726 ], [ -0.458879882072156, 51.455835692715418 ], [ -0.458855727197812, 51.456038639601857 ], [ -0.458640626160132, 51.456315399306803 ], [ -0.457849925952179, 51.45594350226817 ], [ -0.45731474389341, 51.455681047921892 ], [ -0.456794252870927, 51.455493491882578 ], [ -0.456341957641693, 51.455374257563435 ], [ -0.45585154409134, 51.455276904178625 ], [ -0.45583301357483, 51.455270366863608 ], [ -0.455814422480105, 51.455265626754041 ], [ -0.455795950013031, 51.455260888205437 ], [ -0.455777358926135, 51.455256148090086 ], [ -0.455758737550288, 51.455252306575957 ], [ -0.455738781023717, 51.455249346459716 ], [ -0.455718736169774, 51.455245486172068 ], [ -0.455700054215369, 51.45524344185695 ], [ -0.455679948778611, 51.455241378770921 ], [ -0.455674254842253, 51.455241303698898 ], [ -0.4556541494077, 51.455239240608478 ], [ -0.455634013679722, 51.45523807611869 ], [ -0.455613847657137, 51.455237810229484 ], [ -0.45559380025852, 51.455237545900921 ], [ -0.455573603940044, 51.455238178608852 ], [ -0.455553407621084, 51.455238811313265 ], [ -0.45553318100433, 51.45524034261819 ], [ -0.455514466196277, 51.45524279285776 ], [ -0.455498479730779, 51.45524527907051 ], [ -0.455482611887259, 51.455247766845247 ], [ -0.455466595119736, 51.455251151657563 ], [ -0.45545066667462, 51.455255436635809 ], [ -0.455434738226547, 51.455259721611839 ], [ -0.455420084336861, 51.455264922396481 ], [ -0.45538962061024, 51.455274409713255 ], [ -0.45537499701123, 51.45527871188817 ], [ -0.455350287809447, 51.455286477073265 ], [ -0.455333234485765, 51.455366353393046 ], [ -0.455434520183991, 51.455477367476156 ], [ -0.455455322025458, 51.455501015870375 ], [ -0.455412320167788, 51.455625410298246 ], [ -0.455208960236167, 51.455592162331818 ], [ -0.455135044148716, 51.455609167529659 ], [ -0.454719175297769, 51.455564125665063 ], [ -0.454497040555215, 51.455535123788863 ], [ -0.454108395980036, 51.455492236977136 ], [ -0.453968352605227, 51.45546072149574 ], [ -0.453961326141898, 51.455457931742018 ], [ -0.453914394780497, 51.455438433204712 ], [ -0.453910156640848, 51.455395225100041 ], [ -0.454015292400043, 51.455349864630179 ], [ -0.454106141786973, 51.455217921286035 ], [ -0.454071632392537, 51.455044857166847 ], [ -0.45392735729285, 51.454927790557285 ], [ -0.453762881628169, 51.454853699173164 ], [ -0.452939984195806, 51.454671033763056 ], [ -0.452364774395568, 51.454526786523907 ], [ -0.451201077572478, 51.454252402461321 ], [ -0.450225127435866, 51.454041714090422 ], [ -0.44940133643321, 51.453844629425575 ], [ -0.448784611287486, 51.45373577639743 ], [ -0.448126135855392, 51.453629873330655 ], [ -0.447320109277106, 51.453546374061247 ], [ -0.44631827708695, 51.453462969725777 ], [ -0.444793070224264, 51.453324963504123 ], [ -0.443983238682496, 51.453266473414963 ], [ -0.443132760667924, 51.454449397015345 ], [ -0.442594357373182, 51.455171502697702 ], [ -0.441896793265045, 51.456130799066877 ], [ -0.441589269745043, 51.456581686887006 ], [ -0.44145922913199, 51.456807490982484 ], [ -0.440787980756513, 51.456695981130089 ], [ -0.440296001703233, 51.456645379477081 ], [ -0.439798058482496, 51.456682797283953 ], [ -0.439550301546701, 51.456688486224927 ], [ -0.438820481197882, 51.456690446394354 ], [ -0.438414108341518, 51.456704896115227 ], [ -0.437272481777282, 51.456835303741727 ], [ -0.43675000147288, 51.456878673786498 ], [ -0.436133023212605, 51.45690549683588 ], [ -0.435614804109276, 51.456903969414597 ], [ -0.435310402811173, 51.456882822084644 ], [ -0.435040797946983, 51.456854048123475 ], [ -0.434726906161969, 51.45711065036911 ], [ -0.435722069666855, 51.457391033358128 ], [ -0.436613076126754, 51.457684404173527 ], [ -0.436436853909387, 51.45812534069357 ], [ -0.436320842776485, 51.45840166766682 ], [ -0.436187297794929, 51.458604043540824 ], [ -0.435921991814987, 51.458952992593872 ], [ -0.435694269235569, 51.459216142080066 ], [ -0.435641296728841, 51.459373657017963 ], [ -0.435433338764099, 51.459648756850981 ], [ -0.435088003203432, 51.46002270722915 ], [ -0.434831453652624, 51.4603268238792 ], [ -0.43453996015516, 51.460684416232759 ], [ -0.434271056669339, 51.460971289160881 ], [ -0.433981674343105, 51.461266877750035 ], [ -0.433839604925226, 51.461464645758909 ], [ -0.433578240511146, 51.461739031782741 ], [ -0.432617984054001, 51.462121842201114 ], [ -0.431673682595892, 51.46254081760172 ], [ -0.430604971925597, 51.462977088241537 ], [ -0.429879676447638, 51.463304586634656 ], [ -0.429530620724849, 51.463449142955021 ], [ -0.428365318321403, 51.463931744815831 ], [ -0.427038297897313, 51.464508356525911 ], [ -0.425811473444465, 51.465017975214387 ], [ -0.424328893951754, 51.465639213372405 ], [ -0.423448291410563, 51.466003239220591 ], [ -0.422346748471189, 51.466467668188457 ], [ -0.422077337705435, 51.466555828257498 ], [ -0.421943314386773, 51.466600771274997 ], [ -0.421705119773333, 51.466702745651375 ], [ -0.421415540649477, 51.466749189261854 ], [ -0.420976775456433, 51.466822390040448 ], [ -0.420792723968388, 51.466817213440216 ], [ -0.420492293042559, 51.466720569581611 ], [ -0.420269815651082, 51.466783197356477 ], [ -0.42024703699858, 51.466858495160707 ], [ -0.420217818986879, 51.466996545360885 ], [ -0.420141106422377, 51.467134944266284 ], [ -0.41965870546001, 51.467302844775645 ], [ -0.418837941192429, 51.467557965867869 ], [ -0.41776200888175, 51.467862680858623 ], [ -0.417760585042621, 51.467862661649946 ], [ -0.417422624490135, 51.467975869274582 ], [ -0.416115996183528, 51.468373743338489 ], [ -0.414477598067126, 51.468869513359131 ], [ -0.412836656062507, 51.469355427484665 ], [ -0.411170049797592, 51.469875132989948 ], [ -0.411133846769815, 51.469881834477874 ], [ -0.411261987720418, 51.470253144885483 ], [ -0.411312487094508, 51.470457000531432 ], [ -0.41162029422847, 51.470632067272355 ], [ -0.412059385702028, 51.470923981265244 ], [ -0.412833141258404, 51.471325604345161 ], [ -0.41295787427094, 51.47142258496897 ], [ -0.413025567543475, 51.471548550239731 ], [ -0.413100935511442, 51.471699701086443 ], [ -0.413114421222616, 51.471725055226301 ], [ -0.413259562667303, 51.471983320493074 ], [ -0.413503660114469, 51.472250115965103 ], [ -0.413524509375033, 51.472271973694284 ], [ -0.413587431113231, 51.472326764052291 ], [ -0.413664646047583, 51.472383635558636 ], [ -0.413726767136377, 51.472420435237659 ], [ -0.413811753628585, 51.472462039039947 ], [ -0.413958066572926, 51.472518855860969 ], [ -0.414218355894029, 51.472650930520651 ], [ -0.414383354048121, 51.472836644639479 ], [ -0.414462261673683, 51.472968064602505 ], [ -0.414550764066035, 51.473199491785707 ], [ -0.414726939752795, 51.473391649360728 ], [ -0.414766197202469, 51.473423644507271 ], [ -0.41481833309772, 51.473454015707468 ], [ -0.414870930145717, 51.473474504246276 ], [ -0.414953818705908, 51.47349450310994 ], [ -0.41533949843776, 51.473622875568509 ], [ -0.41551968731074, 51.473702712605458 ], [ -0.41567070118146, 51.473791954262715 ], [ -0.415754477422293, 51.473906358258333 ], [ -0.415795930794083, 51.473957261444681 ], [ -0.415824321743591, 51.474011674050104 ], [ -0.415767931787971, 51.474392173172205 ], [ -0.415703085941324, 51.4746431038173 ], [ -0.415675312905221, 51.474903435136582 ], [ -0.415443573813411, 51.475194363792909 ], [ -0.41492987884177, 51.476053420004668 ], [ -0.414945700771935, 51.47672086446962 ], [ -0.415011015566262, 51.477203785636476 ], [ -0.415212678682179, 51.477534731716368 ], [ -0.415255271257499, 51.477635095070397 ], [ -0.415297832893108, 51.477736356979918 ], [ -0.415582609649526, 51.478578332428221 ], [ -0.41576424551367, 51.478822703943337 ], [ -0.415867873171367, 51.479032759068524 ], [ -0.416026864231155, 51.47926594656704 ], [ -0.416056185183726, 51.479334755642313 ], [ -0.416291678850907, 51.479896298039016 ], [ -0.416331182132026, 51.479962547545391 ], [ -0.416407141358333, 51.480056169011938 ], [ -0.416644191501032, 51.48027791349103 ], [ -0.416723790657298, 51.48043451317529 ], [ -0.416781655659495, 51.480635858846128 ], [ -0.416808263904883, 51.480865460390255 ], [ -0.416737374533806, 51.48116395707796 ], [ -0.416593790612717, 51.481569441102238 ], [ -0.4164816478395, 51.482020208957806 ], [ -0.416456351242965, 51.482085493699181 ], [ -0.416458198726691, 51.482117882267232 ], [ -0.416468716363747, 51.48214679192354 ], [ -0.416511599136055, 51.482197804149223 ], [ -0.416555237314079, 51.482223564948008 ], [ -0.416684685956189, 51.482271160802611 ], [ -0.416737107445716, 51.482297040091531 ], [ -0.416779222551674, 51.482329073176338 ], [ -0.416818059452545, 51.482370051896289 ], [ -0.416841166959697, 51.482412616287284 ], [ -0.416846889048937, 51.482453148049181 ], [ -0.416839758243163, 51.482494495226852 ], [ -0.416821029840763, 51.482534696983542 ], [ -0.416756019281899, 51.482625516457759 ], [ -0.416678729851001, 51.482693695413296 ], [ -0.416633013025984, 51.482724542944887 ], [ -0.416330606199095, 51.482891358404189 ], [ -0.416262478009614, 51.482945276935141 ], [ -0.416213015557125, 51.482998548465616 ], [ -0.416170849733694, 51.483053716476704 ], [ -0.416130072796345, 51.483147649672432 ], [ -0.416031171248498, 51.483551848312821 ], [ -0.415940678408926, 51.483709747409797 ], [ -0.415847519805547, 51.483862306471231 ], [ -0.415598257029424, 51.484116141671166 ], [ -0.415154060633969, 51.484841201723128 ], [ -0.414666405518541, 51.485654762735386 ], [ -0.41402163588956, 51.486053379958769 ], [ -0.414005318979016, 51.486068442204498 ], [ -0.41398847233755, 51.486098780155764 ], [ -0.413987537536222, 51.486125737287473 ], [ -0.413994036392137, 51.486143805009149 ], [ -0.414037328111934, 51.486183047039418 ], [ -0.414061468944711, 51.486192363370392 ], [ -0.414117396458571, 51.486199412491516 ], [ -0.414442640184582, 51.486166051776813 ], [ -0.414474271062634, 51.486168277330947 ], [ -0.414514442522249, 51.486174214289527 ], [ -0.41455567051282, 51.486187357454583 ], [ -0.414589620717213, 51.486204897198512 ], [ -0.414613472340606, 51.48622598630817 ], [ -0.414625538638363, 51.486251321185478 ], [ -0.414624604207523, 51.486278278328442 ], [ -0.414565731649426, 51.486438402229666 ], [ -0.414515198240534, 51.486525820433748 ], [ -0.414202205736981, 51.486829134565951 ], [ -0.413982579531176, 51.487179648832324 ], [ -0.413964713106501, 51.487198286084634 ], [ -0.413907350908167, 51.487232571128047 ], [ -0.413834705592491, 51.48724866962749 ], [ -0.413782919562761, 51.487248868311049 ], [ -0.413698488638357, 51.487231544632927 ], [ -0.413520768616679, 51.487205767205403 ], [ -0.413438526164803, 51.487210947745602 ], [ -0.413394850425086, 51.487223841850053 ], [ -0.413344853401596, 51.487254630273064 ], [ -0.413322002332182, 51.487290280849017 ], [ -0.413354821057546, 51.487381522999883 ], [ -0.413380657859168, 51.487424125122473 ], [ -0.413385224315461, 51.487460236476743 ], [ -0.413368741276071, 51.487521144978587 ], [ -0.413351993171777, 51.487545191214799 ], [ -0.413286790764682, 51.487600046711677 ], [ -0.413171649223782, 51.487721650981705 ], [ -0.413130653068784, 51.487780519729853 ], [ -0.413069152388506, 51.48789296067244 ], [ -0.413023314538846, 51.48800920946497 ], [ -0.413010326969662, 51.488178134141393 ], [ -0.412987683538033, 51.488248848140508 ], [ -0.412955729547135, 51.488296961358394 ], [ -0.412906375926312, 51.488350233086805 ], [ -0.412851642147306, 51.488390846105077 ], [ -0.412703104507861, 51.488478825181055 ], [ -0.412652481853828, 51.488527584665626 ], [ -0.412617491199609, 51.488581050642431 ], [ -0.412603117372456, 51.488622209742012 ], [ -0.412598028757248, 51.488683272323705 ], [ -0.412463547018424, 51.489320815215969 ], [ -0.411930740847943, 51.492098588465353 ], [ -0.411926899137237, 51.492123708207409 ], [ -0.411869661128354, 51.492444862794365 ], [ -0.411627671742744, 51.493813899813013 ], [ -0.411584300968495, 51.494026373898443 ], [ -0.411387990196613, 51.494989593427583 ], [ -0.41128954175325, 51.495211210120516 ], [ -0.411182527705809, 51.495388749884199 ], [ -0.411024142771553, 51.495595260251342 ], [ -0.410949172050807, 51.495677850754781 ], [ -0.410665723441497, 51.495959080230776 ], [ -0.410605017426967, 51.496048156749872 ], [ -0.410570630923527, 51.496125004062804 ], [ -0.410545739400021, 51.49621915081665 ], [ -0.410542365499684, 51.496316196293463 ], [ -0.410554157517854, 51.49643142718179 ], [ -0.410586661691802, 51.496617150124905 ], [ -0.410868743415272, 51.497451822175748 ], [ -0.410882432458262, 51.497515926068203 ], [ -0.410886432811936, 51.497605879547159 ], [ -0.410871167767145, 51.497713551791797 ], [ -0.410846894427075, 51.497793323075001 ], [ -0.410639589582046, 51.498200543872699 ], [ -0.409660576435172, 51.499961430061468 ], [ -0.409265019095249, 51.50031584045869 ], [ -0.408349530415277, 51.500085770337293 ], [ -0.407668839705088, 51.499898437879693 ], [ -0.407250451396523, 51.499707563077258 ], [ -0.406959927971913, 51.49961093028589 ], [ -0.406884908908681, 51.499694505973039 ], [ -0.406620564817195, 51.499630681606796 ], [ -0.404819729262295, 51.499214056197147 ], [ -0.403438283531062, 51.498837366722817 ], [ -0.40277825259346, 51.498637792301658 ], [ -0.401518352302557, 51.498285121404351 ], [ -0.400220562459399, 51.49794639109605 ], [ -0.40017003851999, 51.497991639900683 ], [ -0.399942030699536, 51.49792191333151 ], [ -0.398541406415394, 51.497555690441096 ], [ -0.397894174886353, 51.497402110683588 ], [ -0.395680820459555, 51.496799908277261 ], [ -0.394011862511307, 51.49632747507205 ], [ -0.392269231213598, 51.495860211075964 ], [ -0.390700764157139, 51.495480805759335 ], [ -0.389298765438458, 51.495161201836027 ], [ -0.388191484544509, 51.494939127853144 ], [ -0.387776472077111, 51.494901957158596 ], [ -0.387650144128953, 51.494890331084775 ], [ -0.387533410099718, 51.494849170295716 ], [ -0.387083920117019, 51.494688361942309 ], [ -0.385966230683884, 51.494640616986644 ], [ -0.385691121572535, 51.494637728328676 ], [ -0.385453369779423, 51.494639848405392 ], [ -0.385148958854989, 51.494652736693212 ], [ -0.384741822177013, 51.494678592363059 ], [ -0.384386322653264, 51.494708753608627 ], [ -0.383912084051077, 51.494757953497533 ], [ -0.38369926192361, 51.494787382681906 ], [ -0.383506558456184, 51.494818886896788 ], [ -0.383316481566164, 51.494856719925927 ], [ -0.383010034297498, 51.494927198826481 ], [ -0.382621076161666, 51.495009933413556 ], [ -0.382392805624852, 51.495069712641524 ], [ -0.382170042278887, 51.495134961360293 ], [ -0.381825343647438, 51.495225585988884 ], [ -0.381163580089213, 51.49544479153974 ], [ -0.38008263861659, 51.495824693986314 ], [ -0.379684545524185, 51.49596033306446 ], [ -0.379119798144048, 51.496162978535153 ], [ -0.379125988726786, 51.496192730711599 ], [ -0.37894478263027, 51.496264840993327 ], [ -0.378480302997966, 51.49640324391887 ], [ -0.377872331579565, 51.496605195776105 ], [ -0.377832126171894, 51.496563285994945 ], [ -0.377815366413535, 51.496546872296669 ], [ -0.377653191759119, 51.496531143198766 ], [ -0.377630518873683, 51.496517344601706 ], [ -0.37766725979665, 51.496459418870408 ], [ -0.377693184290766, 51.49641842420727 ], [ -0.377719928647397, 51.496190361531376 ], [ -0.377736615004023, 51.496044866532436 ], [ -0.377864475061854, 51.495447730237238 ], [ -0.377199637565891, 51.495304579091837 ], [ -0.377052056433551, 51.495282758182768 ], [ -0.376752011752314, 51.495292987485371 ], [ -0.376404626184935, 51.495338519870742 ], [ -0.375818911574146, 51.495402325038199 ], [ -0.375650588352384, 51.494871297461849 ], [ -0.37545962151786, 51.494529642360497 ], [ -0.375207683132475, 51.494239283112655 ], [ -0.375065157601639, 51.494075399521897 ], [ -0.374944766545757, 51.493937084194087 ], [ -0.374953976074928, 51.493921929055539 ], [ -0.374985759733271, 51.493876521238903 ], [ -0.37477720504178, 51.493545408841548 ], [ -0.374607012666665, 51.493267868337711 ], [ -0.373984036036986, 51.492233121232957 ], [ -0.373785773155543, 51.491933613720249 ], [ -0.373775906409698, 51.491927183886048 ], [ -0.373712464333795, 51.491887647018949 ], [ -0.373687160595759, 51.49187111408299 ], [ -0.373591670936481, 51.491841021382605 ], [ -0.373472726476927, 51.491825885976581 ], [ -0.373292329371527, 51.491631897265641 ], [ -0.373200642940176, 51.491578393336532 ], [ -0.373017273560338, 51.491467969131499 ], [ -0.372773034694605, 51.491289185297184 ], [ -0.372636797771511, 51.491109293435194 ], [ -0.372399186535576, 51.490984630192685 ], [ -0.372292146752954, 51.49095878105512 ], [ -0.37214091098807, 51.49095668068437 ], [ -0.37192686432615, 51.490980767319925 ], [ -0.371836205064698, 51.490898508791503 ], [ -0.371703325135347, 51.490787884786066 ], [ -0.371787145007925, 51.490658695360985 ], [ -0.371830174944455, 51.490580990900803 ], [ -0.371842281518132, 51.490524522572308 ], [ -0.371851443049649, 51.490470710308522 ], [ -0.371148043213844, 51.490685775019131 ], [ -0.369788564764371, 51.491160511006477 ], [ -0.36936037000104, 51.491291291399108 ], [ -0.368663324234063, 51.491530612874563 ], [ -0.367900584782016, 51.491793380481518 ], [ -0.367910354399402, 51.491802506385092 ], [ -0.368227694502269, 51.492152225889491 ], [ -0.368356497566679, 51.492297048603021 ], [ -0.368253772548245, 51.49231000244334 ], [ -0.368010083272768, 51.492395611346168 ], [ -0.367720223092254, 51.492486960153848 ], [ -0.367350562555038, 51.492631046924068 ], [ -0.367007476030181, 51.492759320756861 ], [ -0.366994343529306, 51.492764531838596 ], [ -0.366953434839021, 51.492779245038975 ], [ -0.366943342763917, 51.492822346029634 ], [ -0.366960889035979, 51.492853156107756 ], [ -0.366952213156339, 51.492856631261084 ], [ -0.36682317821075, 51.492917763774351 ], [ -0.366723666647324, 51.493003580132552 ], [ -0.366641111391382, 51.49309682452084 ], [ -0.366471893262528, 51.49327525488917 ], [ -0.366042425604647, 51.493523776644963 ], [ -0.365779743976232, 51.493658561268397 ], [ -0.365360832343338, 51.493326298631665 ], [ -0.364959846348647, 51.49370475841679 ], [ -0.364724172375458, 51.493967574291261 ], [ -0.364533873461755, 51.494134021179825 ], [ -0.364354931851807, 51.494261879583263 ], [ -0.364054785936763, 51.494437581562032 ], [ -0.363857372571508, 51.494600242308188 ], [ -0.363711151699332, 51.494699878393888 ], [ -0.363677142939775, 51.495006050469406 ], [ -0.363605449011906, 51.495478909440031 ], [ -0.36353308563484, 51.495489586643764 ], [ -0.363514231144713, 51.495492020533824 ], [ -0.363475964954018, 51.495515759386628 ], [ -0.363271291129436, 51.495638852129602 ], [ -0.363229580124628, 51.495758735109767 ], [ -0.363165909241768, 51.495845048843854 ], [ -0.362976972861091, 51.495933300010158 ], [ -0.362891291555255, 51.495950982885738 ], [ -0.362854087237107, 51.495945069588814 ], [ -0.362789619097191, 51.495934280719752 ], [ -0.36261291185493, 51.495959682592755 ], [ -0.362496237496956, 51.496000306308041 ], [ -0.36239729303895, 51.496026793579553 ], [ -0.362254149643192, 51.496043673635761 ], [ -0.36213858017747, 51.496050150676197 ], [ -0.361896942792288, 51.49608093765633 ], [ -0.361713476051515, 51.496175556200114 ], [ -0.361710150193209, 51.496228550373424 ], [ -0.361707758810612, 51.496255486781131 ], [ -0.361635990735794, 51.496285949022948 ], [ -0.361570287627793, 51.496312899975152 ], [ -0.361480595473467, 51.496362889588362 ], [ -0.361144000148195, 51.496467863873789 ], [ -0.360940959715869, 51.496545126860411 ], [ -0.360752212667581, 51.496627893349967 ], [ -0.360554060826954, 51.496688053229811 ], [ -0.360088445491608, 51.496776926979742 ], [ -0.359561544278532, 51.497007791947766 ], [ -0.359172535820926, 51.497209208943751 ], [ -0.35869774534577, 51.49747055593938 ], [ -0.358476099483918, 51.497625677087427 ], [ -0.35842191941358, 51.497649191636491 ], [ -0.358157984828589, 51.497738183595175 ], [ -0.358006493861159, 51.497785507564636 ], [ -0.357530584006917, 51.4977968238465 ], [ -0.357279908712493, 51.497797808127544 ], [ -0.356904983635143, 51.497848294029929 ], [ -0.356576330648153, 51.497929992966327 ], [ -0.356368514464414, 51.497981110498031 ], [ -0.356285439160396, 51.498008714131508 ], [ -0.356219773255375, 51.498031167728051 ], [ -0.356096687948391, 51.498087877340275 ], [ -0.356055760154993, 51.498106182597049 ], [ -0.355820487341802, 51.498157723434048 ], [ -0.355628170766737, 51.498177502213316 ], [ -0.355486225727205, 51.498157532146998 ], [ -0.355253250365376, 51.498184831185938 ], [ -0.355128737744587, 51.498201963974275 ], [ -0.354966176060188, 51.498276188620956 ], [ -0.354852143340229, 51.49828268015564 ], [ -0.354755617455545, 51.49828132619141 ], [ -0.354588084374409, 51.498252815235865 ], [ -0.354586497788901, 51.498257287958644 ], [ -0.354563850640337, 51.498325383850158 ], [ -0.354536348944506, 51.49833039200292 ], [ -0.353300666007631, 51.498555778895508 ], [ -0.352269959399708, 51.498772435689439 ], [ -0.35093501949307, 51.499074705720361 ], [ -0.350678743838941, 51.499108859938573 ], [ -0.350515629637274, 51.499119151949188 ], [ -0.350342661621157, 51.499119416162927 ], [ -0.350172986455442, 51.499110736468694 ], [ -0.350033847156014, 51.499095294140389 ], [ -0.349910856125401, 51.499070189871198 ], [ -0.349766808405204, 51.499029506237925 ], [ -0.349623280484975, 51.498974445780654 ], [ -0.349464719998923, 51.498894900657568 ], [ -0.348257072266689, 51.498347310554209 ], [ -0.34723646880917, 51.497926495410276 ], [ -0.346162244588276, 51.497553460987561 ], [ -0.344719186549276, 51.497020493813807 ], [ -0.344717761862016, 51.497020473705781 ], [ -0.343476751834216, 51.496560554286354 ], [ -0.342092424669288, 51.496040969752073 ], [ -0.341394508737535, 51.496098526475421 ], [ -0.341360027690998, 51.496014431907774 ], [ -0.340270348684428, 51.496150946585736 ], [ -0.339301654700612, 51.496203849390497 ], [ -0.33861577203317, 51.496247176014151 ], [ -0.337575461838137, 51.496254010150309 ], [ -0.336765646940674, 51.496256013164007 ], [ -0.335977672294471, 51.496216067477242 ], [ -0.335424623677859, 51.496212714123544 ], [ -0.335292098033823, 51.496211732054682 ], [ -0.334684384478493, 51.496205802458704 ], [ -0.33467476901105, 51.496153523981462 ], [ -0.334024497696854, 51.496086666325226 ], [ -0.333235533660574, 51.49595679282799 ], [ -0.332648449979501, 51.495857652215662 ], [ -0.33207353087889, 51.495701954822799 ], [ -0.331809716621615, 51.495627183242256 ], [ -0.331751034822449, 51.49569557177842 ], [ -0.331239185394823, 51.495549847036351 ], [ -0.331113726762159, 51.495514799623265 ], [ -0.330952571763172, 51.495468456307762 ], [ -0.330532121186497, 51.495347312786372 ], [ -0.329954212747224, 51.495075592008455 ], [ -0.327396458182026, 51.496037403756134 ], [ -0.326904460953006, 51.49562566053276 ], [ -0.326136865929799, 51.49503018468527 ], [ -0.325674883048076, 51.495371684301091 ], [ -0.324849072381833, 51.495929949941178 ], [ -0.324736510921389, 51.496012938256762 ], [ -0.324003693762264, 51.49576504763062 ], [ -0.323412330839663, 51.49589953884022 ], [ -0.322493084039408, 51.49555008535436 ], [ -0.321456841053744, 51.495210638155775 ], [ -0.320944630161064, 51.495036995301859 ], [ -0.320515190606265, 51.494883324093308 ], [ -0.319892443346291, 51.494579448516966 ], [ -0.319189556906762, 51.494223179194513 ], [ -0.318573172194793, 51.494492226577634 ], [ -0.318206772279217, 51.49470102556792 ], [ -0.317224007030676, 51.495216532939516 ], [ -0.315825388444845, 51.495876376057851 ], [ -0.315766749395917, 51.495904302209155 ], [ -0.315425088257768, 51.495635003944905 ], [ -0.315360036590336, 51.495601706291524 ], [ -0.315297886681167, 51.495570248248391 ], [ -0.315269568488981, 51.49555545778712 ], [ -0.315658123929614, 51.495371258264626 ], [ -0.315710931372822, 51.495346844438963 ], [ -0.314754900465233, 51.494589470720385 ], [ -0.314525045325157, 51.494416169673521 ], [ -0.314453483883064, 51.494363000128345 ], [ -0.314902943312312, 51.494092475590143 ], [ -0.315061158721544, 51.493979676386054 ], [ -0.315081903613705, 51.493964691376426 ], [ -0.314865287489403, 51.493822146848572 ], [ -0.314724140043959, 51.493704149564849 ], [ -0.314671950007908, 51.493715086904785 ], [ -0.314392212750709, 51.493448472732361 ], [ -0.31410026757014, 51.493589915530819 ], [ -0.314090129847099, 51.493594264844518 ], [ -0.31403964523651, 51.493555781749691 ], [ -0.314022777480502, 51.493542953478091 ], [ -0.313926082381404, 51.493588311774886 ], [ -0.3139143682044, 51.493593537415109 ], [ -0.313629063351501, 51.493400648769928 ], [ -0.313284121367059, 51.493105225947531 ], [ -0.312805847198627, 51.492715288599285 ], [ -0.312662294084675, 51.492585477332774 ], [ -0.312608827154238, 51.492589203435358 ], [ -0.312458129929546, 51.492456682089859 ], [ -0.311954423261301, 51.492016029124969 ], [ -0.311902785887131, 51.491970245905136 ], [ -0.310938276369158, 51.492422228096615 ], [ -0.309669197634918, 51.493002863285987 ], [ -0.30882205859134, 51.49339529422484 ], [ -0.308381382949304, 51.493585012810627 ], [ -0.308010788797409, 51.493713619795322 ], [ -0.30750827866295, 51.493860190748364 ], [ -0.30653846076976, 51.494180714245019 ], [ -0.305418769413349, 51.49453862127416 ], [ -0.305637567197046, 51.494970691280244 ], [ -0.305800524167715, 51.495355206868787 ], [ -0.305836951570672, 51.49561563217668 ], [ -0.305870255057731, 51.495921861085137 ], [ -0.305857596308449, 51.496071001333299 ], [ -0.305828922174699, 51.49618116368481 ], [ -0.305625487776982, 51.49615125653564 ], [ -0.305366941873038, 51.496054027533283 ], [ -0.305219085798128, 51.495998851457351 ], [ -0.304628505856309, 51.495841896190257 ], [ -0.303923294164771, 51.495707643834834 ], [ -0.303285381198288, 51.495622816165103 ], [ -0.302654334324188, 51.495506709390384 ], [ -0.302207613169503, 51.495432822096262 ], [ -0.301333563639492, 51.495226797988664 ], [ -0.301346151526429, 51.495083140971467 ], [ -0.301316265120464, 51.494919001185714 ], [ -0.301228658657042, 51.494716357730617 ], [ -0.301088531701538, 51.49441846923493 ], [ -0.299401895237515, 51.494641257182714 ], [ -0.298256612563443, 51.4947946507558 ], [ -0.297531345815023, 51.494890210186412 ], [ -0.298056858169693, 51.495517422854874 ], [ -0.297959236098409, 51.495545673542217 ], [ -0.298191452237051, 51.495772083035817 ], [ -0.298370764086196, 51.495945582981363 ], [ -0.298808426430522, 51.496457255397956 ], [ -0.298907246846313, 51.496588233516242 ], [ -0.299054252092811, 51.496780951923903 ], [ -0.299335185082675, 51.497169974351564 ], [ -0.299517450538694, 51.497420738926699 ], [ -0.29961419503552, 51.497531009402167 ], [ -0.299765794860877, 51.497677045650242 ], [ -0.299796304898613, 51.497706255629048 ], [ -0.299923458922863, 51.497813370509455 ], [ -0.299975534992627, 51.497923802507572 ], [ -0.300028542785034, 51.498165591191402 ], [ -0.300078311983451, 51.498338020379911 ], [ -0.300149493669538, 51.498436233056538 ], [ -0.300221499959253, 51.498515488832588 ], [ -0.300286799255709, 51.49858026347637 ], [ -0.30037932373857, 51.498650826434385 ], [ -0.300542175282002, 51.498804306436483 ], [ -0.30064932084024, 51.499254546751061 ], [ -0.300696184348846, 51.499348720962651 ], [ -0.300090900330048, 51.499547710868839 ], [ -0.299750404693782, 51.499638070736047 ], [ -0.298521945636136, 51.500050162340109 ], [ -0.296742937815845, 51.500657423668535 ], [ -0.296105317614196, 51.500872016038421 ], [ -0.29558993201903, 51.501051611696084 ], [ -0.295030604032998, 51.501253041505912 ], [ -0.29432780417084, 51.501475667139069 ], [ -0.294205487784727, 51.501512635721824 ], [ -0.294147112397802, 51.501529766979026 ], [ -0.294027782941313, 51.50156309291814 ], [ -0.293923759944108, 51.50157146939879 ], [ -0.29379214176629, 51.501583939499582 ], [ -0.293620440958238, 51.501591331560434 ], [ -0.293393300228409, 51.501575442106926 ], [ -0.293012566361399, 51.501546529868385 ], [ -0.292035965907168, 51.501463095385091 ], [ -0.291352128174566, 51.501372139536969 ], [ -0.290657999463307, 51.501245159777724 ], [ -0.289941635804474, 51.501099781976173 ], [ -0.289214093098339, 51.500945336688979 ], [ -0.288677252392282, 51.50085030525905 ], [ -0.288106642345416, 51.500813213490211 ], [ -0.287762315733625, 51.500776724321376 ], [ -0.286788163862539, 51.500663524813866 ], [ -0.286129740805404, 51.500741111872792 ], [ -0.28571047696493, 51.500780026740074 ], [ -0.28560545867148, 51.500811755237628 ], [ -0.285143593444074, 51.500950643468336 ], [ -0.285050327456977, 51.500976250252144 ], [ -0.28470968780873, 51.50106935153228 ], [ -0.283881270750253, 51.50137737085722 ], [ -0.283188278801982, 51.501644124219212 ], [ -0.282470756401778, 51.501988008053964 ], [ -0.282354480709517, 51.502091488674139 ], [ -0.281015387356942, 51.502719335990101 ], [ -0.280761054636, 51.502851358266092 ], [ -0.280713590365995, 51.502812005856029 ], [ -0.280234172327807, 51.502419219767425 ], [ -0.279873551590332, 51.502086608224005 ], [ -0.279829554237559, 51.502106640151332 ], [ -0.279656019801601, 51.501932387197009 ], [ -0.279529069022148, 51.501783000115282 ], [ -0.279407967402829, 51.501632889565244 ], [ -0.279197451228782, 51.501292587978902 ], [ -0.278948873285489, 51.500852747948727 ], [ -0.278811593776762, 51.500633985646758 ], [ -0.278668511448907, 51.500417924910963 ], [ -0.278519378882137, 51.500207978278297 ], [ -0.27836853484796, 51.500002501323408 ], [ -0.278189075506846, 51.499796694131632 ], [ -0.278036489779249, 51.499640636104139 ], [ -0.277873640554133, 51.499489012118367 ], [ -0.277273078754726, 51.498983768348758 ], [ -0.276716404966191, 51.498540387872637 ], [ -0.276285251108001, 51.498284042673816 ], [ -0.275685584024873, 51.497947905446644 ], [ -0.27423820100026, 51.497286357288445 ], [ -0.273711538447916, 51.497002526568963 ], [ -0.273281906489978, 51.496782152494525 ], [ -0.272926968250515, 51.496527905267307 ], [ -0.272709423698225, 51.496337620854568 ], [ -0.27245868742637, 51.496148735199803 ], [ -0.272280468300896, 51.495644289099573 ], [ -0.272144592034223, 51.495427337196674 ], [ -0.2719954648123, 51.495256128862749 ], [ -0.271776471497821, 51.49506672029537 ], [ -0.27153539464988, 51.494889661865372 ], [ -0.271403226076332, 51.494804017707054 ], [ -0.271266526178319, 51.494721992529385 ], [ -0.270978474161621, 51.494568513757109 ], [ -0.270709520212133, 51.494443993872792 ], [ -0.270027556772932, 51.494228967978401 ], [ -0.269377918292491, 51.494076356041312 ], [ -0.268900620369526, 51.494011778447508 ], [ -0.268397949696454, 51.493971097438262 ], [ -0.268039400707897, 51.494004462038319 ], [ -0.267695624198701, 51.494027255696444 ], [ -0.267652971425129, 51.49393672585051 ], [ -0.266666609832786, 51.49404082578662 ], [ -0.265526656005547, 51.494167009833291 ], [ -0.264416886505109, 51.494292640439618 ], [ -0.263751142621471, 51.494373589322599 ], [ -0.262651017137588, 51.494473364838711 ], [ -0.262276603224637, 51.494508274963522 ], [ -0.261872384316864, 51.494567914380916 ], [ -0.261833018244706, 51.494581715198429 ], [ -0.261719211600759, 51.494619585151327 ], [ -0.261629597651932, 51.494627247412701 ], [ -0.261447401847345, 51.494642527751118 ], [ -0.261303346644752, 51.494604432964245 ], [ -0.261260082923071, 51.494608286815428 ], [ -0.260333396136395, 51.494691641910379 ], [ -0.260071175169597, 51.494730995427865 ], [ -0.259735178880726, 51.494739497139008 ], [ -0.258518737685552, 51.49483022668349 ], [ -0.257510285140668, 51.494905153791308 ], [ -0.256326165470371, 51.494942400549739 ], [ -0.255866657986767, 51.494940964484222 ], [ -0.255552917432945, 51.494932704032067 ], [ -0.255411698791981, 51.494932402234824 ], [ -0.255384441906238, 51.495496749813434 ], [ -0.255362215977938, 51.495661925522548 ], [ -0.255449397171896, 51.495792678119777 ], [ -0.25550712555122, 51.49594196165603 ], [ -0.255565527301814, 51.49599587110135 ], [ -0.255604586776454, 51.496030613904082 ], [ -0.255457443667483, 51.496073376170969 ], [ -0.255375908739926, 51.49609643682426 ], [ -0.255490082339026, 51.496276226734622 ], [ -0.255245941019778, 51.496330132461736 ], [ -0.255095552556297, 51.496345875969226 ], [ -0.255093716047313, 51.49635663667528 ], [ -0.255082351951044, 51.496539054886334 ], [ -0.255071763313375, 51.496589241495506 ], [ -0.255018680991667, 51.496809606401328 ], [ -0.255011554504609, 51.496884207437297 ], [ -0.255003916502972, 51.496972195986977 ], [ -0.254660052575734, 51.497372620782222 ], [ -0.254599451968057, 51.497450831410383 ], [ -0.254212617721671, 51.497921726665787 ], [ -0.253899629428311, 51.498346881693742 ], [ -0.253570379248702, 51.498780873743797 ], [ -0.253353875831584, 51.499018673162752 ], [ -0.253092654541061, 51.499406838617801 ], [ -0.252888929947799, 51.499720343559105 ], [ -0.252763732117644, 51.499906370484887 ], [ -0.252722716506054, 51.50007486183106 ], [ -0.252725069951101, 51.500277262071123 ], [ -0.252773397301877, 51.500367881883108 ], [ -0.252839365007799, 51.500491128403063 ], [ -0.252918202534955, 51.500650616299374 ], [ -0.252937814285545, 51.500777667341708 ], [ -0.252999843114019, 51.501041188875028 ], [ -0.253044813026097, 51.501297264369448 ], [ -0.253054198936392, 51.501353142120564 ], [ -0.253061044667675, 51.501400891049187 ], [ -0.253000251783935, 51.501406278880808 ], [ -0.25273913446025, 51.501226186636636 ], [ -0.252816359247084, 51.501167013729194 ], [ -0.252343390397522, 51.500838936751265 ], [ -0.252119540616096, 51.500662994204291 ], [ -0.251820529080587, 51.500380658264795 ], [ -0.251623273645854, 51.500189737844046 ], [ -0.251340404409562, 51.499864489089873 ], [ -0.251325114393033, 51.499848079192518 ], [ -0.251297841797804, 51.499846773736593 ], [ -0.251248607778559, 51.499776816849561 ], [ -0.250969673621947, 51.499460615846282 ], [ -0.251105247104882, 51.499419484602413 ], [ -0.251002962776701, 51.499345140854885 ], [ -0.25071265436433, 51.499025173630002 ], [ -0.249992471213381, 51.49796673764174 ], [ -0.249371233921477, 51.497185047621244 ], [ -0.249223947326081, 51.49696789851928 ], [ -0.249211661432436, 51.496950634149449 ], [ -0.24886768314026, 51.497055269034739 ], [ -0.248559885289641, 51.497154959091517 ], [ -0.247956923765603, 51.497399565486688 ], [ -0.247744476605528, 51.497490788185488 ], [ -0.247473346134674, 51.497609902069883 ], [ -0.247231014510719, 51.497693575356912 ], [ -0.246882716463099, 51.497833111150904 ], [ -0.246332367100091, 51.498021858240207 ], [ -0.245982353277271, 51.498131698664146 ], [ -0.245349934703853, 51.498356972407109 ], [ -0.245269489288934, 51.498385436442419 ], [ -0.245108603840409, 51.498111441537525 ], [ -0.244981482820616, 51.497895487608041 ], [ -0.244572899384693, 51.497955991506451 ], [ -0.244536719788176, 51.497960844225837 ], [ -0.244397538127418, 51.497944377722959 ], [ -0.244522072166683, 51.497590955098261 ], [ -0.24461534706666, 51.497599542639726 ], [ -0.244740500147804, 51.497344300162297 ], [ -0.244617488728743, 51.496758827144127 ], [ -0.244629199403928, 51.496602485926651 ], [ -0.244686405526303, 51.496501754434767 ], [ -0.244704312830032, 51.496335616877587 ], [ -0.244748433081637, 51.496124112209671 ], [ -0.244753723351305, 51.496100817273039 ], [ -0.244533835634327, 51.49608584049804 ], [ -0.244598400237688, 51.495793641578885 ], [ -0.244692789745177, 51.495584597110835 ], [ -0.244798937622944, 51.495561013016484 ], [ -0.244817845368119, 51.495368819299152 ], [ -0.244864789704388, 51.495046689523768 ], [ -0.244950819389261, 51.494681093229708 ], [ -0.245021947493283, 51.494255040746161 ], [ -0.245262801359667, 51.493050023151817 ], [ -0.245335894018117, 51.492721092167869 ], [ -0.245401902353161, 51.49205393912213 ], [ -0.24544164463221, 51.491656092374413 ], [ -0.245444103973668, 51.491629158861727 ], [ -0.245556065980465, 51.490813453473415 ], [ -0.24558635454737, 51.49021318798038 ], [ -0.24558410111329, 51.490157415666886 ], [ -0.245554174483885, 51.489999551512483 ], [ -0.245492241387956, 51.489849389712333 ], [ -0.245306384610312, 51.489548948022339 ], [ -0.245411462485317, 51.489478598690511 ], [ -0.245260592740373, 51.489278470257162 ], [ -0.244981827663967, 51.489037771157022 ], [ -0.244821691084227, 51.489082124176242 ], [ -0.244576435510364, 51.488791580857523 ], [ -0.244539460694099, 51.488702924658995 ], [ -0.243420180397977, 51.48791913720676 ], [ -0.244680121805056, 51.487028824740143 ], [ -0.24517324732281, 51.486789782473444 ], [ -0.246194898645372, 51.486292442508201 ], [ -0.246803435800303, 51.486010167787391 ], [ -0.247192724984594, 51.485811908631241 ], [ -0.247732723904181, 51.48551422088763 ], [ -0.247804774580333, 51.485474841411879 ], [ -0.248163313664249, 51.485254453570107 ], [ -0.248397332924601, 51.485085247398096 ], [ -0.24854740661478, 51.484965222204245 ], [ -0.248688953073735, 51.484841473487421 ], [ -0.248823484277773, 51.484714832954857 ], [ -0.248950909107079, 51.484584580061941 ], [ -0.249068351607422, 51.484451391123336 ], [ -0.249183201368623, 51.48430836414844 ], [ -0.249766162138022, 51.483492398315434 ], [ -0.250047076098729, 51.483000243908137 ], [ -0.250125566617771, 51.482829613354767 ], [ -0.250200227453555, 51.482647328376373 ], [ -0.250283043798976, 51.482403942248254 ], [ -0.250308218311415, 51.482310820413772 ], [ -0.250351124773204, 51.482129769912817 ], [ -0.250381129227168, 51.481947627990742 ], [ -0.250461004862062, 51.481290562394683 ], [ -0.250464835363369, 51.481001047704005 ], [ -0.250385799640038, 51.480472059152319 ], [ -0.25034839192928, 51.480130685810217 ], [ -0.250340262014106, 51.479666494435129 ], [ -0.250386012448993, 51.478998131630675 ], [ -0.250500666386246, 51.47822012767287 ], [ -0.250625716498331, 51.477586210415652 ], [ -0.250692856389037, 51.477336386854525 ], [ -0.250764355246982, 51.477087437336557 ], [ -0.251409748561306, 51.475874039870007 ], [ -0.251681335705813, 51.475325914954155 ], [ -0.251724521205374, 51.475099919586967 ], [ -0.251763686226642, 51.47497913761714 ], [ -0.251817140327607, 51.474860366521732 ], [ -0.251883684553734, 51.474740801508361 ], [ -0.251917170526503, 51.474690956162647 ], [ -0.25235593138645, 51.47428835515209 ], [ -0.252558158074558, 51.474044949944528 ], [ -0.253245473940927, 51.473316921437338 ], [ -0.253407141832465, 51.473118760152168 ], [ -0.253592630728729, 51.472937225138551 ], [ -0.253678723827556, 51.472868294227716 ], [ -0.253769134914891, 51.472801315419233 ], [ -0.254019973523764, 51.472643227301646 ], [ -0.254554102342047, 51.472344523330932 ], [ -0.254846415360287, 51.472191455464667 ], [ -0.255150111231133, 51.472044939052985 ], [ -0.255460653751539, 51.471905625771143 ], [ -0.255779578648357, 51.471773718193674 ], [ -0.256106892855627, 51.471649036554872 ], [ -0.256404650418779, 51.471542883806592 ], [ -0.256718134855981, 51.471441458964236 ], [ -0.257077881836011, 51.4713316404967 ], [ -0.257444637949369, 51.471231004950532 ], [ -0.257816745674805, 51.471139437750963 ], [ -0.25819559824176, 51.471057768632122 ], [ -0.258498704308974, 51.471001135171164 ], [ -0.258773854270268, 51.470958470162238 ], [ -0.259099430385303, 51.470916552639864 ], [ -0.259427596283163, 51.470884561674161 ], [ -0.259758217373748, 51.470859798234791 ], [ -0.260090107303072, 51.470842244710475 ], [ -0.260423032341581, 51.470831807725233 ], [ -0.260757325559321, 51.47082597499498 ], [ -0.261157689321493, 51.470824716409112 ], [ -0.261641259878151, 51.47083008316217 ], [ -0.262143236244625, 51.470844710555284 ], [ -0.262644732032203, 51.470872004644534 ], [ -0.26314282229846, 51.470910843337577 ], [ -0.263637554472727, 51.470963115289045 ], [ -0.263981483031812, 51.471006861178516 ], [ -0.264290714260587, 51.471054587853239 ], [ -0.264709915186641, 51.471126415119059 ], [ -0.265124352664149, 51.471208059508236 ], [ -0.265534108126395, 51.471300511179628 ], [ -0.265936256372584, 51.471402648149308 ], [ -0.266222706234179, 51.471481498221948 ], [ -0.266488846530626, 51.471563733481624 ], [ -0.266845773122937, 51.471681381341931 ], [ -0.267196700004666, 51.471807030556562 ], [ -0.267538623537953, 51.471941625738147 ], [ -0.268041506617421, 51.472158517231172 ], [ -0.269431725120222, 51.472827393859113 ], [ -0.269900887552005, 51.473101407750143 ], [ -0.270818664885116, 51.473694077348696 ], [ -0.271567290270578, 51.474270762810384 ], [ -0.27223509047759, 51.474891203478087 ], [ -0.272531686349003, 51.475195928589862 ], [ -0.272825489040628, 51.475502409850883 ], [ -0.273466824080702, 51.476286982801774 ], [ -0.273921497936087, 51.476871022279042 ], [ -0.274661216641518, 51.477953801735758 ], [ -0.276098007682248, 51.48079055470447 ], [ -0.276219103758475, 51.481055835902346 ], [ -0.276312035124996, 51.481227205420488 ], [ -0.276415126025946, 51.481396836192481 ], [ -0.276539221393295, 51.481579451584267 ], [ -0.276675117676411, 51.481757745113647 ], [ -0.276810237359619, 51.481918855859412 ], [ -0.276965208652154, 51.482085742019031 ], [ -0.277814142867088, 51.482832883892279 ], [ -0.278651753323583, 51.483499840955176 ], [ -0.279407877928286, 51.483997479937202 ], [ -0.279774468041249, 51.484170971015722 ], [ -0.279827542574916, 51.484212204745631 ], [ -0.279878326906975, 51.484241717730171 ], [ -0.279976248079161, 51.484280911916088 ], [ -0.280086391966344, 51.484301405987807 ], [ -0.280242958413871, 51.484312691374285 ], [ -0.2804449976702, 51.484340016170385 ], [ -0.280533540820903, 51.484360193200928 ], [ -0.280667458914634, 51.484399015392896 ], [ -0.280795409913098, 51.484444942070191 ], [ -0.282105728166423, 51.485067552916412 ], [ -0.282305046935545, 51.485205323027117 ], [ -0.282595986636676, 51.485626004133579 ], [ -0.282711525270413, 51.48573377868879 ], [ -0.282790158849282, 51.4857870723147 ], [ -0.282850866852858, 51.48582122429498 ], [ -0.283968403611058, 51.486323221638692 ], [ -0.284678673663841, 51.486548472295553 ], [ -0.285687459946104, 51.486765584122779 ], [ -0.286775677064777, 51.486973957933522 ], [ -0.286904719094028, 51.486991125375269 ], [ -0.287088428114631, 51.487007292797522 ], [ -0.287227963420598, 51.4870138249604 ], [ -0.287426793020687, 51.487013131395209 ], [ -0.287435339039984, 51.487013256140798 ], [ -0.287943387989711, 51.487026065037142 ], [ -0.288116156203009, 51.487026788018753 ], [ -0.288188035700568, 51.487032331849406 ], [ -0.288339717402759, 51.487057020124261 ], [ -0.288514959865237, 51.487109022223095 ], [ -0.289377421644759, 51.487311381564567 ], [ -0.289658048225269, 51.487355928360728 ], [ -0.289807252916946, 51.487370689524404 ], [ -0.29014096040089, 51.48738364451328 ], [ -0.291665913299699, 51.487356413478444 ], [ -0.291744028463152, 51.487347661754008 ], [ -0.292094351370507, 51.487300529447865 ], [ -0.293374028300714, 51.486936981160639 ], [ -0.293929392361606, 51.486760760882014 ], [ -0.296077932665659, 51.486076999638819 ], [ -0.29635389470544, 51.485975822655874 ], [ -0.296536964918068, 51.485897569684141 ], [ -0.296717085782103, 51.485815587651068 ], [ -0.296830254274076, 51.48575519865387 ], [ -0.296902650295104, 51.485708601904086 ], [ -0.296966329925456, 51.485660080562063 ], [ -0.297042344151191, 51.485592858952984 ], [ -0.297108318048042, 51.485520996503361 ], [ -0.297174949307738, 51.485434669451493 ], [ -0.29736745792858, 51.485214508123462 ], [ -0.297815606962142, 51.484475459384775 ], [ -0.298375059364188, 51.48376058829502 ], [ -0.299054861522252, 51.482947579862092 ], [ -0.299799424838555, 51.482174253683674 ], [ -0.300892739317839, 51.481240466294381 ], [ -0.302210529593539, 51.480307223036135 ], [ -0.303045080325595, 51.479707792599605 ], [ -0.304253131387309, 51.478545402595223 ], [ -0.304799998049431, 51.477895951368723 ], [ -0.305142402576498, 51.477399971180155 ], [ -0.305249019643606, 51.477204628538104 ], [ -0.30532708757687, 51.477078007203268 ], [ -0.305507669099583, 51.476831500561239 ], [ -0.305669881267416, 51.476651344967209 ], [ -0.305785010502462, 51.476537035800163 ], [ -0.305969694324409, 51.476368801675811 ], [ -0.306219726956116, 51.476151166500671 ], [ -0.306607072593124, 51.475842016506618 ], [ -0.306976816003383, 51.475578460729331 ], [ -0.30849377269181, 51.474741624892594 ], [ -0.309542546982121, 51.474299875486729 ], [ -0.31014519958266, 51.474045963110754 ], [ -0.310501881525935, 51.473903666213602 ], [ -0.311568680496099, 51.473477531443002 ], [ -0.313246167548786, 51.472855020569021 ], [ -0.314016128279407, 51.472592796674171 ], [ -0.314759456093657, 51.472389429049258 ], [ -0.315428379203307, 51.472130149126826 ], [ -0.315882726318682, 51.472033289792627 ], [ -0.316580179445312, 51.471859817877224 ], [ -0.316863976655142, 51.471777587466164 ], [ -0.317046140929194, 51.471718170885211 ], [ -0.317384901546138, 51.471590789166562 ], [ -0.317553202476297, 51.471517687931168 ], [ -0.318209853313454, 51.471200680385124 ], [ -0.318465918947474, 51.471052331896502 ], [ -0.318611371476713, 51.470932153779451 ], [ -0.31865184194727, 51.470890481140309 ], [ -0.318707164761362, 51.470835536462047 ], [ -0.318800687739054, 51.470719917665285 ], [ -0.319199217145516, 51.469824654833857 ], [ -0.319462707595834, 51.469160206039895 ], [ -0.31963300212591, 51.468754411435945 ], [ -0.319705573329198, 51.468543197905255 ], [ -0.319886003774131, 51.467353442019068 ], [ -0.319938456634575, 51.467062828395129 ], [ -0.320096095966791, 51.466691014246607 ], [ -0.320304161144526, 51.466238922644777 ], [ -0.320729179987239, 51.465405976454797 ], [ -0.320766670629561, 51.465406513367505 ], [ -0.321712498863928, 51.465406569885729 ], [ -0.321824799457055, 51.465406379198392 ], [ -0.322492710673356, 51.465410542493174 ], [ -0.322532831311482, 51.46541381345385 ], [ -0.322596054100564, 51.465418313885742 ], [ -0.322659342759577, 51.465421017233588 ], [ -0.322722545712544, 51.465422820325209 ], [ -0.322785900238733, 51.46542372655481 ], [ -0.322849287693136, 51.465423734225197 ], [ -0.322912622354506, 51.465421943114542 ], [ -0.322977499350621, 51.465420174028566 ], [ -0.323039594790971, 51.465416567134319 ], [ -0.323052559628596, 51.465415853556657 ], [ -0.32307848930278, 51.465414426396954 ], [ -0.323104418975537, 51.465412999231539 ], [ -0.3231304672883, 51.465411573757081 ], [ -0.323156429877377, 51.465409248055238 ], [ -0.323182359545367, 51.46540782087262 ], [ -0.323208440771536, 51.465405496855915 ], [ -0.323234436271561, 51.465402272611875 ], [ -0.323260431768188, 51.465399048362116 ], [ -0.323285003564642, 51.465395803748329 ], [ -0.323311183528391, 51.46539078413393 ], [ -0.323335821148847, 51.465385742459603 ], [ -0.323378043723099, 51.465373760260015 ], [ -0.323429038849192, 51.465355610509853 ], [ -0.323475828677286, 51.465335602619923 ], [ -0.323522684290479, 51.465313797661558 ], [ -0.323568149078244, 51.465291073804892 ], [ -0.323613613822665, 51.465268349930881 ], [ -0.323654741627006, 51.465247362028251 ], [ -0.32369881550522, 51.4652237192429 ], [ -0.32374137991537, 51.465199155867346 ], [ -0.323782672138995, 51.465173675295333 ], [ -0.323824000515211, 51.465147206331444 ], [ -0.324048305778509, 51.464957128572564 ], [ -0.324313542228333, 51.464751363563792 ], [ -0.324635541198279, 51.464489772365518 ], [ -0.324854342737929, 51.464294220579418 ], [ -0.325118427730096, 51.463960780142649 ], [ -0.325384149880059, 51.463624665576639 ], [ -0.32556031250326, 51.463374474008653 ], [ -0.325589110953677, 51.463333531511502 ], [ -0.325679296405541, 51.463113576752399 ], [ -0.325711052725429, 51.462991766923032 ], [ -0.325752107344833, 51.462891575843635 ], [ -0.325834293591306, 51.462809142884481 ], [ -0.325921099088169, 51.462720482864356 ], [ -0.325973266224593, 51.462631238326288 ], [ -0.326011426037058, 51.462493337952118 ], [ -0.326059296363675, 51.462443677707839 ], [ -0.326186656960718, 51.462385263353845 ], [ -0.326239708311639, 51.462314011232301 ], [ -0.326318076747595, 51.462021068780182 ], [ -0.326647808109627, 51.461745199090331 ], [ -0.326698775836665, 51.461649734089555 ], [ -0.32674547260225, 51.461554208115267 ], [ -0.326787812646027, 51.461457720953327 ], [ -0.326790889730033, 51.461451471905242 ], [ -0.326839045814449, 51.461354977832123 ], [ -0.3268670639406, 51.461257387259835 ], [ -0.326867359538718, 51.461249300526049 ], [ -0.326867917890351, 51.461234025584403 ], [ -0.326867085511494, 51.461217831800887 ], [ -0.326866220288875, 51.461202536543297 ], [ -0.326865355066694, 51.461187241285671 ], [ -0.32686164269934, 51.461171905396142 ], [ -0.326856388130898, 51.461156547497431 ], [ -0.326846797161132, 51.461142925702063 ], [ -0.326841365630207, 51.461135656229466 ], [ -0.326835815469965, 51.461128385063567 ], [ -0.326828927526272, 51.461121993800084 ], [ -0.326820500666906, 51.461115490674068 ], [ -0.326813461251129, 51.461109996242563 ], [ -0.32680499826623, 51.461104481493983 ], [ -0.326795230343603, 51.461098948121069 ], [ -0.326785343792387, 51.461093413054243 ], [ -0.32677545724348, 51.461087877986543 ], [ -0.326765537850917, 51.46108324144398 ], [ -0.326755618460299, 51.461078604900571 ], [ -0.326745731917951, 51.461073069830285 ], [ -0.326718873839937, 51.461060999572872 ], [ -0.32669896938475, 51.461053523529046 ], [ -0.326679064935875, 51.461046047481766 ], [ -0.326657638380797, 51.461041246690577 ], [ -0.326634788261543, 51.461036425576658 ], [ -0.326613361715442, 51.461031624777284 ], [ -0.326590511605484, 51.461026803654676 ], [ -0.326567628650623, 51.461022881053523 ], [ -0.326546202117667, 51.46101808024175 ], [ -0.326524808439551, 51.461012380900009 ], [ -0.326504904035842, 51.461004904822751 ], [ -0.326485118269056, 51.460997430435384 ], [ -0.326475231775406, 51.460991895341806 ], [ -0.326462478074291, 51.460983622334403 ], [ -0.32644981015636, 51.460976249544935 ], [ -0.326438598660796, 51.460967998549251 ], [ -0.326427420021327, 51.460958849026476 ], [ -0.326417632099592, 51.460950618349962 ], [ -0.326407877033793, 51.460941489146606 ], [ -0.326398240602159, 51.460932361635862 ], [ -0.326389909108806, 51.460923252752565 ], [ -0.326381610471642, 51.460913245342653 ], [ -0.326373311837936, 51.460903237932115 ], [ -0.326366555402136, 51.460893252536472 ], [ -0.32636110390262, 51.460883285769015 ], [ -0.326355803889101, 51.460872422168791 ], [ -0.326351677396716, 51.46086517130091 ], [ -0.32634780095021, 51.460854328022485 ], [ -0.326345348068015, 51.460843505066222 ], [ -0.326342776556689, 51.460832680416338 ], [ -0.326341747238591, 51.460821877782266 ], [ -0.326340717920901, 51.460811075148158 ], [ -0.326341112164921, 51.460800292836396 ], [ -0.326341509694069, 51.460789420672015 ], [ -0.326341903937612, 51.460778638360203 ], [ -0.326343754594823, 51.460766977844749 ], [ -0.326345572397533, 51.460756215855241 ], [ -0.326347390199362, 51.460745453865691 ], [ -0.3263507501896, 51.460734713891917 ], [ -0.326354188668277, 51.460718581068541 ], [ -0.326357692850954, 51.460700651193058 ], [ -0.326364129923152, 51.460683662181211 ], [ -0.326370481213779, 51.460665772949497 ], [ -0.326378374685965, 51.460647905732912 ], [ -0.326386235299455, 51.460630937041792 ], [ -0.326396824389078, 51.460614007300165 ], [ -0.326406108545371, 51.460597058929466 ], [ -0.32641823980444, 51.46058015120105 ], [ -0.326430338203062, 51.460564141997452 ], [ -0.32643040390646, 51.460562344945394 ], [ -0.326535174981082, 51.460374961674091 ], [ -0.326606921328355, 51.460224055633361 ], [ -0.326661953130973, 51.460095295958808 ], [ -0.326669419387943, 51.460089109562261 ], [ -0.326675494949414, 51.460082004320661 ], [ -0.326679995494492, 51.460075775593211 ], [ -0.326684528884701, 51.460068648339494 ], [ -0.326689180901811, 51.460061522778801 ], [ -0.326693714289239, 51.460054395524715 ], [ -0.326696824136276, 51.460047247952225 ], [ -0.326698510443562, 51.460040080061439 ], [ -0.326701738917108, 51.460032934182017 ], [ -0.32670345806901, 51.460024867765014 ], [ -0.326703687990391, 51.460018578082092 ], [ -0.326703950757583, 51.460011389873017 ], [ -0.326704246370548, 51.46000330313781 ], [ -0.326704509137515, 51.459996114928742 ], [ -0.326703348367112, 51.459988906401463 ], [ -0.326702220442925, 51.459980799348045 ], [ -0.326700941045121, 51.459973589127536 ], [ -0.326696933202558, 51.459966339963714 ], [ -0.326694348897558, 51.459959111118039 ], [ -0.326688798893018, 51.45995183994237 ], [ -0.326684758207892, 51.459945489304211 ], [ -0.326682009674687, 51.459942753088896 ], [ -0.326676361134916, 51.459938177491019 ], [ -0.326670831224194, 51.459933603586087 ], [ -0.326665182686578, 51.459929027987656 ], [ -0.32665819639603, 51.459925332289544 ], [ -0.326651091478635, 51.459921634897803 ], [ -0.32664395371543, 51.459918836031747 ], [ -0.32663539241804, 51.459916016846215 ], [ -0.326626982596821, 51.459912300827185 ], [ -0.326619811989092, 51.459910400485754 ], [ -0.326611250694683, 51.459907581298424 ], [ -0.326601265866628, 51.459904741791057 ], [ -0.326592790354375, 51.459902822821782 ], [ -0.32658419621494, 51.459900902158601 ], [ -0.326567040786541, 51.459896162304204 ], [ -0.326557055963598, 51.459893322792986 ], [ -0.326548580455231, 51.459891403820492 ], [ -0.326542833388056, 51.459889523794374 ], [ -0.326520016681164, 51.459883804126079 ], [ -0.326495710746702, 51.45987986118481 ], [ -0.326471339116115, 51.459877715290723 ], [ -0.326446848860039, 51.459875567698099 ], [ -0.326422477234095, 51.459873421793809 ], [ -0.326398105610467, 51.459871275884417 ], [ -0.326373766841125, 51.459868231443835 ], [ -0.326350917313114, 51.459863410268454 ], [ -0.326329524175723, 51.459857710885238 ], [ -0.326312437780612, 51.459851084088299 ], [ -0.326301128009984, 51.459845528653737 ], [ -0.326289818242008, 51.459839973218052 ], [ -0.326278541330415, 51.459833519255135 ], [ -0.326267231567956, 51.459827963817226 ], [ -0.326257378194226, 51.459821530175709 ], [ -0.326247643450807, 51.459815098226997 ], [ -0.326237822936862, 51.459807766057693 ], [ -0.326229425957222, 51.459800454211518 ], [ -0.326222452511212, 51.459793162688804 ], [ -0.326215630549757, 51.459784974333196 ], [ -0.326211537024204, 51.459776824931957 ], [ -0.326207594982545, 51.459767778698144 ], [ -0.326204977907263, 51.459761448366791 ], [ -0.326205207892476, 51.459755158684011 ], [ -0.326205405022594, 51.459749767527306 ], [ -0.326205635007657, 51.459743477844519 ], [ -0.32620728852201, 51.459737208486004 ], [ -0.326208909180983, 51.459731837653564 ], [ -0.326210562694463, 51.459725568295013 ], [ -0.326213639736329, 51.459719319260628 ], [ -0.326216683922609, 51.459713968752283 ], [ -0.326219879590262, 51.459707721411405 ], [ -0.326224347303411, 51.459702391226998 ], [ -0.326235087717118, 51.459684564666304 ], [ -0.326238164752989, 51.45967831563128 ], [ -0.326242783942767, 51.459672088613715 ], [ -0.326244306032785, 51.459669413359173 ], [ -0.32625359005046, 51.459652464999095 ], [ -0.326267111786778, 51.459636476135231 ], [ -0.326280633513901, 51.459620487269817 ], [ -0.326295578757294, 51.459604518726152 ], [ -0.326312033289821, 51.459589470723436 ], [ -0.326328369184817, 51.459574421024868 ], [ -0.326343281545258, 51.459559351001417 ], [ -0.326359768898708, 51.459543404465983 ], [ -0.32637329385282, 51.459527325737568 ], [ -0.326385391989816, 51.459511316538084 ], [ -0.326394478818288, 51.459499759324103 ], [ -0.326406741195464, 51.459479257491573 ], [ -0.326419003561876, 51.45945875565782 ], [ -0.326431265917521, 51.459438253822796 ], [ -0.326440562595791, 51.459417709650033 ], [ -0.326448554373073, 51.459397146848552 ], [ -0.326449342772909, 51.459375582219941 ], [ -0.326449638422601, 51.45936749548418 ], [ -0.326447119885695, 51.459358469579321 ], [ -0.326444601349705, 51.459349443674405 ], [ -0.326441931338086, 51.459341314602128 ], [ -0.32643656576909, 51.459332248053869 ], [ -0.326432472242581, 51.459324098659728 ], [ -0.326427073826939, 51.459315930637182 ], [ -0.326421589637157, 51.459306862394691 ], [ -0.326416191225284, 51.45929869437159 ], [ -0.326409250672751, 51.459290504332792 ], [ -0.326403852264801, 51.459282336309066 ], [ -0.326398335232377, 51.459274166591541 ], [ -0.32639701026927, 51.459271450690849 ], [ -0.326377895037287, 51.459242409954257 ], [ -0.326357326748141, 51.459214157565192 ], [ -0.326336755197937, 51.459185995024797 ], [ -0.326313303795302, 51.459158690360404 ], [ -0.326289852419342, 51.459131385690959 ], [ -0.326263521195979, 51.459104938895173 ], [ -0.326237038522252, 51.459079388925652 ], [ -0.326209283847777, 51.459052921792868 ], [ -0.326004951108411, 51.458892590118751 ], [ -0.325999302756959, 51.458888014485787 ], [ -0.325995163677558, 51.458884359399768 ], [ -0.325991057456857, 51.458879805787404 ], [ -0.325986832611652, 51.458875250480936 ], [ -0.32598414989579, 51.458870717195452 ], [ -0.325980043677301, 51.458866163582655 ], [ -0.325978665840323, 51.45886164893038 ], [ -0.325976015984303, 51.45885621711848 ], [ -0.3259747567732, 51.458851704160082 ], [ -0.325973530420685, 51.458846292675439 ], [ -0.325972205540027, 51.458843576791956 ], [ -0.325972402803588, 51.458838185689217 ], [ -0.32597260006709, 51.458832794586499 ], [ -0.325972764453296, 51.458828302000889 ], [ -0.325974385218105, 51.458822931225328 ], [ -0.325975973105375, 51.458818458966853 ], [ -0.325978984493499, 51.458814007035471 ], [ -0.325980605257102, 51.458808636259853 ], [ -0.325983735269243, 51.458804186022306 ], [ -0.325986779532683, 51.458798835573639 ], [ -0.325989758041672, 51.458795282159166 ], [ -0.32599441018295, 51.45878815669699 ], [ -0.325998943697822, 51.458781029540738 ], [ -0.326003444334731, 51.458774800901452 ], [ -0.326009487095298, 51.458768594282702 ], [ -0.326016834729, 51.458762406296479 ], [ -0.326022811733826, 51.45875799671137 ], [ -0.326028722985332, 51.458755384160206 ], [ -0.326034515611255, 51.458752769914874 ], [ -0.326041817484956, 51.458751076206681 ], [ -0.326047577233905, 51.458749360477853 ], [ -0.326054846231028, 51.458748565285987 ], [ -0.326061996602983, 51.458747768399832 ], [ -0.326076501720868, 51.458747076530955 ], [ -0.326083684967365, 51.458745381126384 ], [ -0.326090953963349, 51.45874458593228 ], [ -0.326098222959105, 51.458743790737749 ], [ -0.326105406204383, 51.458742095331857 ], [ -0.326111317449572, 51.458739482776693 ], [ -0.326115719444707, 51.458735949684844 ], [ -0.326121630688593, 51.458733337129189 ], [ -0.326124609183628, 51.458729783711568 ], [ -0.326129011176907, 51.458726250619264 ], [ -0.326133564668557, 51.458721820703502 ], [ -0.326136543161997, 51.458718267285626 ], [ -0.32613955452901, 51.458713815350578 ], [ -0.326139620277037, 51.458712018316376 ], [ -0.326141109523282, 51.458710241607371 ], [ -0.326142816016108, 51.458705771040805 ], [ -0.326144403883779, 51.458701298780461 ], [ -0.326145991751148, 51.458696826520082 ], [ -0.326147579618212, 51.458692354259725 ], [ -0.326147743987403, 51.458687861674171 ], [ -0.326147908356554, 51.458683369088625 ], [ -0.3261466821022, 51.458677957660811 ], [ -0.326146846471393, 51.458673465075243 ], [ -0.326144163846515, 51.458668931839334 ], [ -0.32614275322037, 51.458665315751915 ], [ -0.32614007059631, 51.458660782515857 ], [ -0.326137387972743, 51.45865624927972 ], [ -0.326134705349668, 51.458651716043526 ], [ -0.326130447731917, 51.458648059305212 ], [ -0.326126308739496, 51.45864440426049 ], [ -0.326122051123013, 51.458640747521819 ], [ -0.32611794500617, 51.458636193959642 ], [ -0.326112382519771, 51.458632518588836 ], [ -0.326108092030871, 51.458629760366719 ], [ -0.326102529545957, 51.458626084995394 ], [ -0.326095424941638, 51.45862238760413 ], [ -0.326089862458531, 51.458618712232152 ], [ -0.326082724981306, 51.4586159133572 ], [ -0.326075587504915, 51.458613114481771 ], [ -0.326067026534114, 51.45861029527974 ], [ -0.326060007684065, 51.458607498097201 ], [ -0.326051413839657, 51.458605577411099 ], [ -0.326042819995942, 51.458603656724371 ], [ -0.326034344777503, 51.458601737730845 ], [ -0.325900148167613, 51.458568266980045 ], [ -0.325890594855756, 51.458436878494446 ], [ -0.325707730086514, 51.458361448976156 ], [ -0.325580356866545, 51.458261550241829 ], [ -0.325548284787677, 51.458116355228853 ], [ -0.325599177385455, 51.457984032089648 ], [ -0.325717500248612, 51.457896632500606 ], [ -0.325953059882965, 51.457832572669489 ], [ -0.326146610723216, 51.45781376086709 ], [ -0.326323167042448, 51.457630101683783 ], [ -0.326506244006363, 51.457388191154436 ], [ -0.326614875314998, 51.457289864575557 ], [ -0.326888838683594, 51.457042059081253 ], [ -0.327025712487958, 51.45699897344177 ], [ -0.32709545039954, 51.457019746426155 ], [ -0.327246608075714, 51.456978752261563 ], [ -0.327613060421866, 51.457349958130109 ], [ -0.328193395478048, 51.457857352817157 ], [ -0.328390044879884, 51.45795185363567 ], [ -0.328682870687338, 51.458012754829426 ], [ -0.329033253490022, 51.458034830486952 ], [ -0.329507962343792, 51.458006445832027 ], [ -0.330345920490486, 51.457881738362424 ], [ -0.33067053287437, 51.457741625081702 ], [ -0.331061953380085, 51.45751067598048 ], [ -0.331393903271934, 51.457289666977317 ], [ -0.331815819560441, 51.456772284365734 ], [ -0.33213389044425, 51.456573640511699 ], [ -0.332322220553639, 51.456382050009623 ], [ -0.332449132334603, 51.455863254939636 ], [ -0.332539959069063, 51.455780851827967 ], [ -0.332624806190641, 51.455702948403975 ], [ -0.332836747117464, 51.455576509738762 ], [ -0.332918782602945, 51.455497577259926 ], [ -0.333008475852673, 51.455407156777518 ], [ -0.333230786802512, 51.455308733406561 ], [ -0.333472905133675, 51.455262732216788 ], [ -0.333610307846414, 51.455243919322669 ], [ -0.333680143296008, 51.455460757628352 ], [ -0.333687701831766, 51.455487834528114 ], [ -0.334256243450804, 51.455528279122753 ], [ -0.334685520691747, 51.455560449486477 ], [ -0.33601173385359, 51.45566208146623 ], [ -0.336271465818, 51.455686445172617 ], [ -0.336511054792784, 51.455510859026916 ], [ -0.33661362668428, 51.455301054570548 ], [ -0.336961873227277, 51.45463059315324 ], [ -0.337244769494768, 51.454686837724587 ], [ -0.337399455577844, 51.45474746584533 ], [ -0.3375399721491, 51.454842053970978 ], [ -0.337647774082449, 51.454964945234344 ], [ -0.33792922240287, 51.455420404076733 ], [ -0.337715345105091, 51.455482996368332 ], [ -0.338533473409377, 51.456101587096356 ], [ -0.338559821804517, 51.456088475914378 ], [ -0.338951437265432, 51.455889868499945 ], [ -0.339381175691136, 51.456223275824335 ], [ -0.33986939144732, 51.456613336160828 ], [ -0.34045946896164, 51.457091048365733 ], [ -0.34060889447049, 51.457257766602922 ], [ -0.340656310246323, 51.457458909754564 ], [ -0.340717316133766, 51.457720566607932 ], [ -0.340711079281887, 51.457813971933149 ], [ -0.340703176766659, 51.457953291404657 ], [ -0.34063028835373, 51.458176194778666 ], [ -0.340499322774397, 51.45849176954134 ], [ -0.340342592710349, 51.458804282484621 ], [ -0.340183543576999, 51.459102292247536 ], [ -0.340112360356421, 51.459238919501651 ], [ -0.340405941120272, 51.459240379314473 ], [ -0.340554138747622, 51.459241578360704 ], [ -0.341048525736755, 51.459145192371452 ], [ -0.3415356452199, 51.459049510615273 ], [ -0.341702236261264, 51.459021301845567 ], [ -0.341837595118662, 51.458901853254055 ], [ -0.341972001878356, 51.458766120418488 ], [ -0.342127146537307, 51.458618185720987 ], [ -0.342349321216961, 51.458405483604906 ], [ -0.342658163362393, 51.458106805863792 ], [ -0.34294218362705, 51.458054185776099 ], [ -0.343500232979307, 51.458067467158401 ], [ -0.343647328851228, 51.458059657054093 ], [ -0.34385652856726, 51.458005078539223 ], [ -0.344046323149505, 51.45797180093146 ], [ -0.34430421328755, 51.457965555164549 ], [ -0.344608577356364, 51.45798693440674 ], [ -0.344821254305731, 51.457957574609999 ], [ -0.345032835850616, 51.457919119325226 ], [ -0.345272314831036, 51.457864066872808 ], [ -0.345525321214073, 51.457713913595803 ], [ -0.345575308467841, 51.457447533846853 ], [ -0.345707065376748, 51.457384667286512 ], [ -0.346019430979417, 51.457266724988862 ], [ -0.346180720655149, 51.457224052081266 ], [ -0.346388490078013, 51.457169449050312 ], [ -0.346548728456924, 51.457159123884288 ], [ -0.346619931280438, 51.457179006717553 ], [ -0.346633023454672, 51.457174696520674 ], [ -0.347010084459513, 51.457059552078107 ], [ -0.347359009876502, 51.456961000379572 ], [ -0.347541274325957, 51.456896147058593 ], [ -0.347699324914627, 51.456864214149952 ], [ -0.347716805879608, 51.456859965704083 ], [ -0.347975954917194, 51.456818669837396 ], [ -0.348683222992722, 51.456764809045019 ], [ -0.349213597920236, 51.456784865507764 ], [ -0.350119238714527, 51.456778738361635 ], [ -0.35055281032611, 51.456771355920957 ], [ -0.350850873211818, 51.456766560245676 ], [ -0.351632369905644, 51.45677036147854 ], [ -0.35239265543142, 51.45684218268952 ], [ -0.35263417590286, 51.456851870722396 ], [ -0.352649919972042, 51.456852991002123 ], [ -0.352818014929529, 51.45686164651805 ], [ -0.352819427424889, 51.456944371662871 ], [ -0.352820641844004, 51.45738857006917 ], [ -0.352993901478768, 51.45761314066236 ], [ -0.353158977880922, 51.457827707287926 ], [ -0.353439833602518, 51.458182341692265 ], [ -0.3548792712169, 51.458342794884651 ], [ -0.3551423579496, 51.458353679221247 ], [ -0.356410049564454, 51.458405714449626 ], [ -0.35677424687482, 51.45840362950171 ], [ -0.357135848105831, 51.458397821262587 ], [ -0.35751229383921, 51.45837522944867 ], [ -0.357887563341341, 51.458349024082871 ], [ -0.35858491365969, 51.458290471071209 ], [ -0.35979661245837, 51.458219336009556 ], [ -0.361419442019262, 51.458001922061122 ], [ -0.362011917960233, 51.45781593746667 ], [ -0.362403068452475, 51.457707234920996 ], [ -0.362846243763009, 51.457670276142871 ], [ -0.364188428842154, 51.457613504443565 ], [ -0.364420750761213, 51.457595171718665 ], [ -0.36445942303836, 51.457682012024819 ], [ -0.365042355816671, 51.457802516109801 ], [ -0.36695025629411, 51.45754405484707 ], [ -0.367339831333731, 51.457475767566663 ], [ -0.367564649406994, 51.457468111681344 ], [ -0.367807779620196, 51.457432842539987 ], [ -0.368110769358162, 51.457169979915221 ], [ -0.368415374510741, 51.456944894736374 ], [ -0.368431553271738, 51.456893879020242 ], [ -0.368439717963021, 51.45686792272803 ], [ -0.36845970069283, 51.456869998764965 ], [ -0.369570361601594, 51.456968155665955 ], [ -0.369808344378603, 51.456993939346717 ], [ -0.370687821744795, 51.457075475994124 ], [ -0.371953192658093, 51.457191941608961 ], [ -0.37244211625598, 51.457246375524953 ], [ -0.372567943338455, 51.457108783273576 ], [ -0.372672808698169, 51.456993284066357 ], [ -0.372693471230165, 51.45701964078463 ], [ -0.372840442247077, 51.457218643369536 ], [ -0.373024255542387, 51.457472993727059 ], [ -0.373393505033718, 51.457288346916101 ], [ -0.374180573601135, 51.456811039063119 ], [ -0.374738037254664, 51.456556182389761 ], [ -0.375254346774638, 51.456283672496404 ], [ -0.375280324941233, 51.456200429140985 ], [ -0.37591137451398, 51.455697484732596 ], [ -0.376177363957243, 51.455502409188462 ], [ -0.376456946360951, 51.455288733035047 ], [ -0.376729476082861, 51.45507307076204 ], [ -0.377247729727378, 51.454624382957597 ], [ -0.377497940171237, 51.454425490262196 ], [ -0.377748235182909, 51.454227497185883 ], [ -0.378827754462443, 51.4534143089802 ], [ -0.37970840800825, 51.452726824018541 ], [ -0.380628831878232, 51.451974347917968 ], [ -0.382112297160672, 51.450805148594426 ], [ -0.382831324723725, 51.450249445937949 ], [ -0.383427024943674, 51.449764944786516 ], [ -0.383718425947415, 51.449540538494091 ], [ -0.38376555358378, 51.449509724871881 ], [ -0.384546368802669, 51.449895443893944 ], [ -0.38777631807645, 51.449433680406358 ], [ -0.387672149943131, 51.449369232111117 ], [ -0.387567891984299, 51.449303973415503 ], [ -0.387412780111981, 51.449132837968776 ], [ -0.386943983876747, 51.448714491802868 ], [ -0.386752252195162, 51.448559032858483 ], [ -0.386568359553206, 51.448426964282483 ], [ -0.386389896196445, 51.448305847404264 ], [ -0.386339873339076, 51.448253918834524 ], [ -0.386297085125826, 51.448202089766426 ], [ -0.386279045014401, 51.448141611601258 ], [ -0.386269760810251, 51.448078467130628 ], [ -0.386324886983857, 51.447864375291942 ], [ -0.386342248717004, 51.447779123527411 ], [ -0.38636154226056, 51.447558246036849 ], [ -0.386423566312647, 51.447309998900529 ], [ -0.386431285377021, 51.447252571976627 ], [ -0.38638745967361, 51.447149398290215 ], [ -0.386301317088029, 51.447021460478176 ], [ -0.386292859934559, 51.446854048574181 ], [ -0.386272037375906, 51.446791734175711 ], [ -0.386245308721225, 51.446732035372477 ], [ -0.386159068492918, 51.446687698887665 ], [ -0.385975306568155, 51.446592577762637 ], [ -0.385729950998053, 51.446491124928848 ], [ -0.384474537290408, 51.44589472620325 ], [ -0.384146145541099, 51.445739173658531 ], [ -0.383919724247717, 51.445632671187632 ], [ -0.383232190632192, 51.445214880606351 ], [ -0.382849605821337, 51.44504868779439 ] ] ] } }
]
}
