{
"type": "FeatureCollection",
"name": "borough_Kensington_and_Chelsea",
"crs": { "type": "name", "properties": { "name": "urn:ogc:def:crs:OGC:1.3:CRS84" } },
"features": [
{ "type": "Feature", "properties": { "DISTRICT": "Kensington and Chelsea", "NAME": "Chelsea Riverside", "GSS_CODE": "E05009391", "LAGSSCODE": "E09000020", "HECTARES": 69.412, "NONLD_AREA": 15.654 }, "geometry": { "type": "Polygon", "coordinates": [ [ [ -0.164024952321166, 51.482666382452329 ], [ -0.164487796718563, 51.482655647233557 ], [ -0.164799545604238, 51.482637151868609 ], [ -0.166363338018892, 51.48243047809602 ], [ -0.166758324058278, 51.482385409786382 ], [ -0.166768483452572, 51.482383770585123 ], [ -0.167674270515229, 51.482242308302737 ], [ -0.167962226813662, 51.482209947760353 ], [ -0.16806081708241, 51.482194406756342 ], [ -0.168289018819341, 51.482106272777578 ], [ -0.168519945344967, 51.482056838214511 ], [ -0.168756218924262, 51.482019173748505 ], [ -0.16914054010718, 51.481988225346825 ], [ -0.169367836916701, 51.481961207554747 ], [ -0.169507339695696, 51.48192922297018 ], [ -0.169643217004618, 51.481880999562073 ], [ -0.169940769784576, 51.481786752874136 ], [ -0.170010556674783, 51.48176986181354 ], [ -0.170094677971026, 51.481756790401569 ], [ -0.170247676788939, 51.481746591627484 ], [ -0.170487946743219, 51.481718785181855 ], [ -0.170657732858522, 51.481722332823246 ], [ -0.170755879203325, 51.481714873739364 ], [ -0.170903982549593, 51.48168751667388 ], [ -0.171394113108868, 51.481531541516567 ], [ -0.172520854196465, 51.481193908806212 ], [ -0.173346341309393, 51.480936079663117 ], [ -0.173916601848116, 51.480685058825188 ], [ -0.174218922362488, 51.480542329385855 ], [ -0.174924274321832, 51.480190830505364 ], [ -0.17522888167138, 51.479990597837094 ], [ -0.175860876763441, 51.479456353147668 ], [ -0.176126369050545, 51.479191590566749 ], [ -0.176681356732842, 51.478634567707196 ], [ -0.177012772665195, 51.478303402825318 ], [ -0.177167089037329, 51.478119707841032 ], [ -0.177436702085401, 51.477822642238131 ], [ -0.177460545959102, 51.477802335724078 ], [ -0.177791470673296, 51.47755476837839 ], [ -0.177924428550554, 51.477579309394514 ], [ -0.178200288066327, 51.477632141465556 ], [ -0.17930536210343, 51.477799527341212 ], [ -0.179519073232706, 51.477820825250518 ], [ -0.179658490756598, 51.477829282504224 ], [ -0.180186164922979, 51.477850058327888 ], [ -0.180414454592165, 51.477830226674406 ], [ -0.18056378516811, 51.4778073715432 ], [ -0.180708967144773, 51.477775371927308 ], [ -0.180826899848154, 51.477744837330164 ], [ -0.18221456310043, 51.477287996002204 ], [ -0.182400583743128, 51.47724413119078 ], [ -0.182529453315747, 51.477228148458991 ], [ -0.182624669031571, 51.477222432078918 ], [ -0.182801571232349, 51.477228769504293 ], [ -0.18289633474595, 51.477237429948609 ], [ -0.183396982380557, 51.477283843652785 ], [ -0.183595621691912, 51.477322880717892 ], [ -0.183715184292827, 51.477358894708871 ], [ -0.183856804985635, 51.477419523276865 ], [ -0.184009253124831, 51.477533450425788 ], [ -0.184315366841884, 51.477802497299137 ], [ -0.184552882719845, 51.478022924144085 ], [ -0.184645010583733, 51.478098068579484 ], [ -0.185350689180879, 51.478603621415701 ], [ -0.185608392392961, 51.478788308177599 ], [ -0.18566113500358, 51.478838659198843 ], [ -0.185746454202644, 51.47893886940723 ], [ -0.186018452223595, 51.479344121979828 ], [ -0.186142751040738, 51.479512449907737 ], [ -0.186212966161603, 51.479595345109253 ], [ -0.186340379594204, 51.479724074971635 ], [ -0.18652602131484, 51.479872674054526 ], [ -0.186705846204326, 51.47976658533689 ], [ -0.186856564731565, 51.479888572845155 ], [ -0.186857917564879, 51.47989039176575 ], [ -0.187022157015686, 51.480036771267905 ], [ -0.187193537901729, 51.480179754815019 ], [ -0.187200563237058, 51.480185257424274 ], [ -0.187379365685597, 51.480323770500881 ], [ -0.187565665634273, 51.480458893060394 ], [ -0.188171087242231, 51.480880080919505 ], [ -0.188257162649843, 51.480961421902585 ], [ -0.188329341410033, 51.481030861117546 ], [ -0.189017404876291, 51.481692545741161 ], [ -0.18949572514053, 51.482088479781481 ], [ -0.190132357974441, 51.482634201581874 ], [ -0.190198045607168, 51.482684750308358 ], [ -0.190421539505289, 51.482861706460227 ], [ -0.190634683066027, 51.483042188406323 ], [ -0.190770994754029, 51.483165656665044 ], [ -0.190840497908104, 51.483227861019422 ], [ -0.191002824314059, 51.48338418429617 ], [ -0.191189725202235, 51.48357675655803 ], [ -0.191367699646804, 51.483772876764469 ], [ -0.191684238526187, 51.484074519806335 ], [ -0.191709255497051, 51.484060521431964 ], [ -0.191751919745221, 51.484038704086565 ], [ -0.19179732566926, 51.484019626018686 ], [ -0.192006136085013, 51.484273758172662 ], [ -0.192551640368815, 51.484830650723204 ], [ -0.192701107951799, 51.484984976229619 ], [ -0.192929567854414, 51.485216934285077 ], [ -0.193166839665537, 51.485445341706793 ], [ -0.193227967704965, 51.485500223853087 ], [ -0.193597238077365, 51.485814361362991 ], [ -0.193981348286512, 51.486119736126199 ], [ -0.194119698432044, 51.486228039211845 ], [ -0.194292902419095, 51.486361961046462 ], [ -0.194470684981322, 51.486494244992464 ], [ -0.194657195088367, 51.486622078075769 ], [ -0.194693694571934, 51.486645115084364 ], [ -0.194889118549647, 51.48676679195696 ], [ -0.195091957425718, 51.486884177478657 ], [ -0.195300675342082, 51.486997068176223 ], [ -0.195964189345641, 51.487373261837512 ], [ -0.196424546067512, 51.48720683407771 ], [ -0.197075957169234, 51.487450591459798 ], [ -0.197520249321078, 51.487655291823216 ], [ -0.197703775381573, 51.487750709889909 ], [ -0.1978783029651, 51.487851473330572 ], [ -0.198042841777934, 51.487955589157011 ], [ -0.198198385630802, 51.48806496059148 ], [ -0.198275318179062, 51.488122869755145 ], [ -0.19900218325244, 51.488758033763041 ], [ -0.198927044222217, 51.488799223057754 ], [ -0.199350851080763, 51.489120472457543 ], [ -0.199557253847659, 51.48929265424367 ], [ -0.200351229248415, 51.489982870007061 ], [ -0.200599633965249, 51.490074873809334 ], [ -0.20091067129468, 51.490371013042662 ], [ -0.200912060301682, 51.49037193335478 ], [ -0.201750819871501, 51.491129352667372 ], [ -0.202363462905636, 51.491669337194466 ], [ -0.202284617844323, 51.49169599783918 ], [ -0.201811686995711, 51.491852366709416 ], [ -0.201840753962531, 51.491883378529216 ], [ -0.202223960423985, 51.492286793663858 ], [ -0.202401903174158, 51.492485505200143 ], [ -0.202546197646565, 51.492664012468296 ], [ -0.202756738189267, 51.492912758446927 ], [ -0.202979129740463, 51.493156201658621 ], [ -0.203070532825618, 51.493251188978988 ], [ -0.203107794199991, 51.493291316275361 ], [ -0.203004316099324, 51.493322095177952 ], [ -0.203099915274814, 51.493382894510177 ], [ -0.203165986970453, 51.493424362196954 ], [ -0.203424677639439, 51.493620803058747 ], [ -0.203614747759184, 51.493771151961489 ], [ -0.203763999832942, 51.493857045761587 ], [ -0.204013289350171, 51.494038957170922 ], [ -0.204362139122413, 51.494289818056906 ], [ -0.204841764818867, 51.494549871704237 ], [ -0.204760219693709, 51.494608857142282 ], [ -0.205167887936217, 51.494829150582085 ], [ -0.205593354255047, 51.495037937876575 ], [ -0.205985533847009, 51.49521124300464 ], [ -0.206303884673464, 51.495359054583915 ], [ -0.206567247823506, 51.49547644707652 ], [ -0.206695659223406, 51.49554583625271 ], [ -0.206816441528258, 51.495624997740897 ], [ -0.207079940562931, 51.495811614823872 ], [ -0.207111967848817, 51.495839973691275 ], [ -0.207112969122796, 51.49585077710266 ], [ -0.207145454996413, 51.49586745585701 ], [ -0.20717502124912, 51.495885887990049 ], [ -0.207201549168081, 51.49590607168934 ], [ -0.207225157464873, 51.495928008771564 ], [ -0.207240430091743, 51.495944424381122 ], [ -0.207258150960746, 51.495968069481066 ], [ -0.207274530736704, 51.495992593087941 ], [ -0.207285058328239, 51.496017926249493 ], [ -0.207294161375513, 51.496043237635632 ], [ -0.207364939342762, 51.496149593385567 ], [ -0.207977841120145, 51.496023119472248 ], [ -0.208185900773711, 51.496190906781152 ], [ -0.208943884549131, 51.496811293051245 ], [ -0.20956346609444, 51.497396208377388 ], [ -0.209898559580768, 51.497778187653807 ], [ -0.210028121866722, 51.49792760243794 ], [ -0.210246529045569, 51.498128807231112 ], [ -0.210801439338555, 51.498524836210436 ], [ -0.211484327330443, 51.498895843901664 ], [ -0.21165497169387, 51.498988346784564 ], [ -0.211919670692733, 51.499145303831462 ], [ -0.21256877202623, 51.499530174157449 ], [ -0.213039090204709, 51.499848487491157 ], [ -0.214109445555698, 51.500771259771476 ], [ -0.214346087213956, 51.501132757409302 ], [ -0.2146947937008, 51.501645285399249 ], [ -0.215051490354409, 51.502251430549883 ], [ -0.214942917438488, 51.502302819572435 ], [ -0.215352311307539, 51.502703803329801 ], [ -0.215995391232788, 51.503390718148552 ], [ -0.216212382221249, 51.503702467485482 ], [ -0.21631847924296, 51.503678009822451 ], [ -0.21635188665651, 51.503671325810906 ], [ -0.216386002510916, 51.503719491941887 ], [ -0.216558522397282, 51.503953249795977 ], [ -0.216985151625929, 51.504464258300921 ], [ -0.217016840145057, 51.504501599263662 ], [ -0.217394883601623, 51.505116152285076 ], [ -0.217574700049493, 51.505382383642065 ], [ -0.217612720638226, 51.505443194809885 ], [ -0.217549722074068, 51.505468308621261 ], [ -0.217564791059134, 51.505490113760359 ], [ -0.217724669861587, 51.505749748832045 ], [ -0.217967086641995, 51.506147286574695 ], [ -0.217157244805905, 51.506294103766471 ], [ -0.216364484760281, 51.506447558088389 ], [ -0.216339792898683, 51.506416616403946 ], [ -0.216298572411297, 51.506364746224229 ], [ -0.216295722643547, 51.506364702886778 ], [ -0.216219548155855, 51.506359049419338 ], [ -0.215939716153067, 51.506402440706886 ], [ -0.216033188510158, 51.506591754645797 ], [ -0.216203634764452, 51.506948735024849 ], [ -0.216165545580665, 51.507224150524053 ], [ -0.216145858005902, 51.50739655010765 ], [ -0.216131566205468, 51.507467354201268 ], [ -0.216120826416167, 51.507520232200122 ], [ -0.216063235909088, 51.507519356307924 ], [ -0.215858689714642, 51.507518043153937 ], [ -0.215838362889215, 51.507521329984577 ], [ -0.21537365290507, 51.50761324083377 ], [ -0.215179219278274, 51.507648040590873 ], [ -0.215369240255539, 51.50805737243158 ], [ -0.215521819657288, 51.508394213849087 ], [ -0.215588086110406, 51.508540950803024 ], [ -0.215793263695893, 51.509115929404125 ], [ -0.216062368700999, 51.50912550647152 ], [ -0.216068207655419, 51.509161555488788 ], [ -0.21640697229293, 51.509121667097261 ], [ -0.216438364506928, 51.509203144821008 ], [ -0.216487322638231, 51.509242546485041 ], [ -0.216589219800984, 51.509325905303641 ], [ -0.216818031578562, 51.509445355722214 ], [ -0.21679157174313, 51.509569106079113 ], [ -0.216835827674974, 51.509689346570134 ], [ -0.216889205330098, 51.509798128542499 ], [ -0.21696047167946, 51.509929567647056 ], [ -0.216986323377095, 51.509970415852699 ], [ -0.216969673825735, 51.509989041868167 ], [ -0.216939497278618, 51.510025442354312 ], [ -0.216936475147107, 51.510102800752392 ], [ -0.216971192825413, 51.510135692689573 ], [ -0.217185936061858, 51.510393375265181 ], [ -0.217222373796118, 51.510382242021969 ], [ -0.217465910509557, 51.510310426858759 ], [ -0.21748780384132, 51.5103035675277 ], [ -0.217531471734945, 51.51028984704854 ], [ -0.217576648271803, 51.510277048483523 ], [ -0.217623263279124, 51.510266968774602 ], [ -0.21776939927478, 51.510252108209201 ], [ -0.217817109971582, 51.510247439101654 ], [ -0.218029578760804, 51.510231788039221 ], [ -0.217864869206086, 51.509760724225842 ], [ -0.21882078932945, 51.509638593422416 ], [ -0.219262742982095, 51.509576078947688 ], [ -0.219277077970578, 51.509616751750805 ], [ -0.219494616090814, 51.510208182389988 ], [ -0.219547023030716, 51.510342030439176 ], [ -0.219744744543807, 51.510817188181782 ], [ -0.219765855035762, 51.510866953774944 ], [ -0.219810645866598, 51.5109737159801 ], [ -0.219858402231112, 51.51108061306271 ], [ -0.21991335762267, 51.511185731441778 ], [ -0.2200166461386, 51.511346422386332 ], [ -0.220115572994209, 51.511506237959971 ], [ -0.220245145491688, 51.511730347664979 ], [ -0.220310175345356, 51.511839214688635 ], [ -0.220322208739543, 51.511862771344902 ], [ -0.22041214192329, 51.512067400454008 ], [ -0.220514254295813, 51.512221780057608 ], [ -0.221107871725366, 51.513112975286603 ], [ -0.221336136563091, 51.51346983470588 ], [ -0.22147343057785, 51.51364551378613 ], [ -0.221439483952405, 51.513812213980536 ], [ -0.221455131682661, 51.513892462572336 ], [ -0.221456311698359, 51.51389877349056 ], [ -0.221733418766635, 51.514331978735051 ], [ -0.22200841935681, 51.514746182373386 ], [ -0.222253194859027, 51.515085310010427 ], [ -0.222378417032881, 51.515275189114298 ], [ -0.222451062999662, 51.515408443370525 ], [ -0.222580202794039, 51.515644230803986 ], [ -0.222727341520326, 51.515713885104987 ], [ -0.222904013287137, 51.515916230036595 ], [ -0.223644347454684, 51.516743916714418 ], [ -0.224291229532231, 51.517454302570748 ], [ -0.224276089097918, 51.517473851497257 ], [ -0.224253388968167, 51.517501377035551 ], [ -0.224440447317807, 51.517657038647535 ], [ -0.224723578067592, 51.517973367188844 ], [ -0.22489369407676, 51.518121669572622 ], [ -0.225053369500791, 51.518278713888122 ], [ -0.225275187633728, 51.518503314140979 ], [ -0.225653662158461, 51.518889406789739 ], [ -0.225870902862922, 51.519085168553381 ], [ -0.226345805155449, 51.519513172127823 ], [ -0.226402929065248, 51.519489762588265 ], [ -0.226448762893451, 51.519533607589068 ], [ -0.226460249214901, 51.519534680223472 ], [ -0.226504804121649, 51.519538050729871 ], [ -0.226539340382077, 51.519579027911625 ], [ -0.226601977872179, 51.519633914885098 ], [ -0.226677223418181, 51.519700769328963 ], [ -0.226744654095589, 51.519748536646198 ], [ -0.226698981497468, 51.519773917436439 ], [ -0.228277737409664, 51.521098985316257 ], [ -0.22805326891029, 51.521198980788498 ], [ -0.228047053828859, 51.521358999321308 ], [ -0.226796570535391, 51.521935426659894 ], [ -0.226705535279615, 51.521978101915252 ], [ -0.226709547592028, 51.522354934600131 ], [ -0.226595939845005, 51.524797425567101 ], [ -0.227171215138737, 51.524794432340933 ], [ -0.227247441353613, 51.525169658953793 ], [ -0.227274784205463, 51.525319396359656 ], [ -0.227351036766712, 51.525843858115273 ], [ -0.227368044555972, 51.525962873433301 ], [ -0.227392900634372, 51.526250031061267 ], [ -0.227390214661899, 51.526282444504808 ], [ -0.227326540721216, 51.52710425036998 ], [ -0.227323585816569, 51.527290389306529 ], [ -0.227331054246824, 51.527508060933684 ], [ -0.227353612889306, 51.527704474366551 ], [ -0.227388093181344, 51.527893875878227 ], [ -0.227433897138759, 51.528051893438807 ], [ -0.227483840962503, 51.528176800303889 ], [ -0.227564271626815, 51.528330845903206 ], [ -0.227716050402168, 51.528545393309514 ], [ -0.227802763213395, 51.528650987464438 ], [ -0.227995305968009, 51.528853564174206 ], [ -0.228183533534586, 51.529017328366194 ], [ -0.228245885488916, 51.529082998168583 ], [ -0.228300847688034, 51.529152242261929 ], [ -0.228341682952944, 51.529214890091261 ], [ -0.228703626869499, 51.529879503879499 ], [ -0.228479053583172, 51.530354472737784 ], [ -0.228348423174825, 51.530302156133573 ], [ -0.228140256079054, 51.530241476446349 ], [ -0.227985775647165, 51.530209476324345 ], [ -0.227822567043254, 51.530181839179171 ], [ -0.227694713468422, 51.530168220912614 ], [ -0.227566839107384, 51.530158198204141 ], [ -0.227563987832091, 51.530158155130891 ], [ -0.227656448243514, 51.529929317220748 ], [ -0.227661109199932, 51.529919498596421 ], [ -0.226692715953826, 51.529982180457303 ], [ -0.226176176181265, 51.529992352345104 ], [ -0.225441231216563, 51.530021783803534 ], [ -0.225439106416242, 51.530039731723789 ], [ -0.225422478569957, 51.530170734647342 ], [ -0.224992629070832, 51.530137262328516 ], [ -0.2245766180013, 51.530084219777116 ], [ -0.224272575408142, 51.530043658451277 ], [ -0.223779698710269, 51.529965086728417 ], [ -0.223609547823487, 51.529926550585863 ], [ -0.22336396620193, 51.529865295942734 ], [ -0.223063242063667, 51.529776235575518 ], [ -0.2227957347738, 51.529685879582118 ], [ -0.22264478006057, 51.529636754873259 ], [ -0.222272425683986, 51.529500758207405 ], [ -0.221879583467063, 51.529368944877696 ], [ -0.221653891509572, 51.5293159892056 ], [ -0.221502410236428, 51.529280429987622 ], [ -0.220981354238386, 51.529187125197339 ], [ -0.220690515507824, 51.529140461768236 ], [ -0.21949311201318, 51.528937012184763 ], [ -0.219033572659396, 51.528854521299351 ], [ -0.218688182268809, 51.528801630810356 ], [ -0.218236019404627, 51.52871295576454 ], [ -0.217954807739481, 51.528642158202189 ], [ -0.217307556213162, 51.528456929001145 ], [ -0.217042920303378, 51.528366603055034 ], [ -0.216642749069444, 51.528204004106861 ], [ -0.21636771693496, 51.528084750487899 ], [ -0.216004690266863, 51.527929906102926 ], [ -0.215790851226365, 51.52782956172598 ], [ -0.215865767193172, 51.527685961567585 ], [ -0.215882621262416, 51.527659247789266 ], [ -0.215899669795439, 51.527591092917682 ], [ -0.21589897760457, 51.527499384062175 ], [ -0.215863597321448, 51.527407147667915 ], [ -0.215808722021839, 51.527263281683823 ], [ -0.215650766057882, 51.526916471116834 ], [ -0.215548795142541, 51.526721634375043 ], [ -0.215474981068063, 51.526727703600308 ], [ -0.215046932051546, 51.526761646691277 ], [ -0.214575373689601, 51.526804815088532 ], [ -0.213729145534662, 51.526875540438063 ], [ -0.213291418864576, 51.526898541726688 ], [ -0.212674146954181, 51.526868461879744 ], [ -0.211938215313286, 51.526814994180938 ], [ -0.21123691159146, 51.52675755484038 ], [ -0.210253733150048, 51.526683225286675 ], [ -0.209969816676432, 51.526645630358175 ], [ -0.209554235833507, 51.526579864340832 ], [ -0.209199589368414, 51.526506126894141 ], [ -0.208813451274858, 51.526429210538076 ], [ -0.208212313675893, 51.526318443179214 ], [ -0.208045491677411, 51.526307804069219 ], [ -0.207807176335675, 51.526283486489135 ], [ -0.207583238538307, 51.526259298197168 ], [ -0.20731716516804, 51.526242646538826 ], [ -0.207295615776649, 51.526240519229738 ], [ -0.206951721526509, 51.526186717355628 ], [ -0.206700327751102, 51.526126237473271 ], [ -0.206483586223809, 51.526067185831657 ], [ -0.206153937429184, 51.525944376098472 ], [ -0.205877995289101, 51.525740487546166 ], [ -0.205666901796186, 51.525534893215607 ], [ -0.205465683491159, 51.525298883253221 ], [ -0.205165926244535, 51.524930110628304 ], [ -0.205020060202446, 51.524719309708416 ], [ -0.204512764460078, 51.524055093051267 ], [ -0.204340999906619, 51.523841107903657 ], [ -0.204051647900895, 51.523610039260568 ], [ -0.203857262342573, 51.523460525318633 ], [ -0.203534087582475, 51.523318838006404 ], [ -0.20299370553585, 51.523133457347669 ], [ -0.202779431957436, 51.523081628501316 ], [ -0.202669660483901, 51.52305018962938 ], [ -0.20255981482831, 51.523020637428168 ], [ -0.201615026199135, 51.522743647671895 ], [ -0.201601303870421, 51.522618385608439 ], [ -0.201531125771306, 51.522348417109896 ], [ -0.201507216109832, 51.522041399675572 ], [ -0.201503781377067, 51.52198381064504 ], [ -0.201463954218851, 51.521932855713217 ], [ -0.201107798459251, 51.521461529902133 ], [ -0.200612150905957, 51.520796575111156 ], [ -0.200609780360534, 51.520712032182942 ], [ -0.200748107281486, 51.520712355875162 ], [ -0.20074374929712, 51.520822866773869 ], [ -0.20122019783374, 51.520838354419517 ], [ -0.201522333436361, 51.520852875954652 ], [ -0.20174389002955, 51.520864363573892 ], [ -0.20220133997735, 51.520888456319305 ], [ -0.202644878541039, 51.520900647052066 ], [ -0.203084855537171, 51.520819195052269 ], [ -0.20347398335943, 51.52071008240592 ], [ -0.203701680008325, 51.520638052854451 ], [ -0.203742511165345, 51.520624294001969 ], [ -0.203691280197702, 51.520573165194769 ], [ -0.203556082837588, 51.520454134193258 ], [ -0.203429366160371, 51.520303857612113 ], [ -0.203394969176476, 51.520262875547225 ], [ -0.203329105251072, 51.520070288649841 ], [ -0.203279444711359, 51.519940071190774 ], [ -0.203254770976306, 51.519869480913563 ], [ -0.203185401885258, 51.51976593170702 ], [ -0.202945996785646, 51.519474492579612 ], [ -0.202355278062241, 51.518848543545623 ], [ -0.201463894540667, 51.51780075301366 ], [ -0.200723293015867, 51.517978187270117 ], [ -0.199920413662789, 51.516848135271331 ], [ -0.199871241696896, 51.516778157249938 ], [ -0.199869851942064, 51.51677723691742 ], [ -0.199183641288065, 51.514552721830668 ], [ -0.195743240171986, 51.514957539553698 ], [ -0.195048400299683, 51.515033154806723 ], [ -0.194343143241407, 51.512713919752194 ], [ -0.194040770282279, 51.511757845043107 ], [ -0.193631246429593, 51.511693103724802 ], [ -0.192960527210179, 51.511814927102989 ], [ -0.192119659658196, 51.509869462324779 ], [ -0.191698807926242, 51.509941188742516 ], [ -0.190913252064813, 51.510019965347531 ], [ -0.1896960233286, 51.510077601217915 ], [ -0.188538462086612, 51.510158621178213 ], [ -0.187909272185273, 51.510180367954085 ], [ -0.186859221274673, 51.507773047102617 ], [ -0.185597492317753, 51.504892080290652 ], [ -0.18438530776511, 51.502113453188848 ], [ -0.184235113145433, 51.501794586844653 ], [ -0.183056859835158, 51.501567680761028 ], [ -0.182591274701297, 51.501499334977773 ], [ -0.182384659421062, 51.501479052194931 ], [ -0.182037165977161, 51.501449393541527 ], [ -0.181633372822972, 51.50142245711082 ], [ -0.181350661797201, 51.501430660117016 ], [ -0.180907139920588, 51.501422883397296 ], [ -0.180311936393634, 51.50146219746037 ], [ -0.17972522181378, 51.498686929326482 ], [ -0.179546739801672, 51.497779485107458 ], [ -0.173542772473236, 51.498222133655297 ], [ -0.173535300620439, 51.498302029314132 ], [ -0.172458262663054, 51.49839313377668 ], [ -0.172447925230424, 51.498470377596938 ], [ -0.171781229056074, 51.498533706486135 ], [ -0.17177678313123, 51.498609154163226 ], [ -0.171475302315304, 51.49868896161091 ], [ -0.169619720969242, 51.498903740868911 ], [ -0.168390222332287, 51.499022186083941 ], [ -0.168177952015304, 51.498998193744974 ], [ -0.168026867921493, 51.49888516555535 ], [ -0.167904598296131, 51.498521762870936 ], [ -0.167619548030783, 51.498301456987662 ], [ -0.16577931478947, 51.49924308598866 ], [ -0.165481422934436, 51.498697940810807 ], [ -0.162833266656829, 51.500131229353165 ], [ -0.162574530725832, 51.500293583333864 ], [ -0.16234260298995, 51.500471639981058 ], [ -0.16154571014338, 51.501227087313922 ], [ -0.161319833584549, 51.501396246681296 ], [ -0.161163184468978, 51.501495379161426 ], [ -0.160999437230253, 51.501590804094434 ], [ -0.160864154079435, 51.501657906761324 ], [ -0.160757006044444, 51.501704863107555 ], [ -0.160564321591587, 51.501766570220369 ], [ -0.159148756557847, 51.502104055885006 ], [ -0.158575868824612, 51.502234409798064 ], [ -0.158452701329546, 51.5022513552546 ], [ -0.158444106805307, 51.502249422286518 ], [ -0.158477957810848, 51.501516179997523 ], [ -0.158500810897146, 51.501414950423531 ], [ -0.158501295227704, 51.501332248896425 ], [ -0.158492645298245, 51.501261001211077 ], [ -0.158476061161988, 51.501206800084134 ], [ -0.158412001179299, 51.501080831539248 ], [ -0.157849635648367, 51.499018926125153 ], [ -0.157215206505176, 51.498567454863242 ], [ -0.156071988610338, 51.497763480725538 ], [ -0.156023112744251, 51.497511797977616 ], [ -0.155653917733558, 51.495629304441401 ], [ -0.155608632264024, 51.495503539659829 ], [ -0.155523082161335, 51.49533947302087 ], [ -0.155294931177431, 51.495065192113103 ], [ -0.155612178546429, 51.494880399887727 ], [ -0.155757420306206, 51.494781095384639 ], [ -0.155813911703719, 51.494735235004676 ], [ -0.155822903761786, 51.49472728528054 ], [ -0.155914377614693, 51.494638732394485 ], [ -0.155989304688245, 51.494495169408189 ], [ -0.154990828680937, 51.493857170089058 ], [ -0.155984498981678, 51.493222631143027 ], [ -0.155965117587869, 51.493202548135201 ], [ -0.154793528470465, 51.491963802395695 ], [ -0.155796696681463, 51.491451681927586 ], [ -0.155677446924791, 51.491051455473368 ], [ -0.155630355828721, 51.49089689434269 ], [ -0.155544463618121, 51.490670791104698 ], [ -0.155436709590234, 51.49044785010576 ], [ -0.155171883707238, 51.490049828480998 ], [ -0.155849508213872, 51.489607204373115 ], [ -0.154893102161644, 51.489035584812093 ], [ -0.153461205171821, 51.48818119487526 ], [ -0.151700363931809, 51.487057204362138 ], [ -0.15138940668449, 51.486876097043343 ], [ -0.150342273818518, 51.486233694584676 ], [ -0.150170763787018, 51.486093350749805 ], [ -0.150094795293611, 51.485977977998488 ], [ -0.15006210666541, 51.485896551343174 ], [ -0.149979353435921, 51.485485206884853 ], [ -0.149819387999931, 51.484560926934741 ], [ -0.150245663306305, 51.484527106016493 ], [ -0.152794897102646, 51.484138368520441 ], [ -0.153020054443194, 51.484126631478794 ], [ -0.153141714044052, 51.484110567170887 ], [ -0.153243343369619, 51.4840905912816 ], [ -0.153343875107266, 51.48406250692144 ], [ -0.153462050606442, 51.484023912142632 ], [ -0.153743442036629, 51.483975300635052 ], [ -0.153904783239907, 51.483938194052172 ], [ -0.154125149768272, 51.483903904202926 ], [ -0.154751266783682, 51.483840937299973 ], [ -0.155506939307417, 51.48374853980372 ], [ -0.157822685833389, 51.483431538496497 ], [ -0.157954501471309, 51.483413830819529 ], [ -0.158224967339751, 51.483385624500798 ], [ -0.158571340904496, 51.483368588400282 ], [ -0.158894955907505, 51.483306243724378 ], [ -0.160323540767506, 51.483096628496348 ], [ -0.160544950272093, 51.483068636225923 ], [ -0.160631780284316, 51.483059210019476 ], [ -0.161490363373181, 51.483020530424987 ], [ -0.162550016827569, 51.48292206463293 ], [ -0.163076984276254, 51.482890763471509 ], [ -0.163262288051373, 51.482865796579773 ], [ -0.16341332342009, 51.482836606834788 ], [ -0.163563028591785, 51.482802091938616 ], [ -0.164024952321166, 51.482666382452329 ] ] ] } }
]
}
