{
"type": "FeatureCollection",
"name": "borough_Barking_and_Dagenham",
"crs": { "type": "name", "properties": { "name": "urn:ogc:def:crs:OGC:1.3:CRS84" } },
"features": [
{ "type": "Feature", "properties": { "DISTRICT": "Barking and Dagenham", "NAME": "Gascoigne", "GSS_CODE": "E05000032", "LAGSSCODE": "E09000002", "HECTARES": 113.874, "NONLD_AREA": 4.906 }, "geometry": { "type": "Polygon", "coordinates": [ [ [ 0.098616894003241, 51.514918890038437 ], [ 0.098111057077743, 51.515202154938017 ], [ 0.097643103080799, 51.515464149386496 ], [ 0.097094416851939, 51.515629588534317 ], [ 0.096392938934086, 51.51586060006219 ], [ 0.095848719138262, 51.516157214650001 ], [ 0.095598599960082, 51.516328997741262 ], [ 0.095506903009781, 51.516402560320429 ], [ 0.095278740049957, 51.516612609496534 ], [ 0.095154882855121, 51.516741588416949 ], [ 0.095049461066032, 51.5168631353514 ], [ 0.094905404702333, 51.517051812115639 ], [ 0.094757028603467, 51.517431250135665 ], [ 0.094650462729545, 51.517685872136497 ], [ 0.09460349101271, 51.517887285731881 ], [ 0.094588942677033, 51.518134870104547 ], [ 0.094603257874051, 51.518257782272642 ], [ 0.094636687618776, 51.518421708700366 ], [ 0.094688925235232, 51.518586288175918 ], [ 0.094920565493405, 51.519832169580155 ], [ 0.09496836675227, 51.519995839249496 ], [ 0.095040548162759, 51.520154668181362 ], [ 0.095056690056163, 51.520193038377862 ], [ 0.095076249043912, 51.520303270342644 ], [ 0.095041690324159, 51.520430741437472 ], [ 0.094920156506822, 51.520579454763393 ], [ 0.094846765203336, 51.520642888798953 ], [ 0.094812189292751, 51.520676770577147 ], [ 0.094749776817596, 51.520728231119712 ], [ 0.094637640488571, 51.520799459295155 ], [ 0.094391353074216, 51.520959479936558 ], [ 0.093885827342606, 51.521347088398045 ], [ 0.093078886672372, 51.521981104134355 ], [ 0.092595652391831, 51.52238359229937 ], [ 0.092512136091998, 51.522480379681127 ], [ 0.09245504700649, 51.522744005747953 ], [ 0.092378378461477, 51.522927967016209 ], [ 0.092389864295428, 51.523020362596966 ], [ 0.092419586447024, 51.523259065258998 ], [ 0.092436178996454, 51.523527670210754 ], [ 0.092451038039816, 51.523758456766636 ], [ 0.092542788941609, 51.523903452522262 ], [ 0.092594083044616, 51.523985248617734 ], [ 0.09276230359599, 51.524540727363345 ], [ 0.092854333981846, 51.524818774884423 ], [ 0.092885670553414, 51.525030387735661 ], [ 0.092875667073056, 51.525190684055723 ], [ 0.092763503915869, 51.525541599651909 ], [ 0.092618906263882, 51.525690720472213 ], [ 0.092539147801014, 51.525742578574125 ], [ 0.092380990356291, 51.525813725574814 ], [ 0.092259750316772, 51.525873425635808 ], [ 0.092133251035824, 51.525914339786034 ], [ 0.091904363867775, 51.525951685398894 ], [ 0.09169260009089, 51.525955461252259 ], [ 0.091306778834493, 51.525903902882348 ], [ 0.091186191743199, 51.525884475788956 ], [ 0.091034259314759, 51.525871001438176 ], [ 0.090905742917133, 51.525867897878378 ], [ 0.090803648150194, 51.525873313566088 ], [ 0.090703184267385, 51.525883195236489 ], [ 0.090590185972051, 51.525902290458674 ], [ 0.090485944566473, 51.525925724665989 ], [ 0.09039936766148, 51.525953339161298 ], [ 0.090300343087364, 51.525994660788868 ], [ 0.090215812718946, 51.526038421171073 ], [ 0.090154121788305, 51.526077369342914 ], [ 0.089959443685112, 51.526233672260219 ], [ 0.089877032271966, 51.526289981023481 ], [ 0.089670410651086, 51.52640612989569 ], [ 0.089558438537936, 51.526447681511137 ], [ 0.089428550223531, 51.526476965733174 ], [ 0.089256233514465, 51.526490822928764 ], [ 0.08918690848291, 51.526490259446277 ], [ 0.088843604349267, 51.526484685206327 ], [ 0.088842179111152, 51.526484710583006 ], [ 0.088507125647706, 51.526441229321293 ], [ 0.088114054507669, 51.52638969960379 ], [ 0.08759048200533, 51.526257870286322 ], [ 0.087006718172188, 51.526070380839663 ], [ 0.086841340066751, 51.52601758306686 ], [ 0.08670787445862, 51.525966015490795 ], [ 0.08648773302995, 51.52588272534728 ], [ 0.086352966145557, 51.525833877593286 ], [ 0.086175912330697, 51.525809066456034 ], [ 0.085987834838305, 51.525795329288073 ], [ 0.085619223440476, 51.5258054790648 ], [ 0.085160472974783, 51.525892837983022 ], [ 0.084856658021569, 51.525994433406346 ], [ 0.084592339813906, 51.52611240773092 ], [ 0.084124800623472, 51.526353652282424 ], [ 0.08362881928678, 51.526638553367235 ], [ 0.083190235035819, 51.526819045092672 ], [ 0.08290232904098, 51.526923049974371 ], [ 0.082605259610422, 51.527016428494299 ], [ 0.081977410139835, 51.527191285042306 ], [ 0.081667628133793, 51.527258814952503 ], [ 0.081372335348756, 51.527326086767182 ], [ 0.08105384805301, 51.527424336140214 ], [ 0.080950007531057, 51.527456744877718 ], [ 0.080723965295535, 51.527525573715351 ], [ 0.080580965603009, 51.527582950302772 ], [ 0.080503995526144, 51.527633761671602 ], [ 0.080390184725847, 51.527697812618911 ], [ 0.080162413976229, 51.527856573603003 ], [ 0.079915550991882, 51.528039856393384 ], [ 0.079581178925064, 51.528295802721601 ], [ 0.079318156736928, 51.528502835201159 ], [ 0.078881746093156, 51.528893643619767 ], [ 0.078455885938488, 51.529166491087963 ], [ 0.078270542886128, 51.529244393463266 ], [ 0.077945884195804, 51.529332854257738 ], [ 0.077822898203681, 51.529354810945513 ], [ 0.07773142143813, 51.52937171438154 ], [ 0.077263197498309, 51.529380005253735 ], [ 0.076857956560056, 51.529408755977641 ], [ 0.076525071668917, 51.529475871719733 ], [ 0.076283378157701, 51.529551172134248 ], [ 0.076229356597228, 51.529568310577154 ], [ 0.076170491639876, 51.529604414230853 ], [ 0.076093431498316, 51.529653426172203 ], [ 0.07568871394455, 51.529662385016152 ], [ 0.075598783618343, 51.529681956493086 ], [ 0.075534502015388, 51.529695680020176 ], [ 0.075497988911166, 51.529718801567384 ], [ 0.07551433441365, 51.529824687274122 ], [ 0.075516613778913, 51.529840829402808 ], [ 0.075486165829837, 51.529869237801933 ], [ 0.075413376383816, 51.529886707862133 ], [ 0.075324989249689, 51.529877483026119 ], [ 0.075123645002601, 51.529760485068046 ], [ 0.074810969064628, 51.529702184097935 ], [ 0.074719037581109, 51.529677738062382 ], [ 0.074635209125343, 51.529672028196906 ], [ 0.074579924739468, 51.529692784303556 ], [ 0.074523946253686, 51.529698269232817 ], [ 0.074470206077988, 51.529690229185505 ], [ 0.074281458917749, 51.529630634562857 ], [ 0.074130538745097, 51.529639595844543 ], [ 0.073412026616379, 51.529437338876654 ], [ 0.073192666907655, 51.529371091304064 ], [ 0.073186883936569, 51.529369395441314 ], [ 0.073049681286748, 51.52933226267978 ], [ 0.072953234273533, 51.529305197980712 ], [ 0.07283716254729, 51.529288369192592 ], [ 0.072739861477506, 51.529273905754465 ], [ 0.072743226757908, 51.529567917286101 ], [ 0.072706423804875, 51.529995694074927 ], [ 0.07263001598335, 51.530472807689755 ], [ 0.072593814283779, 51.530788195688714 ], [ 0.072535588819186, 51.531186682947776 ], [ 0.072392853027456, 51.53169544484485 ], [ 0.07223375640457, 51.532257627802586 ], [ 0.072000880139434, 51.532844488040574 ], [ 0.071943803798225, 51.532951580820765 ], [ 0.071751422253032, 51.532906430645987 ], [ 0.071738112639124, 51.532932737358415 ], [ 0.071697407658895, 51.533020751332948 ], [ 0.071485753623685, 51.533344630773982 ], [ 0.071388900127872, 51.533497376725641 ], [ 0.071227643365736, 51.533755636188459 ], [ 0.070448286046352, 51.534917803833316 ], [ 0.070229934030037, 51.535220222273828 ], [ 0.070200171913748, 51.535263900508212 ], [ 0.069816103795934, 51.535792199620985 ], [ 0.069669692798571, 51.536029517209457 ], [ 0.069596321630674, 51.536128804907229 ], [ 0.069505569348616, 51.536259055805935 ], [ 0.069483948499854, 51.536290902952764 ], [ 0.06939982690681, 51.536344529964644 ], [ 0.06919953507735, 51.536348062340579 ], [ 0.068887469597951, 51.536238490363402 ], [ 0.068808476755731, 51.536213811525748 ], [ 0.068732090446676, 51.536215158341697 ], [ 0.068649105668961, 51.536228308740178 ], [ 0.068484076291285, 51.536246501580081 ], [ 0.068327026838977, 51.53624927013027 ], [ 0.068222340116359, 51.53622953893813 ], [ 0.0681475836121, 51.536203885959914 ], [ 0.06808971965552, 51.536167956036905 ], [ 0.068076404451534, 51.536160099522398 ], [ 0.068069278270219, 51.536097293528705 ], [ 0.068020784359734, 51.536142200374471 ], [ 0.067958408480118, 51.536198230041997 ], [ 0.068030353620831, 51.536256297512629 ], [ 0.06808402162412, 51.536296706633458 ], [ 0.068140456106587, 51.536332571853258 ], [ 0.068265540100885, 51.536450836079908 ], [ 0.068310700079142, 51.536652410051431 ], [ 0.068317295557755, 51.536797935476002 ], [ 0.068282810207305, 51.536991923159967 ], [ 0.068914768074148, 51.537189444860992 ], [ 0.068848318052605, 51.53725264910998 ], [ 0.068614758717769, 51.537540049096222 ], [ 0.068495695000975, 51.537680597641007 ], [ 0.068268726768278, 51.537953496343675 ], [ 0.067963940474605, 51.538356326340974 ], [ 0.067653654933197, 51.538732371635092 ], [ 0.067426998071255, 51.539012365411729 ], [ 0.067331631495157, 51.539135503645461 ], [ 0.067201281786032, 51.539315806638356 ], [ 0.066992620075589, 51.539609956746602 ], [ 0.066861656739625, 51.539871272050213 ], [ 0.066806272751443, 51.540081809702066 ], [ 0.066779515166781, 51.540191961726784 ], [ 0.066753656649776, 51.540321966296489 ], [ 0.066693990510663, 51.540532489400391 ], [ 0.066675819625011, 51.540863739485829 ], [ 0.066697194506566, 51.541015387632527 ], [ 0.066723700330941, 51.541188432024384 ], [ 0.066734410301978, 51.541264750156458 ], [ 0.066741781412934, 51.541301480226025 ], [ 0.066758268395826, 51.541376707675191 ], [ 0.066776062352698, 51.5414519121002 ], [ 0.066798211679302, 51.541526140783191 ], [ 0.066823138492495, 51.54160130946164 ], [ 0.066851069029098, 51.541674537278347 ], [ 0.066881773010782, 51.54174861525577 ], [ 0.066953850787878, 51.541906562374336 ], [ 0.067075359828863, 51.542168734310401 ], [ 0.067250796037861, 51.542508350466022 ], [ 0.067389537594319, 51.542738752476531 ], [ 0.067726650819281, 51.543208574161305 ], [ 0.067977063332043, 51.543609709342341 ], [ 0.068185820168391, 51.543983708525076 ], [ 0.068296228023264, 51.544255154568475 ], [ 0.068309219385194, 51.544287290307366 ], [ 0.068312356077074, 51.544293528159734 ], [ 0.068353900463576, 51.544415152535677 ], [ 0.069141520690124, 51.544259130568342 ], [ 0.069130725073706, 51.54417840909845 ], [ 0.06939381029123, 51.544129717401411 ], [ 0.069482508961859, 51.54411376867823 ], [ 0.069574018433986, 51.544096871290222 ], [ 0.069624149005283, 51.54408789587518 ], [ 0.069664261597716, 51.544080895188458 ], [ 0.069741234494706, 51.544063355062157 ], [ 0.070378242325209, 51.543924365881089 ], [ 0.070880374023816, 51.543803127084566 ], [ 0.071058095155637, 51.543778413791017 ], [ 0.071141133651455, 51.543766159813103 ], [ 0.071662069332945, 51.543613929198813 ], [ 0.0718144158325, 51.543569884341892 ], [ 0.071848016040873, 51.54361064596862 ], [ 0.071865164682319, 51.5436400108239 ], [ 0.071965565939953, 51.543816333777791 ], [ 0.072004459664927, 51.543816545979602 ], [ 0.072275727994043, 51.543819846515568 ], [ 0.07272284441593, 51.543820040174758 ], [ 0.072724346765445, 51.543758880287584 ], [ 0.072968327871251, 51.543763560272765 ], [ 0.073075310426674, 51.543767963278398 ], [ 0.073247251867774, 51.543775713505482 ], [ 0.073239152650191, 51.543819908581078 ], [ 0.073337298486813, 51.543820871407512 ], [ 0.073464238670325, 51.543822224336857 ], [ 0.073830025509772, 51.543809466642763 ], [ 0.074268390004648, 51.543839476736807 ], [ 0.074485456038064, 51.543856316620605 ], [ 0.074934615221101, 51.543901416689721 ], [ 0.075568640834884, 51.544016155448702 ], [ 0.075832436028354, 51.544140048496779 ], [ 0.07623886313794, 51.54429387170385 ], [ 0.076646634297383, 51.544474550346443 ], [ 0.076735269166871, 51.544551286131799 ], [ 0.076768224075477, 51.544580370463862 ], [ 0.076821619575773, 51.54461179004047 ], [ 0.076839656777798, 51.544595288436405 ], [ 0.077061039805762, 51.544390798556144 ], [ 0.077409638145902, 51.54453844916776 ], [ 0.077500788880915, 51.544576392107828 ], [ 0.077506205808419, 51.544570003064287 ], [ 0.077640112895492, 51.544405718748045 ], [ 0.077797026680719, 51.544208752101774 ], [ 0.077936225766501, 51.544035383560633 ], [ 0.078096052527474, 51.544126949936114 ], [ 0.078111611959995, 51.544150048846383 ], [ 0.078147261799617, 51.544204347479358 ], [ 0.078257318569356, 51.544278814740615 ], [ 0.078453219865469, 51.54433737696796 ], [ 0.078564119798747, 51.544365080032058 ], [ 0.078800501607149, 51.544424722584296 ], [ 0.07962617731049, 51.544629541460033 ], [ 0.080137164535851, 51.544796780971005 ], [ 0.080789848565517, 51.545004568378836 ], [ 0.081205161498256, 51.545099780341076 ], [ 0.0812444209565, 51.545105377084546 ], [ 0.081425943847641, 51.545132723678989 ], [ 0.081520237562912, 51.545176900810937 ], [ 0.081527649464585, 51.545180365391282 ], [ 0.081604304731506, 51.545215865189782 ], [ 0.081619009741947, 51.545222796446552 ], [ 0.081703982947482, 51.545284220121133 ], [ 0.081735233354625, 51.545335808670835 ], [ 0.081642899800185, 51.545431034622545 ], [ 0.081610659449785, 51.545482850623721 ], [ 0.081628192610612, 51.545551763926149 ], [ 0.081679150725681, 51.545592214657582 ], [ 0.081709699943554, 51.545599763811161 ], [ 0.081727252634304, 51.545603947475314 ], [ 0.081821538566806, 51.545616658493323 ], [ 0.081968600804952, 51.54561584650034 ], [ 0.082180957741032, 51.545654331137762 ], [ 0.082349020955749, 51.545733248356321 ], [ 0.082517125839738, 51.54581567075541 ], [ 0.082761155588516, 51.545946190826228 ], [ 0.082853069285987, 51.546034550483128 ], [ 0.082970782169776, 51.546083704299278 ], [ 0.083177575689722, 51.546159145596768 ], [ 0.083293498436778, 51.54620293676787 ], [ 0.083390360461371, 51.546240773233727 ], [ 0.083962110314232, 51.546441077089248 ], [ 0.084146501711232, 51.546499833299926 ], [ 0.084341377492698, 51.546598049570775 ], [ 0.084896209410809, 51.546841712288838 ], [ 0.085217689521963, 51.546996112864662 ], [ 0.08572526333374, 51.547277561201646 ], [ 0.086015894847354, 51.54738656828038 ], [ 0.086285744951451, 51.547454589475734 ], [ 0.086695287583498, 51.547513921899693 ], [ 0.087680548210895, 51.547643829474929 ], [ 0.088037670243756, 51.547693212023674 ], [ 0.088246454174532, 51.547718263865825 ], [ 0.088499994195718, 51.547741619462371 ], [ 0.088995850136748, 51.547800305998699 ], [ 0.089564483738531, 51.547869291310782 ], [ 0.089761537434834, 51.547890054315936 ], [ 0.089960382942688, 51.547916179157156 ], [ 0.090122735369873, 51.547934862774227 ], [ 0.090202485726772, 51.547944229905475 ], [ 0.090417532340105, 51.547947589885027 ], [ 0.09051524872126, 51.547970121862392 ], [ 0.090562999532148, 51.548005231468196 ], [ 0.090662999288097, 51.548108723923654 ], [ 0.090769368911036, 51.548164365028683 ], [ 0.090872557601305, 51.548212870610321 ], [ 0.091406172201546, 51.548275278983667 ], [ 0.091517732321056, 51.548285876084975 ], [ 0.091604788689405, 51.548327476533096 ], [ 0.091632195190726, 51.548390907825727 ], [ 0.091618620034208, 51.548442393760375 ], [ 0.091517539800811, 51.54869151521568 ], [ 0.09154842273172, 51.54879704835168 ], [ 0.091615232957955, 51.548902839862599 ], [ 0.091666614184886, 51.549017087497781 ], [ 0.09171272521556, 51.549109762820201 ], [ 0.091866512292559, 51.549255357838533 ], [ 0.092035460723209, 51.549415156380689 ], [ 0.092623318287545, 51.549653787435439 ], [ 0.09255894034449, 51.549538873105078 ], [ 0.09244810813228, 51.549292722123361 ], [ 0.092280010305497, 51.548899974208943 ], [ 0.092252137508158, 51.548795286609653 ], [ 0.092264877076367, 51.548632247740201 ], [ 0.092322381858338, 51.548470298314044 ], [ 0.092353664375719, 51.548397819102902 ], [ 0.092622139165806, 51.547709598557255 ], [ 0.09286393270127, 51.547100966789216 ], [ 0.092899635400424, 51.547000449200425 ], [ 0.093030331790404, 51.546640219300393 ], [ 0.093180345301618, 51.546296725850198 ], [ 0.093259242640155, 51.546098343728268 ], [ 0.093316664417107, 51.546092823957956 ], [ 0.093352092902636, 51.546014876411 ], [ 0.09352904098856, 51.545848996784066 ], [ 0.093858346349284, 51.545984264573164 ], [ 0.094163658282522, 51.546099372314629 ], [ 0.094402070999268, 51.546171532082177 ], [ 0.095096393546347, 51.546403755142364 ], [ 0.095659109006452, 51.546597779730753 ], [ 0.096382589386422, 51.546869030739892 ], [ 0.096451927793378, 51.546902853095467 ], [ 0.096604840376185, 51.546998202586366 ], [ 0.097121006813301, 51.547180465783448 ], [ 0.097519491286614, 51.547314576144522 ], [ 0.097842809609997, 51.547476909955925 ], [ 0.097987111401367, 51.547542654215867 ], [ 0.098168325115672, 51.547624909223387 ], [ 0.098453661057741, 51.547744767449863 ], [ 0.09887171991869, 51.547960329341194 ], [ 0.099486899993605, 51.548288332701908 ], [ 0.099600818619559, 51.548350122618587 ], [ 0.099765905414112, 51.548428077274707 ], [ 0.100041381874323, 51.548522124586547 ], [ 0.100299666810034, 51.548617288336352 ], [ 0.100740617644181, 51.548764018419455 ], [ 0.101341089486096, 51.548932251035737 ], [ 0.10225156016998, 51.549220784178935 ], [ 0.102542224864782, 51.549360312993201 ], [ 0.102658343843842, 51.549407766124304 ], [ 0.103218064748839, 51.549535275376208 ], [ 0.103655909323304, 51.549645190570907 ], [ 0.104039914017919, 51.54974806915407 ], [ 0.104251876734904, 51.549808094897003 ], [ 0.104461681049528, 51.549916705706821 ], [ 0.104600047939193, 51.549977152834352 ], [ 0.104808219294477, 51.550078690124337 ], [ 0.1051033464257, 51.550224425485816 ], [ 0.105292869133275, 51.550328993787858 ], [ 0.105455477577089, 51.550445642393548 ], [ 0.10576229880787, 51.550687450269933 ], [ 0.106036157109901, 51.550869525721311 ], [ 0.10620905595196, 51.550959107908156 ], [ 0.106598739640543, 51.551308205472687 ], [ 0.107217673187681, 51.551810508771361 ], [ 0.10733553105719, 51.551926250947979 ], [ 0.107411745788894, 51.551982417809739 ], [ 0.107455837385409, 51.552002302539201 ], [ 0.107600259819246, 51.552036565900764 ], [ 0.107785714706237, 51.552086273626465 ], [ 0.108027485578036, 51.552072936615652 ], [ 0.108113831464928, 51.552067788000542 ], [ 0.108151264512179, 51.552067114906286 ], [ 0.108296546835378, 51.552058209341084 ], [ 0.108428600821864, 51.552699707497808 ], [ 0.109841631391365, 51.552593376288947 ], [ 0.111131962873674, 51.552482944386767 ], [ 0.111937978492212, 51.552662614697681 ], [ 0.11238058312445, 51.553000041823232 ], [ 0.112353923424183, 51.553482483131155 ], [ 0.11238527318834, 51.553507090664553 ], [ 0.11238552278965, 51.553512480246383 ], [ 0.112736781984225, 51.553777742850642 ], [ 0.114742727544947, 51.555317997903849 ], [ 0.114754671810989, 51.555326772595414 ], [ 0.114208058708492, 51.555610020624819 ], [ 0.114186887161137, 51.555620291544379 ], [ 0.114132422461719, 51.555815550395621 ], [ 0.114131329433015, 51.555822762209885 ], [ 0.112751303803829, 51.556520279920996 ], [ 0.113166791075552, 51.55683113257416 ], [ 0.113355313764438, 51.557318685500974 ], [ 0.117178798035233, 51.556893654541526 ], [ 0.117159906636526, 51.557388632942953 ], [ 0.118022671410961, 51.557389252784525 ], [ 0.118104422234149, 51.557346423159686 ], [ 0.118964298263354, 51.557348886196678 ], [ 0.120514371454474, 51.558542121465543 ], [ 0.11893487833961, 51.558794494447426 ], [ 0.118264194216284, 51.558924458510987 ], [ 0.117848006985364, 51.559032657006 ], [ 0.117506395609052, 51.559163782446525 ], [ 0.118726276046967, 51.560951140304098 ], [ 0.119777586531046, 51.562493311549488 ], [ 0.118899879825208, 51.562731301590489 ], [ 0.119059719469545, 51.563065639042492 ], [ 0.119337249609347, 51.563137046711638 ], [ 0.119527502235658, 51.563196543940833 ], [ 0.119666317085157, 51.56323458387115 ], [ 0.119979029801024, 51.563287374553532 ], [ 0.124756967959802, 51.56419829670758 ], [ 0.125016110038865, 51.564341945793217 ], [ 0.125346905015526, 51.564504165829497 ], [ 0.125536244302182, 51.564605025179404 ], [ 0.125726333128963, 51.564750012657221 ], [ 0.126005854125233, 51.564927453619653 ], [ 0.126466547838548, 51.565152947379367 ], [ 0.126676139994016, 51.565284904030626 ], [ 0.126905858078641, 51.565475921189908 ], [ 0.127094491764172, 51.565653297803216 ], [ 0.127314907014456, 51.565894738123802 ], [ 0.127478932186201, 51.566039296154038 ], [ 0.127648235178375, 51.56614141437543 ], [ 0.127983164082485, 51.566299956502569 ], [ 0.128236078815355, 51.566370890962496 ], [ 0.128478505851534, 51.566431226714791 ], [ 0.128632262750071, 51.566450016220038 ], [ 0.128790292207354, 51.566466031002335 ], [ 0.129329075676492, 51.566477839072995 ], [ 0.129343169543684, 51.56653251385238 ], [ 0.129370761650487, 51.566629108072505 ], [ 0.129406143634529, 51.566642850856212 ], [ 0.129521377388269, 51.566855717769371 ], [ 0.129664339005481, 51.56741510496753 ], [ 0.129756472490715, 51.56771919212111 ], [ 0.129751526141934, 51.567766120977495 ], [ 0.129744904489912, 51.567840860056933 ], [ 0.129703702047956, 51.568102414137314 ], [ 0.129679766301758, 51.568178366229432 ], [ 0.129627440374416, 51.568385191629197 ], [ 0.129641794585745, 51.568631353754917 ], [ 0.129712874559351, 51.568823444739571 ], [ 0.129834821238341, 51.56902450242125 ], [ 0.130074978370112, 51.569346582173466 ], [ 0.130234461278582, 51.569671023909883 ], [ 0.130394576155976, 51.570008939337562 ], [ 0.130470327558368, 51.570272867059003 ], [ 0.130484251885386, 51.57032385881007 ], [ 0.130463466186993, 51.570528314296951 ], [ 0.130451227914318, 51.570635610046985 ], [ 0.130413200572288, 51.570687544253943 ], [ 0.130384976650668, 51.570699743563225 ], [ 0.130329752520436, 51.570722321915028 ], [ 0.130116902451887, 51.5706767365307 ], [ 0.130052706821772, 51.570754317921008 ], [ 0.130015888646131, 51.570799037870195 ], [ 0.130003782610362, 51.570942292100675 ], [ 0.130021198510915, 51.57116223700843 ], [ 0.130015749336649, 51.57125952029152 ], [ 0.129953020960098, 51.571307407218015 ], [ 0.129934833632521, 51.571475854476738 ], [ 0.129929257986532, 51.571539876171848 ], [ 0.130806767246171, 51.571697469613554 ], [ 0.131585064648552, 51.57182997652945 ], [ 0.131582463409997, 51.571835417886568 ], [ 0.131242489372523, 51.572590654677136 ], [ 0.131203656342196, 51.572622825215106 ], [ 0.131055741229262, 51.572948348724424 ], [ 0.130932348083484, 51.573210495419019 ], [ 0.130880353538462, 51.573271673398132 ], [ 0.130913316882399, 51.573358280590853 ], [ 0.130865559170912, 51.573387915861971 ], [ 0.130608361918207, 51.57325682958097 ], [ 0.130100766641888, 51.573078950352198 ], [ 0.130084546382265, 51.573103608077417 ], [ 0.129829600516115, 51.573484113444621 ], [ 0.129656246086887, 51.573665263682727 ], [ 0.129452962238338, 51.573949534848573 ], [ 0.129444947599463, 51.573961367466623 ], [ 0.129397738310867, 51.574155603292077 ], [ 0.129393087588175, 51.574180860259538 ], [ 0.129376233114288, 51.574314221254049 ], [ 0.129383371113696, 51.574467015648359 ], [ 0.129373433093685, 51.574470791924789 ], [ 0.129333597071554, 51.574484100497791 ], [ 0.129298213226017, 51.574776115354105 ], [ 0.129311267933065, 51.575147265033678 ], [ 0.129304502251827, 51.575621354331737 ], [ 0.129264332430794, 51.575749745856413 ], [ 0.129220274576319, 51.576041922468058 ], [ 0.129198778516626, 51.576322901578841 ], [ 0.129846643421854, 51.576504447668 ], [ 0.131637627455739, 51.57708797623426 ], [ 0.131411398122179, 51.577342104294516 ], [ 0.13140817780532, 51.577397903062952 ], [ 0.131400563889544, 51.577573443457574 ], [ 0.131323460454303, 51.577777126075027 ], [ 0.13120678067189, 51.578091299220752 ], [ 0.13111500237424, 51.578350179109428 ], [ 0.131000459074342, 51.578649029569391 ], [ 0.131101956381055, 51.57868944277979 ], [ 0.130881016922694, 51.57908740941037 ], [ 0.130847506384634, 51.579080825060267 ], [ 0.13070922578286, 51.579055463491265 ], [ 0.130826057372869, 51.579362612789787 ], [ 0.130856676571717, 51.579368440470382 ], [ 0.133559047101966, 51.579962390460643 ], [ 0.133488754664855, 51.580219892497524 ], [ 0.133376966826088, 51.580419800260614 ], [ 0.13321234567574, 51.580665618889633 ], [ 0.133056193119821, 51.580629794840164 ], [ 0.133050401366344, 51.580628101896117 ], [ 0.133036904088044, 51.580649923800102 ], [ 0.132906195141469, 51.58084738748353 ], [ 0.132887326587695, 51.580876499159551 ], [ 0.132964841180187, 51.580897658058028 ], [ 0.132785396765935, 51.581073530230483 ], [ 0.13264013024173, 51.58123718425761 ], [ 0.132615182392535, 51.581261011985774 ], [ 0.132561377091612, 51.581314132598578 ], [ 0.132169595524797, 51.581332030225148 ], [ 0.131752017186733, 51.581353091618659 ], [ 0.129252218135715, 51.581511711006748 ], [ 0.127781087830977, 51.581628362641354 ], [ 0.127770572927181, 51.581900061859798 ], [ 0.12780031786318, 51.582134261230962 ], [ 0.127980174021138, 51.582244371478311 ], [ 0.128000228250949, 51.582365377980302 ], [ 0.128083759169861, 51.582856626102519 ], [ 0.128029405373147, 51.582989858922794 ], [ 0.127657187427022, 51.583890513467388 ], [ 0.127246426283922, 51.58393571319943 ], [ 0.127382355353733, 51.584435014813394 ], [ 0.126401091677753, 51.586726313026311 ], [ 0.126493419455568, 51.586756108769421 ], [ 0.128532219338749, 51.587074403849229 ], [ 0.12951210075985, 51.587253629440916 ], [ 0.129739505293792, 51.587300753439841 ], [ 0.129904361046513, 51.587336424220538 ], [ 0.130212727706605, 51.587386574763244 ], [ 0.131030313043291, 51.587520990773946 ], [ 0.130642876012588, 51.588095503215079 ], [ 0.130463623372817, 51.588367662052391 ], [ 0.130223551364778, 51.588698462979991 ], [ 0.130039468183131, 51.588989588779199 ], [ 0.129868988784251, 51.589357786502653 ], [ 0.129758732756654, 51.589593629907043 ], [ 0.129582546602112, 51.590053634280657 ], [ 0.130579941214644, 51.590511333256245 ], [ 0.132110646370044, 51.591258734507598 ], [ 0.133201823795808, 51.591775846383172 ], [ 0.135748152531089, 51.592997608168815 ], [ 0.136777101279156, 51.593508616435876 ], [ 0.137414207502551, 51.593794700963244 ], [ 0.137476528713388, 51.59386189443763 ], [ 0.137587037806365, 51.593877864745146 ], [ 0.137693076577059, 51.593953253107074 ], [ 0.138841076725173, 51.594663550342588 ], [ 0.140577566816574, 51.595728123724506 ], [ 0.141273043375564, 51.596145369956169 ], [ 0.14192587273033, 51.596579481903902 ], [ 0.141967507348127, 51.596606592957642 ], [ 0.14283755287758, 51.59714291465913 ], [ 0.145658501451804, 51.598849485875853 ], [ 0.146590294641558, 51.599438589943688 ], [ 0.147586293187017, 51.599155078163733 ], [ 0.148049371465715, 51.599025240799257 ], [ 0.148148583167837, 51.598985666987176 ], [ 0.14820676250456, 51.598962127117709 ], [ 0.148139862339517, 51.598677368130403 ], [ 0.148158953240874, 51.598592509850938 ], [ 0.148015864883544, 51.598161612650628 ], [ 0.147948280265409, 51.597768981896436 ], [ 0.147800730749598, 51.597213200054235 ], [ 0.147684645328785, 51.59680437407205 ], [ 0.147684475750969, 51.596800781036322 ], [ 0.148111998440847, 51.596773185256872 ], [ 0.14817979126021, 51.596769248456837 ], [ 0.14809758302368, 51.596404755140142 ], [ 0.14808656770984, 51.596355509708268 ], [ 0.149794722952077, 51.597058946250456 ], [ 0.149841809001431, 51.597077863076159 ], [ 0.150094451814051, 51.596740505881229 ], [ 0.150505463184097, 51.596240130521643 ], [ 0.150862509439742, 51.595792076828502 ], [ 0.151157754706066, 51.595439552534614 ], [ 0.151002703088555, 51.594725682822684 ], [ 0.150884267942508, 51.593776404522117 ], [ 0.150769774006711, 51.593401626335293 ], [ 0.150730203902528, 51.592564271586426 ], [ 0.150599128899138, 51.591286970011218 ], [ 0.15075241260432, 51.590986487305571 ], [ 0.150875493820488, 51.59068925471643 ], [ 0.150952026406812, 51.59050525589381 ], [ 0.151108280065561, 51.590116611489613 ], [ 0.151174168400185, 51.589800647034636 ], [ 0.151180327309386, 51.58950285846965 ], [ 0.15122608222141, 51.589126127272337 ], [ 0.15122465507225, 51.589126153410263 ], [ 0.151180734115145, 51.588411043450527 ], [ 0.151136776626684, 51.587695124871829 ], [ 0.151091846652151, 51.586593441012468 ], [ 0.151014290059971, 51.585226954239452 ], [ 0.150970775858605, 51.584182783132221 ], [ 0.150954933499946, 51.583756833654661 ], [ 0.150818226964864, 51.58343019720899 ], [ 0.150652259099679, 51.583063549421077 ], [ 0.150460691059638, 51.58288814662982 ], [ 0.150019072609028, 51.582584171519727 ], [ 0.149686385755677, 51.582356418283787 ], [ 0.149034742773005, 51.581578800537777 ], [ 0.14856970645641, 51.580959594186155 ], [ 0.14840980915739, 51.580753850340983 ], [ 0.147474943594238, 51.580793414818231 ], [ 0.147344367860732, 51.579523296443369 ], [ 0.147259030129402, 51.577927706847433 ], [ 0.147215392530298, 51.57752204709864 ], [ 0.147184309645949, 51.577231235367314 ], [ 0.147058772647644, 51.576375572867896 ], [ 0.1470101811339, 51.575680421832018 ], [ 0.148062511727536, 51.57577716461131 ], [ 0.148137670426038, 51.57562475129258 ], [ 0.148210001130752, 51.575323961323527 ], [ 0.148231534173485, 51.575197614231193 ], [ 0.148210805771028, 51.575065836525127 ], [ 0.148115858106502, 51.574611586881034 ], [ 0.148044047657676, 51.574375557072429 ], [ 0.14804614183225, 51.573927624454818 ], [ 0.148062730144409, 51.573698878889822 ], [ 0.148062135459056, 51.573317613156149 ], [ 0.147942374118177, 51.573134603334765 ], [ 0.147922827932208, 51.573118778196701 ], [ 0.148987521067883, 51.573234163545507 ], [ 0.149212551932823, 51.571944979944526 ], [ 0.149289391594471, 51.571462415595875 ], [ 0.149154231989982, 51.571442412468805 ], [ 0.149288042932065, 51.570484929233864 ], [ 0.149317049305334, 51.570274925480916 ], [ 0.149500143844865, 51.570148319154193 ], [ 0.149685711944281, 51.570104467581345 ], [ 0.149728630542213, 51.569884229899529 ], [ 0.149779106580245, 51.569698106798874 ], [ 0.148196336356252, 51.569552558009583 ], [ 0.1466690125635, 51.569416849875871 ], [ 0.146738909936468, 51.569215899209588 ], [ 0.146848928882081, 51.569007922224678 ], [ 0.14678614425967, 51.568963219086633 ], [ 0.14677537397053, 51.568886099660759 ], [ 0.146787196915461, 51.568770808345441 ], [ 0.14696645264933, 51.568777422249561 ], [ 0.14713920658749, 51.568769770283495 ], [ 0.147265393286505, 51.56872071489515 ], [ 0.147335101180484, 51.568669904610928 ], [ 0.147398037307899, 51.568566265427599 ], [ 0.148775935669329, 51.568621985312021 ], [ 0.148951595578965, 51.568461442575199 ], [ 0.149356811383125, 51.568117703580356 ], [ 0.14944821137225, 51.568098050726121 ], [ 0.149604403405971, 51.56810508204326 ], [ 0.149788897294215, 51.568101705937579 ], [ 0.149827634121075, 51.568095602884249 ], [ 0.149891700839395, 51.568079146965182 ], [ 0.149946657847624, 51.568051170382986 ], [ 0.149984166154775, 51.568019017982813 ], [ 0.150017427476495, 51.567959882590671 ], [ 0.150084946492954, 51.567893017870382 ], [ 0.150267397678872, 51.567843828000854 ], [ 0.150386095390706, 51.567822775694331 ], [ 0.150605539341702, 51.567793585735195 ], [ 0.150782518020075, 51.567782254368957 ], [ 0.150863318219856, 51.567782573046046 ], [ 0.150935878801697, 51.5678225997369 ], [ 0.151008855048512, 51.567868911966094 ], [ 0.15116302711348, 51.56801721538406 ], [ 0.151224551515911, 51.568037665400055 ], [ 0.151285898144105, 51.568051825448507 ], [ 0.151463441573261, 51.567991935246496 ], [ 0.151789239817187, 51.567833942395211 ], [ 0.152385789082044, 51.567478596052602 ], [ 0.152605445072147, 51.567302766889483 ], [ 0.153202432129176, 51.566926729383923 ], [ 0.153665143765008, 51.566609788927202 ], [ 0.154081693533617, 51.566295490966731 ], [ 0.15430248783927, 51.566144000398289 ], [ 0.154679937962163, 51.565886157106426 ], [ 0.154811075955492, 51.565791151047691 ], [ 0.155124212895458, 51.565547072360083 ], [ 0.155244710482159, 51.565471140672763 ], [ 0.155487763570495, 51.565332634718068 ], [ 0.155610323381611, 51.565270150273641 ], [ 0.155844074471811, 51.565209221057401 ], [ 0.155969367953911, 51.565171858993644 ], [ 0.156222093553748, 51.565084508693865 ], [ 0.156343815760489, 51.565034535372483 ], [ 0.1565505961361, 51.56489138858479 ], [ 0.156719724447869, 51.564747044777569 ], [ 0.157102750279184, 51.564517050235693 ], [ 0.157678111486569, 51.564203417014966 ], [ 0.157939444487214, 51.564024112936259 ], [ 0.158009562949338, 51.56398236799248 ], [ 0.158211795101995, 51.564017310623235 ], [ 0.158500884246656, 51.563843878281887 ], [ 0.158721841182482, 51.563666213306092 ], [ 0.158929160886358, 51.563534739311976 ], [ 0.159168551573573, 51.56340977770131 ], [ 0.159488825105761, 51.563226778924459 ], [ 0.159794985054891, 51.563079910317853 ], [ 0.159961071252076, 51.562869178154571 ], [ 0.160001353946829, 51.56280541473231 ], [ 0.160087889977266, 51.562623116501989 ], [ 0.160223533014659, 51.562530717765974 ], [ 0.160506806335955, 51.562390561246815 ], [ 0.160556556796315, 51.562313227734002 ], [ 0.160606264534862, 51.562234995939868 ], [ 0.160704470577468, 51.562085656921838 ], [ 0.160737163939863, 51.562075165985384 ], [ 0.161000094029433, 51.56199031365216 ], [ 0.161357896682627, 51.561899219479123 ], [ 0.161504740641356, 51.561829898032464 ], [ 0.161679372654256, 51.561739476887155 ], [ 0.161805213974411, 51.561656246890131 ], [ 0.161896778119894, 51.561607811260501 ], [ 0.16243773621089, 51.56178934700808 ], [ 0.16275342940592, 51.561904094858861 ], [ 0.163022904406429, 51.561989934952678 ], [ 0.163416049031112, 51.562124831563729 ], [ 0.163835964296928, 51.562279821740226 ], [ 0.164409510616967, 51.562508487666477 ], [ 0.164905831251484, 51.562689037390044 ], [ 0.165319883588242, 51.562840620876074 ], [ 0.165679361999489, 51.562965247894887 ], [ 0.165810924971471, 51.56306270360114 ], [ 0.166101001171301, 51.56315624463182 ], [ 0.166367736254272, 51.563271792848923 ], [ 0.16658089757933, 51.563326385500623 ], [ 0.166746946346332, 51.563358382591026 ], [ 0.167187515955017, 51.563429363480033 ], [ 0.167583899526767, 51.563451711490906 ], [ 0.167824661010353, 51.563478730963539 ], [ 0.167965414407498, 51.563494111783676 ], [ 0.168348228154464, 51.563533789720893 ], [ 0.168520667582984, 51.563580050952922 ], [ 0.168624164644871, 51.563602502601142 ], [ 0.168829408573708, 51.563670633290521 ], [ 0.169006273124432, 51.563747379524152 ], [ 0.169181448536302, 51.563851128024872 ], [ 0.169445484317357, 51.563972203515355 ], [ 0.16967443141567, 51.564053380268966 ], [ 0.169939180929896, 51.564129399409531 ], [ 0.170054974682562, 51.564167715353165 ], [ 0.1701637693822, 51.564208947643877 ], [ 0.170380318608704, 51.564302039886314 ], [ 0.170606911370769, 51.564366176584635 ], [ 0.17125511664176, 51.564614998884153 ], [ 0.171458215366105, 51.56466788106254 ], [ 0.171894477290803, 51.564770390890757 ], [ 0.172126337297404, 51.5648201324532 ], [ 0.172573561062691, 51.564850513362273 ], [ 0.172881077164984, 51.564882580201356 ], [ 0.173069920425879, 51.564970786319797 ], [ 0.173415152697898, 51.56510023922494 ], [ 0.173818046368213, 51.565076594636515 ], [ 0.174652450654953, 51.56493338231634 ], [ 0.175419046389779, 51.564820280235942 ], [ 0.175580561350343, 51.564789415868759 ], [ 0.176042442657313, 51.56473050632097 ], [ 0.17630002382231, 51.56471584063187 ], [ 0.176761996007451, 51.564780994909327 ], [ 0.176963643563737, 51.564803327028322 ], [ 0.177446574264964, 51.564856402274231 ], [ 0.178113232933542, 51.564917753506755 ], [ 0.17865985427783, 51.564941771301427 ], [ 0.179047835791243, 51.564937265467428 ], [ 0.179493056438827, 51.564895733499945 ], [ 0.180200717689206, 51.564878993383381 ], [ 0.180339031121485, 51.564843159122617 ], [ 0.180538008584238, 51.564839462354691 ], [ 0.181133550270926, 51.564742087267526 ], [ 0.181407443900021, 51.564735198591137 ], [ 0.1814734703761, 51.564760043721868 ], [ 0.181589489819925, 51.564802839533776 ], [ 0.181858724053722, 51.564790640578053 ], [ 0.181901215541398, 51.564773667282452 ], [ 0.18267120781547, 51.564732369725043 ], [ 0.183121718870796, 51.564679932043482 ], [ 0.183315421862799, 51.56465564846183 ], [ 0.183507794500128, 51.564635884566876 ], [ 0.183645609751394, 51.564711536074995 ], [ 0.183837782813877, 51.564806853445944 ], [ 0.184308242935473, 51.565051714398713 ], [ 0.185160990712078, 51.565503515054345 ], [ 0.185180244278123, 51.565513045872777 ], [ 0.185111672498135, 51.565226538364811 ], [ 0.185091020820376, 51.565006566620355 ], [ 0.185101267159011, 51.564887701497334 ], [ 0.18510671599712, 51.564852447239502 ], [ 0.185131024805248, 51.564816032482689 ], [ 0.185148394653633, 51.564788737466486 ], [ 0.185173914520315, 51.564747804903007 ], [ 0.185038389884945, 51.564660424939042 ], [ 0.184793202135323, 51.564451828143881 ], [ 0.184644729878315, 51.564335020306686 ], [ 0.184477421213717, 51.564214876987059 ], [ 0.184207966373378, 51.564040984552825 ], [ 0.184091612290304, 51.563961337873813 ], [ 0.184010708942, 51.563869253461448 ], [ 0.183971217834598, 51.56376749734229 ], [ 0.183860947954821, 51.563484462435376 ], [ 0.18367371095203, 51.563037435507262 ], [ 0.18362097095737, 51.562932239794598 ], [ 0.183569981428876, 51.562890933773843 ], [ 0.183537487325902, 51.562816018652683 ], [ 0.183466428881939, 51.5627481147392 ], [ 0.183469493427836, 51.562720187205798 ], [ 0.183386436276638, 51.562612858579044 ], [ 0.183206018536458, 51.562280781962656 ], [ 0.182795048126972, 51.561652623602676 ], [ 0.182646070879264, 51.561313667558181 ], [ 0.182725428068845, 51.561281623237008 ], [ 0.182795145711987, 51.56117244008896 ], [ 0.182879866760775, 51.561103344965602 ], [ 0.182968913458965, 51.561035158235043 ], [ 0.183160459103216, 51.560936294235198 ], [ 0.183434884739911, 51.560732406761574 ], [ 0.183607449207738, 51.560570062951101 ], [ 0.184172748493904, 51.560354465311619 ], [ 0.184184104745304, 51.560350657660706 ], [ 0.184567181525077, 51.560214960089112 ], [ 0.184589900399819, 51.560177676008273 ], [ 0.184631018682758, 51.560072530743781 ], [ 0.184736687609465, 51.559959080741564 ], [ 0.184793778223579, 51.559854626889269 ], [ 0.184787397494317, 51.559813299620558 ], [ 0.184739228805247, 51.559679339571559 ], [ 0.184730793824898, 51.559565317570708 ], [ 0.18476767584931, 51.559461150207966 ], [ 0.184747044409298, 51.559390509673761 ], [ 0.184784887292799, 51.559308890516014 ], [ 0.184848671172521, 51.559224990080239 ], [ 0.18483052853952, 51.558965413196631 ], [ 0.184801309727017, 51.558866972213124 ], [ 0.184609775429891, 51.558724893496482 ], [ 0.184576581512155, 51.558694944008664 ], [ 0.18460803046724, 51.558536934781081 ], [ 0.184609856993478, 51.558485654952349 ], [ 0.184574512546926, 51.558410793043521 ], [ 0.184598014700732, 51.558297974183141 ], [ 0.184541771093151, 51.558176660999798 ], [ 0.184473491686128, 51.558077239010302 ], [ 0.184428962927274, 51.55796209085397 ], [ 0.184477666863144, 51.557893665268139 ], [ 0.184444530159861, 51.557805276449649 ], [ 0.184435163103232, 51.557758700310238 ], [ 0.184429737051344, 51.557675189751556 ], [ 0.18443509982733, 51.557638138952342 ], [ 0.184538127139701, 51.557529233453678 ], [ 0.184703371194328, 51.557425462498323 ], [ 0.184805446735735, 51.557296705508762 ], [ 0.184856145555584, 51.557210351536689 ], [ 0.184805049234447, 51.557139379257237 ], [ 0.184780276490501, 51.55704184425192 ], [ 0.184900456060934, 51.556871393727526 ], [ 0.185046606465625, 51.55682102186676 ], [ 0.185040964368979, 51.556733020114756 ], [ 0.18496080385802, 51.556656206013265 ], [ 0.184819801797072, 51.556632759814164 ], [ 0.184762121922687, 51.55663293503325 ], [ 0.184773331439033, 51.556506859324919 ], [ 0.184769546127338, 51.556427813462662 ], [ 0.184954583887561, 51.556374829464929 ], [ 0.185475544057337, 51.556409268233132 ], [ 0.185696544138737, 51.556384472560225 ], [ 0.185897773405823, 51.556339276846479 ], [ 0.185982921863903, 51.556249583327322 ], [ 0.186256300265546, 51.556143795163429 ], [ 0.186368653164087, 51.555959104289357 ], [ 0.186482079520475, 51.555888662461726 ], [ 0.186856901318482, 51.555822338361111 ], [ 0.186918475963947, 51.555784329453047 ], [ 0.186971365115217, 51.555743785290531 ], [ 0.186987477765839, 51.555628316710091 ], [ 0.187029711010066, 51.555546614922932 ], [ 0.187204172170779, 51.555484024994605 ], [ 0.187395471580259, 51.555350905107694 ], [ 0.187489036754761, 51.555225990687241 ], [ 0.187601296772237, 51.555131295239534 ], [ 0.187637087966986, 51.555034339641438 ], [ 0.187735025435595, 51.554851804361171 ], [ 0.187686682952949, 51.554776286734679 ], [ 0.187581520250991, 51.554718820706398 ], [ 0.187515785398657, 51.554642728283902 ], [ 0.187559394241894, 51.554527735849263 ], [ 0.187641086872516, 51.55445788470994 ], [ 0.187818342723953, 51.55445367999414 ], [ 0.187982990569365, 51.554427144036381 ], [ 0.188066141052214, 51.554355467321507 ], [ 0.188008176160652, 51.55426035021982 ], [ 0.187909756261917, 51.554224425791205 ], [ 0.187854671889852, 51.554157125404046 ], [ 0.18791153513294, 51.554080454856717 ], [ 0.18805637664864, 51.554032800937385 ], [ 0.188251415444778, 51.554007585775501 ], [ 0.188534104759988, 51.553855767324727 ], [ 0.188562820906491, 51.553732871034271 ], [ 0.188641059627505, 51.553620828362476 ], [ 0.18878978265771, 51.553532643943626 ], [ 0.188945975724358, 51.553481180962706 ], [ 0.189017684921101, 51.553443791042049 ], [ 0.189084980687787, 51.553401179046816 ], [ 0.189198659029959, 51.553306455676882 ], [ 0.189264883712544, 51.553273753107476 ], [ 0.189337060257585, 51.553243636571779 ], [ 0.189533621187701, 51.553193217552142 ], [ 0.189693299427847, 51.553122718621474 ], [ 0.189957683844019, 51.552830087865978 ], [ 0.19010148027432, 51.552760783923787 ], [ 0.190207289168254, 51.552680591306377 ], [ 0.190217478950993, 51.552652530555612 ], [ 0.190151003535028, 51.552620506819764 ], [ 0.19009346133417, 51.552593710565546 ], [ 0.190017319061733, 51.552511430583699 ], [ 0.190022591017137, 51.552410638703975 ], [ 0.190007274312496, 51.552302139733619 ], [ 0.18993678709387, 51.552216247829094 ], [ 0.189834734382061, 51.552102085628619 ], [ 0.189735624537323, 51.55198975640338 ], [ 0.189703993706361, 51.551781677550316 ], [ 0.189675212277631, 51.551632972631822 ], [ 0.189646638711415, 51.551518337777701 ], [ 0.189608957238961, 51.551454309555361 ], [ 0.189399731909714, 51.551424050553045 ], [ 0.189233457512168, 51.55138669632597 ], [ 0.189150150535889, 51.551303740277412 ], [ 0.188930310272215, 51.551141428363103 ], [ 0.188496581718833, 51.550878816505218 ], [ 0.188243602812293, 51.55068754269459 ], [ 0.18748887987861, 51.550198868612057 ], [ 0.187490229248431, 51.550075673435586 ], [ 0.187468092709802, 51.550005870293226 ], [ 0.187440084893252, 51.549932670320914 ], [ 0.187306333740768, 51.549730090543967 ], [ 0.187264997760157, 51.549651744720414 ], [ 0.187247913352825, 51.549503719789293 ], [ 0.187208730194684, 51.54947028637109 ], [ 0.187069573905498, 51.549365803688161 ], [ 0.186953742948053, 51.549144998316486 ], [ 0.18684305257066, 51.548912319436134 ], [ 0.186772619672725, 51.548827323417534 ], [ 0.186767353434368, 51.548776984804626 ], [ 0.186722565050769, 51.54868611642835 ], [ 0.186710959842147, 51.54859283141257 ], [ 0.186595918854347, 51.548361132445919 ], [ 0.186512887123524, 51.548191860277889 ], [ 0.186375739926261, 51.547947986395201 ], [ 0.186311523146182, 51.547903331565948 ], [ 0.186188085709602, 51.547764390971821 ], [ 0.186063673995729, 51.547607577284552 ], [ 0.186039984348456, 51.547564864260067 ], [ 0.186022843816472, 51.547537223162138 ], [ 0.185897783764159, 51.547334569766306 ], [ 0.185812080981543, 51.547233584877731 ], [ 0.18559251571346, 51.547165751568123 ], [ 0.185442352782397, 51.547131687966484 ], [ 0.185360731492697, 51.547113429344108 ], [ 0.185094647622762, 51.547040168312101 ], [ 0.184955193362041, 51.546988822656225 ], [ 0.184485443302322, 51.546757434242323 ], [ 0.184203216556055, 51.546615154961835 ], [ 0.183872406242569, 51.54645409022735 ], [ 0.183681986873047, 51.546393802263196 ], [ 0.18358366620851, 51.546327214597611 ], [ 0.183219762206012, 51.546137994396211 ], [ 0.182907031218467, 51.545991784478517 ], [ 0.182800266412818, 51.54590026976939 ], [ 0.182592623004071, 51.545840300542864 ], [ 0.182597174331548, 51.545786272804023 ], [ 0.182445510299096, 51.545720676646866 ], [ 0.181794113261888, 51.545308351352048 ], [ 0.181698834576922, 51.545248088736578 ], [ 0.18156411355603, 51.545084179212949 ], [ 0.181396739386393, 51.544871518682598 ], [ 0.181239657954637, 51.54472240929487 ], [ 0.181098107847293, 51.544627043965995 ], [ 0.18086481366302, 51.544453278225333 ], [ 0.180564499617369, 51.544265563549338 ], [ 0.180392584791228, 51.544109536285092 ], [ 0.180258100322999, 51.543920537353841 ], [ 0.180107210450622, 51.543751532294131 ], [ 0.180048494180293, 51.543488212308361 ], [ 0.180044570167087, 51.543465808937725 ], [ 0.180027286742776, 51.543375325894225 ], [ 0.179856631183841, 51.543215678248494 ], [ 0.179836958626669, 51.543197163644365 ], [ 0.179837351962004, 51.543023639483124 ], [ 0.179837430720225, 51.542873406584782 ], [ 0.179764166616136, 51.542820824560728 ], [ 0.17969453672318, 51.542689957536055 ], [ 0.179659303752212, 51.542587131247174 ], [ 0.179631573463576, 51.54233762024483 ], [ 0.1796455685097, 51.54202808634335 ], [ 0.179645574332436, 51.541998327575655 ], [ 0.179713956885812, 51.541918839654379 ], [ 0.179744625407705, 51.541836456092938 ], [ 0.179754905421201, 51.541810192579071 ], [ 0.179728597224519, 51.5417423532596 ], [ 0.179667016411431, 51.541690363171568 ], [ 0.179652189501864, 51.54162141150217 ], [ 0.179649872943921, 51.541605271577041 ], [ 0.179693834360655, 51.541497467602589 ], [ 0.179687052608491, 51.541355453266334 ], [ 0.179624767745166, 51.541228944721759 ], [ 0.179562965231893, 51.541082648012704 ], [ 0.179507086367937, 51.540878611923972 ], [ 0.179415468083237, 51.540712999884121 ], [ 0.17930502106969, 51.540573899938913 ], [ 0.179287376397591, 51.5405355683666 ], [ 0.17928623493002, 51.540451887704918 ], [ 0.179277626106846, 51.540393609132956 ], [ 0.179275610479817, 51.540351391063609 ], [ 0.179274666996499, 51.54033162941402 ], [ 0.179227896611231, 51.540288444464757 ], [ 0.179065857544841, 51.540216832438531 ], [ 0.178936267562583, 51.540159901513455 ], [ 0.178807938394188, 51.540069592158055 ], [ 0.178764620162546, 51.540038929669954 ], [ 0.17865602029958, 51.539938454119067 ], [ 0.178488395111556, 51.539779646957676 ], [ 0.178303848372292, 51.539659902906848 ], [ 0.178217159469188, 51.539627348227533 ], [ 0.17814527530419, 51.539571143271871 ], [ 0.178091077430651, 51.539554168303468 ], [ 0.177968774328202, 51.539530276123415 ], [ 0.177929755729459, 51.539527404172162 ], [ 0.177837482247604, 51.539527318790618 ], [ 0.177694505055494, 51.539523679131399 ], [ 0.177446819534527, 51.53953097301892 ], [ 0.177284817015518, 51.539489925692962 ], [ 0.176999072015746, 51.5393648650142 ], [ 0.176858530104899, 51.539322519873018 ], [ 0.176507426319834, 51.53921566267622 ], [ 0.176359255780377, 51.539133001064727 ], [ 0.176172808066713, 51.539033068137059 ], [ 0.175818977437047, 51.538871417245545 ], [ 0.175475080036978, 51.53870607482348 ], [ 0.17503530085493, 51.538494769122345 ], [ 0.174909839293688, 51.538404492320353 ], [ 0.1747494325465, 51.538277012968905 ], [ 0.174543992253411, 51.538112697707689 ], [ 0.173947472081333, 51.537608414494997 ], [ 0.173809579057633, 51.537406794409982 ], [ 0.173419127905255, 51.536837644862452 ], [ 0.173138866764458, 51.536465054000757 ], [ 0.17259467051954, 51.535907739776327 ], [ 0.172434200725609, 51.535656189197127 ], [ 0.172382618880715, 51.535604100131721 ], [ 0.172361415006019, 51.535520790897813 ], [ 0.172289119129273, 51.535365694226222 ], [ 0.172257993788557, 51.535286254779166 ], [ 0.172144009279041, 51.535134537093398 ], [ 0.172085258358042, 51.535081681569459 ], [ 0.172027206500043, 51.535013529176027 ], [ 0.171994368154992, 51.534898069349595 ], [ 0.17195384571153, 51.534803519881187 ], [ 0.171945659540858, 51.53478389225554 ], [ 0.171905067062583, 51.534657877213867 ], [ 0.171895930084549, 51.534525795661267 ], [ 0.17193854538055, 51.534391946955438 ], [ 0.171937332247033, 51.534306469473385 ], [ 0.17193704832358, 51.534270512609432 ], [ 0.171901428616673, 51.534219026906136 ], [ 0.171849839609148, 51.534164240586144 ], [ 0.171812568869197, 51.534048053602184 ], [ 0.171741289109426, 51.533911727990855 ], [ 0.171672901576971, 51.533808703731268 ], [ 0.171650043683833, 51.533783054318029 ], [ 0.171555831562704, 51.533711974890522 ], [ 0.17145464149019, 51.533616660237421 ], [ 0.171408248752815, 51.533518623172398 ], [ 0.171366584599465, 51.533402517547572 ], [ 0.171246548710566, 51.533273387538166 ], [ 0.171165280644021, 51.533109465958056 ], [ 0.171152519915898, 51.533083629601684 ], [ 0.17106264041429, 51.532983610063823 ], [ 0.170833346520409, 51.532679388190488 ], [ 0.170790398193274, 51.532626239739194 ], [ 0.170630139460308, 51.532531208135701 ], [ 0.170518008878916, 51.532475743285033 ], [ 0.170470764559104, 51.532452252990375 ], [ 0.170387260558339, 51.532396258439647 ], [ 0.170249662626007, 51.532292715668987 ], [ 0.170143507115242, 51.532212865555465 ], [ 0.169841996190096, 51.531964819710048 ], [ 0.169649826608302, 51.531836123104725 ], [ 0.169585732151204, 51.531793254838078 ], [ 0.169439030897439, 51.531678191816042 ], [ 0.169269095855326, 51.531532001493517 ], [ 0.168919251309603, 51.531329889470321 ], [ 0.16877241715546, 51.531244496789775 ], [ 0.168692053290049, 51.531191949321219 ], [ 0.168656908969855, 51.531150343531344 ], [ 0.168632458128763, 51.531121126791291 ], [ 0.168594224682107, 51.531044515082698 ], [ 0.168565643373061, 51.530988403137037 ], [ 0.168509923229245, 51.530939086154525 ], [ 0.168400261558468, 51.5308753923347 ], [ 0.168259181174798, 51.530851028174204 ], [ 0.168165986445455, 51.530831173230332 ], [ 0.16807491733023, 51.530795995062661 ], [ 0.168003102068952, 51.530740681913805 ], [ 0.167942253855796, 51.53067347840561 ], [ 0.167899111163146, 51.530586078676343 ], [ 0.16788513405997, 51.530504523283412 ], [ 0.167844112338372, 51.530399193224554 ], [ 0.167766572067067, 51.530313417979805 ], [ 0.167721968777022, 51.530285382554865 ], [ 0.167576480240022, 51.530198165458195 ], [ 0.167526429679042, 51.530115478383387 ], [ 0.167514091914836, 51.530038387918673 ], [ 0.167497843929207, 51.529999129842352 ], [ 0.167489571013893, 51.529977615547153 ], [ 0.167465761165443, 51.529961872499243 ], [ 0.167431471720521, 51.529938231587018 ], [ 0.167338425362325, 51.529891401730026 ], [ 0.167262318249358, 51.529865836117587 ], [ 0.167162666481029, 51.529832613910315 ], [ 0.167126080937916, 51.529820702988829 ], [ 0.167007535116732, 51.529785132497764 ], [ 0.166930788916615, 51.529746092711186 ], [ 0.166845949910392, 51.529691828568957 ], [ 0.166802052684852, 51.529648585800068 ], [ 0.166752728782709, 51.529581168857717 ], [ 0.166658210699873, 51.529473230180251 ], [ 0.166588473515101, 51.529398997744799 ], [ 0.16653677330871, 51.529344121408542 ], [ 0.166497313942868, 51.529301695628988 ], [ 0.16647681895886, 51.529082705627772 ], [ 0.166475137969784, 51.52907734236247 ], [ 0.16639309959694, 51.529019429985055 ], [ 0.166262031694263, 51.528932844077879 ], [ 0.166246211346879, 51.528902568452111 ], [ 0.166120499645002, 51.52886623035274 ], [ 0.166086893507343, 51.528856961260338 ], [ 0.166012190588526, 51.528800801197534 ], [ 0.165938540304299, 51.528646535187342 ], [ 0.165875964289405, 51.528605435026243 ], [ 0.165736649240014, 51.528585530575477 ], [ 0.165688757257449, 51.528578323188043 ], [ 0.165565513980245, 51.528533847481192 ], [ 0.165478539868792, 51.52843197209026 ], [ 0.165419906472251, 51.528291004262037 ], [ 0.165327844680467, 51.528111904284643 ], [ 0.165224082924456, 51.527901643289908 ], [ 0.165142268756676, 51.527755618932062 ], [ 0.165014130534482, 51.52760784213234 ], [ 0.164954561453384, 51.527507258720973 ], [ 0.164919977072275, 51.527477329175241 ], [ 0.164735384999111, 51.527294631744276 ], [ 0.164484358728971, 51.527077107772648 ], [ 0.164471986737866, 51.527059355007601 ], [ 0.164471603543287, 51.527051270618749 ], [ 0.164442613115999, 51.52698887189905 ], [ 0.164476370111196, 51.526878474990546 ], [ 0.164504950301562, 51.526781749248499 ], [ 0.164478610973648, 51.526742676950633 ], [ 0.164386847220351, 51.52660231983927 ], [ 0.16407687572218, 51.526206881427079 ], [ 0.16402641039179, 51.526115210050662 ], [ 0.164011081271912, 51.526065145949943 ], [ 0.164007612901015, 51.526022055478606 ], [ 0.164013000850204, 51.525952639263991 ], [ 0.164031869636627, 51.525864184219351 ], [ 0.164079797690603, 51.525751817815141 ], [ 0.16408474365173, 51.525703177825058 ], [ 0.164071835023626, 51.525643988665564 ], [ 0.1640459854512, 51.525585128117612 ], [ 0.163985936942805, 51.525504422615384 ], [ 0.163883787201143, 51.525418204416027 ], [ 0.163820039415857, 51.525379824010479 ], [ 0.163770104698704, 51.525329411883916 ], [ 0.163736373851796, 51.525257214733919 ], [ 0.163728427155949, 51.525212411149454 ], [ 0.163737713300507, 51.525134925661867 ], [ 0.163708585076104, 51.525006815536251 ], [ 0.163547275707054, 51.524795827465582 ], [ 0.163447965861689, 51.524526069802938 ], [ 0.163142612488928, 51.524164816260274 ], [ 0.162967731400269, 51.523882965980711 ], [ 0.162840795076337, 51.523516624200631 ], [ 0.16274721555581, 51.523121708319287 ], [ 0.16270464868151, 51.523046077466461 ], [ 0.162589044689831, 51.522886387170267 ], [ 0.162343369430851, 51.52235672569298 ], [ 0.162287434514252, 51.522272350853882 ], [ 0.162265852292761, 51.522210627262176 ], [ 0.162259950029432, 51.522148704662854 ], [ 0.162272292093421, 51.522072960838194 ], [ 0.162358611482844, 51.52182495312919 ], [ 0.162367069590847, 51.521760068929396 ], [ 0.16236505098496, 51.521687286719946 ], [ 0.162328389231536, 51.521492788216221 ], [ 0.162266557895225, 51.52131142936615 ], [ 0.161849410790797, 51.520418040545785 ], [ 0.161723936262792, 51.520142468820715 ], [ 0.161511607262394, 51.519646351854178 ], [ 0.161367133968751, 51.519333371013857 ], [ 0.161344655460426, 51.519225005110641 ], [ 0.161215788455597, 51.518877574290251 ], [ 0.161074190951683, 51.518718270019868 ], [ 0.161024062080838, 51.518603220951782 ], [ 0.161005040202876, 51.518535246583333 ], [ 0.160980218647272, 51.518437621832916 ], [ 0.160815288440404, 51.518149289534989 ], [ 0.160678109137541, 51.517872223098379 ], [ 0.160579847602711, 51.517684251028435 ], [ 0.160517009652235, 51.517604496773508 ], [ 0.160452214045674, 51.517483334225773 ], [ 0.16034720589108, 51.51727579770759 ], [ 0.16029825936954, 51.517122875322642 ], [ 0.160213426751545, 51.517035430374115 ], [ 0.160168908734139, 51.516918384032202 ], [ 0.159933118073191, 51.516443438674266 ], [ 0.15983828201691, 51.516237412898661 ], [ 0.159860887202268, 51.516165072964988 ], [ 0.159763690071525, 51.516059874128061 ], [ 0.159683559379932, 51.515921006467075 ], [ 0.159519881451685, 51.515477998381648 ], [ 0.159415145352074, 51.515183148289289 ], [ 0.159175589085946, 51.514504995022243 ], [ 0.159229966955189, 51.514466234763304 ], [ 0.159208508030161, 51.514379331596338 ], [ 0.159168535250973, 51.514355792397438 ], [ 0.159076062563867, 51.51410656797281 ], [ 0.158965495893616, 51.513841583194072 ], [ 0.15896293428089, 51.513636556760034 ], [ 0.158941471950588, 51.513547046341657 ], [ 0.158959873436474, 51.513448621470907 ], [ 0.158980661570849, 51.513340353049131 ], [ 0.158935127550244, 51.513199140335765 ], [ 0.158942781001721, 51.513056859609407 ], [ 0.15885883373018, 51.512774213265352 ], [ 0.158804129575392, 51.51250181772771 ], [ 0.158734102267796, 51.512239593471634 ], [ 0.158721505522561, 51.512186781071087 ], [ 0.158591125476385, 51.51165325387575 ], [ 0.158407897611054, 51.510919130736838 ], [ 0.158299273418344, 51.510478704452666 ], [ 0.158293819569321, 51.510456328425491 ], [ 0.158173640970389, 51.509954888973176 ], [ 0.158047078168235, 51.509411311260976 ], [ 0.157902086530816, 51.508844786656503 ], [ 0.157902788015793, 51.508769163994685 ], [ 0.156433494220767, 51.508873568388381 ], [ 0.154698171628316, 51.509084340589681 ], [ 0.153288184075593, 51.509255046661444 ], [ 0.152640418102133, 51.509362224974566 ], [ 0.151133501052358, 51.509680328955824 ], [ 0.150349347862255, 51.509828652819017 ], [ 0.149967852796766, 51.509900461294066 ], [ 0.149227222360735, 51.510087539003194 ], [ 0.148122038927639, 51.510365883863855 ], [ 0.146887766940686, 51.510722099993075 ], [ 0.14456787251254, 51.511590101178108 ], [ 0.143479164397862, 51.512008354095968 ], [ 0.142360173401012, 51.512488285111708 ], [ 0.140900569069248, 51.513049128621972 ], [ 0.139953289203816, 51.513410826453452 ], [ 0.139070612449918, 51.513766844292448 ], [ 0.138018464535621, 51.514074695896326 ], [ 0.136874838191607, 51.514370717356464 ], [ 0.135954360267589, 51.51459523901044 ], [ 0.133622616569127, 51.515004542427178 ], [ 0.132724014374253, 51.515206973983702 ], [ 0.13182117557045, 51.515288193364931 ], [ 0.130555193333996, 51.515431685163868 ], [ 0.129030208430069, 51.515525928836773 ], [ 0.128834570942749, 51.515533078964694 ], [ 0.128256969749823, 51.515542670590975 ], [ 0.127742142197539, 51.515534936697001 ], [ 0.127036003392775, 51.515507297458669 ], [ 0.12632346180567, 51.51546718330885 ], [ 0.125308563452245, 51.515431649301327 ], [ 0.1252970455154, 51.515431858176647 ], [ 0.125239121616961, 51.515425716137152 ], [ 0.124424303687543, 51.515322622901621 ], [ 0.123890025193205, 51.515241501761039 ], [ 0.12340017998805, 51.515152380592532 ], [ 0.122963647102927, 51.51506220168136 ], [ 0.122264793332299, 51.514881561194983 ], [ 0.121849340056928, 51.514782005630231 ], [ 0.12161012137154, 51.514720705007122 ], [ 0.12113126894499, 51.514589119128921 ], [ 0.120795222072223, 51.514489920591387 ], [ 0.120465971712384, 51.514383495484658 ], [ 0.120007528009802, 51.514225462723488 ], [ 0.119332581763073, 51.513967861191588 ], [ 0.118324556173287, 51.513584922943288 ], [ 0.117719884021053, 51.513412441243162 ], [ 0.116616358762919, 51.513142786640735 ], [ 0.116096635434329, 51.513092832888439 ], [ 0.115169606577958, 51.512962029657224 ], [ 0.114515019955294, 51.512832688235697 ], [ 0.113798874394856, 51.512680089045752 ], [ 0.112453003883045, 51.512375208321558 ], [ 0.112039063688203, 51.512276579287438 ], [ 0.111208882037134, 51.512057691031771 ], [ 0.110257013037948, 51.511825704285926 ], [ 0.109816007316254, 51.511763517530774 ], [ 0.108944630409338, 51.511650635581439 ], [ 0.108215587226954, 51.511560270715492 ], [ 0.108008466457103, 51.511539721806059 ], [ 0.107690402223487, 51.511517571627522 ], [ 0.107207037144053, 51.511505585399085 ], [ 0.106799012466772, 51.511503930593506 ], [ 0.106644891464476, 51.511504003955089 ], [ 0.106147107006548, 51.511524638725035 ], [ 0.105778854537547, 51.511540246785948 ], [ 0.104670359008941, 51.51159881887817 ], [ 0.103506421218789, 51.511643091540137 ], [ 0.102431320808303, 51.511737994147367 ], [ 0.100906039296938, 51.511917287697244 ], [ 0.099733541273806, 51.511899641105089 ], [ 0.099759006098707, 51.513583566142785 ], [ 0.099824970710392, 51.514483507959561 ], [ 0.099106706870232, 51.514661889843595 ], [ 0.098616894003241, 51.514918890038437 ] ] ] } }
]
}
