{
"type": "FeatureCollection",
"name": "borough_Brent",
"crs": { "type": "name", "properties": { "name": "urn:ogc:def:crs:OGC:1.3:CRS84" } },
"features": [
{ "type": "Feature", "properties": { "DISTRICT": "Brent", "NAME": "Northwick Park", "GSS_CODE": "E05000096", "LAGSSCODE": "E09000005", "HECTARES": 267.991, "NONLD_AREA": 0.0 }, "geometry": { "type": "Polygon", "coordinates": [ [ [ -0.229404431458648, 51.530545634705142 ], [ -0.229894782341323, 51.530689681984839 ], [ -0.230053120817933, 51.530732615725682 ], [ -0.230445583981008, 51.53083832486378 ], [ -0.230718334927606, 51.530867610281668 ], [ -0.231074021811025, 51.530989843785477 ], [ -0.231370036357302, 51.531090589546558 ], [ -0.231590046637718, 51.531180210091165 ], [ -0.232330849096155, 51.531521397297389 ], [ -0.232925081909602, 51.531813624282812 ], [ -0.233229044945071, 51.532007082334687 ], [ -0.233835960587264, 51.532343546802707 ], [ -0.234164583185695, 51.532532788707655 ], [ -0.234194357794747, 51.532546721863191 ], [ -0.234399781416529, 51.532638814599352 ], [ -0.234604685630788, 51.532596947767161 ], [ -0.235064293730501, 51.532495081930897 ], [ -0.235080199944074, 51.532492624077861 ], [ -0.235363532470442, 51.53243934754498 ], [ -0.235428806018851, 51.532426843735557 ], [ -0.236461810388882, 51.532225618151664 ], [ -0.236775789308994, 51.532157515625528 ], [ -0.23732616482702, 51.532020053220315 ], [ -0.238545255672412, 51.531961937861354 ], [ -0.239228156036688, 51.531975779363833 ], [ -0.23934204551485, 51.531975689647425 ], [ -0.239467613074426, 51.531974875966839 ], [ -0.240105510437507, 51.531956572345287 ], [ -0.240475629242829, 51.531930655730761 ], [ -0.240911622988167, 51.531879654119486 ], [ -0.241078055990997, 51.531864168088852 ], [ -0.24207942818818, 51.531807158652171 ], [ -0.243206457081077, 51.531780879271842 ], [ -0.243405240988468, 51.531786551125457 ], [ -0.243489844007935, 51.531796807132885 ], [ -0.243625689961829, 51.531828506821405 ], [ -0.24391037569254, 51.531921857015568 ], [ -0.244480721573441, 51.532089511048042 ], [ -0.244734190877262, 51.53217241344165 ], [ -0.246014177903063, 51.532629538634581 ], [ -0.246190280109186, 51.532699594764992 ], [ -0.246287687637785, 51.532754090997699 ], [ -0.246370995453183, 51.532801184518412 ], [ -0.246497542028928, 51.532883175749973 ], [ -0.246753406249288, 51.533129727305138 ], [ -0.24709527770107, 51.533424400438882 ], [ -0.247127770759147, 51.533441966618106 ], [ -0.2471349148373, 51.533444770291645 ], [ -0.247203025406623, 51.533472847177329 ], [ -0.247335459814873, 51.533516178501991 ], [ -0.247632329194676, 51.533596126400546 ], [ -0.247997012574264, 51.533671691657467 ], [ -0.249000379794273, 51.533863854887471 ], [ -0.250750042000069, 51.534184901315854 ], [ -0.250907616009755, 51.533913863720073 ], [ -0.250982883561133, 51.533904197178629 ], [ -0.251117252508355, 51.533897209091606 ], [ -0.251231078187967, 51.533898904806627 ], [ -0.251333172029886, 51.533905819644772 ], [ -0.251432173184908, 51.53391898131791 ], [ -0.251542389545383, 51.533940400938 ], [ -0.251776405878872, 51.534004119410902 ], [ -0.251793546298666, 51.534009768685344 ], [ -0.252006572468372, 51.534093851074552 ], [ -0.252064900757199, 51.534113598636701 ], [ -0.252142139741047, 51.534130031767589 ], [ -0.252317539634673, 51.534144330417242 ], [ -0.2528371505241, 51.534129590820804 ], [ -0.254014157310624, 51.534081477350192 ], [ -0.255247842958659, 51.534021608612932 ], [ -0.255645640022929, 51.533987065925977 ], [ -0.256026139529321, 51.533954062894587 ], [ -0.256117941197289, 51.534342085669017 ], [ -0.256128968339511, 51.534392593358312 ], [ -0.256142965928614, 51.534443145175906 ], [ -0.256159849512042, 51.534492840868438 ], [ -0.256178040120649, 51.534542555974959 ], [ -0.256196380503904, 51.534591464205079 ], [ -0.256217541626703, 51.534641223433262 ], [ -0.256240162959253, 51.534690105351302 ], [ -0.256268675113532, 51.534737276778529 ], [ -0.256278293686111, 51.53475000562878 ], [ -0.256296311146094, 51.534770051223383 ], [ -0.256314209804068, 51.534790095050205 ], [ -0.256335078925777, 51.534810182999173 ], [ -0.256354522250247, 51.534830249764774 ], [ -0.256372505424854, 51.534851193834875 ], [ -0.25637521965503, 51.534854830142606 ], [ -0.256390194611038, 51.534876718422034 ], [ -0.256405291834528, 51.534898518615705 ], [ -0.25641881008575, 51.534921194350837 ], [ -0.25642829134018, 51.534937517137571 ], [ -0.256511064923345, 51.534958524552252 ], [ -0.25719518502952, 51.535131402342131 ], [ -0.257344518820886, 51.535183963277909 ], [ -0.257785611492487, 51.535338935287832 ], [ -0.258020975925534, 51.535218366763004 ], [ -0.258082316209157, 51.535196712218735 ], [ -0.258431644717339, 51.535074238025253 ], [ -0.259639158132572, 51.534716276722122 ], [ -0.260105332460199, 51.534590945087402 ], [ -0.260294812039422, 51.534501156837834 ], [ -0.260410222703907, 51.534536130145774 ], [ -0.260522142908965, 51.534363383394421 ], [ -0.260602195337841, 51.534306134882826 ], [ -0.261206023329586, 51.533934625715553 ], [ -0.262051586073992, 51.533427438719258 ], [ -0.26288490752774, 51.532935257730173 ], [ -0.263354622997091, 51.532678712597018 ], [ -0.263846324710191, 51.532490904385256 ], [ -0.264411469339143, 51.532300494239166 ], [ -0.264421773456147, 51.532295252626184 ], [ -0.264831058762351, 51.532186232288382 ], [ -0.264732007773662, 51.531986899132846 ], [ -0.264735201029593, 51.531977956387351 ], [ -0.264740161806822, 51.531960049818693 ], [ -0.264745241390734, 51.531942145006212 ], [ -0.264751627889131, 51.531924259514234 ], [ -0.264758133192983, 51.531906375778263 ], [ -0.264759798172799, 51.531900107424974 ], [ -0.264823371658197, 51.531744532152281 ], [ -0.264820793628636, 51.531737302078703 ], [ -0.264819641323247, 51.531730093081464 ], [ -0.26481852319549, 51.531721985594089 ], [ -0.264818796613681, 51.531714797673196 ], [ -0.264819070031759, 51.53170760975231 ], [ -0.264819377626957, 51.53169952334126 ], [ -0.264821076766944, 51.531692356496727 ], [ -0.264822775906359, 51.531685189652123 ], [ -0.2648259007669, 51.531678043883801 ], [ -0.264829025626413, 51.531670898115372 ], [ -0.264832200941138, 51.531665551083471 ], [ -0.264835325798721, 51.531658405314843 ], [ -0.264841267920255, 51.53165220018851 ], [ -0.264847328850177, 51.531645996818206 ], [ -0.264853270968357, 51.531639791691227 ], [ -0.264860757615197, 51.531633609396145 ], [ -0.264868244259952, 51.53162742710056 ], [ -0.264875612092625, 51.531621243048171 ], [ -0.264883064557373, 51.531615959241762 ], [ -0.264890551196039, 51.53160977694472 ], [ -0.264897919022668, 51.531603592890882 ], [ -0.264905405657174, 51.531597410592852 ], [ -0.264905439832547, 51.531596512102709 ], [ -0.265025063022737, 51.531483119037624 ], [ -0.265069779122597, 51.531445123189201 ], [ -0.265114426803943, 51.531408924303712 ], [ -0.265161925836786, 51.531372767545065 ], [ -0.265210816334434, 51.531337530328564 ], [ -0.265261217105884, 51.531303214408325 ], [ -0.265311464823687, 51.531269795200451 ], [ -0.265336520321778, 51.531254882568959 ], [ -0.266095991466827, 51.530808335713111 ], [ -0.266587297136958, 51.530514339114333 ], [ -0.266946365286736, 51.530362317194822 ], [ -0.26750191719215, 51.530157366953993 ], [ -0.267854246165209, 51.530069970470841 ], [ -0.268159236163056, 51.53001145140361 ], [ -0.268775267763367, 51.529960307188617 ], [ -0.268699809672682, 51.529859405686175 ], [ -0.268680533512952, 51.529834848475787 ], [ -0.268998436867014, 51.529739749204914 ], [ -0.269122895195394, 51.529727200844839 ], [ -0.269222737451075, 51.529755643096706 ], [ -0.269363847787524, 51.529836835483451 ], [ -0.269653146655788, 51.530003819051387 ], [ -0.270394540482288, 51.529765725809789 ], [ -0.270569860028982, 51.530045199581139 ], [ -0.271437201579505, 51.529946501715145 ], [ -0.271438746044513, 51.529946524462019 ], [ -0.272258613471426, 51.529842626391201 ], [ -0.273534541313308, 51.529689604753372 ], [ -0.275298884056985, 51.529470929266225 ], [ -0.277173372015594, 51.529234156417445 ], [ -0.278834418161704, 51.528809750707602 ], [ -0.278949856143512, 51.528730534282971 ], [ -0.279067534874629, 51.528667532463828 ], [ -0.279223712373887, 51.528730953892172 ], [ -0.279559882072696, 51.52857307485656 ], [ -0.279708841771448, 51.528559975513481 ], [ -0.280114763270362, 51.528462540676784 ], [ -0.280228064276041, 51.528439928200633 ], [ -0.280455617433987, 51.52840730274464 ], [ -0.28061223624891, 51.528459041885142 ], [ -0.28210339368775, 51.528715604696899 ], [ -0.28243429892983, 51.5287698923185 ], [ -0.282957668168386, 51.528845873716691 ], [ -0.283336525236227, 51.528930526988653 ], [ -0.284170759947997, 51.529059684851021 ], [ -0.284243221779478, 51.529010400715443 ], [ -0.284230803856389, 51.528920230212613 ], [ -0.285728983655879, 51.529180441659456 ], [ -0.286093336305981, 51.52953735652661 ], [ -0.286345686730849, 51.52968946360339 ], [ -0.286962051726187, 51.530052750944265 ], [ -0.287572091791493, 51.5304707810716 ], [ -0.288167908753048, 51.530843651037202 ], [ -0.288751796545177, 51.53118937431028 ], [ -0.289053903618529, 51.531438392498266 ], [ -0.289365394719304, 51.531668667827425 ], [ -0.288368538204578, 51.532029107177614 ], [ -0.287290512274197, 51.532363182346728 ], [ -0.286456432760143, 51.532652263011229 ], [ -0.28589373602883, 51.532814946837227 ], [ -0.285815448614688, 51.532864147229745 ], [ -0.285761924094518, 51.532909214194511 ], [ -0.285707706544378, 51.532969553842371 ], [ -0.285647860683981, 51.533065770871438 ], [ -0.285270973106773, 51.533082741614038 ], [ -0.284166455739393, 51.53346863020581 ], [ -0.284015942762066, 51.533519470281362 ], [ -0.283515993232634, 51.532819757871763 ], [ -0.282253464777015, 51.533076468834231 ], [ -0.281580384897161, 51.533221242969752 ], [ -0.281485913127595, 51.533242334593844 ], [ -0.281005671744315, 51.532670556151196 ], [ -0.280928452120862, 51.532577728118788 ], [ -0.280227235107049, 51.532781505668403 ], [ -0.279736903150205, 51.532900179027173 ], [ -0.279253730141682, 51.533055903869297 ], [ -0.278986967968374, 51.533210215244473 ], [ -0.278877271211598, 51.533329161517962 ], [ -0.278772605651585, 51.533541586691285 ], [ -0.278660603357605, 51.533759388031392 ], [ -0.27856781624716, 51.534041299377314 ], [ -0.278449945598396, 51.53456566020445 ], [ -0.278130140424077, 51.534556474343461 ], [ -0.278123453442511, 51.534582446992381 ], [ -0.278041237541552, 51.534927442392579 ], [ -0.277940463623901, 51.534961024653263 ], [ -0.277940429697256, 51.534961923146689 ], [ -0.277858734279676, 51.534987694314701 ], [ -0.277774680578874, 51.535072764245811 ], [ -0.277974704169861, 51.535121547405957 ], [ -0.27819438233652, 51.535222849900521 ], [ -0.278428765592897, 51.535356641409585 ], [ -0.278646719668581, 51.535503676356853 ], [ -0.278819673114154, 51.535655534874955 ], [ -0.279146674047069, 51.535893257696415 ], [ -0.279682408563282, 51.53633361464793 ], [ -0.280506451769373, 51.53703898942657 ], [ -0.281578537908, 51.537901806171696 ], [ -0.282352385464883, 51.538565078401412 ], [ -0.282462465788782, 51.538666476769919 ], [ -0.282540361234428, 51.538628060893139 ], [ -0.282750503201392, 51.538522357432932 ], [ -0.284139398530053, 51.537865548278937 ], [ -0.285115578197117, 51.537404966729092 ], [ -0.285689028638799, 51.537150746857087 ], [ -0.286729008595153, 51.536756797919487 ], [ -0.288720326348579, 51.536102428769539 ], [ -0.290165403643176, 51.535788070391717 ], [ -0.290342991657225, 51.535741212197301 ], [ -0.292035319334293, 51.535293694989043 ], [ -0.29211534567836, 51.535274182420778 ], [ -0.292888179576452, 51.535081261985979 ], [ -0.293271481837956, 51.534972663205757 ], [ -0.293500684573942, 51.53493464144946 ], [ -0.294345543192218, 51.535015241445464 ], [ -0.295023033279648, 51.534904617563761 ], [ -0.295089737011075, 51.534894798364668 ], [ -0.295150316310244, 51.534892981083189 ], [ -0.295203497796466, 51.53489824825121 ], [ -0.29525350731034, 51.534908863262942 ], [ -0.295340190227969, 51.534943384404421 ], [ -0.295376778413246, 51.534966390319141 ], [ -0.29566641317631, 51.535242179255192 ], [ -0.295761267183266, 51.535290303504745 ], [ -0.295802469132909, 51.53530438638078 ], [ -0.295858267813479, 51.535315984149683 ], [ -0.295938830034509, 51.535323446378555 ], [ -0.296032493374444, 51.535323906794538 ], [ -0.296153872589023, 51.535317577460766 ], [ -0.29627687901481, 51.53530587769032 ], [ -0.296375457585046, 51.535289328399124 ], [ -0.296566141170001, 51.535241751848709 ], [ -0.296701948029784, 51.53519607583376 ], [ -0.296851179048908, 51.53513791867779 ], [ -0.29697457091666, 51.535077678455316 ], [ -0.29709398694777, 51.53500928955161 ], [ -0.297178170799427, 51.534954773336466 ], [ -0.297301444265627, 51.534859470550721 ], [ -0.297662238446471, 51.534461776322068 ], [ -0.298065285786956, 51.534170863907228 ], [ -0.298475676309822, 51.533877359578618 ], [ -0.299534152359598, 51.533253334952377 ], [ -0.300398870923875, 51.532838747124146 ], [ -0.301419300069299, 51.532421011976894 ], [ -0.302514161172538, 51.532136495720991 ], [ -0.302708741142928, 51.531983694251473 ], [ -0.304726313030211, 51.532472407426582 ], [ -0.306034059945609, 51.532744798100559 ], [ -0.307366935122235, 51.533035605968493 ], [ -0.307441340067432, 51.533051961430083 ], [ -0.30747823305845, 51.533066877079818 ], [ -0.307400083415769, 51.533116183565475 ], [ -0.307363030046815, 51.533140820983618 ], [ -0.307210695173795, 51.533244705035507 ], [ -0.30713531633146, 51.5333730722094 ], [ -0.307060959253872, 51.533512331805234 ], [ -0.306961551717148, 51.533625069608256 ], [ -0.306791842496662, 51.5336909451458 ], [ -0.306501241357497, 51.533753368620495 ], [ -0.306407653253464, 51.533786180107022 ], [ -0.306354247682085, 51.5338285610556 ], [ -0.306312697490278, 51.53393584001541 ], [ -0.306233956518038, 51.534231459441848 ], [ -0.306168733312503, 51.534592000843752 ], [ -0.306071218970927, 51.535002509431315 ], [ -0.306009884948569, 51.535450308489089 ], [ -0.305946252468047, 51.536001547626668 ], [ -0.305937426126961, 51.536082329018605 ], [ -0.305863338920141, 51.536719719875691 ], [ -0.305873150941585, 51.537348432427812 ], [ -0.305862298569072, 51.53764053614475 ], [ -0.30596255687112, 51.539172505974719 ], [ -0.305944298234959, 51.539430341303742 ], [ -0.304759573612325, 51.539841248863446 ], [ -0.304721488222875, 51.539855082739017 ], [ -0.304702530944049, 51.539862899891219 ], [ -0.305007133070543, 51.540125396373853 ], [ -0.305506516303737, 51.540460824116295 ], [ -0.305899355303254, 51.540755157079502 ], [ -0.306320342008584, 51.541069672379692 ], [ -0.306938233442196, 51.541710750090786 ], [ -0.307041126786917, 51.541812021055676 ], [ -0.307636596853966, 51.542397935041976 ], [ -0.308552897964467, 51.54324027824881 ], [ -0.308466641570877, 51.543270500299357 ], [ -0.3084447850158, 51.543356488565962 ], [ -0.308313420666953, 51.54351290826623 ], [ -0.308192205687969, 51.543709838745606 ], [ -0.308015764349093, 51.544036416825733 ], [ -0.307976425996808, 51.54443338369758 ], [ -0.308032644401752, 51.544514204049079 ], [ -0.308452003852846, 51.544870942968423 ], [ -0.308872709942025, 51.544960609621754 ], [ -0.30886742489854, 51.545218633815097 ], [ -0.308040526126762, 51.545234589079463 ], [ -0.307264151259118, 51.545247670983635 ], [ -0.307198894154503, 51.545256619014793 ], [ -0.307170673588598, 51.545276888907118 ], [ -0.307147017064684, 51.545292729646526 ], [ -0.307101096778887, 51.545325330183005 ], [ -0.307144145864854, 51.545370091332735 ], [ -0.307245542949954, 51.545476735186249 ], [ -0.307673840353388, 51.545865070406833 ], [ -0.308154189609193, 51.546212800654494 ], [ -0.308578149987645, 51.546449140785725 ], [ -0.309391675835503, 51.546833130310638 ], [ -0.309633017876602, 51.546937292338079 ], [ -0.309769745316087, 51.546986098265542 ], [ -0.311200186621465, 51.547419410048654 ], [ -0.311269972782791, 51.547445585630051 ], [ -0.31134501251102, 51.547480826648034 ], [ -0.311471939900902, 51.547559965479053 ], [ -0.311707010163013, 51.547756719144118 ], [ -0.311922456710289, 51.547934311379301 ], [ -0.312083235078288, 51.548111027370069 ], [ -0.312217798505755, 51.548334203736765 ], [ -0.312361136427421, 51.548593465748716 ], [ -0.312499443802449, 51.548908392754591 ], [ -0.312575438443506, 51.549155808717003 ], [ -0.312785193105362, 51.549294661015118 ], [ -0.313750032991273, 51.5498021596634 ], [ -0.314421701516103, 51.550127441278335 ], [ -0.314516560108978, 51.550057782862183 ], [ -0.315794968038154, 51.550631889302842 ], [ -0.316597375115238, 51.550973424225155 ], [ -0.316539731185887, 51.551049912319343 ], [ -0.317348389595379, 51.551415804840644 ], [ -0.317629662578187, 51.551534998948554 ], [ -0.317756365739305, 51.551617725340307 ], [ -0.317956242736463, 51.55163497346156 ], [ -0.318349639438203, 51.551803419427721 ], [ -0.319031140636666, 51.552057708281694 ], [ -0.319660451325653, 51.552282567815183 ], [ -0.320473399041787, 51.55257208224964 ], [ -0.321268956240438, 51.552865837264079 ], [ -0.321974162204585, 51.553107052153933 ], [ -0.322241357769825, 51.55321515509484 ], [ -0.322750168865516, 51.553422003629848 ], [ -0.323920120963212, 51.55384973519255 ], [ -0.324731653140001, 51.554143693951382 ], [ -0.325564755388696, 51.554475712710506 ], [ -0.32610182454965, 51.554700929232261 ], [ -0.327000643543519, 51.555012298106405 ], [ -0.327942121840561, 51.555299095206948 ], [ -0.328630238988876, 51.555417760912761 ], [ -0.329382020456308, 51.555529147355564 ], [ -0.330392580277579, 51.555667582684983 ], [ -0.331378502738312, 51.555806648014247 ], [ -0.3322130370161, 51.555945263035952 ], [ -0.33318994958526, 51.556132731101286 ], [ -0.334095803712631, 51.556295718889963 ], [ -0.334131478965447, 51.556266557925071 ], [ -0.33415383588937, 51.556247097038664 ], [ -0.334182095598045, 51.556222325872049 ], [ -0.334211900704572, 51.556197576621322 ], [ -0.334710810699814, 51.556361978186622 ], [ -0.335562406603354, 51.556584505533429 ], [ -0.335526835005491, 51.556689184611606 ], [ -0.334886508942711, 51.55783298886854 ], [ -0.333956168589065, 51.55771101447224 ], [ -0.333971824011883, 51.557992714053931 ], [ -0.334001330084865, 51.558370803301145 ], [ -0.333900722642917, 51.55887560253467 ], [ -0.333396155704089, 51.559376542122415 ], [ -0.332612746581883, 51.560089275244124 ], [ -0.331831540302362, 51.560819206069219 ], [ -0.331974269867361, 51.560939897473595 ], [ -0.331194846469029, 51.561461198824752 ], [ -0.331398856063031, 51.561526126128669 ], [ -0.331307640593019, 51.561574273937687 ], [ -0.329942727712643, 51.56228322614016 ], [ -0.329860448676611, 51.562324398125213 ], [ -0.32976381948301, 51.562364377160158 ], [ -0.329666006514762, 51.562394450564483 ], [ -0.32951185758936, 51.56242641974044 ], [ -0.329170100194638, 51.562462013385954 ], [ -0.329024190974494, 51.562467129863649 ], [ -0.328728520302233, 51.562465620783804 ], [ -0.328227576703655, 51.56251153263031 ], [ -0.328301746525817, 51.562733826281381 ], [ -0.328558414285646, 51.563010857091264 ], [ -0.32831065274852, 51.563276215753859 ], [ -0.328517404419785, 51.564129768913588 ], [ -0.328571131066029, 51.564948871263219 ], [ -0.328647178837795, 51.56594449014068 ], [ -0.32904799891897, 51.565992442196453 ], [ -0.329624213900239, 51.566214680227937 ], [ -0.329655611058663, 51.566656613016271 ], [ -0.329723428804277, 51.567088365567749 ], [ -0.329266641005824, 51.567151992631253 ], [ -0.328709279759199, 51.567281608827187 ], [ -0.327476932272014, 51.56755902564116 ], [ -0.327631286013141, 51.567794142359283 ], [ -0.326725578426502, 51.567900811979953 ], [ -0.326152877303115, 51.567935896423407 ], [ -0.325774731523636, 51.568057263063857 ], [ -0.325051580481719, 51.568259202781576 ], [ -0.32515311275092, 51.568442239298001 ], [ -0.324459812237998, 51.56865718608217 ], [ -0.323772403131535, 51.568909069985203 ], [ -0.322886845014958, 51.569327126159671 ], [ -0.322131612302126, 51.569656241571089 ], [ -0.322497340359497, 51.570108424160118 ], [ -0.322914561478149, 51.570729445503261 ], [ -0.323555266886793, 51.571553222271653 ], [ -0.324094040254096, 51.572321694497781 ], [ -0.324719307428936, 51.573174910559892 ], [ -0.324812863904038, 51.573377700576422 ], [ -0.324861334712783, 51.573512336151353 ], [ -0.324902515191215, 51.573647856638011 ], [ -0.324952328687768, 51.573901263548876 ], [ -0.324969687667155, 51.574095685719307 ], [ -0.325357459755526, 51.575871802079469 ], [ -0.325411899084698, 51.576041583603939 ], [ -0.325530172087637, 51.576316644853982 ], [ -0.325883828569536, 51.576943949306752 ], [ -0.326278556274816, 51.577668117952591 ], [ -0.32646748552223, 51.578025092681656 ], [ -0.326563770159832, 51.578235024862117 ], [ -0.326592959034938, 51.57830205419144 ], [ -0.326642674987561, 51.578480758054752 ], [ -0.326686018534601, 51.578677440399375 ], [ -0.326649268286816, 51.578774005393988 ], [ -0.325261347993431, 51.578995237652741 ], [ -0.32340062241062, 51.579397587612554 ], [ -0.321021972131275, 51.580145074307616 ], [ -0.320684428622307, 51.580256213891452 ], [ -0.320188383209658, 51.580437990796362 ], [ -0.319776468975235, 51.580610091651707 ], [ -0.319239000475459, 51.580859591934377 ], [ -0.31877442040447, 51.581091254782201 ], [ -0.317066929917747, 51.582105366023711 ], [ -0.314269486613265, 51.583668546485555 ], [ -0.313586947031008, 51.584015730591268 ], [ -0.31335912497446, 51.584125820891693 ], [ -0.313052327753284, 51.584263453980512 ], [ -0.311738009021153, 51.584791329505784 ], [ -0.310559663141915, 51.585230258065728 ], [ -0.308345574425039, 51.586003242029456 ], [ -0.306818266803482, 51.586545967922518 ], [ -0.3064506280811, 51.586651240690564 ], [ -0.306066010851006, 51.586784135320791 ], [ -0.305863073786369, 51.586845124906787 ], [ -0.305752311457183, 51.586875890029795 ], [ -0.305363634797872, 51.58696107836257 ], [ -0.305298235032466, 51.586975417161781 ], [ -0.30482320950262, 51.587055761787248 ], [ -0.304067236917168, 51.587160005786373 ], [ -0.303555421013161, 51.587218238656654 ], [ -0.303040043467052, 51.587260236414878 ], [ -0.302590468278566, 51.58727711294096 ], [ -0.302113849653988, 51.587281910266448 ], [ -0.302038907066622, 51.587280826847547 ], [ -0.301164703046161, 51.587264585589459 ], [ -0.300768460282148, 51.587242668404251 ], [ -0.300476691183493, 51.587208778222781 ], [ -0.300191389181758, 51.58715790064641 ], [ -0.300042404748252, 51.587125178145321 ], [ -0.299263010635929, 51.586928610495704 ], [ -0.298588881274816, 51.586813661111549 ], [ -0.298308453861773, 51.586785323501296 ], [ -0.298142642625114, 51.586779323441341 ], [ -0.297807627592329, 51.58678165686424 ], [ -0.295685767009228, 51.5867005216462 ], [ -0.294292683657256, 51.58658760002421 ], [ -0.292079511666557, 51.586323479208808 ], [ -0.288989033169907, 51.58593676296767 ], [ -0.284043018322451, 51.585296235986235 ], [ -0.282447097145132, 51.585049896495534 ], [ -0.282430974706062, 51.585095509004709 ], [ -0.282426217728878, 51.58510802524691 ], [ -0.282408986134454, 51.585104177599078 ], [ -0.282317322442292, 51.585085757868526 ], [ -0.282296310584567, 51.585223084886458 ], [ -0.282247870721422, 51.585740280117676 ], [ -0.282280658975026, 51.585864908393276 ], [ -0.282312019944457, 51.585951668710258 ], [ -0.282348257084596, 51.586025914518615 ], [ -0.282409443503023, 51.586126595219405 ], [ -0.282536126525559, 51.586289453194354 ], [ -0.282844128692085, 51.586731845212064 ], [ -0.283029782658001, 51.587436030861369 ], [ -0.283054901266039, 51.587805069515568 ], [ -0.283096185133487, 51.588010639858147 ], [ -0.283214839067443, 51.588348680862538 ], [ -0.283340463787952, 51.588883790028824 ], [ -0.283827402568229, 51.589865661927377 ], [ -0.283973619988497, 51.590240063394525 ], [ -0.284278449313476, 51.590578212768023 ], [ -0.284407602909095, 51.590751802250338 ], [ -0.284515303329745, 51.590881927583446 ], [ -0.28463032579489, 51.591010451556812 ], [ -0.284889302072942, 51.591264235291661 ], [ -0.285135629762321, 51.591468305477562 ], [ -0.285267628040602, 51.591566513985235 ], [ -0.285435356795793, 51.591676840913756 ], [ -0.285648518255054, 51.591804012540422 ], [ -0.285883330012837, 51.591931589680136 ], [ -0.286114235762253, 51.592049130604728 ], [ -0.286368084385997, 51.592170691634642 ], [ -0.286581129781149, 51.592266394919143 ], [ -0.286774676753081, 51.592339339009612 ], [ -0.286972828942989, 51.592406956142668 ], [ -0.287291399202716, 51.592497994766589 ], [ -0.287540368193574, 51.592556463503122 ], [ -0.288421935566826, 51.592724839932451 ], [ -0.288706415313975, 51.592798207482872 ], [ -0.289068948295966, 51.592910558571454 ], [ -0.289268398338726, 51.592981786774551 ], [ -0.289463363419339, 51.593058343160486 ], [ -0.289629553629922, 51.593130884178379 ], [ -0.289873476404043, 51.593247797849351 ], [ -0.290398473867524, 51.593570174346432 ], [ -0.290336515247482, 51.593603433205793 ], [ -0.290081543301875, 51.593742657167503 ], [ -0.289701554555877, 51.593866664782652 ], [ -0.289329583445605, 51.593967324705723 ], [ -0.289103784205054, 51.594020669946964 ], [ -0.288310940645078, 51.59418000884304 ], [ -0.287978461531262, 51.594268654452826 ], [ -0.287661863709803, 51.594317975883129 ], [ -0.287099022157863, 51.594539992792832 ], [ -0.286738781812155, 51.594714621025169 ], [ -0.286694629474467, 51.594736451042451 ], [ -0.286259357176041, 51.594946750732461 ], [ -0.286111524870548, 51.594886159560744 ], [ -0.285910863487589, 51.594805918518446 ], [ -0.285772975912748, 51.594749966991571 ], [ -0.285742685803892, 51.59482413943055 ], [ -0.285588393855537, 51.595204039586108 ], [ -0.285486029282369, 51.595238503639393 ], [ -0.285370526918004, 51.595277270589833 ], [ -0.284920400945941, 51.595382258278001 ], [ -0.284560554030237, 51.595466906126497 ], [ -0.284045646399949, 51.595606914779331 ], [ -0.283308178525358, 51.595751673122926 ], [ -0.282631973836965, 51.59584068633275 ], [ -0.281739341209506, 51.595964380066668 ], [ -0.281352898077112, 51.596027953487059 ], [ -0.279346989516129, 51.596228845734757 ], [ -0.279328088610499, 51.596231266079286 ], [ -0.276491687148938, 51.596517043013193 ], [ -0.276952388685928, 51.596895159481917 ], [ -0.275602188623314, 51.597434706927025 ], [ -0.274119136190225, 51.597973187804392 ], [ -0.274108818192581, 51.597978430188206 ], [ -0.274006063419302, 51.598022769481339 ], [ -0.273901914665415, 51.598066189250446 ], [ -0.273796405975294, 51.598107791021029 ], [ -0.273689384327507, 51.598148471513568 ], [ -0.273579727955177, 51.598186416313254 ], [ -0.273469986472131, 51.598223460789285 ], [ -0.273358881680115, 51.598258777099304 ], [ -0.273323813992985, 51.598269948786751 ], [ -0.273285890616344, 51.598281078529759 ], [ -0.273208394827046, 51.598306010674136 ], [ -0.273170437341447, 51.598318038849136 ], [ -0.273132360850428, 51.598330065264072 ], [ -0.273094403326957, 51.598342093413713 ], [ -0.273054933015615, 51.598353200363192 ], [ -0.273017043568636, 51.598363431546431 ], [ -0.272977726266463, 51.598373641746463 ], [ -0.272936896180161, 51.598382930744002 ], [ -0.272897646963836, 51.598391343976097 ], [ -0.272856884967457, 51.598398836004776 ], [ -0.272816157019401, 51.598405429548905 ], [ -0.272774188330134, 51.598410206913016 ], [ -0.27277276049001, 51.598410185939855 ], [ -0.272693004887337, 51.59841620616794 ], [ -0.272612042606182, 51.598419511704158 ], [ -0.272532644420163, 51.598419244280478 ], [ -0.272451920599242, 51.598416260416208 ], [ -0.27237119678975, 51.598413276496643 ], [ -0.272291968972845, 51.598408516561051 ], [ -0.272228532322592, 51.598404887568911 ], [ -0.272147910770175, 51.598399208087059 ], [ -0.272068751152255, 51.598392651062198 ], [ -0.271989693786415, 51.598383398575407 ], [ -0.271610846131769, 51.598321195511467 ], [ -0.271599440787064, 51.598317431986487 ], [ -0.271582273280237, 51.598311785822503 ], [ -0.271563796927735, 51.598306120417305 ], [ -0.271543739672759, 51.598301330741563 ], [ -0.27152511025769, 51.59829656205077 ], [ -0.271505018925386, 51.598292670837914 ], [ -0.271486474418278, 51.598288802359477 ], [ -0.27146634900645, 51.598285809609443 ], [ -0.271446189510763, 51.59828371532533 ], [ -0.271426064103766, 51.598280722568475 ], [ -0.271404442689728, 51.598279505757063 ], [ -0.27138436809831, 51.598278311680843 ], [ -0.271364174521719, 51.598277115851999 ], [ -0.271352632854644, 51.598276946180576 ], [ -0.271335260861107, 51.598276690796695 ], [ -0.271317973765201, 51.598277335628723 ], [ -0.271301995517721, 51.598277999699889 ], [ -0.271284708421008, 51.598278644526985 ], [ -0.271267268247804, 51.598280186071435 ], [ -0.271249947059795, 51.598281729362576 ], [ -0.271233934719657, 51.598283291893615 ], [ -0.271216579438769, 51.598285733648943 ], [ -0.27120049891411, 51.598289093113692 ], [ -0.271184537373519, 51.598292454325552 ], [ -0.271117222525351, 51.598315736825555 ], [ -0.270989032523066, 51.59838397168555 ], [ -0.270969891700259, 51.598392679941938 ], [ -0.270833288039255, 51.598453599151178 ], [ -0.270636550777557, 51.598577550620092 ], [ -0.270236947392962, 51.598795516579699 ], [ -0.269754121637914, 51.599076173386294 ], [ -0.269448223483509, 51.599262343403836 ], [ -0.269119567203446, 51.599436401104782 ], [ -0.268794733301888, 51.599588129793645 ], [ -0.268765272669077, 51.599602079568761 ], [ -0.268652799051179, 51.599673240135523 ], [ -0.268346991229936, 51.599778501267814 ], [ -0.267970492662467, 51.599958144305333 ], [ -0.267131677070457, 51.600372977413222 ], [ -0.267027986871686, 51.600291351221088 ], [ -0.266129506170934, 51.599426603020255 ], [ -0.265706395863446, 51.599010253710603 ], [ -0.265163410710803, 51.598556265541383 ], [ -0.264737174832504, 51.598184904945661 ], [ -0.264251396433683, 51.597782908001626 ], [ -0.263853290571847, 51.597470392398371 ], [ -0.263569073251855, 51.597274715274061 ], [ -0.26335239755317, 51.597124893545143 ], [ -0.26265765653945, 51.5965994315941 ], [ -0.262374583403715, 51.596374012502245 ], [ -0.261877418506423, 51.595971927174617 ], [ -0.260616863884668, 51.594913718847522 ], [ -0.25974549864497, 51.594176975504197 ], [ -0.258221154014591, 51.592772328775503 ], [ -0.258014849186522, 51.592579499985348 ], [ -0.257666206327268, 51.592255110059405 ], [ -0.257396414366909, 51.592026277762592 ], [ -0.257003661109299, 51.591763347711705 ], [ -0.255604870487967, 51.590703920932896 ], [ -0.254735619366643, 51.590066049986298 ], [ -0.254245288004263, 51.589790784789692 ], [ -0.253924091178487, 51.589581047785806 ], [ -0.253907323944441, 51.589568213052722 ], [ -0.253362392235028, 51.589208528000405 ], [ -0.253104520562547, 51.589045487572207 ], [ -0.252511463179939, 51.588547539226838 ], [ -0.251912602495677, 51.58794063476013 ], [ -0.250325156169139, 51.586385599414051 ], [ -0.24995694270001, 51.58605010085433 ], [ -0.248509411212018, 51.584577130571468 ], [ -0.24825912574358, 51.58436654453849 ], [ -0.248342498283186, 51.584303060216889 ], [ -0.248478606268089, 51.584254745433419 ], [ -0.249906768802618, 51.583899254593234 ], [ -0.250356551643635, 51.583802567287321 ], [ -0.250797827300539, 51.58370116615751 ], [ -0.251384276524771, 51.583578639324884 ], [ -0.25164280544845, 51.583460131772128 ], [ -0.252019414132837, 51.583053002969486 ], [ -0.252278937318832, 51.582796961641911 ], [ -0.252392399872854, 51.582699758740539 ], [ -0.252510812409283, 51.582622407131645 ], [ -0.252860182597836, 51.582431528196615 ], [ -0.253117909008016, 51.582299609268937 ], [ -0.253186603782397, 51.582277255941982 ], [ -0.253391863698362, 51.582231669398325 ], [ -0.253514653634223, 51.582192139509466 ], [ -0.253667296420128, 51.582125184077263 ], [ -0.253804567339501, 51.582046313284671 ], [ -0.253973895092007, 51.581922878818453 ], [ -0.254097928925445, 51.581810548432408 ], [ -0.254310008631484, 51.581587061115364 ], [ -0.254354701908574, 51.581514007241267 ], [ -0.254370920153069, 51.581466601415016 ], [ -0.254369256964847, 51.581398253314219 ], [ -0.254324484416565, 51.581209609366688 ], [ -0.254309428669961, 51.581114991663199 ], [ -0.25429359369122, 51.5809258782933 ], [ -0.254287170723458, 51.580829590757382 ], [ -0.254291525625547, 51.580601221449996 ], [ -0.254310505523345, 51.58040732086851 ], [ -0.254347350726649, 51.580237868400459 ], [ -0.254404966467716, 51.580054340386816 ], [ -0.254459599721679, 51.579945474342743 ], [ -0.254561670914239, 51.579806746709906 ], [ -0.254588518204471, 51.57974592384403 ], [ -0.254605665684595, 51.579674258982507 ], [ -0.254607028890501, 51.579601460830702 ], [ -0.254588226888959, 51.579489706675311 ], [ -0.254439941893175, 51.57899018279295 ], [ -0.254390625078184, 51.578845611846809 ], [ -0.254220585002451, 51.578463532646722 ], [ -0.254078243520711, 51.578072964398608 ], [ -0.254054023453565, 51.578024958142464 ], [ -0.253919336633316, 51.577813402883692 ], [ -0.253624846360623, 51.577399897603634 ], [ -0.253573121020404, 51.577318219957505 ], [ -0.253544601408132, 51.57727374568762 ], [ -0.253402876249946, 51.577016236553447 ], [ -0.253328606625138, 51.576846032661535 ], [ -0.253209135925018, 51.576535813238017 ], [ -0.2529095976495, 51.575730179849799 ], [ -0.252793801079791, 51.575513509789246 ], [ -0.252765888631677, 51.575450165338104 ], [ -0.252691210949658, 51.575138812215023 ], [ -0.252598350894778, 51.574926078286154 ], [ -0.252328737538129, 51.574469786133079 ], [ -0.252103813764757, 51.574126532104621 ], [ -0.251940786153337, 51.573897471370444 ], [ -0.251800444925351, 51.573719091490226 ], [ -0.251417729668114, 51.573277295915972 ], [ -0.251347708175244, 51.573182758392754 ], [ -0.251330610060015, 51.573138453148857 ], [ -0.251341503036141, 51.573080989573342 ], [ -0.251364491847812, 51.573046270791991 ], [ -0.251404911586305, 51.573010013381833 ], [ -0.251467027829009, 51.572969583804792 ], [ -0.251672884747283, 51.572870160399724 ], [ -0.251835020353507, 51.572818631684825 ], [ -0.252093943894837, 51.572765754926593 ], [ -0.252289994341882, 51.572732709755371 ], [ -0.252494449722951, 51.572706981164615 ], [ -0.252616249030659, 51.572692609647184 ], [ -0.252865913748787, 51.572691825256406 ], [ -0.25294590335161, 51.572678630040656 ], [ -0.252994263927013, 51.572658671794009 ], [ -0.253026946132169, 51.572634884568025 ], [ -0.253076651100537, 51.572579885435339 ], [ -0.25310537117783, 51.572507403648437 ], [ -0.253106495155014, 51.572440894669704 ], [ -0.253081625988739, 51.572375797438539 ], [ -0.253059693470709, 51.572345804670796 ], [ -0.253011049331247, 51.572295637055589 ], [ -0.252838766067635, 51.571972944347714 ], [ -0.252638856388699, 51.571691194504147 ], [ -0.252485729597667, 51.571508130267979 ], [ -0.252058453088376, 51.571285119889779 ], [ -0.251886221817182, 51.571184478380736 ], [ -0.251747710545701, 51.57111049887159 ], [ -0.251728357478008, 51.57108773614754 ], [ -0.251586460564122, 51.570912928568163 ], [ -0.251488293182191, 51.570761335572627 ], [ -0.251352892265505, 51.570606491337365 ], [ -0.2512973579831, 51.570472523512009 ], [ -0.251256800532732, 51.570400899211194 ], [ -0.251180420455859, 51.570323347790591 ], [ -0.251124857502289, 51.570267592160945 ], [ -0.250744060574037, 51.570114488673646 ], [ -0.250475707964866, 51.569849694573207 ], [ -0.250194811879643, 51.569573925052964 ], [ -0.250009815609656, 51.569394067660575 ], [ -0.249984791549374, 51.569370321053491 ], [ -0.249760442612893, 51.569161918336199 ], [ -0.24964765859961, 51.569093712568389 ], [ -0.249557616678655, 51.569031239455136 ], [ -0.249470412963706, 51.568972314640753 ], [ -0.249403661896984, 51.568907491381388 ], [ -0.24930541546074, 51.568872764753642 ], [ -0.249155820217822, 51.568861545880033 ], [ -0.249034357769932, 51.568793210185397 ], [ -0.248974871154992, 51.568765353818762 ], [ -0.248826011142036, 51.568694811629335 ], [ -0.248746511523527, 51.568624314095587 ], [ -0.248681672695454, 51.568546932931604 ], [ -0.24857238761058, 51.568536314084284 ], [ -0.248527852033845, 51.568531155273284 ], [ -0.248201028478839, 51.568661132983493 ], [ -0.248055463353772, 51.568619406846842 ], [ -0.247837235442458, 51.568518162169667 ], [ -0.247590463548849, 51.568478522243609 ], [ -0.247285139177327, 51.568464079368042 ], [ -0.247110126329943, 51.568513610594977 ], [ -0.24701661938986, 51.568581438506158 ], [ -0.24699895654901, 51.568626124910388 ], [ -0.247058842566669, 51.568683745096557 ], [ -0.247123220333864, 51.568735948366957 ], [ -0.24725712158167, 51.568817956597826 ], [ -0.2473198999817, 51.568874630886775 ], [ -0.247366779689556, 51.568930169006961 ], [ -0.24736866509803, 51.568955369073294 ], [ -0.247357862926792, 51.568973277814557 ], [ -0.247343129416797, 51.568982048036652 ], [ -0.247167526576097, 51.56904685353944 ], [ -0.247004151176, 51.569016547401077 ], [ -0.246836564565209, 51.568984380204725 ], [ -0.246607140158859, 51.568985451978115 ], [ -0.2465849456129, 51.56899950476361 ], [ -0.246530172625055, 51.569034647354968 ], [ -0.24649996350285, 51.569068358488543 ], [ -0.246535928237574, 51.569184865948053 ], [ -0.246606644728713, 51.569257841043722 ], [ -0.246606768481128, 51.56929479171599 ], [ -0.246591085411795, 51.569325123634087 ], [ -0.246562940934931, 51.569345380619971 ], [ -0.246455743805413, 51.569431882785722 ], [ -0.246140100002129, 51.569607960555032 ], [ -0.24607831096337, 51.569714019092039 ], [ -0.246045220439365, 51.569785445035428 ], [ -0.246032967288504, 51.569841000032191 ], [ -0.246027825629218, 51.569900347070643 ], [ -0.246034006093151, 51.569928308269475 ], [ -0.246046413368187, 51.569942877437711 ], [ -0.24606349717222, 51.569950324421477 ], [ -0.246093561587809, 51.569954369158395 ], [ -0.246158105146874, 51.569965221495238 ], [ -0.246234978891294, 51.569955580863031 ], [ -0.246337039952751, 51.569928336112596 ], [ -0.246471202167802, 51.569815176594801 ], [ -0.246534223147929, 51.569865561923066 ], [ -0.24654977121451, 51.570024107501546 ], [ -0.246488933208793, 51.570179625329494 ], [ -0.246478229143862, 51.570420486983807 ], [ -0.246439889009709, 51.570517006637537 ], [ -0.246360977182451, 51.570616606708356 ], [ -0.246000825296887, 51.570900798745271 ], [ -0.245982406253522, 51.5709310897495 ], [ -0.245984152473973, 51.570959883754838 ], [ -0.245998894683108, 51.570987972746408 ], [ -0.24611747767744, 51.571094026485753 ], [ -0.246248872806316, 51.571167098280654 ], [ -0.246447636625534, 51.571251873328173 ], [ -0.246519409411187, 51.571300591228301 ], [ -0.24669578423285, 51.571478617428106 ], [ -0.246703842078922, 51.571494919615077 ], [ -0.24671000805775, 51.571520183552799 ], [ -0.246706219933166, 51.571544399975068 ], [ -0.246692220373193, 51.571571161033042 ], [ -0.246648494411643, 51.571619054502776 ], [ -0.246599787160676, 51.571647994675843 ], [ -0.246370061657263, 51.571767729406361 ], [ -0.24608665141178, 51.572119682717265 ], [ -0.246062128160582, 51.572157074610487 ], [ -0.24604115111896, 51.572176539469808 ], [ -0.246017597021878, 51.572188773877137 ], [ -0.245968119456127, 51.572200621340635 ], [ -0.245907438224558, 51.572200614575102 ], [ -0.245844368137346, 51.572191582138878 ], [ -0.245794452460032, 51.572174655053551 ], [ -0.24576633285069, 51.572157154323449 ], [ -0.245749629080058, 51.572139824004786 ], [ -0.245631013071522, 51.572034578542315 ], [ -0.245429109141499, 51.57192008832385 ], [ -0.245217085242817, 51.571916922400767 ], [ -0.245077179955395, 51.571953490061183 ], [ -0.244875872919763, 51.572045777387331 ], [ -0.244739599617596, 51.572173287629262 ], [ -0.244621792599207, 51.572235356790173 ], [ -0.244495546972262, 51.572291006785271 ], [ -0.244464496043852, 51.572309421881357 ], [ -0.24443395156198, 51.572354814486516 ], [ -0.244420548758598, 51.572440109000802 ], [ -0.244364071943934, 51.572519276109169 ], [ -0.2443136580252, 51.572555381852212 ], [ -0.244264060692336, 51.572567226818585 ], [ -0.244199009011116, 51.572572547868461 ], [ -0.244154400624992, 51.572569184357313 ], [ -0.244127208306387, 51.572561586067721 ], [ -0.244100446803931, 51.572545903223165 ], [ -0.24407897871008, 51.572426914646726 ], [ -0.244090296749056, 51.572358669981995 ], [ -0.24408751209253, 51.572356830375867 ], [ -0.244013724202392, 51.572323363844816 ], [ -0.243896111756384, 51.572306323332704 ], [ -0.243621041933508, 51.57232738433531 ], [ -0.243351384737861, 51.572396262436726 ], [ -0.243184963443757, 51.572447714477157 ], [ -0.242979329405673, 51.572503973987004 ], [ -0.242944378200339, 51.572512441388362 ], [ -0.242893561650256, 51.572518873557158 ], [ -0.242843106761831, 51.572519018120538 ], [ -0.242766886813987, 51.572511585395766 ], [ -0.242591793611201, 51.572485593031352 ], [ -0.242471802917058, 51.572490091496263 ], [ -0.242393724722209, 51.572533873673322 ], [ -0.242393694763212, 51.572571631179272 ], [ -0.242409619360635, 51.572606031315765 ], [ -0.242430290755742, 51.5726315124557 ], [ -0.242457170623584, 51.572647197458885 ], [ -0.242558374430051, 51.572679366894107 ], [ -0.242576523957003, 51.572693123306252 ], [ -0.242581622445729, 51.572712078530074 ], [ -0.242579467054195, 51.572730925271493 ], [ -0.242567377214304, 51.572745128447785 ], [ -0.2425347247445, 51.572768014089789 ], [ -0.242467155407598, 51.572798468500942 ], [ -0.242348675075946, 51.572803888439317 ], [ -0.24219205750449, 51.572786262821154 ], [ -0.242116674394648, 51.572794125178767 ], [ -0.241990627867665, 51.57280752256375 ], [ -0.241717076906821, 51.572752186956059 ], [ -0.241472461893554, 51.572733243682336 ], [ -0.241386373047032, 51.572682510418822 ], [ -0.241369442628833, 51.572674166056856 ], [ -0.241349782293825, 51.572659487843318 ], [ -0.241336334137125, 51.572634923705053 ], [ -0.241329076431742, 51.572597956121221 ], [ -0.241351158739642, 51.572476022707171 ], [ -0.241345150617439, 51.572406709852274 ], [ -0.241318961304514, 51.572299247099281 ], [ -0.241245484277249, 51.572220833485147 ], [ -0.241181177978267, 51.572166830061839 ], [ -0.241083535916001, 51.572119519629481 ], [ -0.240931240461747, 51.572137916953977 ], [ -0.240844213207842, 51.572299333071435 ], [ -0.240760164575011, 51.572346710699506 ], [ -0.240693532226507, 51.572352905142097 ], [ -0.240662441680284, 51.572335358683809 ], [ -0.240600264134493, 51.572300175894547 ], [ -0.240623046035912, 51.572197132049368 ], [ -0.240559754010205, 51.572190790431755 ], [ -0.240536754039756, 51.572188648064163 ], [ -0.240496688255902, 51.572218614148014 ], [ -0.240437593900211, 51.572291447271631 ], [ -0.240306488123157, 51.572358796951185 ], [ -0.240113427791056, 51.572388269779175 ], [ -0.240055476098288, 51.572394593864345 ], [ -0.239991905977335, 51.57239543977505 ], [ -0.239944478906235, 51.57239113343983 ], [ -0.239914433482928, 51.572383491428951 ], [ -0.23989185032443, 51.572370567183349 ], [ -0.23987812167137, 51.572353280560215 ], [ -0.239880382410562, 51.572331738430861 ], [ -0.239947119823297, 51.572285900139512 ], [ -0.240036153315489, 51.572186545663918 ], [ -0.240050084829413, 51.572124723341233 ], [ -0.239970577855275, 51.572088471564996 ], [ -0.239878821503166, 51.572073612250534 ], [ -0.239781533605944, 51.57209103399483 ], [ -0.2397235328317, 51.572095559176965 ], [ -0.239626592276445, 51.572103995999832 ], [ -0.239412860950527, 51.572071127017999 ], [ -0.239183998933733, 51.572091071913093 ], [ -0.23903193184146, 51.572217350189888 ], [ -0.238841412432803, 51.572254950004073 ], [ -0.238676809556737, 51.572145501968095 ], [ -0.238466588918023, 51.571985025865317 ], [ -0.2384189558824, 51.571949160914052 ], [ -0.238356951061114, 51.571909574390105 ], [ -0.23814499397395, 51.571794021651762 ], [ -0.238108023129275, 51.571780881331918 ], [ -0.238062044068796, 51.571772999933344 ], [ -0.237989982630152, 51.571771919428379 ], [ -0.237919069922423, 51.571778048106545 ], [ -0.237878222051111, 51.571788223583539 ], [ -0.237826724603161, 51.571815320352272 ], [ -0.237811451983031, 51.571834869330715 ], [ -0.237806301563282, 51.57185726710177 ], [ -0.23781560923897, 51.571878083686236 ], [ -0.23785920775471, 51.571907505488937 ], [ -0.238113749134524, 51.572004908131674 ], [ -0.238154285391003, 51.572039677906922 ], [ -0.238160863838133, 51.572054160540127 ], [ -0.238159820601121, 51.572081114903426 ], [ -0.238150305276572, 51.572102548243578 ], [ -0.238122050859766, 51.572125498624196 ], [ -0.238101626787502, 51.572130586399339 ], [ -0.238068449717099, 51.572130088955511 ], [ -0.23792958041344, 51.572102834696423 ], [ -0.237752577915066, 51.572089392418015 ], [ -0.237729160746548, 51.572098031243904 ], [ -0.237696506291962, 51.572120915539074 ], [ -0.237624550946482, 51.572227716442619 ], [ -0.23761988814003, 51.572274394526424 ], [ -0.237641980101584, 51.57229998775658 ], [ -0.23773655614947, 51.572352649119928 ], [ -0.237751899418677, 51.572368162218183 ], [ -0.237758442996667, 51.572383543351677 ], [ -0.237753466395936, 51.572401448725323 ], [ -0.237736711552133, 51.572425470468623 ], [ -0.237711415026848, 51.572445768112146 ], [ -0.237639512646001, 51.572474356800157 ], [ -0.237569851812553, 51.572484999058588 ], [ -0.237540990219029, 51.572483667191811 ], [ -0.237502418063353, 51.572474997672579 ], [ -0.237364522200754, 51.572422585346999 ], [ -0.23717751484815, 51.572369436129883 ], [ -0.237154549760543, 51.572366394620929 ], [ -0.23702869735048, 51.572371698585783 ], [ -0.236601842374882, 51.572440809944268 ], [ -0.236529486950504, 51.572444219147563 ], [ -0.236460452486189, 51.572438688139542 ], [ -0.236335032029251, 51.572435906840866 ], [ -0.236131514394382, 51.572363629130535 ], [ -0.235989116243873, 51.572313844581544 ], [ -0.235896908169646, 51.572310662368871 ], [ -0.235862080650318, 51.572312836527729 ], [ -0.235843097664556, 51.572320642550757 ], [ -0.235817417293886, 51.57235082304301 ], [ -0.23583291881179, 51.572396005802275 ], [ -0.235890487339882, 51.572436426081509 ], [ -0.235864006032797, 51.572487271576975 ], [ -0.235812193143001, 51.572522453757337 ], [ -0.23578706980497, 51.572538258594619 ], [ -0.235727327679619, 51.572550846677423 ], [ -0.2355940959068, 51.572562331326729 ], [ -0.235553713988518, 51.572563522998173 ], [ -0.235375940678921, 51.572569933494165 ], [ -0.235356146558079, 51.572558758342034 ], [ -0.235338243186113, 51.572538711471026 ], [ -0.235324989516572, 51.572506148409509 ], [ -0.235329390529952, 51.572469355463454 ], [ -0.235347782661798, 51.572439964627748 ], [ -0.235383327342294, 51.572416225368265 ], [ -0.235573676113052, 51.572383123565203 ], [ -0.235662752624962, 51.572356591985844 ], [ -0.235668844480536, 51.572309935407993 ], [ -0.235619922247589, 51.57227054383587 ], [ -0.235500767496205, 51.572253471700648 ], [ -0.235467485892561, 51.57225566895486 ], [ -0.235321328111467, 51.572266060186351 ], [ -0.235213115998866, 51.572264435099875 ], [ -0.235144817038919, 51.572239945436614 ], [ -0.235077941642691, 51.572215567013373 ], [ -0.235044000903107, 51.572161117184457 ], [ -0.234983962805753, 51.572110770368042 ], [ -0.234973020419056, 51.572095322994556 ], [ -0.234946248098145, 51.572076940845953 ], [ -0.234690849290312, 51.571965219937027 ], [ -0.234641576118084, 51.571821447653775 ], [ -0.234561222456211, 51.571773490800254 ], [ -0.234481701615729, 51.571777688484389 ], [ -0.2344279982035, 51.571784971542193 ], [ -0.234381583025372, 51.571791465228415 ], [ -0.234332068116677, 51.571841064310576 ], [ -0.234244287094357, 51.571797490495207 ], [ -0.234171240561328, 51.571782007360319 ], [ -0.234022447619919, 51.571750101324213 ], [ -0.233850303140642, 51.571798753762017 ], [ -0.233730801698314, 51.571864380301669 ], [ -0.233417454003909, 51.571982916769329 ], [ -0.232210570988558, 51.570955793738385 ], [ -0.231856614633958, 51.570631225940495 ], [ -0.231303948866068, 51.570184904302629 ], [ -0.230894825676324, 51.569835229073085 ], [ -0.23052185155793, 51.569553522571979 ], [ -0.230144172380965, 51.569212409824914 ], [ -0.229782496885066, 51.568937164360364 ], [ -0.229358064371869, 51.568535110696963 ], [ -0.228912810239422, 51.568075205143089 ], [ -0.228794214923391, 51.567970839176496 ], [ -0.228613153276381, 51.56784224606853 ], [ -0.228373200121297, 51.567704582722826 ], [ -0.228006165518736, 51.56753092790769 ], [ -0.227713580019498, 51.567376286437359 ], [ -0.227163309585081, 51.567056830018458 ], [ -0.226869003922233, 51.566906744837155 ], [ -0.226695810950071, 51.56679624730112 ], [ -0.226401772440096, 51.566566063673001 ], [ -0.225917552950446, 51.566218830828554 ], [ -0.225680651043814, 51.566039853428009 ], [ -0.225465140714259, 51.565867581957633 ], [ -0.225161541724278, 51.56558690643373 ], [ -0.225047008434054, 51.565491587812659 ], [ -0.22459548933113, 51.56515743023629 ], [ -0.224082867173127, 51.564721657771244 ], [ -0.223406379776892, 51.564125986810808 ], [ -0.222650541482264, 51.563530908287085 ], [ -0.222365203052586, 51.563298239338167 ], [ -0.221930459635612, 51.562943648651185 ], [ -0.221528598199105, 51.562554403600025 ], [ -0.221181850616249, 51.562234406835607 ], [ -0.220638159248119, 51.561675883975767 ], [ -0.220563207804087, 51.561600040265006 ], [ -0.220288282903492, 51.561290119926753 ], [ -0.219299403775402, 51.560122326019304 ], [ -0.218997736809856, 51.559794016845366 ], [ -0.218625759477768, 51.55942049858119 ], [ -0.218295351271226, 51.559127801464506 ], [ -0.217744806267125, 51.558669756619011 ], [ -0.217148375285655, 51.558204806593444 ], [ -0.216918444887592, 51.557998046082631 ], [ -0.216734942486093, 51.557820759143425 ], [ -0.216486673511639, 51.557638981259601 ], [ -0.216151595109654, 51.557392862364765 ], [ -0.215476117020823, 51.556848398145874 ], [ -0.21534864295765, 51.556750265056159 ], [ -0.214830653964289, 51.55634583113978 ], [ -0.214263241616038, 51.555879420080444 ], [ -0.213712103862609, 51.555401656818553 ], [ -0.213476743532239, 51.555188513826579 ], [ -0.213437735774102, 51.555151959420279 ], [ -0.213214556954802, 51.554958869533458 ], [ -0.212874573783107, 51.554650634848556 ], [ -0.212783268825054, 51.554588920432685 ], [ -0.212466437924134, 51.554242379758897 ], [ -0.212355327656321, 51.554133704596723 ], [ -0.211916389548496, 51.553704390925589 ], [ -0.211705219826212, 51.553532967551668 ], [ -0.211405472675842, 51.553306252868715 ], [ -0.211255556627092, 51.553192490038228 ], [ -0.210724723162896, 51.552786943195549 ], [ -0.210293607730535, 51.552453037934768 ], [ -0.209731851511011, 51.552063107220846 ], [ -0.209147321996161, 51.551632460628383 ], [ -0.208577130185488, 51.551239788513506 ], [ -0.20794908709031, 51.55077601728069 ], [ -0.207538029844763, 51.550444206962204 ], [ -0.207284424572052, 51.550255138039276 ], [ -0.207229395612235, 51.550187771107431 ], [ -0.206788833436662, 51.549835732097449 ], [ -0.206311892018616, 51.549420115200803 ], [ -0.20574262251876, 51.548897092069197 ], [ -0.205111662234226, 51.54829212224341 ], [ -0.204247548348146, 51.547490205208355 ], [ -0.204239155725556, 51.547482884737022 ], [ -0.203711683871821, 51.546959592052715 ], [ -0.203564636900051, 51.546813410367605 ], [ -0.203193205634697, 51.546501072912669 ], [ -0.202697567916321, 51.546012425086467 ], [ -0.201933436594046, 51.545312710158264 ], [ -0.20190706010791, 51.545288032847267 ], [ -0.201204225767647, 51.544605524378419 ], [ -0.199381131006458, 51.543038915358771 ], [ -0.198851286613142, 51.542614454088181 ], [ -0.198849860613393, 51.542614432196764 ], [ -0.197771721472414, 51.541724674209277 ], [ -0.196830348150912, 51.54094947376722 ], [ -0.196667423915646, 51.540838999410553 ], [ -0.196514668392756, 51.540726973027986 ], [ -0.196366582385826, 51.540605129192272 ], [ -0.195417407925856, 51.539739806996849 ], [ -0.193730739111815, 51.538268703987463 ], [ -0.192625862344658, 51.537296676962988 ], [ -0.192437682973536, 51.53713105821722 ], [ -0.191458748175725, 51.536291315743924 ], [ -0.192958465267015, 51.534069880917784 ], [ -0.193010583670896, 51.533990672278129 ], [ -0.192745126659214, 51.533666447971015 ], [ -0.192383270138273, 51.533302979566066 ], [ -0.192357644969762, 51.533256645610628 ], [ -0.192349326722613, 51.533211567215027 ], [ -0.192360344660713, 51.533008561928348 ], [ -0.192386457965855, 51.532895599783373 ], [ -0.192533902861277, 51.532630777156612 ], [ -0.192640037745864, 51.532463399370037 ], [ -0.19286786069606, 51.532135086221636 ], [ -0.193114024410137, 51.531817843173137 ], [ -0.193221444125588, 51.531689950967106 ], [ -0.193492147721123, 51.531371287060452 ], [ -0.194258964629648, 51.530465837802204 ], [ -0.195671864391074, 51.528753846198931 ], [ -0.196388695765392, 51.527907847883817 ], [ -0.196503465168503, 51.527737902422807 ], [ -0.196538029715197, 51.527702473600087 ], [ -0.19654427574765, 51.527655731475413 ], [ -0.196822202278473, 51.52773650898731 ], [ -0.196821719813562, 51.527856968192388 ], [ -0.196906893526751, 51.527927500681095 ], [ -0.196996978303918, 51.527945966317581 ], [ -0.197105010938213, 51.52794942463224 ], [ -0.19715847976878, 51.527943953302184 ], [ -0.197225300123371, 51.527931495086001 ], [ -0.19747630219151, 51.527854441577638 ], [ -0.197774318195353, 51.527902172411906 ], [ -0.197925920974035, 51.528370365377278 ], [ -0.198050233887226, 51.528617703066544 ], [ -0.197970986942262, 51.528728052250727 ], [ -0.197949087655627, 51.528770868070531 ], [ -0.197929974240386, 51.528851484860724 ], [ -0.197947959744364, 51.529019065830994 ], [ -0.197977377475142, 51.529113913152379 ], [ -0.197978276430082, 51.529163372194859 ], [ -0.197901217588433, 51.529615466448867 ], [ -0.197915948982274, 51.52993762613324 ], [ -0.197950768218326, 51.530079304629709 ], [ -0.197969177238596, 51.530121840593573 ], [ -0.198191396132409, 51.530373468758633 ], [ -0.19827361881716, 51.530446651859101 ], [ -0.198570680213565, 51.530663468485699 ], [ -0.198661386830256, 51.530738579580351 ], [ -0.198742823948734, 51.530795568203786 ], [ -0.198834059758579, 51.53085729212598 ], [ -0.19899385198032, 51.53093795860967 ], [ -0.199150171370117, 51.53099519746268 ], [ -0.199305001362956, 51.531090171401509 ], [ -0.199306391533577, 51.531091091742631 ], [ -0.199387533923022, 51.53115257039812 ], [ -0.199538403649421, 51.531239482102507 ], [ -0.199819160633506, 51.531360660939669 ], [ -0.200424470444247, 51.531619960312746 ], [ -0.200650667732005, 51.53169894604563 ], [ -0.20087861845001, 51.531805827329528 ], [ -0.200983092461426, 51.531860560510758 ], [ -0.201083505884818, 51.531909747413238 ], [ -0.201272711208941, 51.532046599918154 ], [ -0.201375108253728, 51.532157039099459 ], [ -0.201410016625905, 51.532221403502362 ], [ -0.201451499117263, 51.532302949737854 ], [ -0.201525668313023, 51.53239668407528 ], [ -0.201664790972132, 51.532561626220591 ], [ -0.201853434049074, 51.532568113797112 ], [ -0.202010683292445, 51.532601989027917 ], [ -0.202267206656202, 51.53267784049612 ], [ -0.202577368191444, 51.532783281315155 ], [ -0.20282526499841, 51.532860887292152 ], [ -0.202967750778166, 51.532904424103315 ], [ -0.203048704781413, 51.532898472095823 ], [ -0.203241085806297, 51.532882539613425 ], [ -0.203573867640391, 51.532887635883206 ], [ -0.204032652294109, 51.532917135305127 ], [ -0.204579497323352, 51.532944384639862 ], [ -0.205285434756201, 51.532958782294443 ], [ -0.205506332295098, 51.532952272371205 ], [ -0.205844642020511, 51.53292867865477 ], [ -0.206235118082107, 51.532899588578367 ], [ -0.206584161765062, 51.532859974798896 ], [ -0.206773186268373, 51.532853784343651 ], [ -0.207080822894925, 51.532842304247524 ], [ -0.207311558335781, 51.532839537286399 ], [ -0.207623719040443, 51.532821831877634 ], [ -0.207922492246365, 51.532778749056256 ], [ -0.208657617968965, 51.532637145779809 ], [ -0.20893424830955, 51.532567561291181 ], [ -0.209311304012117, 51.532474426887525 ], [ -0.209662705099386, 51.532374606746117 ], [ -0.210077394912429, 51.532243297181779 ], [ -0.210160654125431, 51.532214900367656 ], [ -0.210817385547426, 51.532013652333887 ], [ -0.211027010188687, 51.531961021051629 ], [ -0.211378032354527, 51.531907039144684 ], [ -0.211710753452572, 51.531843787191512 ], [ -0.212233826593597, 51.5318131022998 ], [ -0.212638172168041, 51.53179678831701 ], [ -0.212792734444818, 51.53179015301432 ], [ -0.213038346082352, 51.531777712389037 ], [ -0.213243422777703, 51.531768249908353 ], [ -0.213608203778479, 51.531693703918343 ], [ -0.213795753511125, 51.531655205496868 ], [ -0.214022257924033, 51.53161460280689 ], [ -0.214161427189018, 51.531594246321255 ], [ -0.214670383162146, 51.53152018353714 ], [ -0.215183030313436, 51.531391245637039 ], [ -0.215244521734308, 51.531366110058258 ], [ -0.215281363468201, 51.531345094469444 ], [ -0.215303794611765, 51.531324758648111 ], [ -0.215326682782443, 51.531292742739517 ], [ -0.215338468742758, 51.531249769902281 ], [ -0.215336195732392, 51.531198492168102 ], [ -0.215300481667822, 51.531078291597119 ], [ -0.215268034952804, 51.53098699870818 ], [ -0.215143200423517, 51.530565175313413 ], [ -0.215079174990888, 51.530396896772153 ], [ -0.215072717568353, 51.53034016134341 ], [ -0.215080242592377, 51.530260264578438 ], [ -0.215105121193035, 51.530174338819073 ], [ -0.215153732099797, 51.530074300174526 ], [ -0.21520450067075, 51.52999506130211 ], [ -0.215240759466607, 51.52995246078553 ], [ -0.21528982690797, 51.529913651127089 ], [ -0.215351632664712, 51.529880429246838 ], [ -0.215446776469431, 51.529845826557683 ], [ -0.215537977946963, 51.529799566687743 ], [ -0.21566290672742, 51.529775395806297 ], [ -0.215823003920008, 51.529736476602693 ], [ -0.215859387178172, 51.529727140895957 ], [ -0.215923472039151, 51.529562698947373 ], [ -0.216016089219134, 51.529258356484803 ], [ -0.216052164876202, 51.52907451956019 ], [ -0.216064211136989, 51.528875933173659 ], [ -0.216004690266863, 51.527929906102926 ], [ -0.21636771693496, 51.528084750487899 ], [ -0.216642749069444, 51.528204004106861 ], [ -0.217042920303378, 51.528366603055034 ], [ -0.217307556213162, 51.528456929001145 ], [ -0.217954807739481, 51.528642158202189 ], [ -0.218236019404627, 51.52871295576454 ], [ -0.218688182268809, 51.528801630810356 ], [ -0.219033572659396, 51.528854521299351 ], [ -0.21949311201318, 51.528937012184763 ], [ -0.220690515507824, 51.529140461768236 ], [ -0.220981354238386, 51.529187125197339 ], [ -0.221502410236428, 51.529280429987622 ], [ -0.221653891509572, 51.5293159892056 ], [ -0.221879583467063, 51.529368944877696 ], [ -0.222272425683986, 51.529500758207405 ], [ -0.22264478006057, 51.529636754873259 ], [ -0.2227957347738, 51.529685879582118 ], [ -0.223063242063667, 51.529776235575518 ], [ -0.22336396620193, 51.529865295942734 ], [ -0.223609547823487, 51.529926550585863 ], [ -0.223779698710269, 51.529965086728417 ], [ -0.224272575408142, 51.530043658451277 ], [ -0.2245766180013, 51.530084219777116 ], [ -0.224992629070832, 51.530137262328516 ], [ -0.225422478569957, 51.530170734647342 ], [ -0.225439106416242, 51.530039731723789 ], [ -0.225441231216563, 51.530021783803534 ], [ -0.226176176181265, 51.529992352345104 ], [ -0.226692715953826, 51.529982180457303 ], [ -0.227661109199932, 51.529919498596421 ], [ -0.227656448243514, 51.529929317220748 ], [ -0.227563987832091, 51.530158155130891 ], [ -0.227566839107384, 51.530158198204141 ], [ -0.227694713468422, 51.530168220912614 ], [ -0.227822567043254, 51.530181839179171 ], [ -0.227985775647165, 51.530209476324345 ], [ -0.228140256079054, 51.530241476446349 ], [ -0.228348423174825, 51.530302156133573 ], [ -0.228479053583172, 51.530354472737784 ], [ -0.22869225266286, 51.530469257862975 ], [ -0.228787943075531, 51.530420358306486 ], [ -0.229174011538154, 51.530500803086646 ], [ -0.229404431458648, 51.530545634705142 ] ] ] } }
]
}
