{
"type": "FeatureCollection",
"name": "borough_Islington",
"crs": { "type": "name", "properties": { "name": "urn:ogc:def:crs:OGC:1.3:CRS84" } },
"features": [
{ "type": "Feature", "properties": { "DISTRICT": "Islington", "NAME": "Clerkenwell", "GSS_CODE": "E05000370", "LAGSSCODE": "E09000019", "HECTARES": 93.263, "NONLD_AREA": 0.0 }, "geometry": { "type": "Polygon", "coordinates": [ [ [ -0.086590979557147, 51.537257138024152 ], [ -0.086789457071568, 51.537270267260894 ], [ -0.087059687638111, 51.537222446458792 ], [ -0.087383223185762, 51.537139624834658 ], [ -0.087674933353005, 51.537027514987479 ], [ -0.088172605921339, 51.536781127356249 ], [ -0.088635177945816, 51.536549448058921 ], [ -0.089112981259481, 51.536294641124741 ], [ -0.08966421378134, 51.536009563939011 ], [ -0.089692298499826, 51.53599473867714 ], [ -0.090231314586653, 51.535759893521281 ], [ -0.090746681862034, 51.535504792566606 ], [ -0.091348836141902, 51.53524391051689 ], [ -0.091562248743421, 51.535138606394582 ], [ -0.091955375989884, 51.534946237487546 ], [ -0.09252200022851, 51.5346703865969 ], [ -0.093258331076609, 51.534336161480468 ], [ -0.093753060734992, 51.534127458930769 ], [ -0.093960009139962, 51.534040025114152 ], [ -0.094457839611903, 51.533856541964759 ], [ -0.094527026766555, 51.53389362691528 ], [ -0.095023574534235, 51.533706613394216 ], [ -0.095019410907175, 51.533635523917837 ], [ -0.095985588919239, 51.533285145998825 ], [ -0.096137730829717, 51.533234575751401 ], [ -0.096526350383487, 51.533112329020838 ], [ -0.097007461967184, 51.532984300706715 ], [ -0.096235285071943, 51.531863011572931 ], [ -0.095869111200872, 51.53131118431655 ], [ -0.095498775714651, 51.530788056669451 ], [ -0.095291574700609, 51.530466350172517 ], [ -0.095086740596348, 51.53005388170412 ], [ -0.095057424376793, 51.529927543767052 ], [ -0.095055886813464, 51.529861890996152 ], [ -0.095067414075922, 51.529793663617305 ], [ -0.095115907696447, 51.529668590203826 ], [ -0.095379242737024, 51.529195314868574 ], [ -0.089575123368856, 51.527706136623195 ], [ -0.089150603684133, 51.527585042709063 ], [ -0.08902386215539, 51.527548814155431 ], [ -0.088754239213046, 51.527444538230135 ], [ -0.088636847438932, 51.527392279531718 ], [ -0.088572070114594, 51.527355262852055 ], [ -0.088526098851168, 51.527317653799116 ], [ -0.088458583091453, 51.527241035963947 ], [ -0.088284083996422, 51.527070884429222 ], [ -0.088105766745227, 51.526818860459329 ], [ -0.087811719482438, 51.526234022814634 ], [ -0.08777795532493, 51.5261094086394 ], [ -0.087413733574731, 51.525959624877622 ], [ -0.087268309339171, 51.525921201713921 ], [ -0.087006054590437, 51.525851294366213 ], [ -0.086769199708694, 51.525790791108207 ], [ -0.086430128267431, 51.525866167281698 ], [ -0.086272864465524, 51.525903156338238 ], [ -0.084994521626064, 51.526205113542524 ], [ -0.084882824123954, 51.525878656163172 ], [ -0.084724840559629, 51.525417489271646 ], [ -0.085004680273823, 51.525207108775994 ], [ -0.085244539192549, 51.524850433741804 ], [ -0.085383528339317, 51.524594597913797 ], [ -0.085417248259207, 51.524513338658608 ], [ -0.085084896874996, 51.524428796997036 ], [ -0.085113230297523, 51.523926532910203 ], [ -0.084501647784963, 51.523899457421301 ], [ -0.084197356092575, 51.523902574145261 ], [ -0.08428922298135, 51.523602817442736 ], [ -0.084312007819107, 51.523402710475331 ], [ -0.084415160110728, 51.522491630805092 ], [ -0.084497633750041, 51.522072960950204 ], [ -0.08467711845413, 51.521608318964944 ], [ -0.084880203715829, 51.52099473659743 ], [ -0.085041047726138, 51.520631376769558 ], [ -0.085191778639566, 51.520336176085742 ], [ -0.085350414407303, 51.520130106408118 ], [ -0.085530114978466, 51.519832681283383 ], [ -0.085787733484567, 51.519428646656984 ], [ -0.085878615363491, 51.519290693769896 ], [ -0.086201463188556, 51.518810408016222 ], [ -0.086331066013386, 51.518845787019174 ], [ -0.087516855771863, 51.51920145705013 ], [ -0.088103315494499, 51.519412491157404 ], [ -0.088612637152738, 51.519572729205336 ], [ -0.089277012205122, 51.519782330849104 ], [ -0.08968045146471, 51.519891392937751 ], [ -0.089754485022958, 51.519911478543804 ], [ -0.08997836761348, 51.519971764119219 ], [ -0.089678712281984, 51.520690856931822 ], [ -0.08966752604485, 51.520716746029137 ], [ -0.090237667849243, 51.520801552276126 ], [ -0.090900278139392, 51.520880669533369 ], [ -0.091346061404779, 51.520940969917213 ], [ -0.091795485429456, 51.520982448598673 ], [ -0.092150153146915, 51.521016180343999 ], [ -0.092348561733584, 51.521029298242048 ], [ -0.092490805791539, 51.521487502768835 ], [ -0.093275668999762, 51.521334852307 ], [ -0.093388656972421, 51.521526381955994 ], [ -0.093567216030249, 51.521496921336443 ], [ -0.09358935450044, 51.521587182781495 ], [ -0.093849310524107, 51.521541065096073 ], [ -0.094318748599767, 51.521484867082208 ], [ -0.09438423375297, 51.521746735693796 ], [ -0.094596903404374, 51.522314953456892 ], [ -0.094902952279471, 51.522855830083685 ], [ -0.095062757133141, 51.52313900946605 ], [ -0.095961687060957, 51.522910789751407 ], [ -0.095991521837634, 51.522956314980703 ], [ -0.096443851408422, 51.522823324616361 ], [ -0.096597698093832, 51.523178326533532 ], [ -0.09665876132256, 51.52316763080313 ], [ -0.096671820391475, 51.52316514578991 ], [ -0.096687962446891, 51.523194176361066 ], [ -0.096760316824458, 51.523323101152855 ], [ -0.097946596120547, 51.522879182337711 ], [ -0.097907635591857, 51.522844387589572 ], [ -0.097875808071692, 51.522812405616122 ], [ -0.097761295117261, 51.522688281362463 ], [ -0.097675161890598, 51.522576214843426 ], [ -0.097614131581061, 51.522483524868626 ], [ -0.09748622091081, 51.52223323087177 ], [ -0.097357774059498, 51.521856166856793 ], [ -0.097348684847386, 51.521729258145015 ], [ -0.097367218457968, 51.52162967831336 ], [ -0.09737734988167, 51.521594781135953 ], [ -0.097490796657982, 51.521604713430818 ], [ -0.097542269070733, 51.521305187616662 ], [ -0.097598280572419, 51.52103360490117 ], [ -0.09764434379909, 51.520724102040653 ], [ -0.098425496452448, 51.520588437631559 ], [ -0.098876113438394, 51.520498652194043 ], [ -0.099322521856466, 51.520370049150685 ], [ -0.099628768773303, 51.520285112172459 ], [ -0.100084404197572, 51.520143170466369 ], [ -0.100231695136265, 51.520136567214152 ], [ -0.100275226165682, 51.520130080484016 ], [ -0.100404275188666, 51.520110595176185 ], [ -0.100776936415098, 51.519988972526342 ], [ -0.101046892232271, 51.519910635956805 ], [ -0.101549348956974, 51.519751466446174 ], [ -0.101795059311189, 51.51966733899377 ], [ -0.102058255126195, 51.519577110480768 ], [ -0.103231024982594, 51.519208510960638 ], [ -0.104730416017246, 51.518749880752814 ], [ -0.105315388715252, 51.518546172377697 ], [ -0.105324207718467, 51.51854271873259 ], [ -0.105463835000737, 51.519138505064227 ], [ -0.105858663892423, 51.520286093252992 ], [ -0.106010711600778, 51.520686003641721 ], [ -0.106139261590316, 51.520921913327527 ], [ -0.106326725409131, 51.521267554938994 ], [ -0.106475927928503, 51.521495616545891 ], [ -0.106621956864936, 51.521691352018692 ], [ -0.10699474389445, 51.522191108125512 ], [ -0.108248730242572, 51.522091676266491 ], [ -0.108260027827907, 51.522097252544697 ], [ -0.108311271537928, 51.522148423810442 ], [ -0.108576388250587, 51.522462050272956 ], [ -0.108732579765038, 51.522693907658287 ], [ -0.108941033919562, 51.522986841435355 ], [ -0.108965512248455, 51.523021398661527 ], [ -0.109218688617064, 51.522929284493117 ], [ -0.109295891352019, 51.522944913010413 ], [ -0.109455867236745, 51.523016715438409 ], [ -0.10957894300666, 51.523072639759306 ], [ -0.109783859443103, 51.523101114046796 ], [ -0.109959473959199, 51.523142601170015 ], [ -0.110576875453028, 51.523273104450581 ], [ -0.111175584620641, 51.523398718549316 ], [ -0.111859358243909, 51.523562648300526 ], [ -0.112168524972564, 51.523651232353657 ], [ -0.112332250690612, 51.523701514792201 ], [ -0.112537309479919, 51.523795614835443 ], [ -0.113186493015132, 51.52423866465827 ], [ -0.113481187378394, 51.524433096546197 ], [ -0.113586501813508, 51.524536468878345 ], [ -0.113653974606099, 51.524612172239586 ], [ -0.113855149268764, 51.524906778292646 ], [ -0.114077453435774, 51.525282635218772 ], [ -0.114181114416109, 51.525460598863951 ], [ -0.114227676502374, 51.525518884431946 ], [ -0.113709559465575, 51.525881039971622 ], [ -0.113198902941044, 51.526237918918987 ], [ -0.112923599225585, 51.52641068701859 ], [ -0.113411937631956, 51.526524625344123 ], [ -0.11359958765484, 51.526588776094684 ], [ -0.113734608992627, 51.526634999022427 ], [ -0.113799071559165, 51.52668008734387 ], [ -0.11446915524006, 51.52707312159334 ], [ -0.114679957256442, 51.527204170103538 ], [ -0.115277881062579, 51.527597748417399 ], [ -0.115406630529173, 51.527723971226266 ], [ -0.115450427108532, 51.527783110976181 ], [ -0.115503051616417, 51.527870262079205 ], [ -0.115544079493265, 51.527959024907453 ], [ -0.115654551242137, 51.528320586419383 ], [ -0.11570112653559, 51.528726881485156 ], [ -0.115757541127785, 51.529456171825132 ], [ -0.115781308634842, 51.529545556350506 ], [ -0.115815348103516, 51.529628003627266 ], [ -0.115854528962306, 51.529692463223164 ], [ -0.115917624991261, 51.529770792196182 ], [ -0.115990885524462, 51.529844789305038 ], [ -0.116027196484125, 51.529875129984319 ], [ -0.116506733339886, 51.530096797070016 ], [ -0.117077208039541, 51.530284051246369 ], [ -0.117531972808239, 51.530409121714719 ], [ -0.118115379941345, 51.530559718784545 ], [ -0.118985743189475, 51.53074808566631 ], [ -0.119870254408998, 51.530939459085431 ], [ -0.121193226377522, 51.530849982091453 ], [ -0.121969876713276, 51.530791393581929 ], [ -0.122530388124414, 51.530727543562769 ], [ -0.122527524272247, 51.530831783739529 ], [ -0.122537715603043, 51.531109833043963 ], [ -0.12243905132963, 51.532738621813451 ], [ -0.122334770159037, 51.534044482941418 ], [ -0.122314625778014, 51.534568466102982 ], [ -0.122315237767739, 51.534588254224275 ], [ -0.122312989044039, 51.535520766337704 ], [ -0.122303371885985, 51.535823670315715 ], [ -0.122314856999852, 51.536070274040313 ], [ -0.122326564133848, 51.536311487219329 ], [ -0.122347474851651, 51.536571726972298 ], [ -0.122374921673465, 51.536886911191417 ], [ -0.12249523272303, 51.537363605915154 ], [ -0.122581165813679, 51.537621289918235 ], [ -0.12269866708807, 51.537920833578546 ], [ -0.12304969589239, 51.538500200180202 ], [ -0.123150515078672, 51.538644756130225 ], [ -0.123352151907798, 51.538893501993144 ], [ -0.123708496449089, 51.539240016959397 ], [ -0.124024560397376, 51.539516662739672 ], [ -0.124271820536106, 51.539815582172821 ], [ -0.124835290773121, 51.540596122178009 ], [ -0.124983084213859, 51.540859287925869 ], [ -0.125060445285107, 51.541117732010086 ], [ -0.125067405435612, 51.54119425941596 ], [ -0.125240958296776, 51.541461432473284 ], [ -0.125453621404539, 51.541760695564136 ], [ -0.125664108414219, 51.542112965313855 ], [ -0.125715306021795, 51.542481569259962 ], [ -0.125801384959585, 51.542739252677883 ], [ -0.125874717471499, 51.542919417365319 ], [ -0.125912690774699, 51.543048582661122 ], [ -0.125883877072538, 51.543188368404131 ], [ -0.125968264445475, 51.543556693101813 ], [ -0.126129429578612, 51.544195048599875 ], [ -0.126336085494864, 51.545063378400442 ], [ -0.126369734968584, 51.545190766356427 ], [ -0.126483499653121, 51.545617006595542 ], [ -0.126627834120904, 51.546106755544798 ], [ -0.126862343611391, 51.546998004285186 ], [ -0.127062681876087, 51.547456282254309 ], [ -0.12711305189919, 51.547529906249821 ], [ -0.127147165128774, 51.54761136184603 ], [ -0.127178140645156, 51.547664987877575 ], [ -0.12724266950613, 51.547744231885552 ], [ -0.127583982109015, 51.54803925085325 ], [ -0.127673510428151, 51.54810630740004 ], [ -0.127755871524998, 51.548174148526712 ], [ -0.127946453578692, 51.548308535084054 ], [ -0.128209805759483, 51.548428709140815 ], [ -0.129111692293995, 51.548840546566922 ], [ -0.1293212061357, 51.548971636737356 ], [ -0.129324058422325, 51.548971682212496 ], [ -0.129808805295639, 51.549322023243697 ], [ -0.12999957490904, 51.549486886004992 ], [ -0.130136925544344, 51.549620420647734 ], [ -0.130318919708095, 51.549894912423596 ], [ -0.130688572874726, 51.550659747465438 ], [ -0.130736091930432, 51.550872760133281 ], [ -0.130788225292932, 51.551219798365338 ], [ -0.130811409081513, 51.551286694241618 ], [ -0.130853113643128, 51.5513601782149 ], [ -0.130899731517898, 51.551421154344787 ], [ -0.131001191661807, 51.551513660226668 ], [ -0.131219072504656, 51.551652880858697 ], [ -0.131329002725826, 51.551715764238914 ], [ -0.131814801168884, 51.5519690193656 ], [ -0.132135889992104, 51.552123456678117 ], [ -0.133224595872779, 51.552837694663801 ], [ -0.133979163094172, 51.553362222534425 ], [ -0.134353612832097, 51.553622686600683 ], [ -0.134613546246546, 51.553862449661807 ], [ -0.134696545894692, 51.553950074048196 ], [ -0.134857519758522, 51.554140615800129 ], [ -0.135063275242269, 51.55443435510594 ], [ -0.135121284287321, 51.554499106359764 ], [ -0.135178262866739, 51.554551255098907 ], [ -0.135230087565449, 51.554589836807608 ], [ -0.135311661931312, 51.554639679216727 ], [ -0.135448948084637, 51.554705779627518 ], [ -0.135886867985933, 51.554860172674218 ], [ -0.136518233975925, 51.555048291534966 ], [ -0.136991512610022, 51.555292243324629 ], [ -0.137153063098549, 51.555399182059439 ], [ -0.137246541143588, 51.555477980167133 ], [ -0.137358381939592, 51.555599322903007 ], [ -0.137419753415363, 51.555686691320339 ], [ -0.138368605362294, 51.556861731721121 ], [ -0.13848941515037, 51.557011174530658 ], [ -0.139241986160285, 51.558013181534747 ], [ -0.139425243983109, 51.558258907657127 ], [ -0.139667217563958, 51.558587373431251 ], [ -0.140503218654642, 51.559805630239403 ], [ -0.140676443805617, 51.559982778222931 ], [ -0.140778241154821, 51.560067996642161 ], [ -0.14085843650389, 51.560152063770907 ], [ -0.140911917148627, 51.560220335036547 ], [ -0.14098011632789, 51.56035356669291 ], [ -0.141005693725366, 51.560432273824595 ], [ -0.141030587858345, 51.560530658026536 ], [ -0.141052075403604, 51.560712594413175 ], [ -0.141006371062317, 51.561054565917011 ], [ -0.141017382990007, 51.561172508071841 ], [ -0.141017415367188, 51.561241730863856 ], [ -0.140992300372962, 51.561399645404379 ], [ -0.140970733360237, 51.561467627162358 ], [ -0.140779478595319, 51.561913284546613 ], [ -0.140673264681248, 51.562111268156421 ], [ -0.140633249944316, 51.562208624357105 ], [ -0.140612961987899, 51.562280222266814 ], [ -0.140571733054223, 51.562550255293118 ], [ -0.140566843318383, 51.562845136623388 ], [ -0.140596818954462, 51.563066852954584 ], [ -0.14069297886639, 51.563255455873474 ], [ -0.140729433126429, 51.563350427217927 ], [ -0.140777020500094, 51.563528281979067 ], [ -0.140791440400424, 51.563635580098072 ], [ -0.140791142127405, 51.563855828002239 ], [ -0.140656721012784, 51.56424943462401 ], [ -0.140647205990862, 51.564307718290792 ], [ -0.140641522174755, 51.564374153548165 ], [ -0.14064507320758, 51.5644650078046 ], [ -0.140655790451418, 51.564555166467514 ], [ -0.140664466737979, 51.564590364501321 ], [ -0.141010485892803, 51.565163286811568 ], [ -0.141085933487924, 51.565328996681096 ], [ -0.141119838845804, 51.565419432549227 ], [ -0.141171445431366, 51.56567385476265 ], [ -0.14117628188918, 51.565698204070891 ], [ -0.141277599925711, 51.5661135234255 ], [ -0.141515694170239, 51.567282653218683 ], [ -0.141644741150548, 51.567692117711147 ], [ -0.141864480733676, 51.56831967377942 ], [ -0.142198793329204, 51.568684649982188 ], [ -0.14251070141254, 51.568925120420722 ], [ -0.142475217540669, 51.569016345725288 ], [ -0.142390091780037, 51.5691228774377 ], [ -0.142145186123423, 51.569150466628926 ], [ -0.141561876030396, 51.569263586555273 ], [ -0.140890152652861, 51.569353637881377 ], [ -0.140680419692291, 51.569399760758486 ], [ -0.140495369306175, 51.569479536785209 ], [ -0.139463900960484, 51.570002767375769 ], [ -0.139068629316787, 51.570213248487015 ], [ -0.138831132110198, 51.570338937874752 ], [ -0.138651407579845, 51.570462935709884 ], [ -0.138422371841555, 51.570559091805542 ], [ -0.138403300544176, 51.570568678260422 ], [ -0.138318125457014, 51.570603287121621 ], [ -0.138046573971391, 51.570714950045577 ], [ -0.137569746848718, 51.570943910264035 ], [ -0.13725918750586, 51.571055042407849 ], [ -0.136867168882716, 51.571185467794123 ], [ -0.136677999182356, 51.571257980453375 ], [ -0.136525012529429, 51.571330168163136 ], [ -0.136144507809387, 51.57153098482808 ], [ -0.135879139454312, 51.571633750971039 ], [ -0.135577325056537, 51.57174321950415 ], [ -0.135232343596713, 51.5718869722091 ], [ -0.135164744511634, 51.571916464011721 ], [ -0.134199411968348, 51.572443389025636 ], [ -0.133401353738344, 51.572868592681147 ], [ -0.13337029310768, 51.572886168199751 ], [ -0.133086303334181, 51.573019195030838 ], [ -0.132951321874412, 51.573072784468408 ], [ -0.132775773034698, 51.573132021087787 ], [ -0.132655877973937, 51.573168769502374 ], [ -0.132327769452033, 51.573251737924679 ], [ -0.131889735591636, 51.573377814802434 ], [ -0.131706857280596, 51.573438731106044 ], [ -0.131586257218217, 51.573492637869741 ], [ -0.131363942712208, 51.5735664104675 ], [ -0.131171766185023, 51.573607400126832 ], [ -0.130999076747028, 51.57363161911659 ], [ -0.130504030384457, 51.573702843403069 ], [ -0.129726101753106, 51.57381010119505 ], [ -0.129349184162484, 51.573849940961175 ], [ -0.128729566434563, 51.573935353436184 ], [ -0.127470655419596, 51.574156287798615 ], [ -0.127098453742132, 51.574118882646196 ], [ -0.126751571107015, 51.574131324871253 ], [ -0.12667379643652, 51.574127386194625 ], [ -0.126504376103802, 51.57410670137422 ], [ -0.12620654770201, 51.574048905192953 ], [ -0.126129704648759, 51.574025203297666 ], [ -0.125451976784665, 51.574044943279439 ], [ -0.125450549879517, 51.574044920482798 ], [ -0.125079786220252, 51.574076753965819 ], [ -0.124855128952541, 51.574100133491946 ], [ -0.124687928558647, 51.57413252181555 ], [ -0.124597437143835, 51.574157146128442 ], [ -0.124552202897449, 51.574273291558391 ], [ -0.124528251298904, 51.574363796402878 ], [ -0.12448079838973, 51.57436034093562 ], [ -0.124378713049078, 51.574351517200071 ], [ -0.124257729151265, 51.574345088220383 ], [ -0.124093588151359, 51.574407191212906 ], [ -0.123934547665817, 51.574518819870697 ], [ -0.123819451610756, 51.574615059114585 ], [ -0.123797107389573, 51.574631782596953 ], [ -0.123749565053813, 51.574665183913055 ], [ -0.123583278500672, 51.574672413615943 ], [ -0.123409709345772, 51.574683122560103 ], [ -0.123247851412758, 51.574686826665257 ], [ -0.122381786710071, 51.574971524670829 ], [ -0.122345345262459, 51.57491160830309 ], [ -0.121769054892516, 51.575062404555212 ], [ -0.121750044831656, 51.575067494176295 ], [ -0.121732967571149, 51.575028564318806 ], [ -0.119902503691248, 51.57545961992853 ], [ -0.119624913383199, 51.575508301824136 ], [ -0.119542596895477, 51.575510578551409 ], [ -0.119513664198169, 51.575511013843347 ], [ -0.119368122764206, 51.575260470559073 ], [ -0.11921303144789, 51.574996289171125 ], [ -0.119238276097166, 51.574981411025682 ], [ -0.119114541464175, 51.574900316626504 ], [ -0.118864416404013, 51.574736196975302 ], [ -0.118873245130189, 51.574732742567598 ], [ -0.119461589195372, 51.57442833681727 ], [ -0.119541216605267, 51.57438736055628 ], [ -0.119038170477652, 51.574372105417908 ], [ -0.118842200503284, 51.57436626670269 ], [ -0.118208623077227, 51.574261712747287 ], [ -0.117774270428249, 51.574190911973645 ], [ -0.117559502150843, 51.574150515304446 ], [ -0.117425434460012, 51.574043180891039 ], [ -0.117158612626202, 51.573828442767834 ], [ -0.116561134165841, 51.573374655243249 ], [ -0.115793025864326, 51.572826335416046 ], [ -0.115559488317274, 51.572575269773445 ], [ -0.116102025740774, 51.572192839101838 ], [ -0.116073577944691, 51.572181594081187 ], [ -0.11572325778579, 51.572035721606518 ], [ -0.115379891981796, 51.571894364895122 ], [ -0.115575682085941, 51.571625028509658 ], [ -0.115580267079116, 51.571620607262503 ], [ -0.115481808234927, 51.571558792266508 ], [ -0.115173764124368, 51.571435173376763 ], [ -0.115116869935336, 51.57141268287706 ], [ -0.115113487154652, 51.571321830527715 ], [ -0.11513369892954, 51.570832925283433 ], [ -0.1151402392228, 51.570674718340264 ], [ -0.115067606782304, 51.570650176774045 ], [ -0.115022031358922, 51.570635959112316 ], [ -0.115020069202514, 51.570614351806157 ], [ -0.115017311679631, 51.570577448883562 ], [ -0.111595376687395, 51.569055672448336 ], [ -0.110681751207184, 51.568608446448984 ], [ -0.110646433959497, 51.568590796397096 ], [ -0.110311475089759, 51.568422679801891 ], [ -0.109282714480917, 51.567794597113576 ], [ -0.109030269492406, 51.567653788408791 ], [ -0.108834552432794, 51.567536459050913 ], [ -0.108789540928785, 51.567508763101408 ], [ -0.108588562178865, 51.567377773640132 ], [ -0.108396676766315, 51.567239828515532 ], [ -0.108294546004396, 51.567160866967441 ], [ -0.107817930342061, 51.566791597088439 ], [ -0.107744206145747, 51.566724780081124 ], [ -0.107585365115391, 51.566553204034406 ], [ -0.107304431110442, 51.56633371754419 ], [ -0.106995671164457, 51.566125467932331 ], [ -0.106878030982958, 51.566039062108651 ], [ -0.106608224927214, 51.565829642513677 ], [ -0.106178715530796, 51.565541316993702 ], [ -0.104845551887103, 51.564637580848078 ], [ -0.104577616730835, 51.564767199450849 ], [ -0.104437633253164, 51.564835057745761 ], [ -0.104376396585358, 51.56478282438723 ], [ -0.104365238277477, 51.564773653924313 ], [ -0.104484780773879, 51.564708162155092 ], [ -0.103767809279117, 51.564324289153717 ], [ -0.102138561307809, 51.563290768582867 ], [ -0.102060013940415, 51.56323726470054 ], [ -0.101903877273334, 51.563104381033305 ], [ -0.101489668460268, 51.562795517558556 ], [ -0.101391320874219, 51.562731892984566 ], [ -0.101303906477666, 51.562682829509662 ], [ -0.101075862428059, 51.562582851094632 ], [ -0.100973080032223, 51.562520053289504 ], [ -0.100935179506646, 51.562496065006066 ], [ -0.100838820781748, 51.562418987150672 ], [ -0.099453594134925, 51.561487366852958 ], [ -0.09856153687392, 51.560839817007931 ], [ -0.096006128619409, 51.561229034358192 ], [ -0.095732805342886, 51.561176945636106 ], [ -0.094799470786389, 51.560966690207451 ], [ -0.094472961052388, 51.560872289647939 ], [ -0.094265483919716, 51.560798793142247 ], [ -0.093730292968054, 51.560554458666459 ], [ -0.093609237971115, 51.560516529051412 ], [ -0.093314587495931, 51.56049105773711 ], [ -0.093100050128558, 51.560481273530485 ], [ -0.092959162930436, 51.560468192601718 ], [ -0.092742523877413, 51.560440393448609 ], [ -0.092256470056051, 51.560298529277397 ], [ -0.092141916835142, 51.560278684067626 ], [ -0.091676713208816, 51.560224270470385 ], [ -0.091565352843293, 51.560162223477356 ], [ -0.09153042144127, 51.560064562045952 ], [ -0.09148542997914, 51.559968534753395 ], [ -0.091223961812856, 51.559562240802151 ], [ -0.091021497338403, 51.559263978966122 ], [ -0.090857936945774, 51.558999703706476 ], [ -0.090744754797452, 51.558776614517924 ], [ -0.090531603918708, 51.558318964551347 ], [ -0.090349172215475, 51.557920339871025 ], [ -0.090285367875115, 51.557824904551374 ], [ -0.090266364287581, 51.557795826689791 ], [ -0.090357219063687, 51.557728084225808 ], [ -0.090394105897918, 51.55767375629096 ], [ -0.090293781196298, 51.556694634265682 ], [ -0.090240171273716, 51.555804375781356 ], [ -0.090281733240696, 51.55536265335833 ], [ -0.090306765908693, 51.554935045543594 ], [ -0.090367114144501, 51.554425215082389 ], [ -0.090377121162413, 51.554151991025272 ], [ -0.090231598915102, 51.554147820857899 ], [ -0.090011154386357, 51.554140631027977 ], [ -0.089846557866785, 51.55407501709584 ], [ -0.089727174800653, 51.554031716288989 ], [ -0.089619815811935, 51.553979621384499 ], [ -0.089502841142367, 51.553912895587061 ], [ -0.089273398906315, 51.55374283772592 ], [ -0.089023697940858, 51.553815180247312 ], [ -0.08856218074483, 51.553949783727326 ], [ -0.087718497784392, 51.552946749271008 ], [ -0.087629690207769, 51.552897652251687 ], [ -0.087526054405004, 51.552824938929142 ], [ -0.087330297292605, 51.552745327420034 ], [ -0.08696705364272, 51.552669273609325 ], [ -0.086762626658504, 51.552626288882209 ], [ -0.086483502692048, 51.552574981518539 ], [ -0.086325073887392, 51.552535534276984 ], [ -0.086243959305081, 51.552507238967685 ], [ -0.086052527775689, 51.552429493903759 ], [ -0.085613271593538, 51.55220646479291 ], [ -0.085478052352927, 51.55216379961562 ], [ -0.085378015684723, 51.552141487470749 ], [ -0.085274862891201, 51.552125417354596 ], [ -0.085154094275507, 51.552115352246162 ], [ -0.08467227187595, 51.552048141404377 ], [ -0.084606105121361, 51.552043463668412 ], [ -0.084486198294473, 51.552046897359034 ], [ -0.084352545099733, 51.552068985323253 ], [ -0.083687859183107, 51.552130935022319 ], [ -0.083191267386755, 51.552140791726643 ], [ -0.081095066990102, 51.551977919889083 ], [ -0.080261199276195, 51.551911217982543 ], [ -0.079936914604065, 51.551870752720056 ], [ -0.079698477706814, 51.551813803398623 ], [ -0.079553023138378, 51.551740397588688 ], [ -0.07948273497574, 51.551695194017007 ], [ -0.079434941725934, 51.551666541307085 ], [ -0.079306872101628, 51.551589824132748 ], [ -0.079014645849444, 51.55133591781378 ], [ -0.078842343679961, 51.551146008878298 ], [ -0.07877654085569, 51.551064918069343 ], [ -0.07865757660407, 51.550944298042346 ], [ -0.077878778123569, 51.549675259903758 ], [ -0.077723128574287, 51.549465846857075 ], [ -0.077691788541936, 51.549422180750035 ], [ -0.077063917909366, 51.548678923462795 ], [ -0.076889777423133, 51.548431537294476 ], [ -0.076731044264013, 51.548160040863685 ], [ -0.076702406550864, 51.548120014736206 ], [ -0.07660920366829, 51.547935897804734 ], [ -0.07641451379157, 51.547318504872571 ], [ -0.076388622856275, 51.54697637022084 ], [ -0.076347363328132, 51.546654660083711 ], [ -0.076331156046315, 51.546424160256755 ], [ -0.076351340910967, 51.546354369862385 ], [ -0.076812826324012, 51.546081371172932 ], [ -0.07829447482322, 51.546243328087925 ], [ -0.079693282456601, 51.546350776827836 ], [ -0.083139443851772, 51.54657803701452 ], [ -0.083811847309962, 51.546605221522604 ], [ -0.083602937743744, 51.545225988374888 ], [ -0.083634134443556, 51.545066478540726 ], [ -0.084059713054903, 51.543931364707191 ], [ -0.084662640346587, 51.542383728426444 ], [ -0.08546790223439, 51.540378101840815 ], [ -0.085655775129123, 51.539783156910197 ], [ -0.086009826571768, 51.538735852231142 ], [ -0.086377774730135, 51.537733812728874 ], [ -0.086435889209821, 51.537553073786214 ], [ -0.086544520184812, 51.537403815473994 ], [ -0.086590979557147, 51.537257138024152 ] ] ] } }
]
}
