{
"type": "FeatureCollection",
"name": "borough_Tower_Hamlets",
"crs": { "type": "name", "properties": { "name": "urn:ogc:def:crs:OGC:1.3:CRS84" } },
"features": [
{ "type": "Feature", "properties": { "DISTRICT": "Tower Hamlets", "NAME": "St. Katharine's & Wapping", "GSS_CODE": "E05009330", "LAGSSCODE": "E09000030", "HECTARES": 149.089, "NONLD_AREA": 42.323 }, "geometry": { "type": "Polygon", "coordinates": [ [ [ -0.008115820057078, 51.523420232739646 ], [ -0.008085301502538, 51.523327024986706 ], [ -0.007829546819488, 51.523010630490703 ], [ -0.007804830860586, 51.5229805429328 ], [ -0.007785332749107, 51.522833670483415 ], [ -0.007900866029354, 51.522564036233739 ], [ -0.008014608365432, 51.522370788771973 ], [ -0.008148222395348, 51.522280457546387 ], [ -0.008209591560003, 51.522097109077677 ], [ -0.008445824390605, 51.521638030886685 ], [ -0.00847580770101, 51.521580103145808 ], [ -0.008496742710987, 51.521563377020868 ], [ -0.008645825696932, 51.521448045284757 ], [ -0.008870377835222, 51.521093055249437 ], [ -0.009016392042602, 51.520753813513792 ], [ -0.009034432469956, 51.520536465436052 ], [ -0.009010965266999, 51.520281642726793 ], [ -0.008895487461658, 51.51989112358882 ], [ -0.008822128669523, 51.519788288443451 ], [ -0.008571605282258, 51.519649181824242 ], [ -0.007900739772002, 51.519365296070234 ], [ -0.007711324743922, 51.519280267768828 ], [ -0.007526228872122, 51.519194323567064 ], [ -0.007165210679088, 51.519011082498466 ], [ -0.006944905124984, 51.518874193560848 ], [ -0.006786038115893, 51.51874832735605 ], [ -0.006707272498461, 51.518671470573132 ], [ -0.006350117743665, 51.518302013668887 ], [ -0.006002185384009, 51.517819524501505 ], [ -0.0058726319176, 51.517615849711682 ], [ -0.005792918161872, 51.517427496464393 ], [ -0.005769674061189, 51.516936943614049 ], [ -0.005756118680337, 51.516885466988633 ], [ -0.005730926477692, 51.516836489662282 ], [ -0.005699640504912, 51.516793702098603 ], [ -0.005659528540813, 51.516754360668216 ], [ -0.005593728938106, 51.516709997234244 ], [ -0.005348229035062, 51.516589844185447 ], [ -0.005285326128338, 51.516577086668448 ], [ -0.00515330958079, 51.516563153618478 ], [ -0.005041088048726, 51.51655854767921 ], [ -0.004970392195356, 51.516560941384782 ], [ -0.004828095817197, 51.51658369440262 ], [ -0.004652992982943, 51.516633759878836 ], [ -0.004579417012773, 51.516666672274383 ], [ -0.004529076242582, 51.516698181834272 ], [ -0.004451388395427, 51.516759883914943 ], [ -0.004192866981627, 51.517035181632458 ], [ -0.004103673615472, 51.517131661062052 ], [ -0.003971882902116, 51.517343478920637 ], [ -0.003775080818752, 51.517623324299031 ], [ -0.003676458010655, 51.517704446527745 ], [ -0.003621722403402, 51.517735880039673 ], [ -0.003445789954297, 51.517804807995404 ], [ -0.003224968324768, 51.517875668648003 ], [ -0.002504271467219, 51.517974068591698 ], [ -0.002401826363095, 51.517976819134994 ], [ -0.002332789287169, 51.517973845338553 ], [ -0.002266877605918, 51.517964631510914 ], [ -0.002189761257616, 51.517948034556113 ], [ -0.002053618131587, 51.517897977109641 ], [ -0.001426628592785, 51.517568945563625 ], [ -0.000635289016535, 51.517175064712234 ], [ 0.000598758783081, 51.516587414110269 ], [ 0.00173932832175, 51.51620462525878 ], [ 0.001980441941922, 51.516115095478838 ], [ 0.00233761837997, 51.515978629080138 ], [ 0.002572552161511, 51.515881022330902 ], [ 0.002692772205648, 51.515828620459246 ], [ 0.003010443495222, 51.515677543352226 ], [ 0.003204764162565, 51.515572538139082 ], [ 0.00364158949079, 51.515279978674357 ], [ 0.003835402390469, 51.515131017318907 ], [ 0.003925067054254, 51.515040477362255 ], [ 0.004026728055874, 51.514893001721383 ], [ 0.004074791093942, 51.514807668423948 ], [ 0.004139484940695, 51.514638348523313 ], [ 0.004116942926857, 51.514487692577944 ], [ 0.004085132799777, 51.514385744177154 ], [ 0.004051376355476, 51.514307114611476 ], [ 0.004007728465818, 51.514230542210917 ], [ 0.003833839231164, 51.513980791049967 ], [ 0.003637398769962, 51.513674784574405 ], [ 0.003522325545208, 51.513484353880031 ], [ 0.003312557578356, 51.513104761987101 ], [ 0.002789307363843, 51.512313364866323 ], [ 0.002508765896807, 51.511799222908941 ], [ 0.002381003161965, 51.511549579874554 ], [ 0.002331153751092, 51.511431755958895 ], [ 0.002281428361987, 51.511284260982578 ], [ 0.002260501673948, 51.511200017163766 ], [ 0.002249569327912, 51.511018594234265 ], [ 0.00228548574126, 51.510883931068811 ], [ 0.002333587951145, 51.510796799676939 ], [ 0.002410147741221, 51.510702888646534 ], [ 0.002480287091578, 51.510660333575451 ], [ 0.002529802875677, 51.510637910130853 ], [ 0.002616597663128, 51.510612062587811 ], [ 0.003096411679987, 51.510544524981427 ], [ 0.003312546652129, 51.510544426928291 ], [ 0.003566398806631, 51.510548178972407 ], [ 0.003738678848168, 51.510566810993126 ], [ 0.003896157735657, 51.5106082621664 ], [ 0.003965138291731, 51.510636751570303 ], [ 0.004030002332074, 51.510668907549821 ], [ 0.004107133086893, 51.510720632980068 ], [ 0.004285250486467, 51.510904590808849 ], [ 0.004346669304178, 51.510988141656554 ], [ 0.004407803769403, 51.511100377237561 ], [ 0.004457618141984, 51.511252454790565 ], [ 0.004551272849139, 51.511480112355976 ], [ 0.004647127270571, 51.511922786498772 ], [ 0.004691307337841, 51.512208919671451 ], [ 0.004652208437606, 51.512530641545972 ], [ 0.004642364901318, 51.512798818638238 ], [ 0.0047088635763, 51.513097965890211 ], [ 0.004781831629995, 51.513284710268493 ], [ 0.004848512508447, 51.513423013109382 ], [ 0.004904630027043, 51.513488583174066 ], [ 0.00494518865968, 51.513589482595421 ], [ 0.005103730546913, 51.513787349348938 ], [ 0.005280050720108, 51.513897613292677 ], [ 0.005505087318256, 51.514132101857768 ], [ 0.005586303267092, 51.514173866543089 ], [ 0.006133777064096, 51.514333607525415 ], [ 0.006302392434822, 51.5143334179036 ], [ 0.006431385739971, 51.514350988517144 ], [ 0.006674691152598, 51.514344125133093 ], [ 0.006936993127933, 51.514312571512797 ], [ 0.007131180495982, 51.514269687161608 ], [ 0.007319511527034, 51.514193637794904 ], [ 0.007389693069389, 51.514116914986197 ], [ 0.007459836567708, 51.514009624936584 ], [ 0.007570468680508, 51.513869185347147 ], [ 0.007660955651296, 51.513765142894144 ], [ 0.007874775062922, 51.513579780543367 ], [ 0.007914478121964, 51.513499084414107 ], [ 0.007924019884747, 51.513356780416615 ], [ 0.008017910047626, 51.513230203060893 ], [ 0.008056191122323, 51.51298761156491 ], [ 0.008016817884579, 51.512713984721785 ], [ 0.007882342197876, 51.512309826296963 ], [ 0.007717738905822, 51.512174191982382 ], [ 0.007667279000577, 51.512107627343774 ], [ 0.007600114036401, 51.51202058068651 ], [ 0.007433022479146, 51.511828348078438 ], [ 0.007301423317039, 51.511751395465055 ], [ 0.007219783882313, 51.511567588427873 ], [ 0.006940816783432, 51.511122658622668 ], [ 0.006661526847061, 51.510932346009561 ], [ 0.006238619617976, 51.510588864703941 ], [ 0.006204148695022, 51.510526430974494 ], [ 0.00619572374304, 51.510467237510269 ], [ 0.006135689013619, 51.510412523703167 ], [ 0.006026586055187, 51.510225499561564 ], [ 0.00596248385168, 51.510078252502964 ], [ 0.005958573866548, 51.509989312881672 ], [ 0.006023011674124, 51.509882031461785 ], [ 0.006168190820005, 51.50977345787652 ], [ 0.006266861160366, 51.5097232198532 ], [ 0.006509594828152, 51.509639048511417 ], [ 0.006802981809313, 51.509561111928654 ], [ 0.0072769214874, 51.509490062052137 ], [ 0.007676691361432, 51.509440060056846 ], [ 0.007715595576144, 51.509438494569828 ], [ 0.007850711632129, 51.509430785592201 ], [ 0.00808204107756, 51.509381869627504 ], [ 0.008481691838153, 51.509294106682852 ], [ 0.008869029301143, 51.509188482473299 ], [ 0.009077244558573, 51.509105796715794 ], [ 0.009232426306808, 51.509030313149239 ], [ 0.009438302237826, 51.50889453278922 ], [ 0.009616554900852, 51.508722456411846 ], [ 0.00969198690208, 51.508635754289891 ], [ 0.009761676106687, 51.508548161656108 ], [ 0.009841500232522, 51.508431715841425 ], [ 0.009890296530013, 51.508328388598571 ], [ 0.009891003857303, 51.508212310466241 ], [ 0.009842126639321, 51.508084585923108 ], [ 0.009675032531011, 51.507760110613091 ], [ 0.009552740253991, 51.507632655655193 ], [ 0.009372986093704, 51.50728232463414 ], [ 0.009205344382478, 51.506977636650511 ], [ 0.009077519440277, 51.506821596500025 ], [ 0.008795787705246, 51.506578199814832 ], [ 0.008305587399946, 51.506146878385124 ], [ 0.007624854432538, 51.505511049283449 ], [ 0.007347715489733, 51.505630872606893 ], [ 0.005992083847919, 51.50616302646926 ], [ 0.005201213708089, 51.506429278798336 ], [ 0.004173201259807, 51.50671216755719 ], [ 0.00398161654658, 51.506746010550884 ], [ 0.003898311032912, 51.506753728025984 ], [ 0.003636760410648, 51.506768987566424 ], [ 0.003183435530782, 51.506751562182224 ], [ 0.002724846422624, 51.506741417332819 ], [ 0.002208872952344, 51.506739443237144 ], [ 0.001391511879258, 51.506667992317261 ], [ 0.000981101952355, 51.506575204759159 ], [ 0.000674289629014, 51.506512024303966 ], [ 0.000170531656726, 51.506395653671348 ], [ -0.000129622957236, 51.506318961615392 ], [ -0.000891766395903, 51.506059460427494 ], [ -0.001290590982778, 51.505870178888792 ], [ -0.001973178610691, 51.505451980409298 ], [ -0.002427330140999, 51.505152156130407 ], [ -0.002635638019936, 51.504966815726071 ], [ -0.002848185367136, 51.504820296176916 ], [ -0.003022424160492, 51.504658648951896 ], [ -0.003201560665091, 51.504482790044655 ], [ -0.003336061301388, 51.504306080666773 ], [ -0.003527619583565, 51.504112362004747 ], [ -0.003690322949884, 51.503915544386935 ], [ -0.004007408664761, 51.503616976012076 ], [ -0.004299218204906, 51.503238860244217 ], [ -0.004483651266962, 51.502941628254185 ], [ -0.004535491653713, 51.502810260815167 ], [ -0.004640857540134, 51.502511682538469 ], [ -0.004795177969931, 51.5021123450394 ], [ -0.004836361411787, 51.501961106918465 ], [ -0.004911229731316, 51.501830131289275 ], [ -0.005008641834779, 51.501678052065017 ], [ -0.005053602737897, 51.50157353876218 ], [ -0.005110309237014, 51.501461223817266 ], [ -0.005148663432397, 51.501244217021217 ], [ -0.005150347135153, 51.501072527478762 ], [ -0.00515108243779, 51.50102309234363 ], [ -0.005151418148073, 51.500950185249941 ], [ -0.005152781752986, 51.500886376036057 ], [ -0.00505602045642, 51.500727395765622 ], [ -0.00496774962884, 51.500371492313562 ], [ -0.004920308404735, 51.5001387365471 ], [ -0.004576617329209, 51.499003352182882 ], [ -0.004450004773518, 51.498636103090931 ], [ -0.004350414242788, 51.498378994897521 ], [ -0.004304600819504, 51.498272130101256 ], [ -0.00413684908297, 51.497924857972677 ], [ -0.003978963828421, 51.497615512679999 ], [ -0.003631664220052, 51.497123047107578 ], [ -0.002797724527212, 51.495669146679099 ], [ -0.002443352423366, 51.495108232142591 ], [ -0.002282470208556, 51.494900423746543 ], [ -0.002184040597724, 51.494777378427301 ], [ -0.002115808954512, 51.494691707577211 ], [ -0.002085458899534, 51.494660533710103 ], [ -0.001993720779058, 51.494552885682111 ], [ -0.00157450507407, 51.494089846567796 ], [ -0.001414654439164, 51.493858680774217 ], [ -0.001187316608048, 51.493489713083413 ], [ -0.001055296392645, 51.493314760595986 ], [ -0.000998074044003, 51.493075454272926 ], [ -0.000775929739102, 51.492555538544849 ], [ -0.000650547835527, 51.492161337094373 ], [ -0.00038907215087, 51.491389737861752 ], [ -0.000422865891711, 51.490913738793829 ], [ -0.000422571168291, 51.490822841938936 ], [ -0.00042091087834, 51.490662786470352 ], [ -0.000449470784777, 51.490306268962215 ], [ -0.00048391601226, 51.490078412920582 ], [ -0.000554753979634, 51.489843985047841 ], [ -0.000677830391751, 51.489534030134685 ], [ -0.000915202120053, 51.489111846493223 ], [ -0.001151665424274, 51.488713021555071 ], [ -0.001450311870755, 51.488307074474399 ], [ -0.00171947051403, 51.488015790353963 ], [ -0.002149089813643, 51.487642731323319 ], [ -0.002927130416219, 51.487145155863992 ], [ -0.003384259681204, 51.486903009943134 ], [ -0.004528778712427, 51.486323558117526 ], [ -0.004718865271067, 51.486256668331926 ], [ -0.005116905569889, 51.486080847453358 ], [ -0.005355114761179, 51.485969823759206 ], [ -0.005529262530513, 51.485906167738811 ], [ -0.005624343489977, 51.485871823673143 ], [ -0.005900571563408, 51.485782123165251 ], [ -0.006218294481063, 51.485696723651856 ], [ -0.006710055697892, 51.485582725807738 ], [ -0.006940679262817, 51.485512026282507 ], [ -0.007438508936941, 51.485359560081292 ], [ -0.007931988757781, 51.485208726006746 ], [ -0.010579828636201, 51.484732958760823 ], [ -0.010805715718297, 51.48470532470364 ], [ -0.011031563408963, 51.484678588572436 ], [ -0.012759376613384, 51.484527176797556 ], [ -0.012861023385293, 51.484508221610128 ], [ -0.013166544538665, 51.484503509181351 ], [ -0.013776375612578, 51.484521931393623 ], [ -0.014531145753653, 51.484555391016457 ], [ -0.014776109673624, 51.484553245170879 ], [ -0.015108065490889, 51.484568753898863 ], [ -0.015447574075619, 51.484579894350681 ], [ -0.015635899791636, 51.484585778478397 ], [ -0.015906831984949, 51.48461733388001 ], [ -0.016336454892456, 51.484639885796497 ], [ -0.016519847414145, 51.484663665689837 ], [ -0.016559880482498, 51.484668837987059 ], [ -0.016760362962108, 51.484695603664015 ], [ -0.017402041829925, 51.484779275943879 ], [ -0.01742510230397, 51.484778766796175 ], [ -0.017624141489048, 51.484773141450361 ], [ -0.018005091451356, 51.484822734411573 ], [ -0.018787572124326, 51.485044629535942 ], [ -0.018942740592747, 51.485086810495453 ], [ -0.019446743465204, 51.485223892217341 ], [ -0.019994118063695, 51.485387866516319 ], [ -0.021054708267116, 51.485775375787739 ], [ -0.02136511869233, 51.485893895965887 ], [ -0.021857706518383, 51.486091998656512 ], [ -0.022991935613069, 51.486576120894078 ], [ -0.023417856371755, 51.486786487748496 ], [ -0.023491224570044, 51.486822787620447 ], [ -0.02352786881421, 51.486840487350975 ], [ -0.023798352732325, 51.486981792341155 ], [ -0.024117062401268, 51.487172367772807 ], [ -0.024372760633804, 51.487320614361693 ], [ -0.024666730165651, 51.487484699231594 ], [ -0.024817454089945, 51.487597011893769 ], [ -0.025096018049621, 51.487785109854684 ], [ -0.02595548921525, 51.488395830820068 ], [ -0.026572275587719, 51.48885411813729 ], [ -0.026771278710054, 51.489017497282873 ], [ -0.026875162717338, 51.489111846972833 ], [ -0.027077582918796, 51.489295151742212 ], [ -0.027258846838405, 51.489434856539589 ], [ -0.027490696469464, 51.489704064092038 ], [ -0.027819701569776, 51.490055819360876 ], [ -0.028143329273987, 51.490501971434128 ], [ -0.028360621285593, 51.490805994493492 ], [ -0.028980709393194, 51.49162663439818 ], [ -0.029306789665525, 51.492181607279981 ], [ -0.02960347657652, 51.492685740130966 ], [ -0.029742913556971, 51.492925429630304 ], [ -0.029788700103064, 51.493031476308623 ], [ -0.029921315483352, 51.493564225532367 ], [ -0.029989616596852, 51.493985402100662 ], [ -0.030008224924564, 51.494088204713826 ], [ -0.030115605344175, 51.494671864099644 ], [ -0.030180644577054, 51.495333926400505 ], [ -0.030188375732039, 51.495487880866989 ], [ -0.030191927400958, 51.495741467791113 ], [ -0.030177854326722, 51.496067669961306 ], [ -0.030097383023509, 51.497062804819976 ], [ -0.030083807125897, 51.497146186608148 ], [ -0.030015949656995, 51.497548801268806 ], [ -0.030004207598867, 51.498054938911359 ], [ -0.029996171399587, 51.498409112454645 ], [ -0.029912440609445, 51.498945505840574 ], [ -0.029863858458885, 51.499270228599407 ], [ -0.029826116368375, 51.499544697881447 ], [ -0.029669075186128, 51.500144588712452 ], [ -0.02953625358913, 51.501119062620674 ], [ -0.029429271433681, 51.502094779482597 ], [ -0.029405317630882, 51.502349701343654 ], [ -0.029395106405532, 51.502487171201139 ], [ -0.02936155515649, 51.502628653862494 ], [ -0.029345935062719, 51.502690514221939 ], [ -0.029356974946806, 51.502734752340359 ], [ -0.02942786694074, 51.503030017122299 ], [ -0.029524434363177, 51.503495630133123 ], [ -0.029579642444687, 51.503818500902078 ], [ -0.029635453269847, 51.504061368052895 ], [ -0.029609939875587, 51.504253331565806 ], [ -0.029566535469927, 51.504356080277532 ], [ -0.029560177534932, 51.504371256908307 ], [ -0.029574726603995, 51.504400270436228 ], [ -0.029688312530521, 51.504639613511515 ], [ -0.029810556403939, 51.504912365999246 ], [ -0.029881796133094, 51.505097864350844 ], [ -0.029971500724055, 51.505224426896781 ], [ -0.030054529306898, 51.505403829968664 ], [ -0.030290826693448, 51.505671305920885 ], [ -0.030475314817896, 51.505837129718188 ], [ -0.030565756574468, 51.505943925351581 ], [ -0.030586356951207, 51.50596764615932 ], [ -0.030631679320747, 51.506021450195192 ], [ -0.030731839266221, 51.506104045236356 ], [ -0.030813327554541, 51.506151264449869 ], [ -0.03102541261788, 51.506244819303554 ], [ -0.031257578873376, 51.506308054099868 ], [ -0.031398224243174, 51.506388631224247 ], [ -0.031524542794486, 51.506468068568047 ], [ -0.031627705947915, 51.506547206887191 ], [ -0.031715004996372, 51.506627786909071 ], [ -0.031781169271629, 51.506663959730375 ], [ -0.03217680854403, 51.506881962056212 ], [ -0.032403610418663, 51.507000843828415 ], [ -0.032743168162112, 51.507081160918517 ], [ -0.033022171084782, 51.507160550964528 ], [ -0.033515910201356, 51.507272220951776 ], [ -0.034312068717717, 51.507523902606131 ], [ -0.034940423953092, 51.507724128988215 ], [ -0.035559341705157, 51.507942262947765 ], [ -0.035934110420214, 51.508074403603977 ], [ -0.036679852241529, 51.508225430772534 ], [ -0.037219834882959, 51.508370222324103 ], [ -0.037457798067379, 51.508431742379805 ], [ -0.03784548437094, 51.508498554200862 ], [ -0.038167192373252, 51.508557877894951 ], [ -0.038823946017371, 51.508601227924075 ], [ -0.039590942933548, 51.508625739800323 ], [ -0.040207601890124, 51.508628854876612 ], [ -0.040555971802356, 51.508637373374135 ], [ -0.04090334123822, 51.508635984910391 ], [ -0.041311689379711, 51.508625724729342 ], [ -0.041860321286786, 51.508599825291547 ], [ -0.042076996131826, 51.508589957833131 ], [ -0.04268853513641, 51.508543438498108 ], [ -0.043322372021899, 51.508481195649047 ], [ -0.043585191981165, 51.508437033697497 ], [ -0.043904977986995, 51.508372244999912 ], [ -0.044299760661691, 51.508273644558543 ], [ -0.045124719441628, 51.508054464548195 ], [ -0.045468579413643, 51.507935143151784 ], [ -0.04595378737775, 51.507708586174935 ], [ -0.046369161833241, 51.507497855311144 ], [ -0.046541487360443, 51.507410824574016 ], [ -0.046928471880403, 51.507224791369026 ], [ -0.048120283374225, 51.506583679794531 ], [ -0.048619519292041, 51.506297921198659 ], [ -0.049426059048925, 51.505835582268979 ], [ -0.051408109990137, 51.50467437789235 ], [ -0.051801747256787, 51.504465066341574 ], [ -0.052225962201291, 51.504249069643755 ], [ -0.05238936755019, 51.504167277024649 ], [ -0.052763123328187, 51.503953137154099 ], [ -0.053626451698447, 51.503441460211924 ], [ -0.054846991912983, 51.502796266895828 ], [ -0.054848416556359, 51.502796290532181 ], [ -0.055140331088718, 51.502676080554096 ], [ -0.055553355895648, 51.502518411825598 ], [ -0.055953526949303, 51.502391904071366 ], [ -0.056352047305034, 51.502304115066558 ], [ -0.056353628901258, 51.502303242272887 ], [ -0.056940619160315, 51.502152857695258 ], [ -0.05719868150006, 51.502082516181751 ], [ -0.057532811420328, 51.50201972751448 ], [ -0.057678078193186, 51.501992466765671 ], [ -0.058272896853444, 51.501895246993897 ], [ -0.058795040361909, 51.501813992075867 ], [ -0.059500966274208, 51.501715998501666 ], [ -0.059866134863104, 51.501666303084079 ], [ -0.060039178677894, 51.501664671447514 ], [ -0.06017859982347, 51.501671473395369 ], [ -0.060419706880048, 51.501695240696129 ], [ -0.060877143598645, 51.501713595558748 ], [ -0.062365597335334, 51.501915310248137 ], [ -0.063080800351483, 51.502004533246556 ], [ -0.063583519066977, 51.502075768457281 ], [ -0.064206223936873, 51.502172357055983 ], [ -0.0646362787954, 51.502259469237579 ], [ -0.065891593098251, 51.502524806390973 ], [ -0.066155223678807, 51.502594783194191 ], [ -0.066501018379166, 51.502696770837474 ], [ -0.066929006927364, 51.502796426744524 ], [ -0.067690943617651, 51.503008658119377 ], [ -0.067692368278611, 51.503008681599916 ], [ -0.067881605371104, 51.503031578667034 ], [ -0.068180644643346, 51.503115619662559 ], [ -0.069112392072858, 51.503366606082309 ], [ -0.06983946434041, 51.503586255521448 ], [ -0.070074106295982, 51.503659343957061 ], [ -0.070191948631302, 51.503701830082946 ], [ -0.070454411759996, 51.503796952248656 ], [ -0.070519558840736, 51.503824096288007 ], [ -0.070894951425342, 51.503976815639042 ], [ -0.071250905850395, 51.504148183110942 ], [ -0.071820721140687, 51.504406676815577 ], [ -0.072692359548772, 51.504785205883984 ], [ -0.073175122085894, 51.504953169068692 ], [ -0.07373326173253, 51.505114368077273 ], [ -0.074029932082917, 51.505187569280146 ], [ -0.075214630971444, 51.505454352575285 ], [ -0.075385530949783, 51.505503908223893 ], [ -0.076312143061207, 51.505774532834003 ], [ -0.077218927956096, 51.506039430822618 ], [ -0.078079445132477, 51.506274704693055 ], [ -0.078193290864674, 51.506308037313794 ], [ -0.078224689610195, 51.506315744359448 ], [ -0.078480813728637, 51.506392854506515 ], [ -0.078924019715416, 51.506510699907921 ], [ -0.079230832620418, 51.506580458336352 ], [ -0.079795722822012, 51.506751628739032 ], [ -0.079959163440314, 51.50680644969259 ], [ -0.080164020676196, 51.506870939112382 ], [ -0.079754947150194, 51.507585427494632 ], [ -0.079731270125398, 51.507600322785855 ], [ -0.079524174079161, 51.507727376238982 ], [ -0.079378662543809, 51.507794215682324 ], [ -0.079353511124775, 51.507844148356881 ], [ -0.079319083365983, 51.507908403142849 ], [ -0.07921734710459, 51.507894958507393 ], [ -0.079076812047307, 51.50822187455838 ], [ -0.079028866192331, 51.508333465596785 ], [ -0.079023105424141, 51.508402595389171 ], [ -0.079021189096707, 51.508414251182231 ], [ -0.078845376270593, 51.508653294141823 ], [ -0.07871040890107, 51.508811106163371 ], [ -0.078695285326806, 51.508828838517694 ], [ -0.078711007167845, 51.50883359136764 ], [ -0.078764904494608, 51.508851646222098 ], [ -0.078722333624212, 51.508939950564368 ], [ -0.07906333097215, 51.509056119514604 ], [ -0.079073310344834, 51.509058980141567 ], [ -0.07902320082728, 51.509117493578493 ], [ -0.078936575189799, 51.509123265602611 ], [ -0.078856639546143, 51.509413325293956 ], [ -0.078518219424303, 51.509441939121665 ], [ -0.07848921440614, 51.509445059568016 ], [ -0.078476243532292, 51.509513261775155 ], [ -0.078372156168973, 51.509657195066865 ], [ -0.078140818856704, 51.509882739489605 ], [ -0.077937267547725, 51.51002683911608 ], [ -0.077763486146749, 51.510115777819969 ], [ -0.077552047093535, 51.510173442135049 ], [ -0.077052142469019, 51.510204796461665 ], [ -0.076893211310706, 51.510214774514807 ], [ -0.076856689228082, 51.510260923817839 ], [ -0.076860444941904, 51.510340997611756 ], [ -0.076867895553341, 51.510471566671242 ], [ -0.076869425746877, 51.510505754276927 ], [ -0.076532724188619, 51.510527198468239 ], [ -0.076259501363508, 51.510545188744167 ], [ -0.076250344831804, 51.510455137127529 ], [ -0.076146493594595, 51.510457927262777 ], [ -0.076124844653875, 51.51045847085269 ], [ -0.076056103171186, 51.510107536295827 ], [ -0.075755382845496, 51.510129568998195 ], [ -0.075750109033023, 51.510082733719933 ], [ -0.075732445782591, 51.50988726793932 ], [ -0.075673218770861, 51.509857526938418 ], [ -0.075667514106132, 51.509854736219793 ], [ -0.075614782106983, 51.509806222572749 ], [ -0.075595315873317, 51.509788821647753 ], [ -0.075558040703516, 51.50975134996564 ], [ -0.075540477360434, 51.509756455608702 ], [ -0.075385850570233, 51.509802462830436 ], [ -0.074808439866177, 51.509995255968882 ], [ -0.074592048538785, 51.509967427344876 ], [ -0.074524631573531, 51.509960026522926 ], [ -0.074395421466625, 51.509947115201989 ], [ -0.07417080892968, 51.510009951024252 ], [ -0.074023490144456, 51.510051671385213 ], [ -0.073806953854967, 51.510094860960081 ], [ -0.073495018135463, 51.510109511405432 ], [ -0.073114581724353, 51.510108650450761 ], [ -0.072964849272859, 51.510106188251463 ], [ -0.072888065139117, 51.510148977178631 ], [ -0.072809313388667, 51.510241179412553 ], [ -0.072754919878204, 51.510299619706124 ], [ -0.072733537561145, 51.510361389840924 ], [ -0.072723242265927, 51.510641802472577 ], [ -0.072734845791664, 51.510775047230197 ], [ -0.072737830796548, 51.510805662763694 ], [ -0.072745041008905, 51.510874106330562 ], [ -0.072800994744222, 51.511085485486454 ], [ -0.072890440205516, 51.511255071886715 ], [ -0.072957355758931, 51.511443256890551 ], [ -0.073017915886258, 51.511683480085516 ], [ -0.073037067362216, 51.511809656808985 ], [ -0.073116922438231, 51.512341567259249 ], [ -0.073241244405041, 51.512946129769176 ], [ -0.073363107351044, 51.513372557268617 ], [ -0.073365729793205, 51.513377994460299 ], [ -0.073461235689355, 51.513677227716009 ], [ -0.073637973845954, 51.514132516326164 ], [ -0.073942959266885, 51.514454970845534 ], [ -0.07428044397397, 51.514688866502361 ], [ -0.074415848335598, 51.514791870865778 ], [ -0.074787596053289, 51.515101035988955 ], [ -0.075119943141097, 51.515355522080974 ], [ -0.076407850947101, 51.516258871171054 ], [ -0.076793052386613, 51.516593423044853 ], [ -0.07683145623366, 51.516638104914655 ], [ -0.076850736494453, 51.516659997624267 ], [ -0.076891954189956, 51.516708411602743 ], [ -0.077344345624386, 51.517397465878148 ], [ -0.077376822907563, 51.517447444387173 ], [ -0.077617161657631, 51.51786682072396 ], [ -0.077626272298571, 51.517890344489082 ], [ -0.077660120613092, 51.517975496767647 ], [ -0.077707982866418, 51.51803831372694 ], [ -0.077777000577864, 51.51810956879762 ], [ -0.077939658336335, 51.518251583664082 ], [ -0.078120711722144, 51.51847040589832 ], [ -0.078021975280458, 51.518486766756084 ], [ -0.078056434172051, 51.518969381983155 ], [ -0.078308281059924, 51.518946541935122 ], [ -0.079403615227384, 51.518846638747391 ], [ -0.079147405797453, 51.519453047972995 ], [ -0.078963824143175, 51.520115486921505 ], [ -0.07881435621011, 51.520653522220734 ], [ -0.078817017513384, 51.520658060908829 ], [ -0.078784795028325, 51.520740241677586 ], [ -0.07870438119203, 51.521041080995786 ], [ -0.078445192711587, 51.521511688944322 ], [ -0.078426570869485, 51.521544647003481 ], [ -0.078210261145205, 51.521854944601955 ], [ -0.077896567553723, 51.521943296843666 ], [ -0.077105105026465, 51.522115598452459 ], [ -0.076691659051067, 51.522213098701116 ], [ -0.076427532841868, 51.522013677934915 ], [ -0.076160766333915, 51.522153140456687 ], [ -0.076137066061485, 51.522202196977155 ], [ -0.076053270778516, 51.522379814369756 ], [ -0.07598819674246, 51.522553154121674 ], [ -0.075836777610057, 51.522896877102248 ], [ -0.075812049704092, 51.522970279878876 ], [ -0.075788864481789, 51.523040921046672 ], [ -0.075744151573047, 51.523179533551136 ], [ -0.075700900080181, 51.523486375000694 ], [ -0.075692300286523, 51.523588810939913 ], [ -0.075750135570647, 51.523857665932091 ], [ -0.075889062114481, 51.524323117570823 ], [ -0.076416711774976, 51.524288627637816 ], [ -0.076534098151287, 51.525332777761818 ], [ -0.076575003064142, 51.525732697767765 ], [ -0.076602855796295, 51.525993955505456 ], [ -0.07661615089865, 51.526157882046746 ], [ -0.076614039381008, 51.526275616687421 ], [ -0.076609228558424, 51.526389711009827 ], [ -0.076513246257241, 51.526512287705394 ], [ -0.076330769420666, 51.526873477896771 ], [ -0.076288881839242, 51.52714797470167 ], [ -0.077226953739665, 51.527298222221198 ], [ -0.076862127917796, 51.527504489416124 ], [ -0.076323042327095, 51.527876906828517 ], [ -0.076012689216792, 51.528124520374135 ], [ -0.075707485905829, 51.528354237494923 ], [ -0.075653950502406, 51.528394712287316 ], [ -0.075608892002071, 51.528437124283059 ], [ -0.075451963850644, 51.528600951773171 ], [ -0.075291949885214, 51.528806891443487 ], [ -0.074905759658506, 51.529417440684313 ], [ -0.074623145820172, 51.529793163503079 ], [ -0.074347051291607, 51.53001436460945 ], [ -0.074144117995297, 51.53014417068843 ], [ -0.074018569147208, 51.530214925717139 ], [ -0.073746456874264, 51.53034170580338 ], [ -0.073122549383415, 51.53057066922181 ], [ -0.072895799535284, 51.530647849320445 ], [ -0.072761288683946, 51.530691485476545 ], [ -0.07223879517697, 51.530841202285707 ], [ -0.071899869822866, 51.530877877456298 ], [ -0.07160665661888, 51.530924294075426 ], [ -0.071205875825575, 51.530959049966881 ], [ -0.070504727700803, 51.531004140573785 ], [ -0.069888038180744, 51.531028233487 ], [ -0.069269337522527, 51.531032422186435 ], [ -0.06796902936741, 51.531094592078112 ], [ -0.067282175519232, 51.531141699636464 ], [ -0.066286605460329, 51.53122775963967 ], [ -0.06615227633679, 51.531505219831743 ], [ -0.065869446875193, 51.532018552055952 ], [ -0.065596914520942, 51.532462741087841 ], [ -0.065337333184366, 51.532937798949057 ], [ -0.06511354528319, 51.533219174692675 ], [ -0.065083578942081, 51.533177326146451 ], [ -0.064953917461258, 51.532901800962961 ], [ -0.063236329206452, 51.533080192239815 ], [ -0.06264789485297, 51.53318562564813 ], [ -0.062211177766797, 51.533248525666224 ], [ -0.062287272072109, 51.533391015925744 ], [ -0.062430698431613, 51.533613641063724 ], [ -0.062544310588483, 51.533790913287206 ], [ -0.062689779955343, 51.534099965105874 ], [ -0.062727302467611, 51.534235434444035 ], [ -0.06281122690771, 51.534636064729519 ], [ -0.062823439472877, 51.534992447633094 ], [ -0.062769838217241, 51.535101238664502 ], [ -0.062637337491944, 51.535301411474592 ], [ -0.062443523436034, 51.535517561415908 ], [ -0.062068327671, 51.535458316702069 ], [ -0.061674660155222, 51.535288188948719 ], [ -0.061314220601735, 51.535016034205874 ], [ -0.060911749228173, 51.534681151968471 ], [ -0.06065628145474, 51.534448489578025 ], [ -0.060628175931002, 51.534430044515474 ], [ -0.060433580530518, 51.534328833186677 ], [ -0.060344384611822, 51.534290408033982 ], [ -0.06017231168594, 51.534232720816405 ], [ -0.059882798754097, 51.534157805965144 ], [ -0.059657821160741, 51.534125312849184 ], [ -0.059328819568608, 51.534095591455227 ], [ -0.059036366363819, 51.534089848446285 ], [ -0.058726889494983, 51.534112590570366 ], [ -0.058085708083678, 51.534202653915692 ], [ -0.057539042003468, 51.534342916503476 ], [ -0.057272938708071, 51.534427505786738 ], [ -0.056788101884729, 51.534606548122696 ], [ -0.05618495023937, 51.534819496118502 ], [ -0.055621279944348, 51.534984640303115 ], [ -0.055398217955135, 51.5350438688412 ], [ -0.055220472915516, 51.53508586907806 ], [ -0.05521322583588, 51.53508574880383 ], [ -0.05519869732694, 51.5350891036842 ], [ -0.055011776489803, 51.535112072331167 ], [ -0.05483679686565, 51.535122652901123 ], [ -0.054676622506415, 51.535159639910347 ], [ -0.054362932577311, 51.535177806014516 ], [ -0.054114101629853, 51.53516378528775 ], [ -0.053829728950984, 51.53513568873246 ], [ -0.053439750859104, 51.535083272320307 ], [ -0.05298886196525, 51.534973295293412 ], [ -0.05280905426534, 51.534929852472665 ], [ -0.052782818752024, 51.535171338048208 ], [ -0.052683845621433, 51.535532081244398 ], [ -0.05255465482288, 51.535720522882919 ], [ -0.052367531263197, 51.535915283533321 ], [ -0.05211510893429, 51.536085584524692 ], [ -0.051852621753659, 51.536221465725788 ], [ -0.051738043857944, 51.536270804129828 ], [ -0.051576869761855, 51.536331055164801 ], [ -0.05140154572845, 51.53638577170792 ], [ -0.050929790759657, 51.536457952771414 ], [ -0.050782134693618, 51.536471683636009 ], [ -0.050627615045526, 51.536476310325639 ], [ -0.050471976731413, 51.536473726207497 ], [ -0.050331101692354, 51.536465094003539 ], [ -0.050221983135968, 51.536453392970927 ], [ -0.049891195418518, 51.536398454162388 ], [ -0.049598450902015, 51.536332459308269 ], [ -0.049524293687817, 51.536312258427813 ], [ -0.049272397382458, 51.536200193075935 ], [ -0.048874686019426, 51.535992117725179 ], [ -0.048559299966152, 51.53578010513764 ], [ -0.048487606925748, 51.535738458307435 ], [ -0.048401381313811, 51.535697468873728 ], [ -0.048283553916225, 51.535653167140566 ], [ -0.048159520693918, 51.535620539082089 ], [ -0.048052137972655, 51.535601672782477 ], [ -0.04796468672729, 51.535592127813963 ], [ -0.047826470741214, 51.535585334741455 ], [ -0.047547648992407, 51.535530354119018 ], [ -0.047300628943286, 51.535507366925856 ], [ -0.047132352227826, 51.535497376047211 ], [ -0.046896126059576, 51.535491648634249 ], [ -0.045955511116877, 51.535604555519917 ], [ -0.04489906838608, 51.535792930723026 ], [ -0.044833469089634, 51.535808919471911 ], [ -0.044761782093757, 51.535833796872119 ], [ -0.044679457531068, 51.535871083167628 ], [ -0.044615862358866, 51.535906883321971 ], [ -0.044272763053669, 51.536142192455479 ], [ -0.043943301283806, 51.536425375227708 ], [ -0.043805203250539, 51.536485105941821 ], [ -0.043702216705126, 51.536499572169461 ], [ -0.043549587363077, 51.536462866718018 ], [ -0.043442551884085, 51.536502437450196 ], [ -0.042364181524937, 51.537001571659722 ], [ -0.041410015441997, 51.537462313020406 ], [ -0.041075437993882, 51.537764282168816 ], [ -0.040707631529648, 51.538103454327 ], [ -0.040128185890014, 51.538699895446349 ], [ -0.039084067223131, 51.539641975358762 ], [ -0.038628986571342, 51.540096555321078 ], [ -0.037922469639841, 51.540765481851963 ], [ -0.037523880926545, 51.54114737302497 ], [ -0.037506524543372, 51.541213609651336 ], [ -0.037441067568698, 51.541261961214815 ], [ -0.037417204736965, 51.541280441594843 ], [ -0.037351512771268, 51.541331486213124 ], [ -0.037238219825403, 51.541350269854384 ], [ -0.037142845167587, 51.541422394456674 ], [ -0.037129429810781, 51.541432958328762 ], [ -0.037735345365739, 51.5417956762291 ], [ -0.036757598894326, 51.54246366149497 ], [ -0.035845415397015, 51.543016764534208 ], [ -0.035122330720207, 51.543364363582405 ], [ -0.034509810827755, 51.543657171209233 ], [ -0.034042632697638, 51.544056694559188 ], [ -0.03385698660806, 51.544214510093184 ], [ -0.033751994009648, 51.544308137625308 ], [ -0.033625990944552, 51.544420202653868 ], [ -0.033398968393655, 51.544599889886968 ], [ -0.033360259500652, 51.544628909119211 ], [ -0.033235617931187, 51.54467626752924 ], [ -0.033145717386164, 51.544687348092069 ], [ -0.033035081329783, 51.544677403969551 ], [ -0.03289291987929, 51.54462917310704 ], [ -0.031967480888844, 51.544084868130945 ], [ -0.031486576994922, 51.5437989228612 ], [ -0.031037590080175, 51.54354227917888 ], [ -0.030923348121009, 51.543483725846244 ], [ -0.030489317177255, 51.543382051131083 ], [ -0.029898288692827, 51.543239982554489 ], [ -0.029624747908252, 51.543131017824088 ], [ -0.029447259304112, 51.543030946232811 ], [ -0.02935876464553, 51.542877438001568 ], [ -0.029128225880194, 51.542571410579114 ], [ -0.028988806554099, 51.54229487137831 ], [ -0.028979522029309, 51.542275836251889 ], [ -0.028689970901043, 51.54233390714856 ], [ -0.028359478556288, 51.542406573216638 ], [ -0.02781575602673, 51.54254038665978 ], [ -0.027350320905205, 51.542664814377829 ], [ -0.027023557629905, 51.5427501255162 ], [ -0.02647908473603, 51.542901091321134 ], [ -0.025830700983208, 51.543123038086009 ], [ -0.025735273834288, 51.543160181372883 ], [ -0.025680094663076, 51.543201507386193 ], [ -0.025632008041628, 51.543246548671654 ], [ -0.025585245491579, 51.543362634311833 ], [ -0.025515401205489, 51.543341681714168 ], [ -0.025478114785845, 51.543271830717188 ], [ -0.025321082779833, 51.543235027809573 ], [ -0.023836003335509, 51.543326019768642 ], [ -0.023043163868076, 51.543349535110302 ], [ -0.02305598387146, 51.543385711490629 ], [ -0.022982317468844, 51.543389865436019 ], [ -0.022725427614519, 51.543393631580777 ], [ -0.022525894342838, 51.543404656087993 ], [ -0.022344094824493, 51.543407078658618 ], [ -0.022327512246163, 51.543424779684543 ], [ -0.022269890957589, 51.543489437333854 ], [ -0.021429206952136, 51.543519328118293 ], [ -0.020324523871485, 51.543585218438615 ], [ -0.019865792478061, 51.543587373624845 ], [ -0.019200591976517, 51.543595933817421 ], [ -0.018528239380457, 51.54356930800752 ], [ -0.017756790237737, 51.543467279230278 ], [ -0.017393416589968, 51.543431472392527 ], [ -0.017022914274758, 51.543395543957246 ], [ -0.016795741469839, 51.543347652791788 ], [ -0.016737390687592, 51.543396112292243 ], [ -0.016543933953666, 51.543365871790186 ], [ -0.016540613679028, 51.543310975814954 ], [ -0.016512701724118, 51.543189946214014 ], [ -0.016474490945836, 51.543073327477394 ], [ -0.016427157013808, 51.542999707168654 ], [ -0.016284713603504, 51.54282729551565 ], [ -0.016064932956834, 51.542541199343027 ], [ -0.016086696007243, 51.542439978738813 ], [ -0.016168277094403, 51.542354962840299 ], [ -0.016180349493145, 51.542342580755424 ], [ -0.016314454677735, 51.542143468878116 ], [ -0.016408967733814, 51.541761097752833 ], [ -0.016487714792773, 51.541508817056979 ], [ -0.016607365515591, 51.54137679659592 ], [ -0.016759575207393, 51.541258901433771 ], [ -0.016977009007169, 51.541199645293325 ], [ -0.017206281428466, 51.541136093722194 ], [ -0.017433661088691, 51.54108051094304 ], [ -0.017595088981943, 51.541015812263161 ], [ -0.017724108949196, 51.540933484594063 ], [ -0.017774292332773, 51.54080748141223 ], [ -0.017741877899553, 51.540524643247053 ], [ -0.017784362037734, 51.540310406547547 ], [ -0.017851928563879, 51.540181100904505 ], [ -0.017918399387613, 51.540079736064314 ], [ -0.018079176242765, 51.539931417292564 ], [ -0.018283397252562, 51.539776549673178 ], [ -0.01861892035394, 51.539588024168964 ], [ -0.018782924709267, 51.539466637335352 ], [ -0.018888830291206, 51.539352451169997 ], [ -0.01900108121373, 51.539125006202759 ], [ -0.019120257817871, 51.538770916885468 ], [ -0.01920676148191, 51.538539441346053 ], [ -0.019399464055462, 51.538285483599203 ], [ -0.019468862864462, 51.53824799646079 ], [ -0.019473296036549, 51.538244475171332 ], [ -0.019480972494455, 51.538234715479412 ], [ -0.019644183844878, 51.538128687281606 ], [ -0.019740262642794, 51.538073669634208 ], [ -0.019875938436209, 51.538004845485844 ], [ -0.019977409362448, 51.537959807735511 ], [ -0.020175254660159, 51.537888525356635 ], [ -0.020531092531462, 51.537730004580723 ], [ -0.020556272665129, 51.53771415687644 ], [ -0.020572502992, 51.53770454130666 ], [ -0.020797783207333, 51.537565395257026 ], [ -0.021062375575943, 51.537347708132202 ], [ -0.021218461424992, 51.537142666142252 ], [ -0.021236676306648, 51.537021516233679 ], [ -0.021214827579783, 51.536924953507508 ], [ -0.021193042513827, 51.53686255439802 ], [ -0.021147457925276, 51.53668279242833 ], [ -0.0211428318071, 51.536523588896742 ], [ -0.020947724251787, 51.536301750311196 ], [ -0.020840268734651, 51.536219027906341 ], [ -0.020571169636136, 51.536140682884884 ], [ -0.020412016819, 51.536087655096324 ], [ -0.020114942838827, 51.535988249949327 ], [ -0.019890254293621, 51.53581535654601 ], [ -0.019677399412135, 51.535635560041271 ], [ -0.019527990518775, 51.535456743331373 ], [ -0.019318768055065, 51.535196096027626 ], [ -0.019136602998174, 51.534942107968156 ], [ -0.019055499852302, 51.534750957631765 ], [ -0.019009552795954, 51.534612633134216 ], [ -0.019004016219805, 51.534376008791369 ], [ -0.018975767567328, 51.53422710476822 ], [ -0.018935782330753, 51.53412124535938 ], [ -0.018848724612786, 51.534031673011228 ], [ -0.018640497503799, 51.53387973208185 ], [ -0.018348537734175, 51.533698598679123 ], [ -0.018162930990621, 51.533554230371806 ], [ -0.018098417780717, 51.533479421859951 ], [ -0.017960370795298, 51.533272025695688 ], [ -0.017959257511598, 51.533264814796119 ], [ -0.017945404264853, 51.533085677417844 ], [ -0.017983369280341, 51.533008104596775 ], [ -0.018014109836702, 51.532965471216158 ], [ -0.018150801087669, 51.53277170526129 ], [ -0.018209781805101, 51.532609890250875 ], [ -0.018205010450874, 51.53245428057987 ], [ -0.018169831933169, 51.53236648230439 ], [ -0.018005814781026, 51.532226073455689 ], [ -0.017751527070074, 51.531974460068113 ], [ -0.017519012513759, 51.531582968018725 ], [ -0.017424759544102, 51.531497767526126 ], [ -0.017416439185959, 51.531489535844024 ], [ -0.017156904987064, 51.531323238629561 ], [ -0.01683139641802, 51.531148723683025 ], [ -0.016444532081627, 51.530993758103406 ], [ -0.015484925092313, 51.530650203192224 ], [ -0.014931418125837, 51.530514080462169 ], [ -0.014551276774338, 51.530401565774604 ], [ -0.014252972288641, 51.530266071465753 ], [ -0.014147831119796, 51.530166299805451 ], [ -0.014055992509926, 51.530055875119544 ], [ -0.014039822712037, 51.530028631075673 ], [ -0.014020725324376, 51.530005832547516 ], [ -0.013938645993887, 51.529936118415492 ], [ -0.013651099857975, 51.529851239247925 ], [ -0.013619775025964, 51.529841718870195 ], [ -0.013147178779747, 51.529704170247633 ], [ -0.012648327102221, 51.529637286987658 ], [ -0.011847556666695, 51.529550902458162 ], [ -0.01115099907924, 51.529457288614637 ], [ -0.010901050536397, 51.529401808293777 ], [ -0.010759028511523, 51.529319298722577 ], [ -0.010608668891356, 51.529196281918445 ], [ -0.010541217584851, 51.529058398417064 ], [ -0.01045973439433, 51.528811586224478 ], [ -0.010403789451186, 51.528638836184015 ], [ -0.010326175942411, 51.528535032655803 ], [ -0.010185004202547, 51.528400393977741 ], [ -0.010024214923833, 51.528317655137563 ], [ -0.009406753598164, 51.527964568174767 ], [ -0.008905477033542, 51.527722230054451 ], [ -0.008698944231902, 51.527598257539772 ], [ -0.00855865251347, 51.527476307865058 ], [ -0.00843109979078, 51.527228622354535 ], [ -0.008341173585271, 51.527009444764516 ], [ -0.008201694110104, 51.526836264613522 ], [ -0.008016918015779, 51.526644245162466 ], [ -0.007732608037477, 51.526450535535496 ], [ -0.007609428300472, 51.526334269279992 ], [ -0.007496971625426, 51.526201103697929 ], [ -0.007440949770785, 51.526000481330243 ], [ -0.007477999250328, 51.525778064988934 ], [ -0.007521414348313, 51.525641252990269 ], [ -0.007666092635234, 51.52546651321417 ], [ -0.007762184606837, 51.525378242093019 ], [ -0.007799703136244, 51.52534381706203 ], [ -0.007809197426122, 51.525325098701664 ], [ -0.007869369430854, 51.525201964743232 ], [ -0.007953479808791, 51.524957958507699 ], [ -0.008054503576245, 51.524130501518471 ], [ -0.008083835881554, 51.523823442539843 ], [ -0.008125707951148, 51.523588518558505 ], [ -0.008115820057078, 51.523420232739646 ] ] ] } }
]
}
