{
"type": "FeatureCollection",
"name": "borough_Richmond_upon_Thames",
"crs": { "type": "name", "properties": { "name": "urn:ogc:def:crs:OGC:1.3:CRS84" } },
"features": [
{ "type": "Feature", "properties": { "DISTRICT": "Richmond upon Thames", "NAME": "Hampton", "GSS_CODE": "E05000520", "LAGSSCODE": "E09000027", "HECTARES": 687.724, "NONLD_AREA": 0.0 }, "geometry": { "type": "Polygon", "coordinates": [ [ [ -0.312500559385442, 51.397452902542348 ], [ -0.312564312265692, 51.397401677329725 ], [ -0.312955982885105, 51.397109650566932 ], [ -0.314190066961508, 51.396189460829177 ], [ -0.316623247003571, 51.394439429534955 ], [ -0.317422523916916, 51.393889738205644 ], [ -0.317580569858696, 51.39377153822317 ], [ -0.317698054056319, 51.393667050188888 ], [ -0.318267122828403, 51.393315519047341 ], [ -0.318516637475293, 51.393175256081314 ], [ -0.318773182324454, 51.393040397692907 ], [ -0.319048122372731, 51.392911286682768 ], [ -0.319370708419623, 51.392775576328056 ], [ -0.319833061252158, 51.392593411891042 ], [ -0.320046200941484, 51.392543425508208 ], [ -0.320445358734641, 51.392475337795425 ], [ -0.320726474887213, 51.392413738181489 ], [ -0.320916534579319, 51.392366116509407 ], [ -0.321209960092664, 51.392282216512072 ], [ -0.321590746837775, 51.392207568504034 ], [ -0.322065558268129, 51.392115476795468 ], [ -0.322303225768561, 51.392062241938348 ], [ -0.323693647898089, 51.391694575838521 ], [ -0.324590331085041, 51.391502334825091 ], [ -0.32484588862314, 51.391471825994493 ], [ -0.325594689572685, 51.391434880759263 ], [ -0.325671049462297, 51.391430577805963 ], [ -0.325860458956342, 51.391439577269665 ], [ -0.325967999210475, 51.391444709771598 ], [ -0.326701560669776, 51.391549584298446 ], [ -0.327062729853943, 51.391619470538885 ], [ -0.327503278490256, 51.391719347138867 ], [ -0.327587087936364, 51.39174481680336 ], [ -0.327665179120767, 51.391771103812403 ], [ -0.327818028436273, 51.391837115352139 ], [ -0.327958996039953, 51.391913745339664 ], [ -0.328207636827725, 51.39203425509956 ], [ -0.328369685958176, 51.392121074549863 ], [ -0.328671941263583, 51.392308786638139 ], [ -0.32919093688176, 51.392741606755713 ], [ -0.32997539810544, 51.393344527981547 ], [ -0.33012994000133, 51.393481584188329 ], [ -0.330258626731147, 51.393619170775821 ], [ -0.33078631656553, 51.394090765726226 ], [ -0.330854199033712, 51.394160058600711 ], [ -0.33110489216389, 51.394459498438557 ], [ -0.331719039559785, 51.395321687988712 ], [ -0.33209940713469, 51.395771310875773 ], [ -0.332263821478904, 51.395917584911054 ], [ -0.33246295299612, 51.396054373625368 ], [ -0.33400745105533, 51.397187897435565 ], [ -0.334987443070962, 51.39787088085447 ], [ -0.335692562846001, 51.39836825904753 ], [ -0.335807310524602, 51.398456285018611 ], [ -0.335965760945376, 51.398604177201278 ], [ -0.336515303495246, 51.39903191419603 ], [ -0.336931414487405, 51.399370549583217 ], [ -0.337072309381286, 51.399489512245474 ], [ -0.337205623638491, 51.399618166527489 ], [ -0.337703176924213, 51.400091100342735 ], [ -0.337906480551442, 51.400313346185683 ], [ -0.338113959408144, 51.400580692732632 ], [ -0.338335810189042, 51.400843749977547 ], [ -0.338345457369211, 51.400855574235806 ], [ -0.338481102214627, 51.4010409907116 ], [ -0.338611228483349, 51.401257705074848 ], [ -0.338951901936953, 51.401735606836432 ], [ -0.33918184544637, 51.401935844672124 ], [ -0.339589020689202, 51.402325592718121 ], [ -0.33978149871465, 51.402490146179048 ], [ -0.340030526606702, 51.402680763292253 ], [ -0.340224189863887, 51.402809371421995 ], [ -0.340508535302651, 51.403016670353509 ], [ -0.340636606423116, 51.403094002919495 ], [ -0.340856834639787, 51.403205994416659 ], [ -0.340995692866619, 51.403263700571202 ], [ -0.341211095459914, 51.403348562146391 ], [ -0.341405866184491, 51.4034106554397 ], [ -0.341907699237227, 51.403527439714608 ], [ -0.342131920629014, 51.403568461612224 ], [ -0.342609324577814, 51.403646238773142 ], [ -0.34289788438724, 51.403697968661788 ], [ -0.343041888516485, 51.403731471222969 ], [ -0.34314577120525, 51.403759911141087 ], [ -0.343286412637635, 51.403807750386903 ], [ -0.343503456030362, 51.403890023690415 ], [ -0.34378777895604, 51.403980349906682 ], [ -0.344109997032179, 51.404134143272906 ], [ -0.34441752043947, 51.404297707386398 ], [ -0.344625402723369, 51.404394143765771 ], [ -0.346226405435443, 51.405447311479428 ], [ -0.346368890336501, 51.405523132886934 ], [ -0.346630010537324, 51.405658975299836 ], [ -0.346940913955159, 51.405808195775677 ], [ -0.347080657738729, 51.405881190626197 ], [ -0.347154386654515, 51.405910999646323 ], [ -0.347535519854316, 51.406026056913447 ], [ -0.347842360250259, 51.406130266026913 ], [ -0.348000031947865, 51.406182834779294 ], [ -0.348001453808562, 51.406182854824408 ], [ -0.348231660748991, 51.40625892163694 ], [ -0.348816720967089, 51.40646234699917 ], [ -0.349199271211531, 51.406620572293264 ], [ -0.349574235095908, 51.406828226138764 ], [ -0.349675800344867, 51.406881800430696 ], [ -0.349890867073587, 51.406980126503846 ], [ -0.34994291559103, 51.407009628441983 ], [ -0.350032847731389, 51.407070230865891 ], [ -0.350460269644805, 51.407457617680123 ], [ -0.350597631281226, 51.407557545662733 ], [ -0.350680606757099, 51.407607261269185 ], [ -0.351117050065927, 51.407787006303174 ], [ -0.351296489764044, 51.407874040036141 ], [ -0.351618304286554, 51.408040393012094 ], [ -0.351960099986683, 51.408211611056046 ], [ -0.352620315619389, 51.408568010078511 ], [ -0.352959737539321, 51.408723009201324 ], [ -0.35378878988156, 51.409142003701085 ], [ -0.354122758983226, 51.409290536885031 ], [ -0.354414585880997, 51.409453850560716 ], [ -0.355109325632054, 51.409807117800163 ], [ -0.355144294612499, 51.40983368006853 ], [ -0.355186784594464, 51.409891813401963 ], [ -0.355234148796268, 51.410094846375408 ], [ -0.355239701539182, 51.410181229705536 ], [ -0.3552351496376, 51.410268370219754 ], [ -0.355209901109128, 51.410370593374189 ], [ -0.355218691640794, 51.4105649038801 ], [ -0.355247649587448, 51.410640018445243 ], [ -0.355284656582659, 51.410689084662685 ], [ -0.355357203656869, 51.410752134915953 ], [ -0.355623996309871, 51.410850275720861 ], [ -0.356537662328897, 51.411116706136944 ], [ -0.357094953142847, 51.411293626075448 ], [ -0.357317711598803, 51.411376761596912 ], [ -0.357646273340792, 51.411478461073955 ], [ -0.357798800110769, 51.411516559523434 ], [ -0.358305956079381, 51.41160727490724 ], [ -0.358371368565417, 51.411628059652784 ], [ -0.358473049775455, 51.411678930129717 ], [ -0.358780955516018, 51.411794721477989 ], [ -0.359043913850455, 51.411881114047851 ], [ -0.359139516372881, 51.411903130313362 ], [ -0.359652193027725, 51.412002098493467 ], [ -0.359773758576825, 51.41202088166802 ], [ -0.359990191392999, 51.412039194583507 ], [ -0.360354007412022, 51.412040690293416 ], [ -0.360690127510674, 51.412050787564098 ], [ -0.361238375772329, 51.412040476494866 ], [ -0.361637650958717, 51.412011897516642 ], [ -0.362419950224004, 51.411971499760917 ], [ -0.363102502832679, 51.411905519630729 ], [ -0.364398103519357, 51.411664604584359 ], [ -0.364740018086835, 51.411592061093891 ], [ -0.365115699553568, 51.411500209241275 ], [ -0.365792533329943, 51.411311776325178 ], [ -0.366024533568947, 51.411259272416856 ], [ -0.366173985077329, 51.411220900408956 ], [ -0.366480692915423, 51.411128082192441 ], [ -0.366623517503391, 51.411076041951283 ], [ -0.36674452463712, 51.411027383413845 ], [ -0.367310448301795, 51.410763675323075 ], [ -0.367585895676633, 51.410659630151365 ], [ -0.36782684866924, 51.410558699910609 ], [ -0.368305815104928, 51.410392667839091 ], [ -0.369026810276112, 51.410175161411388 ], [ -0.369114047324491, 51.410145808663508 ], [ -0.369307618431806, 51.410080176509751 ], [ -0.370245099729554, 51.409719133652999 ], [ -0.37261843531719, 51.408766513676042 ], [ -0.372842659150733, 51.408688714531003 ], [ -0.373150634730432, 51.408599401315875 ], [ -0.373520510235781, 51.408549694550651 ], [ -0.373860392010207, 51.408493277233113 ], [ -0.37419739720397, 51.408437718054294 ], [ -0.37488178643123, 51.408358116827024 ], [ -0.375559216537763, 51.408310870084712 ], [ -0.376126683132243, 51.408285470514649 ], [ -0.376369354627632, 51.408255568786736 ], [ -0.376428628875678, 51.408245601640239 ], [ -0.377064796233079, 51.408064628398336 ], [ -0.377401858436837, 51.408007262756541 ], [ -0.377703398082287, 51.407938616067206 ], [ -0.377871169753524, 51.407911270482415 ], [ -0.378097705482208, 51.407888334066307 ], [ -0.379428126447089, 51.407833917875038 ], [ -0.37959619717449, 51.407841636071439 ], [ -0.380208106665332, 51.40789684479023 ], [ -0.381184701639141, 51.408011929137871 ], [ -0.381359025436317, 51.408044004940969 ], [ -0.381636756493383, 51.408118863832932 ], [ -0.382387140683038, 51.408284845639074 ], [ -0.383001462124834, 51.408439865137822 ], [ -0.383350210461127, 51.40853826540728 ], [ -0.383424754530002, 51.40948264334952 ], [ -0.383811005695054, 51.409536518254143 ], [ -0.383777530156167, 51.410118806101444 ], [ -0.384309353650952, 51.410166595735078 ], [ -0.385080507882123, 51.410235661663698 ], [ -0.386240192295635, 51.410378398705227 ], [ -0.386480937344764, 51.410403290084247 ], [ -0.386635952105408, 51.410411717349746 ], [ -0.386828959620626, 51.410401787797213 ], [ -0.387054303244907, 51.410372524362032 ], [ -0.387336961311076, 51.410348544306849 ], [ -0.387855475655034, 51.410323313073285 ], [ -0.389177046489306, 51.410319908281998 ], [ -0.38929588743374, 51.410702819035144 ], [ -0.389650003105565, 51.410693300857858 ], [ -0.389771618080845, 51.411405382975438 ], [ -0.389908418000702, 51.412218454392772 ], [ -0.390038762240754, 51.412803893184908 ], [ -0.390146459005538, 51.413463639891177 ], [ -0.390292617911109, 51.414337972899446 ], [ -0.389716620920975, 51.414357930180039 ], [ -0.389006018433033, 51.414365246148755 ], [ -0.388522546882833, 51.414373882973621 ], [ -0.387565560402975, 51.414350831420109 ], [ -0.386122801257211, 51.414280627622595 ], [ -0.386158960197178, 51.414314389528101 ], [ -0.386208912368391, 51.414367220912297 ], [ -0.386280262571634, 51.414546300557198 ], [ -0.386331570761573, 51.414641404814446 ], [ -0.386594194364409, 51.415021802538519 ], [ -0.386580009691693, 51.415057568336351 ], [ -0.386434864743582, 51.415300195296808 ], [ -0.386419412955353, 51.415371904695654 ], [ -0.386438502701557, 51.415523293893159 ], [ -0.386486578714164, 51.415750510473764 ], [ -0.38649287734046, 51.415898127449232 ], [ -0.386549627423873, 51.416491546997726 ], [ -0.386510806071694, 51.416533266804677 ], [ -0.38657309114425, 51.416804821117601 ], [ -0.386720017583394, 51.41745071375184 ], [ -0.386753483174843, 51.417564446365205 ], [ -0.386761815694001, 51.417654459453466 ], [ -0.386875116478517, 51.417908723315129 ], [ -0.38687653872326, 51.417908742890241 ], [ -0.386988542346967, 51.418240301454624 ], [ -0.387225191899085, 51.418790320367087 ], [ -0.387390901397572, 51.419024628458494 ], [ -0.387395128616018, 51.419029181546335 ], [ -0.387693743375162, 51.419328246903618 ], [ -0.38702593034647, 51.419751558578206 ], [ -0.386671532873485, 51.42005332350513 ], [ -0.386641868675915, 51.420080783603488 ], [ -0.389694981877776, 51.421559805631844 ], [ -0.390347132777948, 51.421869117221114 ], [ -0.390874842640893, 51.422119091596784 ], [ -0.391065908334772, 51.422206309951548 ], [ -0.391260035862999, 51.422290783200459 ], [ -0.391342164494001, 51.422326072269406 ], [ -0.391391059765308, 51.422409450322483 ], [ -0.391546304335508, 51.422577983985036 ], [ -0.391750395891965, 51.422784046423892 ], [ -0.392004508688075, 51.422923281139639 ], [ -0.392072264896469, 51.422959271497454 ], [ -0.392354533089486, 51.423110668643353 ], [ -0.392884979031456, 51.423283359465138 ], [ -0.392749128114973, 51.423467676287522 ], [ -0.39232188666871, 51.423385310799979 ], [ -0.391877834695122, 51.423292015138138 ], [ -0.391108565167668, 51.423162787977624 ], [ -0.390728571971063, 51.42296779342761 ], [ -0.390413971609251, 51.422832220085851 ], [ -0.39031482119979, 51.422788605641642 ], [ -0.390092390594154, 51.422692864210688 ], [ -0.389250238966829, 51.422346777658497 ], [ -0.388182394642395, 51.421873521312214 ], [ -0.387008515520232, 51.421387918775437 ], [ -0.386340376120235, 51.421085561372912 ], [ -0.385711407358685, 51.420853051659236 ], [ -0.385496423698975, 51.420748414947184 ], [ -0.38537163057501, 51.420739503670433 ], [ -0.385307721049804, 51.420799843770538 ], [ -0.385246413979306, 51.420863725721603 ], [ -0.385144721641915, 51.421016949331928 ], [ -0.385091908254102, 51.421085443141848 ], [ -0.384908408482651, 51.421271790267696 ], [ -0.384856596834797, 51.421355580397204 ], [ -0.384835211436339, 51.421390345891886 ], [ -0.384591828373399, 51.421727884434887 ], [ -0.384376862795004, 51.421989221000239 ], [ -0.384197417945588, 51.422265520591502 ], [ -0.384080264794975, 51.422527396332029 ], [ -0.384091041911922, 51.422672370899143 ], [ -0.3842081496739, 51.422778267901414 ], [ -0.384663473945208, 51.423284470345976 ], [ -0.384903432654701, 51.423616086738328 ], [ -0.3851865052367, 51.423952701769409 ], [ -0.385542074561113, 51.424352345056782 ], [ -0.385837227374607, 51.424750256088906 ], [ -0.386273430396913, 51.425392924717627 ], [ -0.386462176144246, 51.425711155097801 ], [ -0.386680903173993, 51.42595608093032 ], [ -0.387326691572818, 51.426774227370728 ], [ -0.387626735611643, 51.427199256116999 ], [ -0.387725639396345, 51.427330968273061 ], [ -0.388103274614495, 51.427758861502724 ], [ -0.388360977203304, 51.42799883662898 ], [ -0.388360471560386, 51.428053666971223 ], [ -0.388195668705843, 51.428035218190828 ], [ -0.388067386559041, 51.427878829978496 ], [ -0.387126147129566, 51.42817880755544 ], [ -0.387423768754533, 51.428511119351207 ], [ -0.387964304197982, 51.428644414564396 ], [ -0.387889212267754, 51.428732469386937 ], [ -0.387293316861704, 51.429315971207103 ], [ -0.387101744747589, 51.429485037524216 ], [ -0.386799906242916, 51.429723693872901 ], [ -0.386001144038148, 51.430263941653266 ], [ -0.385643695354888, 51.43052870811259 ], [ -0.384889540076858, 51.431030907163233 ], [ -0.384437708839423, 51.431358285434065 ], [ -0.384083468508741, 51.431571939744856 ], [ -0.383687449260331, 51.431829965149689 ], [ -0.383292756942778, 51.432127562274296 ], [ -0.382915159456804, 51.432350689491088 ], [ -0.382750036628305, 51.43242491257881 ], [ -0.382523532039357, 51.432524268238119 ], [ -0.381509487615722, 51.433048027858852 ], [ -0.379363800335948, 51.434084814104459 ], [ -0.378865333195467, 51.434387253143626 ], [ -0.378181800112481, 51.43471679423228 ], [ -0.377844110300595, 51.434866831673055 ], [ -0.377433371998111, 51.435009473743349 ], [ -0.376960451059977, 51.435159433539837 ], [ -0.376490016616035, 51.435322820557737 ], [ -0.376260593038226, 51.435463566137564 ], [ -0.37619167322724, 51.435500367646021 ], [ -0.376116848056007, 51.435539784169954 ], [ -0.377912448321735, 51.436310086164617 ], [ -0.377870577499647, 51.43680232196575 ], [ -0.374858095870359, 51.438131861150744 ], [ -0.370380611801279, 51.440073200332044 ], [ -0.368772477752632, 51.440783661102977 ], [ -0.366829516758625, 51.441643246308949 ], [ -0.36707889096636, 51.441713246237384 ], [ -0.367430793519705, 51.441812542518946 ], [ -0.367752747794108, 51.441903329751455 ], [ -0.368275886885836, 51.442081511465787 ], [ -0.368955539449408, 51.442269061331736 ], [ -0.369196808098247, 51.442323661171116 ], [ -0.369399502379081, 51.442368733941734 ], [ -0.369661281747556, 51.442493737757971 ], [ -0.369691008410388, 51.442508534906125 ], [ -0.370569275070492, 51.442936255669025 ], [ -0.370601176896241, 51.44296996112854 ], [ -0.370748544010115, 51.443076290687635 ], [ -0.370857447320331, 51.44312994511747 ], [ -0.370972138835137, 51.443180983013356 ], [ -0.371221461079468, 51.44325286065186 ], [ -0.37148335382787, 51.443291560790158 ], [ -0.371950512366619, 51.44334659723544 ], [ -0.372097858124529, 51.443370219746107 ], [ -0.372346260219546, 51.443468062218642 ], [ -0.372593807134011, 51.443586658355699 ], [ -0.372872473766939, 51.443640870670045 ], [ -0.373147204748239, 51.443645584555078 ], [ -0.37332389254648, 51.443614775989111 ], [ -0.373394313758328, 51.443576199181294 ], [ -0.373460660469318, 51.443532082084481 ], [ -0.373503318443155, 51.443463453948951 ], [ -0.373540443780441, 51.443390254173991 ], [ -0.373586478511427, 51.443229888552167 ], [ -0.373649021191725, 51.443129173661603 ], [ -0.373931910873218, 51.443024325349356 ], [ -0.374532464033506, 51.442967933222775 ], [ -0.374695233984985, 51.442964797520204 ], [ -0.374859299372804, 51.44296527541799 ], [ -0.375539338011881, 51.443062804538251 ], [ -0.375677210732194, 51.443069210862177 ], [ -0.375940285545184, 51.443074655679155 ], [ -0.376071330088583, 51.443072876217208 ], [ -0.376391006864573, 51.443027863628068 ], [ -0.376569103738946, 51.44295382973857 ], [ -0.376687474708035, 51.442861078736833 ], [ -0.37688410261063, 51.442592226226068 ], [ -0.377125526978116, 51.442478705463031 ], [ -0.377356088020041, 51.442430658053389 ], [ -0.377605829545978, 51.442407147798924 ], [ -0.377894615819593, 51.442420136099116 ], [ -0.378222988292885, 51.442491205218687 ], [ -0.378491367416637, 51.442594704666746 ], [ -0.379069503309301, 51.442805959783996 ], [ -0.379296168491403, 51.442948434419257 ], [ -0.379496321370893, 51.443105914102645 ], [ -0.379608479267313, 51.44322882501325 ], [ -0.379607625413114, 51.443336778393665 ], [ -0.379442620609274, 51.443443270547256 ], [ -0.379370352411859, 51.443574418223335 ], [ -0.379403673252784, 51.443648683790926 ], [ -0.379463444726969, 51.443709740872229 ], [ -0.379530331543, 51.443770896323329 ], [ -0.37970091910099, 51.443872141126626 ], [ -0.379791384559208, 51.443917441174058 ], [ -0.379784641595718, 51.444108017464806 ], [ -0.379610353836174, 51.444275600786227 ], [ -0.379732196811339, 51.444329425412754 ], [ -0.379768908540842, 51.444388365490312 ], [ -0.380549056908116, 51.444628475183897 ], [ -0.381466227415657, 51.444815545699306 ], [ -0.381818192562914, 51.444874344332568 ], [ -0.382849605821337, 51.44504868779439 ], [ -0.383232190632192, 51.445214880606351 ], [ -0.383919724247717, 51.445632671187632 ], [ -0.384146145541099, 51.445739173658531 ], [ -0.384474537290408, 51.44589472620325 ], [ -0.385729950998053, 51.446491124928848 ], [ -0.385975306568155, 51.446592577762637 ], [ -0.386159068492918, 51.446687698887665 ], [ -0.386245308721225, 51.446732035372477 ], [ -0.386272037375906, 51.446791734175711 ], [ -0.386292859934559, 51.446854048574181 ], [ -0.386301317088029, 51.447021460478176 ], [ -0.38638745967361, 51.447149398290215 ], [ -0.386431285377021, 51.447252571976627 ], [ -0.386423566312647, 51.447309998900529 ], [ -0.38636154226056, 51.447558246036849 ], [ -0.386342248717004, 51.447779123527411 ], [ -0.386324886983857, 51.447864375291942 ], [ -0.386269760810251, 51.448078467130628 ], [ -0.386279045014401, 51.448141611601258 ], [ -0.386297085125826, 51.448202089766426 ], [ -0.386339873339076, 51.448253918834524 ], [ -0.386389896196445, 51.448305847404264 ], [ -0.386568359553206, 51.448426964282483 ], [ -0.386752252195162, 51.448559032858483 ], [ -0.386943983876747, 51.448714491802868 ], [ -0.387412780111981, 51.449132837968776 ], [ -0.387567891984299, 51.449303973415503 ], [ -0.387672149943131, 51.449369232111117 ], [ -0.38777631807645, 51.449433680406358 ], [ -0.384546368802669, 51.449895443893944 ], [ -0.38376555358378, 51.449509724871881 ], [ -0.383718425947415, 51.449540538494091 ], [ -0.383427024943674, 51.449764944786516 ], [ -0.382831324723725, 51.450249445937949 ], [ -0.382112297160672, 51.450805148594426 ], [ -0.380628831878232, 51.451974347917968 ], [ -0.37970840800825, 51.452726824018541 ], [ -0.378827754462443, 51.4534143089802 ], [ -0.377748235182909, 51.454227497185883 ], [ -0.377497940171237, 51.454425490262196 ], [ -0.377247729727378, 51.454624382957597 ], [ -0.376729476082861, 51.45507307076204 ], [ -0.376456946360951, 51.455288733035047 ], [ -0.376177363957243, 51.455502409188462 ], [ -0.37591137451398, 51.455697484732596 ], [ -0.375280324941233, 51.456200429140985 ], [ -0.375254346774638, 51.456283672496404 ], [ -0.374738037254664, 51.456556182389761 ], [ -0.374180573601135, 51.456811039063119 ], [ -0.373393505033718, 51.457288346916101 ], [ -0.373024255542387, 51.457472993727059 ], [ -0.372840442247077, 51.457218643369536 ], [ -0.372693471230165, 51.45701964078463 ], [ -0.372672808698169, 51.456993284066357 ], [ -0.372567943338455, 51.457108783273576 ], [ -0.37244211625598, 51.457246375524953 ], [ -0.371953192658093, 51.457191941608961 ], [ -0.370687821744795, 51.457075475994124 ], [ -0.369808344378603, 51.456993939346717 ], [ -0.369570361601594, 51.456968155665955 ], [ -0.36845970069283, 51.456869998764965 ], [ -0.368439717963021, 51.45686792272803 ], [ -0.368431553271738, 51.456893879020242 ], [ -0.368415374510741, 51.456944894736374 ], [ -0.368110769358162, 51.457169979915221 ], [ -0.367807779620196, 51.457432842539987 ], [ -0.367564649406994, 51.457468111681344 ], [ -0.367339831333731, 51.457475767566663 ], [ -0.36695025629411, 51.45754405484707 ], [ -0.365042355816671, 51.457802516109801 ], [ -0.36445942303836, 51.457682012024819 ], [ -0.364420750761213, 51.457595171718665 ], [ -0.364188428842154, 51.457613504443565 ], [ -0.362846243763009, 51.457670276142871 ], [ -0.362403068452475, 51.457707234920996 ], [ -0.362011917960233, 51.45781593746667 ], [ -0.361419442019262, 51.458001922061122 ], [ -0.35979661245837, 51.458219336009556 ], [ -0.35858491365969, 51.458290471071209 ], [ -0.357887563341341, 51.458349024082871 ], [ -0.35751229383921, 51.45837522944867 ], [ -0.357135848105831, 51.458397821262587 ], [ -0.35677424687482, 51.45840362950171 ], [ -0.356410049564454, 51.458405714449626 ], [ -0.3551423579496, 51.458353679221247 ], [ -0.3548792712169, 51.458342794884651 ], [ -0.353439833602518, 51.458182341692265 ], [ -0.353158977880922, 51.457827707287926 ], [ -0.352993901478768, 51.45761314066236 ], [ -0.352820641844004, 51.45738857006917 ], [ -0.352819427424889, 51.456944371662871 ], [ -0.352818014929529, 51.45686164651805 ], [ -0.352649919972042, 51.456852991002123 ], [ -0.35263417590286, 51.456851870722396 ], [ -0.35239265543142, 51.45684218268952 ], [ -0.351632369905644, 51.45677036147854 ], [ -0.350850873211818, 51.456766560245676 ], [ -0.35055281032611, 51.456771355920957 ], [ -0.350119238714527, 51.456778738361635 ], [ -0.349213597920236, 51.456784865507764 ], [ -0.348683222992722, 51.456764809045019 ], [ -0.347975954917194, 51.456818669837396 ], [ -0.347716805879608, 51.456859965704083 ], [ -0.347699324914627, 51.456864214149952 ], [ -0.347541274325957, 51.456896147058593 ], [ -0.347359009876502, 51.456961000379572 ], [ -0.347010084459513, 51.457059552078107 ], [ -0.346633023454672, 51.457174696520674 ], [ -0.346619931280438, 51.457179006717553 ], [ -0.346548728456924, 51.457159123884288 ], [ -0.346388490078013, 51.457169449050312 ], [ -0.346180720655149, 51.457224052081266 ], [ -0.346019430979417, 51.457266724988862 ], [ -0.345707065376748, 51.457384667286512 ], [ -0.345575308467841, 51.457447533846853 ], [ -0.345525321214073, 51.457713913595803 ], [ -0.345272314831036, 51.457864066872808 ], [ -0.345032835850616, 51.457919119325226 ], [ -0.344821254305731, 51.457957574609999 ], [ -0.344608577356364, 51.45798693440674 ], [ -0.34430421328755, 51.457965555164549 ], [ -0.344046323149505, 51.45797180093146 ], [ -0.34385652856726, 51.458005078539223 ], [ -0.343647328851228, 51.458059657054093 ], [ -0.343500232979307, 51.458067467158401 ], [ -0.34294218362705, 51.458054185776099 ], [ -0.342658163362393, 51.458106805863792 ], [ -0.342349321216961, 51.458405483604906 ], [ -0.342127146537307, 51.458618185720987 ], [ -0.341972001878356, 51.458766120418488 ], [ -0.341837595118662, 51.458901853254055 ], [ -0.341702236261264, 51.459021301845567 ], [ -0.3415356452199, 51.459049510615273 ], [ -0.341048525736755, 51.459145192371452 ], [ -0.340554138747622, 51.459241578360704 ], [ -0.340405941120272, 51.459240379314473 ], [ -0.340112360356421, 51.459238919501651 ], [ -0.340183543576999, 51.459102292247536 ], [ -0.340342592710349, 51.458804282484621 ], [ -0.340499322774397, 51.45849176954134 ], [ -0.34063028835373, 51.458176194778666 ], [ -0.340703176766659, 51.457953291404657 ], [ -0.340711079281887, 51.457813971933149 ], [ -0.340717316133766, 51.457720566607932 ], [ -0.340656310246323, 51.457458909754564 ], [ -0.34060889447049, 51.457257766602922 ], [ -0.34045946896164, 51.457091048365733 ], [ -0.33986939144732, 51.456613336160828 ], [ -0.339381175691136, 51.456223275824335 ], [ -0.338951437265432, 51.455889868499945 ], [ -0.338559821804517, 51.456088475914378 ], [ -0.338533473409377, 51.456101587096356 ], [ -0.337715345105091, 51.455482996368332 ], [ -0.33792922240287, 51.455420404076733 ], [ -0.337647774082449, 51.454964945234344 ], [ -0.3375399721491, 51.454842053970978 ], [ -0.337399455577844, 51.45474746584533 ], [ -0.337244769494768, 51.454686837724587 ], [ -0.336961873227277, 51.45463059315324 ], [ -0.33661362668428, 51.455301054570548 ], [ -0.336511054792784, 51.455510859026916 ], [ -0.336271465818, 51.455686445172617 ], [ -0.33601173385359, 51.45566208146623 ], [ -0.334685520691747, 51.455560449486477 ], [ -0.334256243450804, 51.455528279122753 ], [ -0.333687701831766, 51.455487834528114 ], [ -0.333680143296008, 51.455460757628352 ], [ -0.333610307846414, 51.455243919322669 ], [ -0.333472905133675, 51.455262732216788 ], [ -0.333230786802512, 51.455308733406561 ], [ -0.333008475852673, 51.455407156777518 ], [ -0.332918782602945, 51.455497577259926 ], [ -0.332836747117464, 51.455576509738762 ], [ -0.332624806190641, 51.455702948403975 ], [ -0.332539959069063, 51.455780851827967 ], [ -0.332449132334603, 51.455863254939636 ], [ -0.332322220553639, 51.456382050009623 ], [ -0.33213389044425, 51.456573640511699 ], [ -0.331815819560441, 51.456772284365734 ], [ -0.331393903271934, 51.457289666977317 ], [ -0.331061953380085, 51.45751067598048 ], [ -0.33067053287437, 51.457741625081702 ], [ -0.330345920490486, 51.457881738362424 ], [ -0.329507962343792, 51.458006445832027 ], [ -0.329033253490022, 51.458034830486952 ], [ -0.328682870687338, 51.458012754829426 ], [ -0.328390044879884, 51.45795185363567 ], [ -0.328193395478048, 51.457857352817157 ], [ -0.327613060421866, 51.457349958130109 ], [ -0.327246608075714, 51.456978752261563 ], [ -0.32709545039954, 51.457019746426155 ], [ -0.327025712487958, 51.45699897344177 ], [ -0.326888838683594, 51.457042059081253 ], [ -0.326614875314998, 51.457289864575557 ], [ -0.326506244006363, 51.457388191154436 ], [ -0.326323167042448, 51.457630101683783 ], [ -0.326146610723216, 51.45781376086709 ], [ -0.325953059882965, 51.457832572669489 ], [ -0.325717500248612, 51.457896632500606 ], [ -0.325599177385455, 51.457984032089648 ], [ -0.325548284787677, 51.458116355228853 ], [ -0.325580356866545, 51.458261550241829 ], [ -0.325707730086514, 51.458361448976156 ], [ -0.325890594855756, 51.458436878494446 ], [ -0.325900148167613, 51.458568266980045 ], [ -0.326034344777503, 51.458601737730845 ], [ -0.326042819995942, 51.458603656724371 ], [ -0.326051413839657, 51.458605577411099 ], [ -0.326060007684065, 51.458607498097201 ], [ -0.326067026534114, 51.45861029527974 ], [ -0.326075587504915, 51.458613114481771 ], [ -0.326082724981306, 51.4586159133572 ], [ -0.326089862458531, 51.458618712232152 ], [ -0.326095424941638, 51.45862238760413 ], [ -0.326102529545957, 51.458626084995394 ], [ -0.326108092030871, 51.458629760366719 ], [ -0.326112382519771, 51.458632518588836 ], [ -0.32611794500617, 51.458636193959642 ], [ -0.326122051123013, 51.458640747521819 ], [ -0.326126308739496, 51.45864440426049 ], [ -0.326130447731917, 51.458648059305212 ], [ -0.326134705349668, 51.458651716043526 ], [ -0.326137387972743, 51.45865624927972 ], [ -0.32614007059631, 51.458660782515857 ], [ -0.32614275322037, 51.458665315751915 ], [ -0.326144163846515, 51.458668931839334 ], [ -0.326146846471393, 51.458673465075243 ], [ -0.3261466821022, 51.458677957660811 ], [ -0.326147908356554, 51.458683369088625 ], [ -0.326147743987403, 51.458687861674171 ], [ -0.326147579618212, 51.458692354259725 ], [ -0.326145991751148, 51.458696826520082 ], [ -0.326144403883779, 51.458701298780461 ], [ -0.326142816016108, 51.458705771040805 ], [ -0.326141109523282, 51.458710241607371 ], [ -0.326139620277037, 51.458712018316376 ], [ -0.32613955452901, 51.458713815350578 ], [ -0.326136543161997, 51.458718267285626 ], [ -0.326133564668557, 51.458721820703502 ], [ -0.326129011176907, 51.458726250619264 ], [ -0.326124609183628, 51.458729783711568 ], [ -0.326121630688593, 51.458733337129189 ], [ -0.326115719444707, 51.458735949684844 ], [ -0.326111317449572, 51.458739482776693 ], [ -0.326105406204383, 51.458742095331857 ], [ -0.326098222959105, 51.458743790737749 ], [ -0.326090953963349, 51.45874458593228 ], [ -0.326083684967365, 51.458745381126384 ], [ -0.326076501720868, 51.458747076530955 ], [ -0.326061996602983, 51.458747768399832 ], [ -0.326054846231028, 51.458748565285987 ], [ -0.326047577233905, 51.458749360477853 ], [ -0.326041817484956, 51.458751076206681 ], [ -0.326034515611255, 51.458752769914874 ], [ -0.326028722985332, 51.458755384160206 ], [ -0.326022811733826, 51.45875799671137 ], [ -0.326016834729, 51.458762406296479 ], [ -0.326009487095298, 51.458768594282702 ], [ -0.326003444334731, 51.458774800901452 ], [ -0.325998943697822, 51.458781029540738 ], [ -0.32599441018295, 51.45878815669699 ], [ -0.325989758041672, 51.458795282159166 ], [ -0.325986779532683, 51.458798835573639 ], [ -0.325983735269243, 51.458804186022306 ], [ -0.325980605257102, 51.458808636259853 ], [ -0.325978984493499, 51.458814007035471 ], [ -0.325975973105375, 51.458818458966853 ], [ -0.325974385218105, 51.458822931225328 ], [ -0.325972764453296, 51.458828302000889 ], [ -0.32597260006709, 51.458832794586499 ], [ -0.325972402803588, 51.458838185689217 ], [ -0.325972205540027, 51.458843576791956 ], [ -0.325973530420685, 51.458846292675439 ], [ -0.3259747567732, 51.458851704160082 ], [ -0.325976015984303, 51.45885621711848 ], [ -0.325978665840323, 51.45886164893038 ], [ -0.325980043677301, 51.458866163582655 ], [ -0.32598414989579, 51.458870717195452 ], [ -0.325986832611652, 51.458875250480936 ], [ -0.325991057456857, 51.458879805787404 ], [ -0.325995163677558, 51.458884359399768 ], [ -0.325999302756959, 51.458888014485787 ], [ -0.326004951108411, 51.458892590118751 ], [ -0.326209283847777, 51.459052921792868 ], [ -0.326237038522252, 51.459079388925652 ], [ -0.326263521195979, 51.459104938895173 ], [ -0.326289852419342, 51.459131385690959 ], [ -0.326313303795302, 51.459158690360404 ], [ -0.326336755197937, 51.459185995024797 ], [ -0.326357326748141, 51.459214157565192 ], [ -0.326377895037287, 51.459242409954257 ], [ -0.32639701026927, 51.459271450690849 ], [ -0.326398335232377, 51.459274166591541 ], [ -0.326403852264801, 51.459282336309066 ], [ -0.326409250672751, 51.459290504332792 ], [ -0.326416191225284, 51.45929869437159 ], [ -0.326421589637157, 51.459306862394691 ], [ -0.326427073826939, 51.459315930637182 ], [ -0.326432472242581, 51.459324098659728 ], [ -0.32643656576909, 51.459332248053869 ], [ -0.326441931338086, 51.459341314602128 ], [ -0.326444601349705, 51.459349443674405 ], [ -0.326447119885695, 51.459358469579321 ], [ -0.326449638422601, 51.45936749548418 ], [ -0.326449342772909, 51.459375582219941 ], [ -0.326448554373073, 51.459397146848552 ], [ -0.326440562595791, 51.459417709650033 ], [ -0.326431265917521, 51.459438253822796 ], [ -0.326419003561876, 51.45945875565782 ], [ -0.326406741195464, 51.459479257491573 ], [ -0.326394478818288, 51.459499759324103 ], [ -0.326385391989816, 51.459511316538084 ], [ -0.32637329385282, 51.459527325737568 ], [ -0.326359768898708, 51.459543404465983 ], [ -0.326343281545258, 51.459559351001417 ], [ -0.326328369184817, 51.459574421024868 ], [ -0.326312033289821, 51.459589470723436 ], [ -0.326295578757294, 51.459604518726152 ], [ -0.326280633513901, 51.459620487269817 ], [ -0.326267111786778, 51.459636476135231 ], [ -0.32625359005046, 51.459652464999095 ], [ -0.326244306032785, 51.459669413359173 ], [ -0.326242783942767, 51.459672088613715 ], [ -0.326238164752989, 51.45967831563128 ], [ -0.326235087717118, 51.459684564666304 ], [ -0.326224347303411, 51.459702391226998 ], [ -0.326219879590262, 51.459707721411405 ], [ -0.326216683922609, 51.459713968752283 ], [ -0.326213639736329, 51.459719319260628 ], [ -0.326210562694463, 51.459725568295013 ], [ -0.326208909180983, 51.459731837653564 ], [ -0.32620728852201, 51.459737208486004 ], [ -0.326205635007657, 51.459743477844519 ], [ -0.326205405022594, 51.459749767527306 ], [ -0.326205207892476, 51.459755158684011 ], [ -0.326204977907263, 51.459761448366791 ], [ -0.326207594982545, 51.459767778698144 ], [ -0.326211537024204, 51.459776824931957 ], [ -0.326215630549757, 51.459784974333196 ], [ -0.326222452511212, 51.459793162688804 ], [ -0.326229425957222, 51.459800454211518 ], [ -0.326237822936862, 51.459807766057693 ], [ -0.326247643450807, 51.459815098226997 ], [ -0.326257378194226, 51.459821530175709 ], [ -0.326267231567956, 51.459827963817226 ], [ -0.326278541330415, 51.459833519255135 ], [ -0.326289818242008, 51.459839973218052 ], [ -0.326301128009984, 51.459845528653737 ], [ -0.326312437780612, 51.459851084088299 ], [ -0.326329524175723, 51.459857710885238 ], [ -0.326350917313114, 51.459863410268454 ], [ -0.326373766841125, 51.459868231443835 ], [ -0.326398105610467, 51.459871275884417 ], [ -0.326422477234095, 51.459873421793809 ], [ -0.326446848860039, 51.459875567698099 ], [ -0.326471339116115, 51.459877715290723 ], [ -0.326495710746702, 51.45987986118481 ], [ -0.326520016681164, 51.459883804126079 ], [ -0.326542833388056, 51.459889523794374 ], [ -0.326548580455231, 51.459891403820492 ], [ -0.326557055963598, 51.459893322792986 ], [ -0.326567040786541, 51.459896162304204 ], [ -0.32658419621494, 51.459900902158601 ], [ -0.326592790354375, 51.459902822821782 ], [ -0.326601265866628, 51.459904741791057 ], [ -0.326611250694683, 51.459907581298424 ], [ -0.326619811989092, 51.459910400485754 ], [ -0.326626982596821, 51.459912300827185 ], [ -0.32663539241804, 51.459916016846215 ], [ -0.32664395371543, 51.459918836031747 ], [ -0.326651091478635, 51.459921634897803 ], [ -0.32665819639603, 51.459925332289544 ], [ -0.326665182686578, 51.459929027987656 ], [ -0.326670831224194, 51.459933603586087 ], [ -0.326676361134916, 51.459938177491019 ], [ -0.326682009674687, 51.459942753088896 ], [ -0.326684758207892, 51.459945489304211 ], [ -0.326688798893018, 51.45995183994237 ], [ -0.326694348897558, 51.459959111118039 ], [ -0.326696933202558, 51.459966339963714 ], [ -0.326700941045121, 51.459973589127536 ], [ -0.326702220442925, 51.459980799348045 ], [ -0.326703348367112, 51.459988906401463 ], [ -0.326704509137515, 51.459996114928742 ], [ -0.326704246370548, 51.46000330313781 ], [ -0.326703950757583, 51.460011389873017 ], [ -0.326703687990391, 51.460018578082092 ], [ -0.32670345806901, 51.460024867765014 ], [ -0.326701738917108, 51.460032934182017 ], [ -0.326698510443562, 51.460040080061439 ], [ -0.326696824136276, 51.460047247952225 ], [ -0.326693714289239, 51.460054395524715 ], [ -0.326689180901811, 51.460061522778801 ], [ -0.326684528884701, 51.460068648339494 ], [ -0.326679995494492, 51.460075775593211 ], [ -0.326675494949414, 51.460082004320661 ], [ -0.326669419387943, 51.460089109562261 ], [ -0.326661953130973, 51.460095295958808 ], [ -0.326606921328355, 51.460224055633361 ], [ -0.326535174981082, 51.460374961674091 ], [ -0.32643040390646, 51.460562344945394 ], [ -0.326430338203062, 51.460564141997452 ], [ -0.32641823980444, 51.46058015120105 ], [ -0.326406108545371, 51.460597058929466 ], [ -0.326396824389078, 51.460614007300165 ], [ -0.326386235299455, 51.460630937041792 ], [ -0.326378374685965, 51.460647905732912 ], [ -0.326370481213779, 51.460665772949497 ], [ -0.326364129923152, 51.460683662181211 ], [ -0.326357692850954, 51.460700651193058 ], [ -0.326354188668277, 51.460718581068541 ], [ -0.3263507501896, 51.460734713891917 ], [ -0.326347390199362, 51.460745453865691 ], [ -0.326345572397533, 51.460756215855241 ], [ -0.326343754594823, 51.460766977844749 ], [ -0.326341903937612, 51.460778638360203 ], [ -0.326341509694069, 51.460789420672015 ], [ -0.326341112164921, 51.460800292836396 ], [ -0.326340717920901, 51.460811075148158 ], [ -0.326341747238591, 51.460821877782266 ], [ -0.326342776556689, 51.460832680416338 ], [ -0.326345348068015, 51.460843505066222 ], [ -0.32634780095021, 51.460854328022485 ], [ -0.326351677396716, 51.46086517130091 ], [ -0.326355803889101, 51.460872422168791 ], [ -0.32636110390262, 51.460883285769015 ], [ -0.326366555402136, 51.460893252536472 ], [ -0.326373311837936, 51.460903237932115 ], [ -0.326381610471642, 51.460913245342653 ], [ -0.326389909108806, 51.460923252752565 ], [ -0.326398240602159, 51.460932361635862 ], [ -0.326407877033793, 51.460941489146606 ], [ -0.326417632099592, 51.460950618349962 ], [ -0.326427420021327, 51.460958849026476 ], [ -0.326438598660796, 51.460967998549251 ], [ -0.32644981015636, 51.460976249544935 ], [ -0.326462478074291, 51.460983622334403 ], [ -0.326475231775406, 51.460991895341806 ], [ -0.326485118269056, 51.460997430435384 ], [ -0.326504904035842, 51.461004904822751 ], [ -0.326524808439551, 51.461012380900009 ], [ -0.326546202117667, 51.46101808024175 ], [ -0.326567628650623, 51.461022881053523 ], [ -0.326590511605484, 51.461026803654676 ], [ -0.326613361715442, 51.461031624777284 ], [ -0.326634788261543, 51.461036425576658 ], [ -0.326657638380797, 51.461041246690577 ], [ -0.326679064935875, 51.461046047481766 ], [ -0.32669896938475, 51.461053523529046 ], [ -0.326718873839937, 51.461060999572872 ], [ -0.326745731917951, 51.461073069830285 ], [ -0.326755618460299, 51.461078604900571 ], [ -0.326765537850917, 51.46108324144398 ], [ -0.32677545724348, 51.461087877986543 ], [ -0.326785343792387, 51.461093413054243 ], [ -0.326795230343603, 51.461098948121069 ], [ -0.32680499826623, 51.461104481493983 ], [ -0.326813461251129, 51.461109996242563 ], [ -0.326820500666906, 51.461115490674068 ], [ -0.326828927526272, 51.461121993800084 ], [ -0.326835815469965, 51.461128385063567 ], [ -0.326841365630207, 51.461135656229466 ], [ -0.326846797161132, 51.461142925702063 ], [ -0.326856388130898, 51.461156547497431 ], [ -0.32686164269934, 51.461171905396142 ], [ -0.326865355066694, 51.461187241285671 ], [ -0.326866220288875, 51.461202536543297 ], [ -0.326867085511494, 51.461217831800887 ], [ -0.326867917890351, 51.461234025584403 ], [ -0.326867359538718, 51.461249300526049 ], [ -0.3268670639406, 51.461257387259835 ], [ -0.326839045814449, 51.461354977832123 ], [ -0.326790889730033, 51.461451471905242 ], [ -0.326787812646027, 51.461457720953327 ], [ -0.32674547260225, 51.461554208115267 ], [ -0.326698775836665, 51.461649734089555 ], [ -0.326647808109627, 51.461745199090331 ], [ -0.326318076747595, 51.462021068780182 ], [ -0.326239708311639, 51.462314011232301 ], [ -0.326186656960718, 51.462385263353845 ], [ -0.326059296363675, 51.462443677707839 ], [ -0.326011426037058, 51.462493337952118 ], [ -0.325973266224593, 51.462631238326288 ], [ -0.325921099088169, 51.462720482864356 ], [ -0.325834293591306, 51.462809142884481 ], [ -0.325752107344833, 51.462891575843635 ], [ -0.325711052725429, 51.462991766923032 ], [ -0.325679296405541, 51.463113576752399 ], [ -0.325589110953677, 51.463333531511502 ], [ -0.32556031250326, 51.463374474008653 ], [ -0.325384149880059, 51.463624665576639 ], [ -0.325118427730096, 51.463960780142649 ], [ -0.324854342737929, 51.464294220579418 ], [ -0.324635541198279, 51.464489772365518 ], [ -0.324313542228333, 51.464751363563792 ], [ -0.324048305778509, 51.464957128572564 ], [ -0.323824000515211, 51.465147206331444 ], [ -0.323782672138995, 51.465173675295333 ], [ -0.32374137991537, 51.465199155867346 ], [ -0.32369881550522, 51.4652237192429 ], [ -0.323654741627006, 51.465247362028251 ], [ -0.323613613822665, 51.465268349930881 ], [ -0.323568149078244, 51.465291073804892 ], [ -0.323522684290479, 51.465313797661558 ], [ -0.323475828677286, 51.465335602619923 ], [ -0.323429038849192, 51.465355610509853 ], [ -0.323378043723099, 51.465373760260015 ], [ -0.323335821148847, 51.465385742459603 ], [ -0.323311183528391, 51.46539078413393 ], [ -0.323285003564642, 51.465395803748329 ], [ -0.323260431768188, 51.465399048362116 ], [ -0.323234436271561, 51.465402272611875 ], [ -0.323208440771536, 51.465405496855915 ], [ -0.323182359545367, 51.46540782087262 ], [ -0.323156429877377, 51.465409248055238 ], [ -0.3231304672883, 51.465411573757081 ], [ -0.323104418975537, 51.465412999231539 ], [ -0.32307848930278, 51.465414426396954 ], [ -0.323052559628596, 51.465415853556657 ], [ -0.323039594790971, 51.465416567134319 ], [ -0.322977499350621, 51.465420174028566 ], [ -0.322912622354506, 51.465421943114542 ], [ -0.322849287693136, 51.465423734225197 ], [ -0.322785900238733, 51.46542372655481 ], [ -0.322722545712544, 51.465422820325209 ], [ -0.322659342759577, 51.465421017233588 ], [ -0.322596054100564, 51.465418313885742 ], [ -0.322532831311482, 51.46541381345385 ], [ -0.322492710673356, 51.465410542493174 ], [ -0.321824799457055, 51.465406379198392 ], [ -0.321712498863928, 51.465406569885729 ], [ -0.320766670629561, 51.465406513367505 ], [ -0.320729179987239, 51.465405976454797 ], [ -0.320304161144526, 51.466238922644777 ], [ -0.320096095966791, 51.466691014246607 ], [ -0.319938456634575, 51.467062828395129 ], [ -0.319886003774131, 51.467353442019068 ], [ -0.319705573329198, 51.468543197905255 ], [ -0.31963300212591, 51.468754411435945 ], [ -0.319462707595834, 51.469160206039895 ], [ -0.319199217145516, 51.469824654833857 ], [ -0.318800687739054, 51.470719917665285 ], [ -0.318707164761362, 51.470835536462047 ], [ -0.31865184194727, 51.470890481140309 ], [ -0.318611371476713, 51.470932153779451 ], [ -0.318465918947474, 51.471052331896502 ], [ -0.318209853313454, 51.471200680385124 ], [ -0.317553202476297, 51.471517687931168 ], [ -0.317384901546138, 51.471590789166562 ], [ -0.317046140929194, 51.471718170885211 ], [ -0.316863976655142, 51.471777587466164 ], [ -0.316580179445312, 51.471859817877224 ], [ -0.315882726318682, 51.472033289792627 ], [ -0.315428379203307, 51.472130149126826 ], [ -0.314759456093657, 51.472389429049258 ], [ -0.314016128279407, 51.472592796674171 ], [ -0.313246167548786, 51.472855020569021 ], [ -0.311568680496099, 51.473477531443002 ], [ -0.310501881525935, 51.473903666213602 ], [ -0.31014519958266, 51.474045963110754 ], [ -0.309542546982121, 51.474299875486729 ], [ -0.30849377269181, 51.474741624892594 ], [ -0.306976816003383, 51.475578460729331 ], [ -0.306607072593124, 51.475842016506618 ], [ -0.306219726956116, 51.476151166500671 ], [ -0.305969694324409, 51.476368801675811 ], [ -0.305785010502462, 51.476537035800163 ], [ -0.305669881267416, 51.476651344967209 ], [ -0.305507669099583, 51.476831500561239 ], [ -0.30532708757687, 51.477078007203268 ], [ -0.305249019643606, 51.477204628538104 ], [ -0.305142402576498, 51.477399971180155 ], [ -0.304799998049431, 51.477895951368723 ], [ -0.304253131387309, 51.478545402595223 ], [ -0.303045080325595, 51.479707792599605 ], [ -0.302210529593539, 51.480307223036135 ], [ -0.300892739317839, 51.481240466294381 ], [ -0.299799424838555, 51.482174253683674 ], [ -0.299054861522252, 51.482947579862092 ], [ -0.298375059364188, 51.48376058829502 ], [ -0.297815606962142, 51.484475459384775 ], [ -0.29736745792858, 51.485214508123462 ], [ -0.297174949307738, 51.485434669451493 ], [ -0.297108318048042, 51.485520996503361 ], [ -0.297042344151191, 51.485592858952984 ], [ -0.296966329925456, 51.485660080562063 ], [ -0.296902650295104, 51.485708601904086 ], [ -0.296830254274076, 51.48575519865387 ], [ -0.296717085782103, 51.485815587651068 ], [ -0.296536964918068, 51.485897569684141 ], [ -0.29635389470544, 51.485975822655874 ], [ -0.296077932665659, 51.486076999638819 ], [ -0.293929392361606, 51.486760760882014 ], [ -0.293374028300714, 51.486936981160639 ], [ -0.292094351370507, 51.487300529447865 ], [ -0.291744028463152, 51.487347661754008 ], [ -0.291665913299699, 51.487356413478444 ], [ -0.29014096040089, 51.48738364451328 ], [ -0.289807252916946, 51.487370689524404 ], [ -0.289658048225269, 51.487355928360728 ], [ -0.289377421644759, 51.487311381564567 ], [ -0.288514959865237, 51.487109022223095 ], [ -0.288339717402759, 51.487057020124261 ], [ -0.288188035700568, 51.487032331849406 ], [ -0.288116156203009, 51.487026788018753 ], [ -0.287943387989711, 51.487026065037142 ], [ -0.287435339039984, 51.487013256140798 ], [ -0.287426793020687, 51.487013131395209 ], [ -0.287227963420598, 51.4870138249604 ], [ -0.287088428114631, 51.487007292797522 ], [ -0.286904719094028, 51.486991125375269 ], [ -0.286775677064777, 51.486973957933522 ], [ -0.285687459946104, 51.486765584122779 ], [ -0.284678673663841, 51.486548472295553 ], [ -0.283968403611058, 51.486323221638692 ], [ -0.282850866852858, 51.48582122429498 ], [ -0.282790158849282, 51.4857870723147 ], [ -0.282711525270413, 51.48573377868879 ], [ -0.282595986636676, 51.485626004133579 ], [ -0.282305046935545, 51.485205323027117 ], [ -0.282105728166423, 51.485067552916412 ], [ -0.280795409913098, 51.484444942070191 ], [ -0.280667458914634, 51.484399015392896 ], [ -0.280533540820903, 51.484360193200928 ], [ -0.2804449976702, 51.484340016170385 ], [ -0.280242958413871, 51.484312691374285 ], [ -0.280086391966344, 51.484301405987807 ], [ -0.279976248079161, 51.484280911916088 ], [ -0.279878326906975, 51.484241717730171 ], [ -0.279827542574916, 51.484212204745631 ], [ -0.279774468041249, 51.484170971015722 ], [ -0.279407877928286, 51.483997479937202 ], [ -0.278651753323583, 51.483499840955176 ], [ -0.277814142867088, 51.482832883892279 ], [ -0.276965208652154, 51.482085742019031 ], [ -0.276810237359619, 51.481918855859412 ], [ -0.276675117676411, 51.481757745113647 ], [ -0.276539221393295, 51.481579451584267 ], [ -0.276415126025946, 51.481396836192481 ], [ -0.276312035124996, 51.481227205420488 ], [ -0.276219103758475, 51.481055835902346 ], [ -0.276098007682248, 51.48079055470447 ], [ -0.274661216641518, 51.477953801735758 ], [ -0.273921497936087, 51.476871022279042 ], [ -0.273466824080702, 51.476286982801774 ], [ -0.272825489040628, 51.475502409850883 ], [ -0.272531686349003, 51.475195928589862 ], [ -0.27223509047759, 51.474891203478087 ], [ -0.271567290270578, 51.474270762810384 ], [ -0.270818664885116, 51.473694077348696 ], [ -0.269900887552005, 51.473101407750143 ], [ -0.269431725120222, 51.472827393859113 ], [ -0.268041506617421, 51.472158517231172 ], [ -0.267538623537953, 51.471941625738147 ], [ -0.267196700004666, 51.471807030556562 ], [ -0.266845773122937, 51.471681381341931 ], [ -0.266488846530626, 51.471563733481624 ], [ -0.266222706234179, 51.471481498221948 ], [ -0.265936256372584, 51.471402648149308 ], [ -0.265534108126395, 51.471300511179628 ], [ -0.265124352664149, 51.471208059508236 ], [ -0.264709915186641, 51.471126415119059 ], [ -0.264290714260587, 51.471054587853239 ], [ -0.263981483031812, 51.471006861178516 ], [ -0.263637554472727, 51.470963115289045 ], [ -0.26314282229846, 51.470910843337577 ], [ -0.262644732032203, 51.470872004644534 ], [ -0.262143236244625, 51.470844710555284 ], [ -0.261641259878151, 51.47083008316217 ], [ -0.261157689321493, 51.470824716409112 ], [ -0.260757325559321, 51.47082597499498 ], [ -0.260423032341581, 51.470831807725233 ], [ -0.260090107303072, 51.470842244710475 ], [ -0.259758217373748, 51.470859798234791 ], [ -0.259427596283163, 51.470884561674161 ], [ -0.259099430385303, 51.470916552639864 ], [ -0.258773854270268, 51.470958470162238 ], [ -0.258498704308974, 51.471001135171164 ], [ -0.25819559824176, 51.471057768632122 ], [ -0.257816745674805, 51.471139437750963 ], [ -0.257444637949369, 51.471231004950532 ], [ -0.257077881836011, 51.4713316404967 ], [ -0.256718134855981, 51.471441458964236 ], [ -0.256404650418779, 51.471542883806592 ], [ -0.256106892855627, 51.471649036554872 ], [ -0.255779578648357, 51.471773718193674 ], [ -0.255460653751539, 51.471905625771143 ], [ -0.255150111231133, 51.472044939052985 ], [ -0.254846415360287, 51.472191455464667 ], [ -0.254554102342047, 51.472344523330932 ], [ -0.254019973523764, 51.472643227301646 ], [ -0.253769134914891, 51.472801315419233 ], [ -0.253678723827556, 51.472868294227716 ], [ -0.253592630728729, 51.472937225138551 ], [ -0.253407141832465, 51.473118760152168 ], [ -0.253245473940927, 51.473316921437338 ], [ -0.252558158074558, 51.474044949944528 ], [ -0.25235593138645, 51.47428835515209 ], [ -0.251917170526503, 51.474690956162647 ], [ -0.251883684553734, 51.474740801508361 ], [ -0.251817140327607, 51.474860366521732 ], [ -0.251763686226642, 51.47497913761714 ], [ -0.251724521205374, 51.475099919586967 ], [ -0.251681335705813, 51.475325914954155 ], [ -0.251409748561306, 51.475874039870007 ], [ -0.250764355246982, 51.477087437336557 ], [ -0.250692856389037, 51.477336386854525 ], [ -0.250625716498331, 51.477586210415652 ], [ -0.250500666386246, 51.47822012767287 ], [ -0.250386012448993, 51.478998131630675 ], [ -0.250340262014106, 51.479666494435129 ], [ -0.25034839192928, 51.480130685810217 ], [ -0.250385799640038, 51.480472059152319 ], [ -0.250464835363369, 51.481001047704005 ], [ -0.250461004862062, 51.481290562394683 ], [ -0.250381129227168, 51.481947627990742 ], [ -0.250351124773204, 51.482129769912817 ], [ -0.250308218311415, 51.482310820413772 ], [ -0.250283043798976, 51.482403942248254 ], [ -0.250200227453555, 51.482647328376373 ], [ -0.250125566617771, 51.482829613354767 ], [ -0.250047076098729, 51.483000243908137 ], [ -0.249766162138022, 51.483492398315434 ], [ -0.249183201368623, 51.48430836414844 ], [ -0.249068351607422, 51.484451391123336 ], [ -0.248950909107079, 51.484584580061941 ], [ -0.248823484277773, 51.484714832954857 ], [ -0.248688953073735, 51.484841473487421 ], [ -0.24854740661478, 51.484965222204245 ], [ -0.248397332924601, 51.485085247398096 ], [ -0.248163313664249, 51.485254453570107 ], [ -0.247804774580333, 51.485474841411879 ], [ -0.247732723904181, 51.48551422088763 ], [ -0.247192724984594, 51.485811908631241 ], [ -0.246803435800303, 51.486010167787391 ], [ -0.246194898645372, 51.486292442508201 ], [ -0.24517324732281, 51.486789782473444 ], [ -0.244680121805056, 51.487028824740143 ], [ -0.243420180397977, 51.48791913720676 ], [ -0.243016411714872, 51.488230531849339 ], [ -0.242755251424484, 51.488391139462287 ], [ -0.242566886544339, 51.488496289183914 ], [ -0.242372846347168, 51.488597667635567 ], [ -0.241997382871147, 51.48877184429417 ], [ -0.241772094080163, 51.488861156277316 ], [ -0.241463889393412, 51.488972509418474 ], [ -0.241147398660621, 51.489073848415295 ], [ -0.240823904608796, 51.489168878374031 ], [ -0.240503760619532, 51.489253978664784 ], [ -0.240169425986453, 51.489334370172926 ], [ -0.239813538003593, 51.489410032219041 ], [ -0.239453725304978, 51.489476554289467 ], [ -0.239088525632199, 51.489534903313007 ], [ -0.238722128239016, 51.489584243120447 ], [ -0.238350378895607, 51.489624511326141 ], [ -0.237942836461949, 51.489659745747296 ], [ -0.237843274421994, 51.489663734380578 ], [ -0.237716311212732, 51.489669918479066 ], [ -0.237387381920131, 51.489683856522021 ], [ -0.236822242228306, 51.4896942440771 ], [ -0.236528443266574, 51.489693424494419 ], [ -0.235949703879375, 51.489683825234607 ], [ -0.235105591756094, 51.489647756260972 ], [ -0.234729584622145, 51.489647492841428 ], [ -0.234541577706749, 51.489632077090654 ], [ -0.234508530321562, 51.489629781657037 ], [ -0.234340514123511, 51.489616464495732 ], [ -0.233880008439717, 51.489565390200106 ], [ -0.233608264710286, 51.489516347792957 ], [ -0.233351022942618, 51.489463927151235 ], [ -0.233170416970114, 51.489404569275017 ], [ -0.232700938023748, 51.489250868273821 ], [ -0.231956525071193, 51.488983432456436 ], [ -0.231676565350486, 51.488846069081873 ], [ -0.231598820607664, 51.488808037664214 ], [ -0.230988455420692, 51.488465212094667 ], [ -0.230610580644992, 51.488289510146544 ], [ -0.230260277108101, 51.488113413885308 ], [ -0.229601534857284, 51.487640304304293 ], [ -0.22869002327571, 51.486966491647685 ], [ -0.228424346587225, 51.48675840464611 ], [ -0.228064428471581, 51.486457104787632 ], [ -0.227846076636607, 51.486256833556332 ], [ -0.22761847439517, 51.486034845973869 ], [ -0.227406865427612, 51.485807795501607 ], [ -0.227270493073537, 51.485646520363112 ], [ -0.227054697515544, 51.485343799456842 ], [ -0.226946263611289, 51.485169551009726 ], [ -0.226788069663706, 51.484866801274514 ], [ -0.226475871186084, 51.484076978029634 ], [ -0.226266554614389, 51.483347234418567 ], [ -0.226262651260219, 51.483334589270669 ], [ -0.226125208856151, 51.482907189787277 ], [ -0.225863537337099, 51.482376233436277 ], [ -0.225704546759299, 51.482131006409226 ], [ -0.225692154426181, 51.4821137377984 ], [ -0.225614908185683, 51.481766360995536 ], [ -0.225765569344578, 51.481522221391508 ], [ -0.225770277572495, 51.480953938981806 ], [ -0.225718255364446, 51.480626721898609 ], [ -0.225596425772463, 51.480164496520381 ], [ -0.225588339748002, 51.479592424457458 ], [ -0.225650523939275, 51.478956686528043 ], [ -0.225653823369772, 51.478277804421737 ], [ -0.225604055260568, 51.477555866142062 ], [ -0.225520847226674, 51.476988950664676 ], [ -0.22545640381557, 51.476758638501103 ], [ -0.225368553026929, 51.47646144549477 ], [ -0.225327560646301, 51.476367328378096 ], [ -0.225219786335865, 51.476139956633297 ], [ -0.225191828048002, 51.476080199024402 ], [ -0.225051387485126, 51.475837948779095 ], [ -0.224570074728511, 51.47517960195222 ], [ -0.224229507615019, 51.474752720703371 ], [ -0.224073924971028, 51.474570473195442 ], [ -0.223906537174266, 51.474392631701562 ], [ -0.223639139073397, 51.474124183495519 ], [ -0.223126638670899, 51.473637068523757 ], [ -0.222750234406396, 51.473280661806918 ], [ -0.221710439431795, 51.472358429555882 ], [ -0.222462035841453, 51.472026307538414 ], [ -0.222972787598687, 51.471741776432708 ], [ -0.223214186455079, 51.471642945453077 ], [ -0.223401727314439, 51.471521632127647 ], [ -0.223504561694434, 51.471432389151886 ], [ -0.22351854128212, 51.471405630463501 ], [ -0.223517675731198, 51.471391233147514 ], [ -0.2235110800891, 51.471377648069954 ], [ -0.223418867725243, 51.471303431540981 ], [ -0.223361992385345, 51.471248629394438 ], [ -0.223316112923472, 51.471094113399928 ], [ -0.223310347763007, 51.471019407995271 ], [ -0.223314786420568, 51.470944857131279 ], [ -0.223328043542308, 51.47090001735792 ], [ -0.223356798268399, 51.470862694303726 ], [ -0.22339707582636, 51.470828242793651 ], [ -0.223438274648867, 51.470803694366644 ], [ -0.22348507785611, 51.470784624877503 ], [ -0.223543215471538, 51.470770222079437 ], [ -0.223612771263421, 51.470761386237101 ], [ -0.223704842418098, 51.470762780431535 ], [ -0.224314467205635, 51.470857416122783 ], [ -0.225549350545843, 51.471093752943666 ], [ -0.225715806738715, 51.471185272946492 ], [ -0.226318767755546, 51.471305059556222 ], [ -0.226760682059084, 51.471383661334777 ], [ -0.227049077111306, 51.47144735515112 ], [ -0.22777896047171, 51.47171109623595 ], [ -0.228100767243711, 51.471877779538453 ], [ -0.228333775829223, 51.471921754292666 ], [ -0.228372153958728, 51.471933211931443 ], [ -0.228506025394218, 51.471971194062554 ], [ -0.22874341776481, 51.472125812642574 ], [ -0.229057169399041, 51.472129650493585 ], [ -0.229198699191929, 51.472120099811271 ], [ -0.229267754869514, 51.472121142182594 ], [ -0.22943261425952, 51.472140711734134 ], [ -0.229559423290121, 51.472174090993491 ], [ -0.229664373939456, 51.472217029379152 ], [ -0.229963482157239, 51.472375363691938 ], [ -0.230358852775044, 51.47254045353386 ], [ -0.230655638323246, 51.472722125278779 ], [ -0.230722020231033, 51.47275549086195 ], [ -0.230780157434429, 51.472777943930737 ], [ -0.230945575233752, 51.472819995020551 ], [ -0.231084661118501, 51.472833779479302 ], [ -0.231469260586528, 51.47283238600744 ], [ -0.231699519597473, 51.472797199549198 ], [ -0.232085612073213, 51.472794028540655 ], [ -0.23259213276978, 51.472614576615264 ], [ -0.232672211221238, 51.472554650298079 ], [ -0.232706808028406, 51.472516514032343 ], [ -0.23271755302127, 51.472499594697318 ], [ -0.232725052284566, 51.472416099659441 ], [ -0.232926210689753, 51.472205974414912 ], [ -0.232962855466646, 51.472151686729717 ], [ -0.23298639351988, 51.472101696667167 ], [ -0.233001859803713, 51.472036301834358 ], [ -0.232924816093525, 51.471682639153514 ], [ -0.232923589411205, 51.471674439676029 ], [ -0.232872028938891, 51.471257331004807 ], [ -0.232867718777205, 51.470772609215999 ], [ -0.23292715379087, 51.470352587526044 ], [ -0.232946644833373, 51.470072299747848 ], [ -0.232991546022076, 51.469693503483001 ], [ -0.233077426732622, 51.469184967816091 ], [ -0.233203722316084, 51.468822590715803 ], [ -0.233366930929457, 51.468398827526855 ], [ -0.233424208072475, 51.468145180017004 ], [ -0.233392507500197, 51.467847039944651 ], [ -0.233368895442217, 51.467714529664825 ], [ -0.233303892505477, 51.467568719934171 ], [ -0.232807336400392, 51.466634088342921 ], [ -0.233254049723021, 51.466363022217067 ], [ -0.233391552694651, 51.466269707816224 ], [ -0.233543543703185, 51.466136245724307 ], [ -0.23362635046607, 51.466042197257757 ], [ -0.233623804172454, 51.466031280848952 ], [ -0.233626257333769, 51.465709380992287 ], [ -0.233556823182215, 51.465380105473791 ], [ -0.233544653215096, 51.465323284335064 ], [ -0.233456209839698, 51.464929892475546 ], [ -0.233383927785873, 51.464453045723715 ], [ -0.233317431026407, 51.464272241414427 ], [ -0.233290886754895, 51.463991259353243 ], [ -0.234540266754183, 51.464257389300826 ], [ -0.234873406875172, 51.464317242786286 ], [ -0.235209706447693, 51.464369051639054 ], [ -0.235550707909909, 51.464412839110345 ], [ -0.236352195672862, 51.464498611535262 ], [ -0.241479286511491, 51.465047747158501 ], [ -0.242991803215859, 51.46517739422243 ], [ -0.243952804510348, 51.465230441898264 ], [ -0.245025100042918, 51.465238398238228 ], [ -0.24811433162385, 51.465058923884243 ], [ -0.248618726930638, 51.465045778530573 ], [ -0.249023034115584, 51.465051814257826 ], [ -0.249425367944181, 51.465072203279234 ], [ -0.251042868362485, 51.465204211686661 ], [ -0.251804976201614, 51.46522815708456 ], [ -0.252892386535715, 51.465216484350627 ], [ -0.253530963736507, 51.464894167422585 ], [ -0.253908789443759, 51.464651574760808 ], [ -0.25551316091949, 51.463465016983839 ], [ -0.255997241904458, 51.463040600555928 ], [ -0.256577847852609, 51.462384684178126 ], [ -0.257066189129287, 51.461660778235618 ], [ -0.257496046803632, 51.461032285441092 ], [ -0.257511323899894, 51.461008239184778 ], [ -0.257882445305168, 51.460485045364834 ], [ -0.257998794901384, 51.460303285966432 ], [ -0.257997371423764, 51.460303264829548 ], [ -0.258020294306365, 51.460268543975801 ], [ -0.256784827004378, 51.459860832824454 ], [ -0.256786661053316, 51.459850071999739 ], [ -0.256802415879354, 51.459779194694349 ], [ -0.256844407773305, 51.459733070319089 ], [ -0.25696158450224, 51.459604455448861 ], [ -0.257026152376364, 51.459498433017409 ], [ -0.257130296413173, 51.45933177619645 ], [ -0.257132563215107, 51.459160009753106 ], [ -0.257223341622942, 51.458967173011189 ], [ -0.257294302381847, 51.458805416928492 ], [ -0.257679114582046, 51.458339961419838 ], [ -0.2581273783791, 51.457682069789939 ], [ -0.258317723197583, 51.457333293026252 ], [ -0.258502815380018, 51.456932205496798 ], [ -0.258505867200398, 51.456926856740878 ], [ -0.25870852132362, 51.456482068037069 ], [ -0.258931539558194, 51.455991641853394 ], [ -0.258995296781017, 51.455638288120554 ], [ -0.259056992132507, 51.455264226507104 ], [ -0.259089800540574, 51.454931989623937 ], [ -0.254965535286069, 51.452905823483157 ], [ -0.25242501306897, 51.451665657193779 ], [ -0.249261747222639, 51.450118475932896 ], [ -0.247302927867221, 51.449180047029166 ], [ -0.247263246358569, 51.449125513205637 ], [ -0.247221694743618, 51.449082638591307 ], [ -0.247052680662034, 51.448910109098264 ], [ -0.246660638350913, 51.448513087966887 ], [ -0.245986512743149, 51.447853740152617 ], [ -0.245501311503392, 51.44737081430781 ], [ -0.245024214557294, 51.446899604891129 ], [ -0.244476542775856, 51.446359910939549 ], [ -0.244221117542999, 51.446077302875949 ], [ -0.243005442306113, 51.444718306073888 ], [ -0.242537001332067, 51.444174395399145 ], [ -0.242023249070947, 51.443611913087878 ], [ -0.24160562303137, 51.443132590215562 ], [ -0.241635851579412, 51.443096183849164 ], [ -0.241940061039017, 51.442743745902959 ], [ -0.242432037786, 51.442222319689684 ], [ -0.242705560875996, 51.44191796680056 ], [ -0.243179622871005, 51.44171470023408 ], [ -0.243751137111581, 51.441482234861127 ], [ -0.244430776987763, 51.441208232746511 ], [ -0.245002416348358, 51.440972167126972 ], [ -0.245922112108324, 51.440591169937939 ], [ -0.247912661421211, 51.439787270954128 ], [ -0.249039300451992, 51.439335621989841 ], [ -0.251128056522629, 51.438482790250113 ], [ -0.252019511109816, 51.438121103722828 ], [ -0.253249875381104, 51.437625923294661 ], [ -0.254067000134962, 51.437290086018479 ], [ -0.254483589288496, 51.437119992383707 ], [ -0.255006845947415, 51.436905725236372 ], [ -0.255115387318685, 51.436849803853107 ], [ -0.255245510251057, 51.436794113642584 ], [ -0.255659447325209, 51.436618672428594 ], [ -0.256156934353087, 51.436626073005272 ], [ -0.256184753004542, 51.436652558117771 ], [ -0.256337030523092, 51.436582002961259 ], [ -0.256311936454088, 51.43656185149068 ], [ -0.256433657575912, 51.436502439019151 ], [ -0.256255776454025, 51.436373032838475 ], [ -0.2563201486512, 51.43634612086543 ], [ -0.256380065597631, 51.436320940624107 ], [ -0.256790794497667, 51.436151651114955 ], [ -0.257128917183593, 51.436001149069625 ], [ -0.258092503274346, 51.435596350718448 ], [ -0.258762293691341, 51.435308638040411 ], [ -0.259990954054024, 51.434817051486661 ], [ -0.260400791243303, 51.434595594242474 ], [ -0.26090296864796, 51.434407060779122 ], [ -0.261834001996121, 51.434020629741433 ], [ -0.262186532324879, 51.433905388945526 ], [ -0.262754656076461, 51.433644920663994 ], [ -0.262968095965706, 51.433556386688863 ], [ -0.264233052961105, 51.433053530918848 ], [ -0.264576433510477, 51.432916574940286 ], [ -0.265276134877739, 51.432560864176132 ], [ -0.265788720680246, 51.432322126439637 ], [ -0.266237555740361, 51.432094040683623 ], [ -0.266697865413998, 51.431791507301625 ], [ -0.267316055432846, 51.431422983395017 ], [ -0.267706624132818, 51.431251566317144 ], [ -0.267995132355576, 51.431081426853773 ], [ -0.268386943837281, 51.430952279037044 ], [ -0.268657801122092, 51.430790868378274 ], [ -0.268920578727729, 51.430651722437723 ], [ -0.269360395915543, 51.430394727024492 ], [ -0.270285447664791, 51.429899471351263 ], [ -0.270611624513962, 51.429720803280496 ], [ -0.270939099446966, 51.429542243369504 ], [ -0.271090903829786, 51.429407747923278 ], [ -0.271169436809338, 51.429347775761919 ], [ -0.271354653362033, 51.429204783113754 ], [ -0.272138621734426, 51.428559009407323 ], [ -0.272980198014582, 51.427872726419587 ], [ -0.273527725360865, 51.427428516594716 ], [ -0.274160493654412, 51.426900066489324 ], [ -0.275367087665807, 51.425876539938891 ], [ -0.275812935259876, 51.42557376134927 ], [ -0.276416900912307, 51.425084431113277 ], [ -0.27678436579812, 51.424758920492025 ], [ -0.276801401127231, 51.424766362891908 ], [ -0.280436365599536, 51.421855909337928 ], [ -0.282669598940983, 51.421254700229234 ], [ -0.282730721082594, 51.421237616418892 ], [ -0.284934550489066, 51.420612469750502 ], [ -0.285616708493629, 51.420412090702087 ], [ -0.286187482312439, 51.420263028661481 ], [ -0.286596463971558, 51.420171919804496 ], [ -0.287421767861053, 51.422024742663318 ], [ -0.289391025954919, 51.426253823835744 ], [ -0.289486514861841, 51.426469265418092 ], [ -0.289547522189618, 51.426607700217026 ], [ -0.289873423709748, 51.427319326513164 ], [ -0.289966142501512, 51.427532839370215 ], [ -0.290029490723111, 51.427684882676175 ], [ -0.290616590569877, 51.428990140010519 ], [ -0.29067703129366, 51.428988324788101 ], [ -0.292946094917391, 51.428939596494118 ], [ -0.292999270673061, 51.42893857321468 ], [ -0.292872365726564, 51.428601314423013 ], [ -0.293281160414723, 51.428555038711792 ], [ -0.293311557004868, 51.428550986549538 ], [ -0.29336690306645, 51.427181385284229 ], [ -0.293374371638525, 51.427098787757103 ], [ -0.293380058835436, 51.426790429995201 ], [ -0.293387603749489, 51.426511765671549 ], [ -0.293414901449017, 51.426511264275142 ], [ -0.294767565282841, 51.426460837004385 ], [ -0.294761656161603, 51.426657627985897 ], [ -0.294749418239392, 51.426795083969338 ], [ -0.294709866790393, 51.427006668014492 ], [ -0.294921025178613, 51.427015134828217 ], [ -0.29540060056269, 51.427039193179311 ], [ -0.29541352158335, 51.427039381149761 ], [ -0.295343607846668, 51.427330622946968 ], [ -0.295442710489999, 51.427644101140054 ], [ -0.295805514181677, 51.427829264584105 ], [ -0.295924652090013, 51.427760876739811 ], [ -0.295940786374872, 51.427751222587126 ], [ -0.296123915697116, 51.427856369586401 ], [ -0.296215722459525, 51.427900855665271 ], [ -0.296629398811916, 51.428111927732793 ], [ -0.297136677913587, 51.428357620984862 ], [ -0.297291960454788, 51.428474947181819 ], [ -0.297471563555279, 51.428560263223375 ], [ -0.297623698387909, 51.428685723967533 ], [ -0.297678129229458, 51.428689211705745 ], [ -0.297734271982758, 51.428729582519452 ], [ -0.298043888725029, 51.428951633585541 ], [ -0.29830156537884, 51.429141555071539 ], [ -0.298275035563554, 51.429156452459523 ], [ -0.298194293954511, 51.429200228872531 ], [ -0.298862812689565, 51.429598386109589 ], [ -0.300071932516566, 51.430393822165392 ], [ -0.300384580641229, 51.430611505921803 ], [ -0.300626057389594, 51.430775026890394 ], [ -0.300880536315848, 51.430933431909665 ], [ -0.301158341345044, 51.431121751030481 ], [ -0.301595768884544, 51.431429340680808 ], [ -0.302047802330163, 51.431151724389487 ], [ -0.301812218704858, 51.430909091416375 ], [ -0.301509497727224, 51.430538728458018 ], [ -0.301740421453321, 51.430401834706522 ], [ -0.301758011512163, 51.430391301891007 ], [ -0.302155093324404, 51.430664143761767 ], [ -0.304209436683851, 51.431053576629466 ], [ -0.305845767720862, 51.431347930775829 ], [ -0.305919990987373, 51.431361589666807 ], [ -0.306108831532704, 51.43123657481577 ], [ -0.306225857274767, 51.431183428809234 ], [ -0.306241786547499, 51.430519133180383 ], [ -0.306396956364333, 51.430524972107833 ], [ -0.306405610645482, 51.430525097200992 ], [ -0.30640798100932, 51.430150166955798 ], [ -0.306932971828338, 51.430153259365568 ], [ -0.306933363922787, 51.430181133404957 ], [ -0.306935072087219, 51.430250379531543 ], [ -0.307239985595059, 51.430254785130792 ], [ -0.307273341644374, 51.430244479277121 ], [ -0.307306816229877, 51.430234175126536 ], [ -0.307449748297106, 51.430298269550157 ], [ -0.307718785835485, 51.430416415952394 ], [ -0.308089511148395, 51.430581788198602 ], [ -0.308545298951304, 51.430785335294907 ], [ -0.30850854720833, 51.430807279221327 ], [ -0.308066832340999, 51.431079675133709 ], [ -0.308083775699101, 51.431089808570491 ], [ -0.309353869025613, 51.431832898766068 ], [ -0.309613730350025, 51.43200394799846 ], [ -0.309761115254435, 51.432143617962581 ], [ -0.309961627272298, 51.432168085753354 ], [ -0.310096283708002, 51.432183512602506 ], [ -0.310109504989123, 51.432175612476556 ], [ -0.310395829318971, 51.43201882441334 ], [ -0.31065635869893, 51.432210467522495 ], [ -0.310894304137412, 51.432001738945765 ], [ -0.311995004283877, 51.431139029475844 ], [ -0.312224850246273, 51.430914809064163 ], [ -0.312801138569844, 51.430343986923774 ], [ -0.313732492653574, 51.429198251793103 ], [ -0.31394792599648, 51.428856054507662 ], [ -0.314204124794844, 51.42854051377212 ], [ -0.31444756351601, 51.428258950111648 ], [ -0.3133976352393, 51.427821230908606 ], [ -0.313162845342174, 51.427713569241064 ], [ -0.312867173261745, 51.42757797113952 ], [ -0.312347549763277, 51.427352934502132 ], [ -0.311805699621723, 51.427106808814116 ], [ -0.311082746095835, 51.426738505758095 ], [ -0.310367234320883, 51.426364911541334 ], [ -0.309993051743066, 51.426136477772722 ], [ -0.309611537962087, 51.425949290058512 ], [ -0.309239412385751, 51.425703892750327 ], [ -0.308559060428964, 51.425156302206027 ], [ -0.307975937579887, 51.424628990261525 ], [ -0.307751990028724, 51.424344284767329 ], [ -0.307474596643325, 51.424026443386694 ], [ -0.3069499149203, 51.423394789507995 ], [ -0.306868933154592, 51.423288438376105 ], [ -0.306720484528424, 51.423024599431756 ], [ -0.306515188270438, 51.422704201700903 ], [ -0.306335867544136, 51.422380583170941 ], [ -0.306261368912521, 51.422217689466656 ], [ -0.306192463832337, 51.422057483625196 ], [ -0.306081134320406, 51.421761817086889 ], [ -0.306015130139654, 51.421484785447696 ], [ -0.306008644692331, 51.421233785880474 ], [ -0.306095965567902, 51.421088514464657 ], [ -0.306381106924651, 51.420651147058692 ], [ -0.306514808988048, 51.420341942284018 ], [ -0.306568436645802, 51.420174518000465 ], [ -0.306615048818366, 51.420004385236943 ], [ -0.306672812615306, 51.4196481446088 ], [ -0.30668189073994, 51.419364197561073 ], [ -0.306667169151787, 51.419060038991326 ], [ -0.306693095778938, 51.418750175077768 ], [ -0.306851712621012, 51.418389099154659 ], [ -0.307119669677792, 51.417870573197774 ], [ -0.307210392290885, 51.417709977514242 ], [ -0.307409679974777, 51.417416103094006 ], [ -0.307477617359159, 51.417291227174118 ], [ -0.307539750333255, 51.417166177438034 ], [ -0.307596721881274, 51.41702675914339 ], [ -0.307650730158194, 51.41688729800417 ], [ -0.307668626579339, 51.416791275440822 ], [ -0.307707065541721, 51.416684851725535 ], [ -0.307758450082036, 51.416542565767493 ], [ -0.30828653810722, 51.415247206235286 ], [ -0.308351089469471, 51.4150179985457 ], [ -0.308380559815439, 51.414804376069647 ], [ -0.30843013836956, 51.414630599199356 ], [ -0.308452323472777, 51.414460112611408 ], [ -0.30844879070602, 51.414282871901264 ], [ -0.308479776889918, 51.413947908429265 ], [ -0.308487422973914, 51.41378260579458 ], [ -0.308490436339136, 51.413620742304509 ], [ -0.308477201574161, 51.413513572137106 ], [ -0.308420472854985, 51.4131008386424 ], [ -0.308422691579765, 51.412809599872475 ], [ -0.308443300492604, 51.412521233660989 ], [ -0.308489012668239, 51.412297956713275 ], [ -0.308695503506628, 51.41161213605605 ], [ -0.308815759360636, 51.41104283710888 ], [ -0.309059992632666, 51.409491568414289 ], [ -0.309070389665735, 51.409364062637515 ], [ -0.309074103215077, 51.40930199638813 ], [ -0.309045238584682, 51.408136185386709 ], [ -0.308977743683446, 51.406689112177801 ], [ -0.308990021755684, 51.406510291332843 ], [ -0.308983697084724, 51.406253974806994 ], [ -0.30899538068782, 51.406052669469211 ], [ -0.308969253979549, 51.405632352667418 ], [ -0.30896309050454, 51.405564746104055 ], [ -0.308818590903783, 51.404763237585613 ], [ -0.308704193449602, 51.404007115146435 ], [ -0.308672881064804, 51.40348953748088 ], [ -0.308692220476777, 51.402964599601745 ], [ -0.308766300352896, 51.402202207148015 ], [ -0.308874302503154, 51.401651577759878 ], [ -0.309000319701942, 51.401197495036996 ], [ -0.309053934446477, 51.401029159993392 ], [ -0.309232677829713, 51.400627082964654 ], [ -0.309328256861758, 51.400452162124431 ], [ -0.309384691979311, 51.400364872257619 ], [ -0.309631824494293, 51.400014133153682 ], [ -0.309672237127642, 51.399972462113595 ], [ -0.309771367819, 51.399897385343863 ], [ -0.30992819833709, 51.399813341405341 ], [ -0.310195764532182, 51.399654477383493 ], [ -0.310460469568157, 51.399492784508496 ], [ -0.310700632538809, 51.399334423187611 ], [ -0.311451471830394, 51.398813743592235 ], [ -0.311868061473504, 51.398508594427483 ], [ -0.311966387786468, 51.398416512617061 ], [ -0.312001061300533, 51.398372870111167 ], [ -0.312125946928841, 51.39814182225328 ], [ -0.312189218904867, 51.398023073729462 ], [ -0.312500559385442, 51.397452902542348 ] ] ] } }
]
}
