{
"type": "FeatureCollection",
"name": "borough_Barnet",
"crs": { "type": "name", "properties": { "name": "urn:ogc:def:crs:OGC:1.3:CRS84" } },
"features": [
{ "type": "Feature", "properties": { "DISTRICT": "Barnet", "NAME": "Underhill", "GSS_CODE": "E05000060", "LAGSSCODE": "E09000003", "HECTARES": 455.053, "NONLD_AREA": 0.0 }, "geometry": { "type": "Polygon", "coordinates": [ [ [ -0.183456853527648, 51.567769379102693 ], [ -0.18378638796337, 51.567501098018354 ], [ -0.183983105076268, 51.567416042223975 ], [ -0.18416990446981, 51.567364904375651 ], [ -0.184725695477988, 51.567249445085153 ], [ -0.185216454398879, 51.567171635698799 ], [ -0.185656913643512, 51.567054300809765 ], [ -0.186089899896795, 51.566942332491742 ], [ -0.186142644267128, 51.566923370558484 ], [ -0.186195341192542, 51.566902609885211 ], [ -0.186246730207513, 51.566881828958017 ], [ -0.186296609265925, 51.566860125662586 ], [ -0.186346642918467, 51.566837525745399 ], [ -0.186396593368973, 51.566814025528508 ], [ -0.186445117011463, 51.566790503223466 ], [ -0.186459876145254, 51.566784348643608 ], [ -0.186539397366311, 51.566744224853714 ], [ -0.186618799552767, 51.566704099167573 ], [ -0.186697000955761, 51.56666125788464 ], [ -0.186751636081011, 51.566630638023952 ], [ -0.186991880719678, 51.566467949380637 ], [ -0.187167994026819, 51.566212661610685 ], [ -0.187252756158143, 51.566184305225448 ], [ -0.187366165347898, 51.566126634981778 ], [ -0.187421833179864, 51.566105919663862 ], [ -0.187504882458247, 51.566084728547715 ], [ -0.187703771234249, 51.566055438781454 ], [ -0.187788354176251, 51.566031574190291 ], [ -0.187893613367373, 51.565996342160702 ], [ -0.188068546578057, 51.565917237050783 ], [ -0.188390080225913, 51.565813336911802 ], [ -0.188359870781905, 51.565774213573803 ], [ -0.188676372908687, 51.565581324628369 ], [ -0.189124807788633, 51.565553099832606 ], [ -0.18916272315283, 51.56554199843908 ], [ -0.18922728281344, 51.565516025605604 ], [ -0.189286373484727, 51.565480978371532 ], [ -0.189340030827608, 51.56543595830361 ], [ -0.189398016341697, 51.565356843349079 ], [ -0.189471029394261, 51.565297738200343 ], [ -0.189618424859677, 51.565255873308374 ], [ -0.189822517506241, 51.56505944774274 ], [ -0.18987542513259, 51.564961375320443 ], [ -0.189910348065745, 51.564809894842917 ], [ -0.189972255306526, 51.564703870354499 ], [ -0.189993968667396, 51.56463039825563 ], [ -0.189996644054163, 51.564527055468396 ], [ -0.190118122179758, 51.563972274498319 ], [ -0.19013550377446, 51.563753188676976 ], [ -0.190119718921661, 51.563497541386916 ], [ -0.190346263692585, 51.562768179049478 ], [ -0.190380291722024, 51.562639159349843 ], [ -0.190490143668719, 51.562380056746228 ], [ -0.190593811643263, 51.562057929131527 ], [ -0.190638106339667, 51.56192196569647 ], [ -0.190741466359223, 51.561826379279005 ], [ -0.190935185381776, 51.561708003796916 ], [ -0.191115446921181, 51.561637966008909 ], [ -0.191381565807922, 51.561583635976646 ], [ -0.19172217814821, 51.561582595586295 ], [ -0.192295169633467, 51.561541085816607 ], [ -0.192955633444284, 51.561183396797126 ], [ -0.193590934384878, 51.56095315318094 ], [ -0.193763973458975, 51.5608460513753 ], [ -0.193827957424842, 51.560870410657884 ], [ -0.193957340025343, 51.560916453926495 ], [ -0.194085515636736, 51.560887862026476 ], [ -0.194255023841998, 51.560833835614481 ], [ -0.194276944937017, 51.56082698120106 ], [ -0.194377859827975, 51.56078987828564 ], [ -0.194456936830389, 51.560760530007876 ], [ -0.194544190479888, 51.560707933729567 ], [ -0.194588028907229, 51.560658264994508 ], [ -0.19458726256722, 51.560566465970211 ], [ -0.194827131431893, 51.56048385509721 ], [ -0.195052907275031, 51.560465754354766 ], [ -0.195323611755033, 51.560481607332541 ], [ -0.195570032449191, 51.560524954849839 ], [ -0.195933270427514, 51.560604260714179 ], [ -0.196100004076178, 51.560656360074468 ], [ -0.196219148752992, 51.560672576592786 ], [ -0.196569940767861, 51.560741800141663 ], [ -0.196624509341568, 51.560673416763393 ], [ -0.196725977782663, 51.560697451895216 ], [ -0.196788382180414, 51.56061741210695 ], [ -0.196894840920331, 51.56062354394718 ], [ -0.19689394730284, 51.560610045300201 ], [ -0.196878985354291, 51.560404844660745 ], [ -0.196897732870535, 51.560039062598065 ], [ -0.196919844817319, 51.55988297762535 ], [ -0.196907265508651, 51.559870198304978 ], [ -0.196817916155161, 51.559870622518986 ], [ -0.196792653033662, 51.55959505203576 ], [ -0.196741568686256, 51.55939190302 ], [ -0.196655502210285, 51.559234154659485 ], [ -0.196793012353342, 51.559185925400556 ], [ -0.197009523705284, 51.559110142751358 ], [ -0.19732192101266, 51.55901596584814 ], [ -0.197539425148902, 51.558915025625979 ], [ -0.197598548822956, 51.558881772523762 ], [ -0.197959958621585, 51.55911845783551 ], [ -0.19820490084046, 51.558943231550245 ], [ -0.198206327363377, 51.558943253466872 ], [ -0.198454367498923, 51.558761780161937 ], [ -0.19847532409021, 51.558450955657968 ], [ -0.198474202705299, 51.558259449867428 ], [ -0.198482873139181, 51.558223622759677 ], [ -0.198508492691142, 51.558159197865272 ], [ -0.198555566433134, 51.558099687443615 ], [ -0.19861424181924, 51.558038557181185 ], [ -0.198766503709674, 51.557908741660476 ], [ -0.198881941500892, 51.557834907982681 ], [ -0.199027546308791, 51.55776522335524 ], [ -0.199101427896852, 51.557719609443218 ], [ -0.199473337914788, 51.557253250419521 ], [ -0.199599300050139, 51.557057312345499 ], [ -0.199635443178429, 51.556982350447363 ], [ -0.199648856152014, 51.556934818989255 ], [ -0.199650876822701, 51.556883606525005 ], [ -0.199644516007092, 51.556827770363114 ], [ -0.199579309680014, 51.556650563784508 ], [ -0.199492777480282, 51.55650440520769 ], [ -0.199477053263207, 51.55646280944022 ], [ -0.199460098763046, 51.556343880065135 ], [ -0.199439275143222, 51.556286832970549 ], [ -0.199385204262994, 51.556195203063503 ], [ -0.19996680568308, 51.556189745985144 ], [ -0.200144477999416, 51.556184381440481 ], [ -0.200526692720979, 51.556149790529368 ], [ -0.200957082678889, 51.556063794722881 ], [ -0.201313505004092, 51.555986462211401 ], [ -0.201624107087296, 51.555939981087455 ], [ -0.2018254747003, 51.55591879417927 ], [ -0.202765922718287, 51.5557740790615 ], [ -0.203322960358792, 51.555694417608024 ], [ -0.203651971341676, 51.555654504900261 ], [ -0.203924120946409, 51.555629903018222 ], [ -0.204057342825711, 51.555617558169985 ], [ -0.204285999948562, 51.555561723344894 ], [ -0.204764632033047, 51.555425116346498 ], [ -0.204951105522356, 51.555413585272973 ], [ -0.205079809601944, 51.555367906755784 ], [ -0.205321870641619, 51.5553401442791 ], [ -0.205754330200686, 51.555309899082573 ], [ -0.205790571676723, 51.5553077562722 ], [ -0.205812682930672, 51.555441147944144 ], [ -0.205852816587782, 51.555557823909176 ], [ -0.205840652811189, 51.555939807211274 ], [ -0.205878692884815, 51.556073442440542 ], [ -0.205873293117428, 51.556138178513656 ], [ -0.205869181994109, 51.556206440431588 ], [ -0.205941448236147, 51.556422498844761 ], [ -0.205967538442349, 51.556418402738075 ], [ -0.206064889445789, 51.556401821171953 ], [ -0.206190932652495, 51.556387566123753 ], [ -0.206311234727959, 51.556374122180188 ], [ -0.206471360539447, 51.556337013608932 ], [ -0.206966684476546, 51.556211530828605 ], [ -0.207498039537117, 51.556089203555686 ], [ -0.208013684600699, 51.555964026788416 ], [ -0.208309337706182, 51.555892126145544 ], [ -0.208820462253209, 51.555733523486467 ], [ -0.208831675059794, 51.555741785761292 ], [ -0.209212499341801, 51.556036271253447 ], [ -0.209513936678261, 51.556332241077065 ], [ -0.209541786558642, 51.55635604035421 ], [ -0.210002357951384, 51.556752429411375 ], [ -0.210006496321986, 51.556756088590355 ], [ -0.210820036831975, 51.55646544103773 ], [ -0.211222244814356, 51.556324136068241 ], [ -0.211673022747456, 51.556157408818322 ], [ -0.212104777989139, 51.55592665008033 ], [ -0.212487052694798, 51.555704935110846 ], [ -0.212975641799745, 51.555422806448973 ], [ -0.213260684340514, 51.555290497932546 ], [ -0.213476743532239, 51.555188513826579 ], [ -0.213712103862609, 51.555401656818553 ], [ -0.214263241616038, 51.555879420080444 ], [ -0.214830653964289, 51.55634583113978 ], [ -0.21534864295765, 51.556750265056159 ], [ -0.215476117020823, 51.556848398145874 ], [ -0.216151595109654, 51.557392862364765 ], [ -0.216486673511639, 51.557638981259601 ], [ -0.216734942486093, 51.557820759143425 ], [ -0.216918444887592, 51.557998046082631 ], [ -0.217148375285655, 51.558204806593444 ], [ -0.217744806267125, 51.558669756619011 ], [ -0.218295351271226, 51.559127801464506 ], [ -0.218625759477768, 51.55942049858119 ], [ -0.218997736809856, 51.559794016845366 ], [ -0.219299403775402, 51.560122326019304 ], [ -0.220288282903492, 51.561290119926753 ], [ -0.220563207804087, 51.561600040265006 ], [ -0.220638159248119, 51.561675883975767 ], [ -0.221181850616249, 51.562234406835607 ], [ -0.221528598199105, 51.562554403600025 ], [ -0.221930459635612, 51.562943648651185 ], [ -0.222365203052586, 51.563298239338167 ], [ -0.222650541482264, 51.563530908287085 ], [ -0.223406379776892, 51.564125986810808 ], [ -0.224082867173127, 51.564721657771244 ], [ -0.22459548933113, 51.56515743023629 ], [ -0.225047008434054, 51.565491587812659 ], [ -0.225161541724278, 51.56558690643373 ], [ -0.225465140714259, 51.565867581957633 ], [ -0.225680651043814, 51.566039853428009 ], [ -0.225917552950446, 51.566218830828554 ], [ -0.226401772440096, 51.566566063673001 ], [ -0.226695810950071, 51.56679624730112 ], [ -0.226869003922233, 51.566906744837155 ], [ -0.227163309585081, 51.567056830018458 ], [ -0.227713580019498, 51.567376286437359 ], [ -0.228006165518736, 51.56753092790769 ], [ -0.228373200121297, 51.567704582722826 ], [ -0.228613153276381, 51.56784224606853 ], [ -0.228794214923391, 51.567970839176496 ], [ -0.228912810239422, 51.568075205143089 ], [ -0.229358064371869, 51.568535110696963 ], [ -0.229782496885066, 51.568937164360364 ], [ -0.230144172380965, 51.569212409824914 ], [ -0.23052185155793, 51.569553522571979 ], [ -0.230894825676324, 51.569835229073085 ], [ -0.231303948866068, 51.570184904302629 ], [ -0.231856614633958, 51.570631225940495 ], [ -0.232210570988558, 51.570955793738385 ], [ -0.233417454003909, 51.571982916769329 ], [ -0.233730801698314, 51.571864380301669 ], [ -0.233850303140642, 51.571798753762017 ], [ -0.234022447619919, 51.571750101324213 ], [ -0.234171240561328, 51.571782007360319 ], [ -0.234244287094357, 51.571797490495207 ], [ -0.234332068116677, 51.571841064310576 ], [ -0.234381583025372, 51.571791465228415 ], [ -0.2344279982035, 51.571784971542193 ], [ -0.234481701615729, 51.571777688484389 ], [ -0.234561222456211, 51.571773490800254 ], [ -0.234641576118084, 51.571821447653775 ], [ -0.234690849290312, 51.571965219937027 ], [ -0.234946248098145, 51.572076940845953 ], [ -0.234973020419056, 51.572095322994556 ], [ -0.234983962805753, 51.572110770368042 ], [ -0.235044000903107, 51.572161117184457 ], [ -0.235077941642691, 51.572215567013373 ], [ -0.235144817038919, 51.572239945436614 ], [ -0.235213115998866, 51.572264435099875 ], [ -0.235321328111467, 51.572266060186351 ], [ -0.235467485892561, 51.57225566895486 ], [ -0.235500767496205, 51.572253471700648 ], [ -0.235619922247589, 51.57227054383587 ], [ -0.235668844480536, 51.572309935407993 ], [ -0.235662752624962, 51.572356591985844 ], [ -0.235573676113052, 51.572383123565203 ], [ -0.235383327342294, 51.572416225368265 ], [ -0.235347782661798, 51.572439964627748 ], [ -0.235329390529952, 51.572469355463454 ], [ -0.235324989516572, 51.572506148409509 ], [ -0.235338243186113, 51.572538711471026 ], [ -0.235356146558079, 51.572558758342034 ], [ -0.235375940678921, 51.572569933494165 ], [ -0.235553713988518, 51.572563522998173 ], [ -0.2355940959068, 51.572562331326729 ], [ -0.235727327679619, 51.572550846677423 ], [ -0.23578706980497, 51.572538258594619 ], [ -0.235812193143001, 51.572522453757337 ], [ -0.235864006032797, 51.572487271576975 ], [ -0.235890487339882, 51.572436426081509 ], [ -0.23583291881179, 51.572396005802275 ], [ -0.235817417293886, 51.57235082304301 ], [ -0.235843097664556, 51.572320642550757 ], [ -0.235862080650318, 51.572312836527729 ], [ -0.235896908169646, 51.572310662368871 ], [ -0.235989116243873, 51.572313844581544 ], [ -0.236131514394382, 51.572363629130535 ], [ -0.236335032029251, 51.572435906840866 ], [ -0.236460452486189, 51.572438688139542 ], [ -0.236529486950504, 51.572444219147563 ], [ -0.236601842374882, 51.572440809944268 ], [ -0.23702869735048, 51.572371698585783 ], [ -0.237154549760543, 51.572366394620929 ], [ -0.23717751484815, 51.572369436129883 ], [ -0.237364522200754, 51.572422585346999 ], [ -0.237502418063353, 51.572474997672579 ], [ -0.237540990219029, 51.572483667191811 ], [ -0.237569851812553, 51.572484999058588 ], [ -0.237639512646001, 51.572474356800157 ], [ -0.237711415026848, 51.572445768112146 ], [ -0.237736711552133, 51.572425470468623 ], [ -0.237753466395936, 51.572401448725323 ], [ -0.237758442996667, 51.572383543351677 ], [ -0.237751899418677, 51.572368162218183 ], [ -0.23773655614947, 51.572352649119928 ], [ -0.237641980101584, 51.57229998775658 ], [ -0.23761988814003, 51.572274394526424 ], [ -0.237624550946482, 51.572227716442619 ], [ -0.237696506291962, 51.572120915539074 ], [ -0.237729160746548, 51.572098031243904 ], [ -0.237752577915066, 51.572089392418015 ], [ -0.23792958041344, 51.572102834696423 ], [ -0.238068449717099, 51.572130088955511 ], [ -0.238101626787502, 51.572130586399339 ], [ -0.238122050859766, 51.572125498624196 ], [ -0.238150305276572, 51.572102548243578 ], [ -0.238159820601121, 51.572081114903426 ], [ -0.238160863838133, 51.572054160540127 ], [ -0.238154285391003, 51.572039677906922 ], [ -0.238113749134524, 51.572004908131674 ], [ -0.23785920775471, 51.571907505488937 ], [ -0.23781560923897, 51.571878083686236 ], [ -0.237806301563282, 51.57185726710177 ], [ -0.237811451983031, 51.571834869330715 ], [ -0.237826724603161, 51.571815320352272 ], [ -0.237878222051111, 51.571788223583539 ], [ -0.237919069922423, 51.571778048106545 ], [ -0.237989982630152, 51.571771919428379 ], [ -0.238062044068796, 51.571772999933344 ], [ -0.238108023129275, 51.571780881331918 ], [ -0.23814499397395, 51.571794021651762 ], [ -0.238356951061114, 51.571909574390105 ], [ -0.2384189558824, 51.571949160914052 ], [ -0.238466588918023, 51.571985025865317 ], [ -0.238676809556737, 51.572145501968095 ], [ -0.238841412432803, 51.572254950004073 ], [ -0.23903193184146, 51.572217350189888 ], [ -0.239183998933733, 51.572091071913093 ], [ -0.239412860950527, 51.572071127017999 ], [ -0.239626592276445, 51.572103995999832 ], [ -0.2397235328317, 51.572095559176965 ], [ -0.239781533605944, 51.57209103399483 ], [ -0.239878821503166, 51.572073612250534 ], [ -0.239970577855275, 51.572088471564996 ], [ -0.240050084829413, 51.572124723341233 ], [ -0.240036153315489, 51.572186545663918 ], [ -0.239947119823297, 51.572285900139512 ], [ -0.239880382410562, 51.572331738430861 ], [ -0.23987812167137, 51.572353280560215 ], [ -0.23989185032443, 51.572370567183349 ], [ -0.239914433482928, 51.572383491428951 ], [ -0.239944478906235, 51.57239113343983 ], [ -0.239991905977335, 51.57239543977505 ], [ -0.240055476098288, 51.572394593864345 ], [ -0.240113427791056, 51.572388269779175 ], [ -0.240306488123157, 51.572358796951185 ], [ -0.240437593900211, 51.572291447271631 ], [ -0.240496688255902, 51.572218614148014 ], [ -0.240536754039756, 51.572188648064163 ], [ -0.240559754010205, 51.572190790431755 ], [ -0.240623046035912, 51.572197132049368 ], [ -0.240600264134493, 51.572300175894547 ], [ -0.240662441680284, 51.572335358683809 ], [ -0.240693532226507, 51.572352905142097 ], [ -0.240760164575011, 51.572346710699506 ], [ -0.240844213207842, 51.572299333071435 ], [ -0.240931240461747, 51.572137916953977 ], [ -0.241083535916001, 51.572119519629481 ], [ -0.241181177978267, 51.572166830061839 ], [ -0.241245484277249, 51.572220833485147 ], [ -0.241318961304514, 51.572299247099281 ], [ -0.241345150617439, 51.572406709852274 ], [ -0.241351158739642, 51.572476022707171 ], [ -0.241329076431742, 51.572597956121221 ], [ -0.241336334137125, 51.572634923705053 ], [ -0.241349782293825, 51.572659487843318 ], [ -0.241369442628833, 51.572674166056856 ], [ -0.241386373047032, 51.572682510418822 ], [ -0.241472461893554, 51.572733243682336 ], [ -0.241717076906821, 51.572752186956059 ], [ -0.241990627867665, 51.57280752256375 ], [ -0.242116674394648, 51.572794125178767 ], [ -0.24219205750449, 51.572786262821154 ], [ -0.242348675075946, 51.572803888439317 ], [ -0.242467155407598, 51.572798468500942 ], [ -0.2425347247445, 51.572768014089789 ], [ -0.242567377214304, 51.572745128447785 ], [ -0.242579467054195, 51.572730925271493 ], [ -0.242581622445729, 51.572712078530074 ], [ -0.242576523957003, 51.572693123306252 ], [ -0.242558374430051, 51.572679366894107 ], [ -0.242457170623584, 51.572647197458885 ], [ -0.242430290755742, 51.5726315124557 ], [ -0.242409619360635, 51.572606031315765 ], [ -0.242393694763212, 51.572571631179272 ], [ -0.242393724722209, 51.572533873673322 ], [ -0.242471802917058, 51.572490091496263 ], [ -0.242591793611201, 51.572485593031352 ], [ -0.242766886813987, 51.572511585395766 ], [ -0.242843106761831, 51.572519018120538 ], [ -0.242893561650256, 51.572518873557158 ], [ -0.242944378200339, 51.572512441388362 ], [ -0.242979329405673, 51.572503973987004 ], [ -0.243184963443757, 51.572447714477157 ], [ -0.243351384737861, 51.572396262436726 ], [ -0.243621041933508, 51.57232738433531 ], [ -0.243896111756384, 51.572306323332704 ], [ -0.244013724202392, 51.572323363844816 ], [ -0.24408751209253, 51.572356830375867 ], [ -0.244090296749056, 51.572358669981995 ], [ -0.24407897871008, 51.572426914646726 ], [ -0.244100446803931, 51.572545903223165 ], [ -0.244127208306387, 51.572561586067721 ], [ -0.244154400624992, 51.572569184357313 ], [ -0.244199009011116, 51.572572547868461 ], [ -0.244264060692336, 51.572567226818585 ], [ -0.2443136580252, 51.572555381852212 ], [ -0.244364071943934, 51.572519276109169 ], [ -0.244420548758598, 51.572440109000802 ], [ -0.24443395156198, 51.572354814486516 ], [ -0.244464496043852, 51.572309421881357 ], [ -0.244495546972262, 51.572291006785271 ], [ -0.244621792599207, 51.572235356790173 ], [ -0.244739599617596, 51.572173287629262 ], [ -0.244875872919763, 51.572045777387331 ], [ -0.245077179955395, 51.571953490061183 ], [ -0.245217085242817, 51.571916922400767 ], [ -0.245429109141499, 51.57192008832385 ], [ -0.245631013071522, 51.572034578542315 ], [ -0.245749629080058, 51.572139824004786 ], [ -0.24576633285069, 51.572157154323449 ], [ -0.245794452460032, 51.572174655053551 ], [ -0.245844368137346, 51.572191582138878 ], [ -0.245907438224558, 51.572200614575102 ], [ -0.245968119456127, 51.572200621340635 ], [ -0.246017597021878, 51.572188773877137 ], [ -0.24604115111896, 51.572176539469808 ], [ -0.246062128160582, 51.572157074610487 ], [ -0.24608665141178, 51.572119682717265 ], [ -0.246370061657263, 51.571767729406361 ], [ -0.246599787160676, 51.571647994675843 ], [ -0.246648494411643, 51.571619054502776 ], [ -0.246692220373193, 51.571571161033042 ], [ -0.246706219933166, 51.571544399975068 ], [ -0.24671000805775, 51.571520183552799 ], [ -0.246703842078922, 51.571494919615077 ], [ -0.24669578423285, 51.571478617428106 ], [ -0.246519409411187, 51.571300591228301 ], [ -0.246447636625534, 51.571251873328173 ], [ -0.246248872806316, 51.571167098280654 ], [ -0.24611747767744, 51.571094026485753 ], [ -0.245998894683108, 51.570987972746408 ], [ -0.245984152473973, 51.570959883754838 ], [ -0.245982406253522, 51.5709310897495 ], [ -0.246000825296887, 51.570900798745271 ], [ -0.246360977182451, 51.570616606708356 ], [ -0.246439889009709, 51.570517006637537 ], [ -0.246478229143862, 51.570420486983807 ], [ -0.246488933208793, 51.570179625329494 ], [ -0.24654977121451, 51.570024107501546 ], [ -0.246534223147929, 51.569865561923066 ], [ -0.246471202167802, 51.569815176594801 ], [ -0.246337039952751, 51.569928336112596 ], [ -0.246234978891294, 51.569955580863031 ], [ -0.246158105146874, 51.569965221495238 ], [ -0.246093561587809, 51.569954369158395 ], [ -0.24606349717222, 51.569950324421477 ], [ -0.246046413368187, 51.569942877437711 ], [ -0.246034006093151, 51.569928308269475 ], [ -0.246027825629218, 51.569900347070643 ], [ -0.246032967288504, 51.569841000032191 ], [ -0.246045220439365, 51.569785445035428 ], [ -0.24607831096337, 51.569714019092039 ], [ -0.246140100002129, 51.569607960555032 ], [ -0.246455743805413, 51.569431882785722 ], [ -0.246562940934931, 51.569345380619971 ], [ -0.246591085411795, 51.569325123634087 ], [ -0.246606768481128, 51.56929479171599 ], [ -0.246606644728713, 51.569257841043722 ], [ -0.246535928237574, 51.569184865948053 ], [ -0.24649996350285, 51.569068358488543 ], [ -0.246530172625055, 51.569034647354968 ], [ -0.2465849456129, 51.56899950476361 ], [ -0.246607140158859, 51.568985451978115 ], [ -0.246836564565209, 51.568984380204725 ], [ -0.247004151176, 51.569016547401077 ], [ -0.247167526576097, 51.56904685353944 ], [ -0.247343129416797, 51.568982048036652 ], [ -0.247357862926792, 51.568973277814557 ], [ -0.24736866509803, 51.568955369073294 ], [ -0.247366779689556, 51.568930169006961 ], [ -0.2473198999817, 51.568874630886775 ], [ -0.24725712158167, 51.568817956597826 ], [ -0.247123220333864, 51.568735948366957 ], [ -0.247058842566669, 51.568683745096557 ], [ -0.24699895654901, 51.568626124910388 ], [ -0.24701661938986, 51.568581438506158 ], [ -0.247110126329943, 51.568513610594977 ], [ -0.247285139177327, 51.568464079368042 ], [ -0.247590463548849, 51.568478522243609 ], [ -0.247837235442458, 51.568518162169667 ], [ -0.248055463353772, 51.568619406846842 ], [ -0.248201028478839, 51.568661132983493 ], [ -0.248527852033845, 51.568531155273284 ], [ -0.24857238761058, 51.568536314084284 ], [ -0.248681672695454, 51.568546932931604 ], [ -0.248746511523527, 51.568624314095587 ], [ -0.248826011142036, 51.568694811629335 ], [ -0.248974871154992, 51.568765353818762 ], [ -0.249034357769932, 51.568793210185397 ], [ -0.249155820217822, 51.568861545880033 ], [ -0.24930541546074, 51.568872764753642 ], [ -0.249403661896984, 51.568907491381388 ], [ -0.249470412963706, 51.568972314640753 ], [ -0.249557616678655, 51.569031239455136 ], [ -0.24964765859961, 51.569093712568389 ], [ -0.249760442612893, 51.569161918336199 ], [ -0.249984791549374, 51.569370321053491 ], [ -0.250009815609656, 51.569394067660575 ], [ -0.250194811879643, 51.569573925052964 ], [ -0.250475707964866, 51.569849694573207 ], [ -0.250744060574037, 51.570114488673646 ], [ -0.251124857502289, 51.570267592160945 ], [ -0.251180420455859, 51.570323347790591 ], [ -0.251256800532732, 51.570400899211194 ], [ -0.2512973579831, 51.570472523512009 ], [ -0.251352892265505, 51.570606491337365 ], [ -0.251488293182191, 51.570761335572627 ], [ -0.251586460564122, 51.570912928568163 ], [ -0.251728357478008, 51.57108773614754 ], [ -0.251747710545701, 51.57111049887159 ], [ -0.251886221817182, 51.571184478380736 ], [ -0.252058453088376, 51.571285119889779 ], [ -0.252485729597667, 51.571508130267979 ], [ -0.252638856388699, 51.571691194504147 ], [ -0.252838766067635, 51.571972944347714 ], [ -0.253011049331247, 51.572295637055589 ], [ -0.253059693470709, 51.572345804670796 ], [ -0.253081625988739, 51.572375797438539 ], [ -0.253106495155014, 51.572440894669704 ], [ -0.25310537117783, 51.572507403648437 ], [ -0.253076651100537, 51.572579885435339 ], [ -0.253026946132169, 51.572634884568025 ], [ -0.252994263927013, 51.572658671794009 ], [ -0.25294590335161, 51.572678630040656 ], [ -0.252865913748787, 51.572691825256406 ], [ -0.252616249030659, 51.572692609647184 ], [ -0.252494449722951, 51.572706981164615 ], [ -0.252289994341882, 51.572732709755371 ], [ -0.252093943894837, 51.572765754926593 ], [ -0.251835020353507, 51.572818631684825 ], [ -0.251672884747283, 51.572870160399724 ], [ -0.251467027829009, 51.572969583804792 ], [ -0.251404911586305, 51.573010013381833 ], [ -0.251364491847812, 51.573046270791991 ], [ -0.251341503036141, 51.573080989573342 ], [ -0.251330610060015, 51.573138453148857 ], [ -0.251347708175244, 51.573182758392754 ], [ -0.251417729668114, 51.573277295915972 ], [ -0.251800444925351, 51.573719091490226 ], [ -0.251940786153337, 51.573897471370444 ], [ -0.252103813764757, 51.574126532104621 ], [ -0.252328737538129, 51.574469786133079 ], [ -0.252598350894778, 51.574926078286154 ], [ -0.252691210949658, 51.575138812215023 ], [ -0.252765888631677, 51.575450165338104 ], [ -0.252793801079791, 51.575513509789246 ], [ -0.2529095976495, 51.575730179849799 ], [ -0.253209135925018, 51.576535813238017 ], [ -0.253328606625138, 51.576846032661535 ], [ -0.253402876249946, 51.577016236553447 ], [ -0.253544601408132, 51.57727374568762 ], [ -0.253573121020404, 51.577318219957505 ], [ -0.253624846360623, 51.577399897603634 ], [ -0.253919336633316, 51.577813402883692 ], [ -0.254054023453565, 51.578024958142464 ], [ -0.254078243520711, 51.578072964398608 ], [ -0.254220585002451, 51.578463532646722 ], [ -0.254390625078184, 51.578845611846809 ], [ -0.254439941893175, 51.57899018279295 ], [ -0.254588226888959, 51.579489706675311 ], [ -0.254607028890501, 51.579601460830702 ], [ -0.254605665684595, 51.579674258982507 ], [ -0.254588518204471, 51.57974592384403 ], [ -0.254561670914239, 51.579806746709906 ], [ -0.254459599721679, 51.579945474342743 ], [ -0.254404966467716, 51.580054340386816 ], [ -0.254347350726649, 51.580237868400459 ], [ -0.254310505523345, 51.58040732086851 ], [ -0.254291525625547, 51.580601221449996 ], [ -0.254287170723458, 51.580829590757382 ], [ -0.25429359369122, 51.5809258782933 ], [ -0.254309428669961, 51.581114991663199 ], [ -0.254324484416565, 51.581209609366688 ], [ -0.254369256964847, 51.581398253314219 ], [ -0.254370920153069, 51.581466601415016 ], [ -0.254354701908574, 51.581514007241267 ], [ -0.254310008631484, 51.581587061115364 ], [ -0.254097928925445, 51.581810548432408 ], [ -0.253973895092007, 51.581922878818453 ], [ -0.253804567339501, 51.582046313284671 ], [ -0.253667296420128, 51.582125184077263 ], [ -0.253514653634223, 51.582192139509466 ], [ -0.253391863698362, 51.582231669398325 ], [ -0.253186603782397, 51.582277255941982 ], [ -0.253117909008016, 51.582299609268937 ], [ -0.252860182597836, 51.582431528196615 ], [ -0.252510812409283, 51.582622407131645 ], [ -0.252392399872854, 51.582699758740539 ], [ -0.252278937318832, 51.582796961641911 ], [ -0.252019414132837, 51.583053002969486 ], [ -0.25164280544845, 51.583460131772128 ], [ -0.251384276524771, 51.583578639324884 ], [ -0.250797827300539, 51.58370116615751 ], [ -0.250356551643635, 51.583802567287321 ], [ -0.249906768802618, 51.583899254593234 ], [ -0.248478606268089, 51.584254745433419 ], [ -0.248342498283186, 51.584303060216889 ], [ -0.24825912574358, 51.58436654453849 ], [ -0.248509411212018, 51.584577130571468 ], [ -0.24995694270001, 51.58605010085433 ], [ -0.250325156169139, 51.586385599414051 ], [ -0.251912602495677, 51.58794063476013 ], [ -0.252511463179939, 51.588547539226838 ], [ -0.253104520562547, 51.589045487572207 ], [ -0.253362392235028, 51.589208528000405 ], [ -0.253907323944441, 51.589568213052722 ], [ -0.253924091178487, 51.589581047785806 ], [ -0.254245288004263, 51.589790784789692 ], [ -0.254735619366643, 51.590066049986298 ], [ -0.255604870487967, 51.590703920932896 ], [ -0.257003661109299, 51.591763347711705 ], [ -0.257396414366909, 51.592026277762592 ], [ -0.257666206327268, 51.592255110059405 ], [ -0.258014849186522, 51.592579499985348 ], [ -0.258221154014591, 51.592772328775503 ], [ -0.25974549864497, 51.594176975504197 ], [ -0.260616863884668, 51.594913718847522 ], [ -0.261877418506423, 51.595971927174617 ], [ -0.262374583403715, 51.596374012502245 ], [ -0.26265765653945, 51.5965994315941 ], [ -0.26335239755317, 51.597124893545143 ], [ -0.263569073251855, 51.597274715274061 ], [ -0.263853290571847, 51.597470392398371 ], [ -0.264251396433683, 51.597782908001626 ], [ -0.264737174832504, 51.598184904945661 ], [ -0.265163410710803, 51.598556265541383 ], [ -0.265706395863446, 51.599010253710603 ], [ -0.266129506170934, 51.599426603020255 ], [ -0.267027986871686, 51.600291351221088 ], [ -0.267131677070457, 51.600372977413222 ], [ -0.267591505688985, 51.600735829954488 ], [ -0.268424043150803, 51.601477322622273 ], [ -0.26871218436096, 51.601721676345605 ], [ -0.270055796447956, 51.602770128594763 ], [ -0.27022275624787, 51.602901136052935 ], [ -0.272946506693009, 51.605028297293927 ], [ -0.273784112477138, 51.60571500292415 ], [ -0.27487018490323, 51.606935020718645 ], [ -0.274909100218164, 51.606973348451625 ], [ -0.275248847347283, 51.607309243957246 ], [ -0.275532119533567, 51.607570595010372 ], [ -0.276013429058169, 51.608017341218037 ], [ -0.276422281575001, 51.608320986821134 ], [ -0.276629393363905, 51.608455363771959 ], [ -0.277112615908277, 51.60873852333112 ], [ -0.277291902171676, 51.608887684697834 ], [ -0.27791418500494, 51.609426487825999 ], [ -0.278722674928727, 51.61015860258032 ], [ -0.279316660080986, 51.61072215892478 ], [ -0.27934469777393, 51.610745943300955 ], [ -0.28012720724687, 51.611441713483011 ], [ -0.281458822877049, 51.612702173387461 ], [ -0.282176427994495, 51.613358330520825 ], [ -0.283389019991656, 51.614294210751432 ], [ -0.283938875044156, 51.614650252298283 ], [ -0.284162158397468, 51.614783062125099 ], [ -0.284386789276969, 51.614914902481104 ], [ -0.285283784642034, 51.61541365300581 ], [ -0.285980414822886, 51.61589859474001 ], [ -0.286729523230903, 51.61652732895633 ], [ -0.286828927169092, 51.616610589471101 ], [ -0.287542196195148, 51.617154289283604 ], [ -0.287675453714768, 51.617300074390684 ], [ -0.287985313782364, 51.617778549223665 ], [ -0.288252863388499, 51.618039657345378 ], [ -0.289576880811961, 51.61916680688546 ], [ -0.291547718052522, 51.620806982083479 ], [ -0.291649925902551, 51.620892167352686 ], [ -0.292653079203804, 51.621760101255788 ], [ -0.293127545964257, 51.622205896741576 ], [ -0.293847441953595, 51.622808988789771 ], [ -0.294340469784653, 51.623297212097846 ], [ -0.29485591061, 51.623807424871188 ], [ -0.295165454429547, 51.624106884908706 ], [ -0.295884331631944, 51.624697363245922 ], [ -0.297252119732551, 51.625903270883377 ], [ -0.297689190869716, 51.62626849301941 ], [ -0.298003783652532, 51.626510392426923 ], [ -0.298645260626808, 51.626974768784883 ], [ -0.299231228192107, 51.627413973930807 ], [ -0.300129433418193, 51.628200397277688 ], [ -0.300519502872148, 51.62862596877784 ], [ -0.301158675001919, 51.629268297837115 ], [ -0.301814726897897, 51.629845240033589 ], [ -0.302162173030333, 51.630137136330362 ], [ -0.302515238250969, 51.630431809840481 ], [ -0.303930138966399, 51.631467501504538 ], [ -0.30446097983001, 51.632033627078144 ], [ -0.305028510654082, 51.632779179593484 ], [ -0.305438551601707, 51.63337142437296 ], [ -0.305573849912431, 51.634120620790881 ], [ -0.305561655968248, 51.634332697071407 ], [ -0.305550451400077, 51.634399959787316 ], [ -0.305026110534104, 51.635403125458424 ], [ -0.304459014962307, 51.636350832396431 ], [ -0.304427487707137, 51.636343184906309 ], [ -0.304325895052358, 51.63631654510295 ], [ -0.304277545383097, 51.63637338200158 ], [ -0.304136529878328, 51.636432565600359 ], [ -0.303970279545113, 51.636475112530064 ], [ -0.30378487252942, 51.636485018561132 ], [ -0.303545893927392, 51.636461786075188 ], [ -0.303338793142142, 51.636433620054163 ], [ -0.30317936121643, 51.636370093330754 ], [ -0.303054110120468, 51.636319736490947 ], [ -0.303018445383508, 51.636304836841035 ], [ -0.30297291182681, 51.636286198486452 ], [ -0.302920367477839, 51.636263862748883 ], [ -0.30272282703174, 51.636136045620368 ], [ -0.302412629611531, 51.636354508935703 ], [ -0.301757267503522, 51.636256924930549 ], [ -0.301225428628343, 51.636141346572316 ], [ -0.301080562238148, 51.63611227903229 ], [ -0.300902860333691, 51.636075543823544 ], [ -0.300644099103598, 51.635960230880116 ], [ -0.300594280922085, 51.635941529386905 ], [ -0.300453214117593, 51.635887344274565 ], [ -0.30031324065561, 51.635842164767894 ], [ -0.300181541802977, 51.635811488882837 ], [ -0.300078003723428, 51.635795604794225 ], [ -0.299853847537522, 51.635761790837805 ], [ -0.299636485019711, 51.635740660829562 ], [ -0.299588987654563, 51.635736376443731 ], [ -0.299404628635993, 51.63571842132918 ], [ -0.298803519804966, 51.635757353147696 ], [ -0.298739729588906, 51.635761822102204 ], [ -0.298678949977154, 51.635765435686636 ], [ -0.298476181222895, 51.635777777939687 ], [ -0.298216885911398, 51.63579469387372 ], [ -0.297719379200004, 51.635765001360376 ], [ -0.297209012622629, 51.635735120083041 ], [ -0.296127382597218, 51.635446930926001 ], [ -0.29438277157453, 51.635650014822417 ], [ -0.294082075332217, 51.635731946342965 ], [ -0.293575538495251, 51.635907974755206 ], [ -0.293314900161957, 51.635998667823152 ], [ -0.292166082446411, 51.636382991701311 ], [ -0.292019713114996, 51.636432103626291 ], [ -0.291867728874298, 51.636478436635208 ], [ -0.291716874643158, 51.636491523085382 ], [ -0.291355618451124, 51.636491656309637 ], [ -0.290551320187914, 51.636591505134888 ], [ -0.289905326400018, 51.636670192285393 ], [ -0.289388435530539, 51.636620404034332 ], [ -0.28925455156475, 51.636606764900662 ], [ -0.28911804647231, 51.636586794421525 ], [ -0.288343321261938, 51.63647381766549 ], [ -0.288078265576552, 51.636491616106063 ], [ -0.287786999001496, 51.636512537505155 ], [ -0.287229948342493, 51.636646447731692 ], [ -0.286913066075802, 51.636695760869692 ], [ -0.286482173914959, 51.636779457784478 ], [ -0.285992235537486, 51.63685860461996 ], [ -0.285500340721997, 51.636948508783043 ], [ -0.285172117490895, 51.637067773203654 ], [ -0.285057089372668, 51.637129111457647 ], [ -0.284626811571991, 51.637426770117813 ], [ -0.284258899389644, 51.637602985436537 ], [ -0.283874412678305, 51.637795228934557 ], [ -0.282912363957604, 51.638016774330012 ], [ -0.28139110200827, 51.638346089165836 ], [ -0.280523868011778, 51.638312700591882 ], [ -0.28040685790985, 51.638312782997112 ], [ -0.280027484983667, 51.638293734912288 ], [ -0.279394970755795, 51.638282658992729 ], [ -0.279018388226482, 51.638303204463767 ], [ -0.278612986646506, 51.638323325737481 ], [ -0.278220104091839, 51.638396670272947 ], [ -0.277940267230807, 51.638458188489409 ], [ -0.27777407274436, 51.638495303979433 ], [ -0.277322541044136, 51.638591248129309 ], [ -0.276987018911901, 51.63867262310692 ], [ -0.276737440700978, 51.63877503795004 ], [ -0.276475218264943, 51.63886836637932 ], [ -0.275881985773628, 51.638811011079035 ], [ -0.275489800807632, 51.638787265014919 ], [ -0.275097650446597, 51.638762619144565 ], [ -0.27472707194207, 51.638740986292269 ], [ -0.273995833657253, 51.638703257028112 ], [ -0.273713721687247, 51.63867393289572 ], [ -0.27372185799952, 51.638763952545936 ], [ -0.273961582241257, 51.638845783659335 ], [ -0.274141020332584, 51.638914950253238 ], [ -0.274150689089829, 51.639002295412659 ], [ -0.274160153035441, 51.639095031548003 ], [ -0.274176624330316, 51.63930752752195 ], [ -0.273887682454662, 51.639877915311338 ], [ -0.273700891236536, 51.640265421403335 ], [ -0.273540375799738, 51.640460029289564 ], [ -0.273355320780178, 51.640801711494142 ], [ -0.273153142470391, 51.641064029429003 ], [ -0.273122225988549, 51.641193929043894 ], [ -0.273105355630466, 51.641258408557242 ], [ -0.273063964795996, 51.641434991766978 ], [ -0.272896699228898, 51.641766147246436 ], [ -0.272854555117911, 51.641962497264814 ], [ -0.272866629619758, 51.642099322866379 ], [ -0.271922568192467, 51.642106993243097 ], [ -0.271531731630556, 51.642087749189223 ], [ -0.271102362946625, 51.642050854865857 ], [ -0.270623662082962, 51.642060878546822 ], [ -0.270037328259995, 51.642087292766902 ], [ -0.269722181032026, 51.642164452987515 ], [ -0.269437663700436, 51.642272720167213 ], [ -0.269411401698116, 51.642242665699506 ], [ -0.268781875146645, 51.642301699351911 ], [ -0.268246817853366, 51.642386397504268 ], [ -0.26830894894097, 51.642763186584318 ], [ -0.268388951686335, 51.643055733482996 ], [ -0.268404479634821, 51.643254731518475 ], [ -0.268398458465106, 51.643487573393209 ], [ -0.268390624654333, 51.64357735768796 ], [ -0.268381936434268, 51.643617684397874 ], [ -0.268342020935246, 51.643792489904605 ], [ -0.268346161231476, 51.643833905003916 ], [ -0.266767414109263, 51.644110946311145 ], [ -0.265531260542647, 51.644045029672569 ], [ -0.265211267836495, 51.644020520257477 ], [ -0.264795107843956, 51.64390549682178 ], [ -0.264725274149597, 51.643917948875185 ], [ -0.264652042930336, 51.643866521715999 ], [ -0.264611251830399, 51.643836251359836 ], [ -0.264549006058709, 51.64380296661561 ], [ -0.264508902069204, 51.643754726413633 ], [ -0.26445013327351, 51.643705311076523 ], [ -0.264359084028611, 51.643627459276352 ], [ -0.264226816931468, 51.643835957962629 ], [ -0.264033699450889, 51.643784554548716 ], [ -0.263272347432074, 51.644833474924958 ], [ -0.263205213113369, 51.644812703076063 ], [ -0.263100819460206, 51.644781490566949 ], [ -0.262945527141051, 51.644722554375427 ], [ -0.262755315245234, 51.644632534937308 ], [ -0.262663423393387, 51.644579841317764 ], [ -0.262438017117409, 51.644425471288159 ], [ -0.262197684756963, 51.644284364708852 ], [ -0.262021788071439, 51.644197163254624 ], [ -0.261819579850044, 51.644118651585885 ], [ -0.261701928391401, 51.64406027147394 ], [ -0.261604784291735, 51.643992306149393 ], [ -0.261489961013065, 51.643894321917756 ], [ -0.261337495594287, 51.643761707680575 ], [ -0.261290420933441, 51.64370886811205 ], [ -0.261270017423793, 51.643675302781759 ], [ -0.261248548405686, 51.643594883850611 ], [ -0.261241072595087, 51.643410478419767 ], [ -0.261219118510437, 51.643342728167241 ], [ -0.261163335166747, 51.643252810648725 ], [ -0.26104628857092, 51.643100943052069 ], [ -0.261012300230608, 51.643045600355848 ], [ -0.260930880241931, 51.642868998886051 ], [ -0.260889730313003, 51.642810852999489 ], [ -0.260846600555816, 51.642767061720932 ], [ -0.260712911057132, 51.64267329206556 ], [ -0.260449212386929, 51.642539027573136 ], [ -0.260257103290303, 51.642461562032246 ], [ -0.260154215131319, 51.642428571290232 ], [ -0.260024087718624, 51.642394277470821 ], [ -0.259731642724146, 51.642332313991737 ], [ -0.259376560591065, 51.642244338428831 ], [ -0.259292043397854, 51.642223306479103 ], [ -0.258914804561785, 51.642147586758611 ], [ -0.258736610081487, 51.642120669159787 ], [ -0.258391169631202, 51.642085874638056 ], [ -0.258383136160528, 51.64199396773401 ], [ -0.257884037963114, 51.641966779530229 ], [ -0.257704312192658, 51.641942534632726 ], [ -0.257591112460221, 51.641917479524622 ], [ -0.25748387096213, 51.641886219824265 ], [ -0.257332829984084, 51.641831834502554 ], [ -0.25724405296071, 51.641959072375016 ], [ -0.256886184340617, 51.642583233721219 ], [ -0.256468600063592, 51.643145374633377 ], [ -0.256172032421688, 51.643491665582765 ], [ -0.255487699205394, 51.643245055181303 ], [ -0.255458648525513, 51.643287775053572 ], [ -0.255420454490365, 51.643342045912689 ], [ -0.255356156010415, 51.643433686433063 ], [ -0.254742399895074, 51.643608042774225 ], [ -0.254489620815675, 51.643679797764008 ], [ -0.254045369745763, 51.64418130002425 ], [ -0.253669340916506, 51.644715191021781 ], [ -0.252966352349579, 51.645628263304502 ], [ -0.252559184775322, 51.646143796638142 ], [ -0.252251001249826, 51.646564520695776 ], [ -0.252047051282773, 51.646905887370579 ], [ -0.251876215979721, 51.647213585268659 ], [ -0.251740905232057, 51.647499337410061 ], [ -0.251557189466283, 51.647952570109844 ], [ -0.251394197813852, 51.648356577301563 ], [ -0.251379691366851, 51.648395916925395 ], [ -0.251272265752042, 51.648706357254049 ], [ -0.25119264593952, 51.648935403248331 ], [ -0.251054297056697, 51.649451341939951 ], [ -0.250864800217676, 51.650239811918794 ], [ -0.250420506831895, 51.652091027094819 ], [ -0.249856321419738, 51.654614864070332 ], [ -0.250352950661569, 51.654669019272731 ], [ -0.250567912507565, 51.654717174271646 ], [ -0.25073198347166, 51.654774458830651 ], [ -0.250791419355671, 51.65480959630645 ], [ -0.250891252977002, 51.654882104457542 ], [ -0.251047548319634, 51.654989615631834 ], [ -0.251145745268424, 51.655067493060216 ], [ -0.251332218258656, 51.655217795795508 ], [ -0.251256553703586, 51.655269707811883 ], [ -0.251180769884136, 51.655321617999945 ], [ -0.25125271212432, 51.65551785944475 ], [ -0.251250451579043, 51.655539401311231 ], [ -0.251207420313034, 51.655681697941588 ], [ -0.251153348737526, 51.655733122695885 ], [ -0.251037639061687, 51.655809609047814 ], [ -0.250810324674982, 51.655930279265178 ], [ -0.250582763437406, 51.656057328120966 ], [ -0.250458969854827, 51.656080653411678 ], [ -0.250410520886057, 51.656100607410572 ], [ -0.250384238631537, 51.656108306257238 ], [ -0.250252762197787, 51.65614230452104 ], [ -0.250085715642024, 51.656050813585793 ], [ -0.249953146939705, 51.656038947157121 ], [ -0.249846503708969, 51.656068820524965 ], [ -0.249710964176193, 51.65617108016221 ], [ -0.249348199678129, 51.656057789215986 ], [ -0.248982427158636, 51.655945261342019 ], [ -0.248877450021837, 51.655854695173602 ], [ -0.248486455679007, 51.655648295192847 ], [ -0.248269831475882, 51.655565950254164 ], [ -0.247995163753371, 51.655378456207373 ], [ -0.247865748287148, 51.655247879077564 ], [ -0.246738379196444, 51.655578131945767 ], [ -0.246474152256774, 51.655682150247827 ], [ -0.246004382961575, 51.65586750919686 ], [ -0.245833220212045, 51.655919787701862 ], [ -0.245131030777579, 51.656132322653647 ], [ -0.244690372629123, 51.656313706740413 ], [ -0.244388299597588, 51.656496174386781 ], [ -0.244146334836843, 51.656548289747683 ], [ -0.243985985918312, 51.656582837664281 ], [ -0.243898494000355, 51.656601305519722 ], [ -0.243624760110336, 51.656688903437541 ], [ -0.243356579956082, 51.656746917511654 ], [ -0.24316487709697, 51.656769218131799 ], [ -0.242984134381189, 51.656770107061959 ], [ -0.242843464520465, 51.656779686797989 ], [ -0.242686498240196, 51.65680070898761 ], [ -0.242575615955321, 51.656826017296027 ], [ -0.242368416483075, 51.656876042744244 ], [ -0.242104909601191, 51.656961093373262 ], [ -0.241884661780604, 51.657049488685594 ], [ -0.241365380027354, 51.657204510290214 ], [ -0.240993688841292, 51.656835569576955 ], [ -0.239958346590418, 51.65717621623557 ], [ -0.239619035803961, 51.657276305519119 ], [ -0.239199322381967, 51.657399459443802 ], [ -0.238468472208672, 51.657642988218775 ], [ -0.237971326143013, 51.65778933726822 ], [ -0.238275802369717, 51.658249782991035 ], [ -0.237666856185236, 51.658407936299895 ], [ -0.237243192192189, 51.658595750286892 ], [ -0.237090298944034, 51.658622220010194 ], [ -0.236983083572436, 51.658666546554521 ], [ -0.236678113859019, 51.658775234126431 ], [ -0.236464998713823, 51.658826868173094 ], [ -0.236191034221796, 51.658882980761739 ], [ -0.235756363688627, 51.658945665648197 ], [ -0.235117323887149, 51.659018848935069 ], [ -0.23492690114541, 51.659007893038769 ], [ -0.234707467538048, 51.65900099765188 ], [ -0.234388685430416, 51.658571705911378 ], [ -0.234227625747122, 51.658252752962987 ], [ -0.234072840282751, 51.658327826952878 ], [ -0.233864650543371, 51.658366048288194 ], [ -0.233539870259123, 51.658425888527638 ], [ -0.233243933090709, 51.658525717028837 ], [ -0.232427821865419, 51.658802095057155 ], [ -0.231273930646836, 51.659214608733798 ], [ -0.231129037111512, 51.659298727780978 ], [ -0.231015138717569, 51.659364435111158 ], [ -0.230702533718004, 51.659408269357009 ], [ -0.230557362752465, 51.659462717200739 ], [ -0.230101382744927, 51.659661800192701 ], [ -0.229893060092814, 51.65973687067423 ], [ -0.229748871295471, 51.659729302746307 ], [ -0.229463176151855, 51.6598626283375 ], [ -0.228919456721484, 51.659975789577913 ], [ -0.228813173177603, 51.659919348437413 ], [ -0.228489019780669, 51.659965699530133 ], [ -0.228416858215566, 51.65955368704212 ], [ -0.228361007408259, 51.659390039023677 ], [ -0.228269684462886, 51.65920976392669 ], [ -0.228451104945672, 51.659191825085145 ], [ -0.228211529739419, 51.658848305496029 ], [ -0.22805810391771, 51.658591488701383 ], [ -0.227968709080305, 51.658474980084449 ], [ -0.227294973431696, 51.657881191001934 ], [ -0.226977828870378, 51.657561668823959 ], [ -0.226610326415855, 51.657271141331357 ], [ -0.226462842449539, 51.657161844854322 ], [ -0.22586356822493, 51.657477412093577 ], [ -0.22604421271207, 51.657625866547562 ], [ -0.225565325593994, 51.657855960303813 ], [ -0.224973943209811, 51.658118602481792 ], [ -0.223913830277077, 51.658607077391224 ], [ -0.222878792550849, 51.659157951964808 ], [ -0.221603467472371, 51.659752823821869 ], [ -0.221237559397, 51.659976520542905 ], [ -0.220239555495164, 51.660465903456114 ], [ -0.219801091908568, 51.660660717327417 ], [ -0.219415691391816, 51.660754659666587 ], [ -0.219247621973846, 51.660799756511075 ], [ -0.218894820391681, 51.66006155577346 ], [ -0.217127802024801, 51.660619254258947 ], [ -0.214780795579543, 51.661695003173989 ], [ -0.214521930960063, 51.661844882685834 ], [ -0.213501015899461, 51.66232568118707 ], [ -0.213393452020886, 51.662377983404774 ], [ -0.212814535958357, 51.66195015816016 ], [ -0.212425232801364, 51.661590842474432 ], [ -0.212135214064222, 51.661353500754743 ], [ -0.211884410342782, 51.661480123723798 ], [ -0.211536509387636, 51.661614167143561 ], [ -0.211013940331042, 51.661812162885369 ], [ -0.209987496577569, 51.662175080235706 ], [ -0.208097837867115, 51.662796400575566 ], [ -0.207863879522755, 51.662861152487963 ], [ -0.209699490178493, 51.66530453750967 ], [ -0.210421730661784, 51.666132091595166 ], [ -0.211134048960979, 51.666954905022905 ], [ -0.209838986937809, 51.667562836492351 ], [ -0.207959674198247, 51.666594465338818 ], [ -0.207427026220203, 51.667118711524964 ], [ -0.207062025664162, 51.667427872147464 ], [ -0.205736098823532, 51.668486666246864 ], [ -0.205634640058963, 51.668601174382502 ], [ -0.204710849900063, 51.668485379281286 ], [ -0.203862088226026, 51.668335754162598 ], [ -0.203556862226132, 51.66822680301771 ], [ -0.203271600936157, 51.668164813717283 ], [ -0.203163109833378, 51.668092134023148 ], [ -0.202833775149768, 51.668007983538679 ], [ -0.202670245217208, 51.667937157929927 ], [ -0.202230121473747, 51.667805371885457 ], [ -0.202380625810671, 51.668458718885397 ], [ -0.202522733160754, 51.668962706052909 ], [ -0.202592782080825, 51.669130089971553 ], [ -0.202608612306337, 51.669314713468729 ], [ -0.203353111676699, 51.670126470464197 ], [ -0.202381883288124, 51.670072860164666 ], [ -0.201786584551017, 51.670059250514022 ], [ -0.201064637001345, 51.670067160863262 ], [ -0.200120791208625, 51.670129110499765 ], [ -0.199871859755472, 51.670170243620994 ], [ -0.199675708621527, 51.669863290531488 ], [ -0.199505795388773, 51.669369661235905 ], [ -0.19935072929887, 51.66901299452384 ], [ -0.199204020468311, 51.668737364153372 ], [ -0.199113359165362, 51.668506733231681 ], [ -0.199005305351611, 51.668206523926393 ], [ -0.198854816429516, 51.668206912576935 ], [ -0.198710107553981, 51.668211884615317 ], [ -0.198595831456306, 51.668210131504765 ], [ -0.197360386775203, 51.668187575502259 ], [ -0.196936205167476, 51.668162184057515 ], [ -0.196614301188595, 51.668146452784327 ], [ -0.196159473546753, 51.668529714776696 ], [ -0.195625308564374, 51.668433407308505 ], [ -0.194852382983582, 51.668305468727823 ], [ -0.19529419896025, 51.667631550501973 ], [ -0.195321953720627, 51.667515109338872 ], [ -0.195606975499012, 51.66707521243405 ], [ -0.196046964468919, 51.666371597165202 ], [ -0.19664856914869, 51.665497767999838 ], [ -0.196665058286335, 51.665481839562482 ], [ -0.195752296941692, 51.66530959671087 ], [ -0.195135862354247, 51.665208336827753 ], [ -0.193827152906477, 51.664991335766757 ], [ -0.192531017917873, 51.664749252180826 ], [ -0.192249471742563, 51.66466670633347 ], [ -0.191825078482412, 51.664503658684978 ], [ -0.191528962816849, 51.664349867062469 ], [ -0.191219150856719, 51.664105875478164 ], [ -0.191066881847826, 51.663896673676518 ], [ -0.191007016850613, 51.663947982296769 ], [ -0.190944832013039, 51.66398568049857 ], [ -0.190332732301097, 51.664722584043233 ], [ -0.189389209153174, 51.665829430029156 ], [ -0.189467540290369, 51.665859405342694 ], [ -0.188953593941635, 51.666492634168058 ], [ -0.187790542474783, 51.667879260904506 ], [ -0.185804469261026, 51.668509524195066 ], [ -0.184965563459149, 51.668550498682798 ], [ -0.184943265186354, 51.668490821119946 ], [ -0.182493991745702, 51.668587872584432 ], [ -0.182085560752476, 51.668604024494847 ], [ -0.182136423814674, 51.668524802432479 ], [ -0.183175382565479, 51.666918577253689 ], [ -0.183977053181466, 51.665746747662176 ], [ -0.185206115304653, 51.663863860403779 ], [ -0.185682563878717, 51.663158059584909 ], [ -0.185866011058467, 51.662836271004849 ], [ -0.183888433234567, 51.662426238305983 ], [ -0.183651315307601, 51.662390206997678 ], [ -0.182605715250788, 51.6621051411108 ], [ -0.182269098875257, 51.662026213575551 ], [ -0.180473452856949, 51.661659393570581 ], [ -0.179010449441476, 51.66132827091019 ], [ -0.176482310294411, 51.660767442816855 ], [ -0.175528723944409, 51.660571033837357 ], [ -0.17245325334734, 51.659888339842759 ], [ -0.165016206747432, 51.658227434549765 ], [ -0.163478861840218, 51.658169235714333 ], [ -0.163260803500501, 51.658090219774408 ], [ -0.16275393092159, 51.657966319775404 ], [ -0.161375984550879, 51.657218187286453 ], [ -0.160950211122481, 51.656987580970942 ], [ -0.160593159206289, 51.65680569610717 ], [ -0.160489765366598, 51.656753732879082 ], [ -0.158274650863939, 51.65625773513495 ], [ -0.15795397930069, 51.656322825472728 ], [ -0.157825655570275, 51.656206640567397 ], [ -0.157800304596607, 51.656190959993054 ], [ -0.157706306872515, 51.656154334614349 ], [ -0.155531217325635, 51.655707458125079 ], [ -0.15488668839654, 51.655560684388064 ], [ -0.154761912657777, 51.655533551696514 ], [ -0.154687741553188, 51.655190590444946 ], [ -0.154697090580348, 51.655030717397267 ], [ -0.154376238145972, 51.654956451849216 ], [ -0.154170751008216, 51.65485334372071 ], [ -0.153855236040781, 51.65465060524177 ], [ -0.153756229874315, 51.654667028140146 ], [ -0.153672074988797, 51.654461544352827 ], [ -0.153584010773653, 51.654029453791338 ], [ -0.153481660297096, 51.653632199005585 ], [ -0.15351866308218, 51.653431317529304 ], [ -0.153464495117548, 51.653306405085708 ], [ -0.153775921895731, 51.653257273598641 ], [ -0.153960642486157, 51.653228713661683 ], [ -0.154205036288406, 51.65297805244203 ], [ -0.154025161269558, 51.652564296407128 ], [ -0.153770357752808, 51.652645693704066 ], [ -0.153476180471781, 51.652698692417076 ], [ -0.153422942336806, 51.652621351087902 ], [ -0.153329953881305, 51.652454474455944 ], [ -0.153064300353427, 51.652054650393247 ], [ -0.152864683835895, 51.651845551448325 ], [ -0.152538696768438, 51.651469948544822 ], [ -0.152486556607124, 51.651365654352304 ], [ -0.152472612372943, 51.651318687461384 ], [ -0.152375995998984, 51.650742532868954 ], [ -0.152332499990188, 51.65035519409426 ], [ -0.152321569729063, 51.650160841951909 ], [ -0.152304095519856, 51.650057094102493 ], [ -0.152244639791583, 51.649848493487262 ], [ -0.151792542143111, 51.649910598717398 ], [ -0.150993586707832, 51.650078713945241 ], [ -0.149893768652048, 51.648795260600139 ], [ -0.151702719510678, 51.648174508353037 ], [ -0.152248088246084, 51.647987115142001 ], [ -0.152357437019365, 51.647642638047984 ], [ -0.151360543109143, 51.64731310958944 ], [ -0.151042427688629, 51.64720822297889 ], [ -0.151247891780609, 51.646988511000416 ], [ -0.151359746169166, 51.646869718801234 ], [ -0.151283378289172, 51.646828062021513 ], [ -0.152142300086143, 51.645825464738394 ], [ -0.151573865369019, 51.645654609076516 ], [ -0.151725921532261, 51.645364743859631 ], [ -0.151304248261615, 51.645283488732289 ], [ -0.151092370748203, 51.645268465247526 ], [ -0.15078931948945, 51.645256500181169 ], [ -0.150312212648757, 51.645260670712041 ], [ -0.149217712990406, 51.645304551704925 ], [ -0.14914845901003, 51.645263904620059 ], [ -0.149132104289644, 51.6452411721922 ], [ -0.149100579576057, 51.645055394713381 ], [ -0.149097711267896, 51.644915108091993 ], [ -0.149106464185661, 51.644840630475223 ], [ -0.14915134797772, 51.644698309863038 ], [ -0.149153945160307, 51.644634522991169 ], [ -0.149022013263929, 51.644181063325107 ], [ -0.148855519277026, 51.643868198881272 ], [ -0.148553965167522, 51.643111623419806 ], [ -0.148479431567933, 51.642954923727238 ], [ -0.148131835919499, 51.642404476974292 ], [ -0.147894872770508, 51.642084206994035 ], [ -0.145076522312002, 51.642649398425007 ], [ -0.143918215096685, 51.641000790159872 ], [ -0.143025964608736, 51.640200702523494 ], [ -0.142581682223203, 51.639790841362668 ], [ -0.142117714792354, 51.639367182192956 ], [ -0.142293302344162, 51.639316022321502 ], [ -0.142063645811282, 51.639098340881979 ], [ -0.1420281921485, 51.639047436931016 ], [ -0.141739248638787, 51.638796453198374 ], [ -0.141356995845125, 51.638461285284897 ], [ -0.141054275930252, 51.638194799003365 ], [ -0.140800072819201, 51.63798032214158 ], [ -0.140411810326347, 51.637684610886765 ], [ -0.139861378787365, 51.63732789494729 ], [ -0.138411833867256, 51.636517229904726 ], [ -0.13830595048252, 51.636458015955 ], [ -0.138103592883544, 51.636351333844445 ], [ -0.137658663146608, 51.636136611348086 ], [ -0.136178624773065, 51.635472866845646 ], [ -0.13546910107414, 51.635190915751139 ], [ -0.135257740430658, 51.635094873360238 ], [ -0.134718173529871, 51.634826495167538 ], [ -0.134508146167954, 51.634698109344171 ], [ -0.134308348862134, 51.634529521502756 ], [ -0.134266271716261, 51.634463227132372 ], [ -0.134239157611911, 51.634421353158686 ], [ -0.134506235658162, 51.634251195686026 ], [ -0.134229892778318, 51.634083998227517 ], [ -0.13441060174544, 51.633974497802178 ], [ -0.134252966751633, 51.633873104498996 ], [ -0.133978590173176, 51.634044044358816 ], [ -0.133977198263557, 51.634043123251132 ], [ -0.133896408791316, 51.633970819446496 ], [ -0.133815463634294, 51.633899412090379 ], [ -0.133661910240867, 51.633768326805765 ], [ -0.133845819364927, 51.633653484591918 ], [ -0.133612604150264, 51.633492365658626 ], [ -0.133269180526175, 51.633267554081222 ], [ -0.13295965906339, 51.633133987618166 ], [ -0.132555291594222, 51.632989112604577 ], [ -0.132060771247705, 51.632820237246143 ], [ -0.132017949649915, 51.632806970113982 ], [ -0.13133077982303, 51.632580277980637 ], [ -0.130808497648564, 51.632492762386867 ], [ -0.130321615867117, 51.632419382899762 ], [ -0.129616364984342, 51.632351511869039 ], [ -0.129151534274058, 51.632272186025183 ], [ -0.129121284767111, 51.632269006968222 ], [ -0.12928989185225, 51.63182292405051 ], [ -0.12952988076275, 51.631468865092366 ], [ -0.129777545469685, 51.630963000535033 ], [ -0.13017964483132, 51.631023345125804 ], [ -0.130419935589575, 51.630734015611431 ], [ -0.130684494637261, 51.630413607823463 ], [ -0.13076623364786, 51.630146923936955 ], [ -0.131121293437988, 51.629665151233588 ], [ -0.130631084973258, 51.62946496392739 ], [ -0.130440988536017, 51.629380129295754 ], [ -0.130527865773145, 51.629304110896719 ], [ -0.130824601648753, 51.629327715040212 ], [ -0.131114547250926, 51.629021195182631 ], [ -0.131155124141547, 51.6289499229106 ], [ -0.131143112945188, 51.62888860111299 ], [ -0.131107361540164, 51.628810719713712 ], [ -0.131082361143175, 51.628784251276528 ], [ -0.131369574737107, 51.628546908658265 ], [ -0.131279839748474, 51.628515813794266 ], [ -0.131486092408472, 51.628314939066769 ], [ -0.131730771087707, 51.628054443992177 ], [ -0.131942479529172, 51.627862734984227 ], [ -0.132071378473394, 51.627749627071729 ], [ -0.13218165993619, 51.627596757589671 ], [ -0.132274977862112, 51.627436336354521 ], [ -0.132393726567611, 51.627288995272671 ], [ -0.132545769117689, 51.627102538784527 ], [ -0.132674782466907, 51.626951764804076 ], [ -0.132829932104622, 51.626834578762868 ], [ -0.133043987001755, 51.626686955062873 ], [ -0.133077901920647, 51.626670413879808 ], [ -0.133119226204064, 51.626650394613755 ], [ -0.133159076683548, 51.626628553935248 ], [ -0.133199046166021, 51.626606715135893 ], [ -0.133237508622786, 51.626583863478849 ], [ -0.133274538809073, 51.626561078929363 ], [ -0.133310177324884, 51.626537373257463 ], [ -0.133344424170161, 51.626512746464407 ], [ -0.133378707879919, 51.626487221268498 ], [ -0.13339371108213, 51.626475773126025 ], [ -0.133410097574733, 51.626462549020737 ], [ -0.133427949494601, 51.626448449237252 ], [ -0.133444455009831, 51.626435227019847 ], [ -0.133459486744213, 51.626420183406324 ], [ -0.133462454519559, 51.626417533661673 ], [ -0.133476102947131, 51.626404266007292 ], [ -0.133483503927807, 51.626398090840517 ], [ -0.133489632321602, 51.626390996458206 ], [ -0.13349560476641, 51.626384798574882 ], [ -0.133501733156129, 51.626377704191881 ], [ -0.1335063139685, 51.626370585200057 ], [ -0.133511013823503, 51.626363468100976 ], [ -0.133514166102162, 51.626356326393342 ], [ -0.133515742241073, 51.626352755539493 ], [ -0.133518931420085, 51.626344715439359 ], [ -0.133520655166028, 51.626337551016164 ], [ -0.133522415813272, 51.626329488200575 ], [ -0.133522711028587, 51.626322301061997 ], [ -0.133523043145658, 51.626314215531082 ], [ -0.133523338360697, 51.626307028392475 ], [ -0.133522241948927, 51.62629892014629 ], [ -0.133531297171304, 51.626043664164726 ], [ -0.133558440045368, 51.62598026824412 ], [ -0.133754618627356, 51.62553102117527 ], [ -0.134031423519664, 51.624914048470565 ], [ -0.134039077899528, 51.624797303060447 ], [ -0.134094752857789, 51.624567060957176 ], [ -0.134098126422848, 51.624554528897825 ], [ -0.134154985499619, 51.624541948078374 ], [ -0.134210416074794, 51.624529344524866 ], [ -0.134298341663042, 51.624465116748397 ], [ -0.134324279987684, 51.624396217854148 ], [ -0.134340438816956, 51.624284102485426 ], [ -0.134279391804535, 51.624186941549375 ], [ -0.1342061710827, 51.624104869690314 ], [ -0.13418043247544, 51.623991998443984 ], [ -0.134196357240051, 51.623958090427863 ], [ -0.1342541876347, 51.623849334389945 ], [ -0.134466962855021, 51.62352360058027 ], [ -0.134523412519605, 51.623416530526114 ], [ -0.134718482691931, 51.623063545551297 ], [ -0.134841505380505, 51.622776838744365 ], [ -0.13493847006611, 51.622596786009446 ], [ -0.135044361537747, 51.622338574049003 ], [ -0.13532479455998, 51.622299878482757 ], [ -0.135412797714344, 51.622338134581888 ], [ -0.135546212743548, 51.622395990496997 ], [ -0.135443075371335, 51.62173971650617 ], [ -0.135436459078155, 51.621691965575671 ], [ -0.136144612633342, 51.62122657458125 ], [ -0.136653323584328, 51.620869576481027 ], [ -0.137206126675092, 51.6204943973773 ], [ -0.137548021114718, 51.620222847676644 ], [ -0.138305482690597, 51.619645853639717 ], [ -0.138504617241636, 51.619512367232367 ], [ -0.139343372818662, 51.618819698584389 ], [ -0.139457042073765, 51.618722612803765 ], [ -0.139807074965584, 51.618536678289473 ], [ -0.139726560454777, 51.618493060382576 ], [ -0.139901708796309, 51.618343009815895 ], [ -0.140614173125205, 51.617734722349219 ], [ -0.140750893936747, 51.617676656534314 ], [ -0.140886249648568, 51.617686891300394 ], [ -0.140969739250352, 51.617692708544141 ], [ -0.140987520875182, 51.617683101408105 ], [ -0.141046570030145, 51.617651673390071 ], [ -0.141265984127165, 51.617548978800862 ], [ -0.141292317073109, 51.617400165369517 ], [ -0.141327030697945, 51.617363856950824 ], [ -0.141354924780911, 51.617316652793235 ], [ -0.141421021272519, 51.617255579989944 ], [ -0.141532628771963, 51.617173742163452 ], [ -0.141635778769764, 51.617054013231645 ], [ -0.141716168422088, 51.616960803327821 ], [ -0.141805530987091, 51.616822876386053 ], [ -0.141873471076678, 51.616611703081816 ], [ -0.141938538002364, 51.616432937374725 ], [ -0.142028081062639, 51.616398395644438 ], [ -0.14209559532548, 51.616372494951484 ], [ -0.142000277773824, 51.616230655614132 ], [ -0.142057711859607, 51.616203696400099 ], [ -0.142041399562502, 51.616177367813833 ], [ -0.14203194366795, 51.616161036520829 ], [ -0.142685745897793, 51.61596362972795 ], [ -0.142706526650851, 51.615985534038707 ], [ -0.142770770878093, 51.615966773037428 ], [ -0.143142236580233, 51.615855782774283 ], [ -0.143731043612165, 51.615692402063651 ], [ -0.14391902124741, 51.615650425725256 ], [ -0.144115796824918, 51.615605891252166 ], [ -0.144510675478831, 51.615487175983688 ], [ -0.14381125870704, 51.614786331072835 ], [ -0.142924922717501, 51.613889334321101 ], [ -0.142855629417765, 51.613818926717997 ], [ -0.142071606744566, 51.613033217772845 ], [ -0.141391834222196, 51.612348941074309 ], [ -0.140820072764078, 51.611851560997479 ], [ -0.140246516255712, 51.611360532482067 ], [ -0.13966388458561, 51.610879156244167 ], [ -0.139599611468836, 51.610825996805978 ], [ -0.138760310000606, 51.610194913276516 ], [ -0.141112507745192, 51.609536196503733 ], [ -0.142797391651942, 51.609053863858108 ], [ -0.143425431890834, 51.608848942562197 ], [ -0.143427260172054, 51.608234787970972 ], [ -0.143403153115053, 51.607906188862898 ], [ -0.143389081787437, 51.607789907903381 ], [ -0.14338117453046, 51.607738540940794 ], [ -0.143277580777175, 51.607338564063177 ], [ -0.143136698375544, 51.60658002308017 ], [ -0.143078252761657, 51.606348959452923 ], [ -0.142921936629064, 51.605930977633854 ], [ -0.142892474445446, 51.605873875733927 ], [ -0.142799848915564, 51.605739361139278 ], [ -0.142632544100913, 51.605450748208192 ], [ -0.14238132712768, 51.605129342831439 ], [ -0.142297895055197, 51.605049721260123 ], [ -0.142189438093374, 51.604912258691641 ], [ -0.142065270311435, 51.604593762278562 ], [ -0.142014492126854, 51.604280023275223 ], [ -0.141999927689289, 51.603787870293978 ], [ -0.142011913188579, 51.603707151697733 ], [ -0.142089417254304, 51.603470957473995 ], [ -0.142115585368627, 51.603290676420116 ], [ -0.142154240695592, 51.603227460545291 ], [ -0.142215245956756, 51.603182577996535 ], [ -0.142482766358589, 51.602961077312408 ], [ -0.143038795242651, 51.60253458774649 ], [ -0.143086609726707, 51.602494889956091 ], [ -0.143128822829705, 51.602452406597365 ], [ -0.143164290782972, 51.602397230788966 ], [ -0.143232330792142, 51.602214824921084 ], [ -0.143436750204529, 51.601949262674793 ], [ -0.143554138734341, 51.601759546236828 ], [ -0.143797538167525, 51.601492711917992 ], [ -0.143858430838181, 51.60138040309338 ], [ -0.143885796979998, 51.601345775522709 ], [ -0.144001469764228, 51.601236040843048 ], [ -0.144174001962056, 51.601112911159831 ], [ -0.144463810064535, 51.600557247085305 ], [ -0.144498167438967, 51.600421144819244 ], [ -0.144497877784116, 51.600217880168984 ], [ -0.144469698109351, 51.600129334402013 ], [ -0.145069164547282, 51.599909477840626 ], [ -0.146657510254056, 51.599308693071016 ], [ -0.146975252362539, 51.599197740228838 ], [ -0.147477651437254, 51.599022187020665 ], [ -0.147387366646946, 51.598865238023599 ], [ -0.147741276079847, 51.598754763928291 ], [ -0.148769607688483, 51.598392422817859 ], [ -0.151349177959894, 51.597448415724728 ], [ -0.151360535848699, 51.597453089506452 ], [ -0.151523813246298, 51.597592306268837 ], [ -0.151598089602517, 51.597683464255383 ], [ -0.152036013788122, 51.598277487959159 ], [ -0.152898144324628, 51.599059063765104 ], [ -0.153005127086659, 51.59923335276298 ], [ -0.153094953750431, 51.599545905261081 ], [ -0.153191559019092, 51.599835190771245 ], [ -0.153412087582649, 51.60070015804947 ], [ -0.153438163851068, 51.600873262916444 ], [ -0.153442112018101, 51.600990192758907 ], [ -0.153408960241458, 51.6013466569744 ], [ -0.153398400856117, 51.601677406200224 ], [ -0.153359900908104, 51.602092309938058 ], [ -0.153286966257914, 51.60268098435116 ], [ -0.153558356912806, 51.603002685728306 ], [ -0.153980040508203, 51.603429324866639 ], [ -0.154422597259996, 51.603911038848722 ], [ -0.154550220952876, 51.604075851762673 ], [ -0.154618387774813, 51.604138953592759 ], [ -0.154769275229647, 51.604264487021339 ], [ -0.155162002330624, 51.604551234534128 ], [ -0.155243696669962, 51.604603760904773 ], [ -0.155387826977578, 51.604681631164944 ], [ -0.156116022069061, 51.605099506243597 ], [ -0.156126909231115, 51.605115859007157 ], [ -0.156137068479858, 51.605150179977578 ], [ -0.156134811920676, 51.605205881421043 ], [ -0.156112294932984, 51.605297313678925 ], [ -0.155961841026965, 51.605445978335752 ], [ -0.15634232321242, 51.605359362017644 ], [ -0.156370273962421, 51.605345417466694 ], [ -0.156545115734863, 51.605129621840071 ], [ -0.156748470775443, 51.604924162648025 ], [ -0.157249072427946, 51.604149730739074 ], [ -0.158710147413563, 51.602089093801141 ], [ -0.158668508591902, 51.602047087193966 ], [ -0.159904346709271, 51.600230208213986 ], [ -0.161705503161604, 51.597681217555156 ], [ -0.161743462435289, 51.597599105186028 ], [ -0.161757433641698, 51.597539091777996 ], [ -0.16176129565756, 51.597478830119755 ], [ -0.161748690846077, 51.597395925703843 ], [ -0.161754243030164, 51.597152296785076 ], [ -0.161735067598805, 51.597019845055001 ], [ -0.161690444918246, 51.596836561435516 ], [ -0.161464042540049, 51.596293531595393 ], [ -0.161082732675361, 51.595297501051661 ], [ -0.161000639002227, 51.59511363008825 ], [ -0.160945545076644, 51.594833091355582 ], [ -0.160665792569388, 51.594429466483561 ], [ -0.160459245657522, 51.594217574047775 ], [ -0.16037090950245, 51.594082240156858 ], [ -0.16024047491277, 51.593842772709998 ], [ -0.16020457488563, 51.593732533340237 ], [ -0.160204412588888, 51.593592198651869 ], [ -0.160174513513161, 51.593474861430991 ], [ -0.160144448388316, 51.59339698720752 ], [ -0.159826249387156, 51.59276980869685 ], [ -0.159786025714916, 51.592657613555929 ], [ -0.159750033467423, 51.592511413074305 ], [ -0.159650122631983, 51.592267928696835 ], [ -0.15883862788367, 51.59237746450254 ], [ -0.158788037237626, 51.592271489266693 ], [ -0.158667565292629, 51.592074429190099 ], [ -0.158664009218789, 51.592056393669239 ], [ -0.158668451693885, 51.59198184746473 ], [ -0.158681298497454, 51.591949685478895 ], [ -0.158717913649696, 51.591900815605875 ], [ -0.159045093804492, 51.591734151321866 ], [ -0.159146551230723, 51.59168899525973 ], [ -0.15932579506406, 51.591577634956067 ], [ -0.159455470465203, 51.59158236541122 ], [ -0.159576008228104, 51.590994340164819 ], [ -0.159721784159893, 51.590529871638275 ], [ -0.159776576058308, 51.59039048865543 ], [ -0.159821492271903, 51.590206810538902 ], [ -0.159809410068855, 51.590114025429727 ], [ -0.159742887558755, 51.589721833131151 ], [ -0.160143952938635, 51.589693958749514 ], [ -0.160124559629233, 51.589351949626987 ], [ -0.160114513001177, 51.589208763237735 ], [ -0.160120065729384, 51.589071305180752 ], [ -0.160123045312393, 51.588997545005924 ], [ -0.160050438377381, 51.589006385679717 ], [ -0.160055069765374, 51.58864128952959 ], [ -0.16006305416212, 51.588443637410897 ], [ -0.160078213467559, 51.588212745305974 ], [ -0.160078358635165, 51.588209151630785 ], [ -0.160070957746901, 51.588106551032823 ], [ -0.160247831800881, 51.587979779178688 ], [ -0.158615255587919, 51.587977554231017 ], [ -0.158607463046983, 51.587811119347244 ], [ -0.158598053400072, 51.587581640082767 ], [ -0.158601053446309, 51.58757809119485 ], [ -0.158600497749587, 51.587556506782455 ], [ -0.158629246964288, 51.587557856750522 ], [ -0.158671080515776, 51.587559411956313 ], [ -0.158672424311186, 51.587526170504283 ], [ -0.158678355200374, 51.587414789107257 ], [ -0.158688600573475, 51.587161345480673 ], [ -0.158679713852453, 51.586633320671375 ], [ -0.157646512101804, 51.586585644915509 ], [ -0.157404655468266, 51.58657106096603 ], [ -0.157286258498601, 51.586393810087614 ], [ -0.157161039326446, 51.586205754053317 ], [ -0.1571568564483, 51.586200294465243 ], [ -0.15734300514912, 51.586203216609846 ], [ -0.157896640874173, 51.586219097684953 ], [ -0.15789751285049, 51.586197535673598 ], [ -0.157940816024477, 51.585735955911446 ], [ -0.15917886165897, 51.584781503156734 ], [ -0.159555329894334, 51.584504134838177 ], [ -0.159617576568121, 51.584462858269362 ], [ -0.159859396088743, 51.584587113468544 ], [ -0.160028868901166, 51.584681556544446 ], [ -0.160244896534125, 51.584799113802688 ], [ -0.160516187803096, 51.584980555727434 ], [ -0.160831010183221, 51.5851922557789 ], [ -0.16108423850894, 51.585355433686274 ], [ -0.161198149548522, 51.585358117030644 ], [ -0.16132561579075, 51.585275608679382 ], [ -0.161398338323231, 51.585225415460101 ], [ -0.1618935420032, 51.584866293155258 ], [ -0.162036930164779, 51.584748972727965 ], [ -0.162264289025172, 51.584621189922018 ], [ -0.162480673493724, 51.58451759747296 ], [ -0.162657960086375, 51.58445384718673 ], [ -0.163191458537561, 51.584360610124293 ], [ -0.163537353528207, 51.584265245029989 ], [ -0.163551465834359, 51.584275354679157 ], [ -0.163552820680886, 51.584277173852243 ], [ -0.163608985584721, 51.584315810006061 ], [ -0.163657177402471, 51.584301281048376 ], [ -0.163670322976886, 51.584296991733453 ], [ -0.163721032370836, 51.584329249572122 ], [ -0.163784666148596, 51.58428889141684 ], [ -0.164285249804363, 51.583975691141106 ], [ -0.164464895038039, 51.583959621376621 ], [ -0.164604173133431, 51.583941122242855 ], [ -0.164843881124245, 51.583760576878959 ], [ -0.165024990358925, 51.58359880299281 ], [ -0.164989350027915, 51.58358835701948 ], [ -0.164882863403052, 51.583546237955701 ], [ -0.165178785463963, 51.583438489783283 ], [ -0.16572143541174, 51.583223930585113 ], [ -0.165747007402046, 51.582946452508679 ], [ -0.166108522812918, 51.582465567293433 ], [ -0.166337940674635, 51.582179586297116 ], [ -0.16634712913579, 51.582167143957932 ], [ -0.166190461158033, 51.582044232216091 ], [ -0.1668708650104, 51.581957767567154 ], [ -0.166876790743116, 51.581952466156139 ], [ -0.166932361032387, 51.581899394458695 ], [ -0.16698894685832, 51.581821076973291 ], [ -0.167036340690203, 51.581755291699153 ], [ -0.16712152898623, 51.581539875252822 ], [ -0.167194533730673, 51.581301883671024 ], [ -0.167191619927948, 51.581122849268212 ], [ -0.167208319931464, 51.580707686672568 ], [ -0.167196047347262, 51.580619304150531 ], [ -0.167191412327008, 51.580589565117236 ], [ -0.167110730610643, 51.580586507542264 ], [ -0.167061767276916, 51.580584844114568 ], [ -0.167050925762086, 51.579671031172083 ], [ -0.16699045301484, 51.579665592074051 ], [ -0.166829335707623, 51.578792674113956 ], [ -0.166813152572168, 51.578656583996036 ], [ -0.167027066639736, 51.578539459208081 ], [ -0.167183568025115, 51.578417751895437 ], [ -0.167298022770153, 51.578299972870376 ], [ -0.167335646833295, 51.57826100459755 ], [ -0.167142195856525, 51.57822741904878 ], [ -0.167059015056915, 51.578212635598057 ], [ -0.167351332080192, 51.57787099766567 ], [ -0.16742737780482, 51.577773205816413 ], [ -0.167608911601006, 51.577496453121448 ], [ -0.167731549400113, 51.577352640700795 ], [ -0.168063211584705, 51.576928907681889 ], [ -0.168259721718028, 51.576995802268662 ], [ -0.169320441297496, 51.577428686093647 ], [ -0.16932965344863, 51.577412648047947 ], [ -0.169434675716302, 51.577135510193067 ], [ -0.169541375897436, 51.576923215660749 ], [ -0.169597504228912, 51.576781961169836 ], [ -0.169662057531767, 51.576576110781218 ], [ -0.169728197776884, 51.57640183969702 ], [ -0.169565798200774, 51.576350759804157 ], [ -0.169528071815269, 51.575779131945168 ], [ -0.169609678154343, 51.575797486364372 ], [ -0.169561319069667, 51.575455025442089 ], [ -0.169481421936721, 51.574893530492048 ], [ -0.169446745221821, 51.574714091088858 ], [ -0.169434545114167, 51.574514235898036 ], [ -0.169459033736897, 51.57423044861887 ], [ -0.169456524897001, 51.57400557305651 ], [ -0.169458818003492, 51.573984033179237 ], [ -0.169921950002388, 51.57384112955387 ], [ -0.170561482322476, 51.573693693745696 ], [ -0.170933161188773, 51.573638359233897 ], [ -0.171156254348217, 51.573614868348216 ], [ -0.171214707365574, 51.57302406665071 ], [ -0.171259995660708, 51.572432160608535 ], [ -0.171333255725925, 51.572406333160551 ], [ -0.171671744659947, 51.572240802227896 ], [ -0.171785852157245, 51.572131016488022 ], [ -0.171817846583125, 51.572054202260112 ], [ -0.172065542256991, 51.571921416495442 ], [ -0.172271002651852, 51.571910144459679 ], [ -0.172669388493015, 51.57168980657508 ], [ -0.173048457252212, 51.57148525827423 ], [ -0.173124798245646, 51.571418124209139 ], [ -0.173198274353174, 51.571348248509089 ], [ -0.17327032694327, 51.571278260690697 ], [ -0.173282365093941, 51.571265862333817 ], [ -0.173351596053751, 51.571195021429375 ], [ -0.173418009031825, 51.571123237610294 ], [ -0.173436114695785, 51.571101943839722 ], [ -0.173481485130373, 51.571050509030073 ], [ -0.173522970863873, 51.570989124845191 ], [ -0.173626632287529, 51.570777588860693 ], [ -0.173718343350469, 51.570433715461633 ], [ -0.173714373040099, 51.570244776254697 ], [ -0.173705731762903, 51.569920017115486 ], [ -0.173828321674034, 51.569921925650334 ], [ -0.173826317681192, 51.569719532213377 ], [ -0.173970478190034, 51.569616594771006 ], [ -0.174080913351878, 51.569523920046834 ], [ -0.174236262607091, 51.569394096861643 ], [ -0.174326195395567, 51.569308294686287 ], [ -0.174381705639045, 51.569256118285217 ], [ -0.174862646217081, 51.56942452111636 ], [ -0.175132173592828, 51.569432310316266 ], [ -0.175167597171102, 51.569557910710301 ], [ -0.175908454609453, 51.569796068538245 ], [ -0.175899464265608, 51.569875039760994 ], [ -0.175967922352711, 51.569897680016389 ], [ -0.176489231421801, 51.570068502078669 ], [ -0.176928664509811, 51.570192290879916 ], [ -0.177361287366432, 51.570200811719381 ], [ -0.177652943585794, 51.570268272355044 ], [ -0.177669897455417, 51.570275727656032 ], [ -0.178053238784823, 51.570433701506985 ], [ -0.178076286428026, 51.570255969640812 ], [ -0.178075135699935, 51.570246062881949 ], [ -0.178074103877303, 51.570236157969894 ], [ -0.17807449891485, 51.570226275219632 ], [ -0.178074858039697, 51.570217290901198 ], [ -0.178076679935995, 51.570207430312635 ], [ -0.178080047595228, 51.570197593732516 ], [ -0.178081869489491, 51.570187733143804 ], [ -0.178086509187233, 51.570178815310065 ], [ -0.178089757937207, 51.570168976882691 ], [ -0.178094516536183, 51.570160060895319 ], [ -0.178100547174001, 51.57015206365417 ], [ -0.178106732626167, 51.570143169827517 ], [ -0.178112799171113, 51.570134274153666 ], [ -0.17812041147498, 51.570125402487328 ], [ -0.178128027366948, 51.570116440977166 ], [ -0.178136911705056, 51.570108488055702 ], [ -0.178145914944666, 51.570100536980178 ], [ -0.178154882270366, 51.570093484335786 ], [ -0.178165312359188, 51.570085555419233 ], [ -0.178175706534046, 51.570078524933564 ], [ -0.178186100705659, 51.57007149444685 ], [ -0.178197885818961, 51.570065384551221 ], [ -0.178208244074476, 51.570059252494332 ], [ -0.178219993272223, 51.570054041028271 ], [ -0.178233169321569, 51.570048851720649 ], [ -0.178246345367907, 51.570043662411408 ], [ -0.178259485502667, 51.570039371532665 ], [ -0.178274016580573, 51.570036001243579 ], [ -0.178288702468816, 51.570031734367149 ], [ -0.178303233542158, 51.570028364074311 ], [ -0.178317764613369, 51.570024993779597 ], [ -0.178332295682447, 51.570021623482987 ], [ -0.178345554707253, 51.570017334440642 ], [ -0.178360085771862, 51.570013964140443 ], [ -0.178362939478458, 51.570014008456603 ], [ -0.178412585596258, 51.570001294569948 ], [ -0.178462076877665, 51.569989477247198 ], [ -0.178512959082419, 51.569978580491174 ], [ -0.178563888362582, 51.569969482423268 ], [ -0.178614698718401, 51.569960382486315 ], [ -0.178667018909743, 51.569952204959634 ], [ -0.178719303183378, 51.569944925841476 ], [ -0.178771432638183, 51.56993854328595 ], [ -0.178823609188656, 51.569933959418023 ], [ -0.178877212580135, 51.569929397678266 ], [ -0.178930625267013, 51.569926630933196 ], [ -0.178982730001251, 51.569923843859009 ], [ -0.179036189794618, 51.569922875776911 ], [ -0.179062146813066, 51.569922379729078 ], [ -0.179699510696518, 51.569788343667518 ], [ -0.180156146410602, 51.569701933776017 ], [ -0.180490343471879, 51.5696783503085 ], [ -0.180727344979639, 51.569669440345265 ], [ -0.180949528805844, 51.569671088011141 ], [ -0.180808774287895, 51.569438673708724 ], [ -0.180893653954764, 51.569407626346681 ], [ -0.181685842758205, 51.569009878737141 ], [ -0.18180319596705, 51.568964051195231 ], [ -0.1818650071122, 51.56893264554499 ], [ -0.181975117023163, 51.568850656011946 ], [ -0.182107072973709, 51.568725044242804 ], [ -0.182185676230797, 51.568672322845863 ], [ -0.183468285968573, 51.568025858716112 ], [ -0.183542481904554, 51.568009027781748 ], [ -0.183693968578338, 51.56797532378706 ], [ -0.183456853527648, 51.567769379102693 ] ] ] } }
]
}
