{
"type": "FeatureCollection",
"name": "borough_Lambeth",
"crs": { "type": "name", "properties": { "name": "urn:ogc:def:crs:OGC:1.3:CRS84" } },
"features": [
{ "type": "Feature", "properties": { "DISTRICT": "Lambeth", "NAME": "Streatham South", "GSS_CODE": "E05000431", "LAGSSCODE": "E09000022", "HECTARES": 169.809, "NONLD_AREA": 0.0 }, "geometry": { "type": "Polygon", "coordinates": [ [ [ -0.139020880793461, 51.420195343966164 ], [ -0.138493312120647, 51.420579939841311 ], [ -0.13814590829257, 51.420846922444802 ], [ -0.137826087358588, 51.421106250316093 ], [ -0.138276286699503, 51.422027969055108 ], [ -0.138490801864369, 51.422624007988134 ], [ -0.138504739908499, 51.422669180235779 ], [ -0.138799302423371, 51.423633379939922 ], [ -0.138840648388025, 51.423818425364701 ], [ -0.138896344408127, 51.424572869705727 ], [ -0.138907148554884, 51.424768218917627 ], [ -0.138900612290911, 51.425282446082548 ], [ -0.138846110740088, 51.426092769833048 ], [ -0.1387386849532, 51.426824847936857 ], [ -0.138515654748466, 51.427996691056123 ], [ -0.138463630204044, 51.428319603394748 ], [ -0.138411459915748, 51.42875408201148 ], [ -0.138385356249474, 51.429078304631219 ], [ -0.138368445521824, 51.429564497107236 ], [ -0.138338872358811, 51.429974071664638 ], [ -0.138359958170646, 51.430339589103944 ], [ -0.138356670607833, 51.430455510755465 ], [ -0.138356597584062, 51.430457307640282 ], [ -0.138361310601125, 51.430484353111126 ], [ -0.138372769311496, 51.430555557735616 ], [ -0.137686152085618, 51.430496109653532 ], [ -0.137197485538257, 51.430448792104627 ], [ -0.136681994840427, 51.430390258146907 ], [ -0.135905176387477, 51.43031767946421 ], [ -0.135469777280488, 51.43027021257825 ], [ -0.13535358403244, 51.430260274127036 ], [ -0.135306278750853, 51.430256824962242 ], [ -0.135238335318105, 51.430334948292575 ], [ -0.135339246358108, 51.430650400363717 ], [ -0.135568256683873, 51.431207927133521 ], [ -0.135843868916316, 51.431964158564966 ], [ -0.13612452989547, 51.432847231692882 ], [ -0.1364299050094, 51.433828690459485 ], [ -0.136496849287379, 51.433915161311006 ], [ -0.136660388674959, 51.433924952429258 ], [ -0.136906108795205, 51.433932453049415 ], [ -0.13757329975853, 51.433802804979692 ], [ -0.137831906457368, 51.433776345518204 ], [ -0.138203090019908, 51.434059138328131 ], [ -0.139084512064998, 51.434814194141211 ], [ -0.139463886044247, 51.435179014354901 ], [ -0.139622403604123, 51.435315483938481 ], [ -0.139671942860075, 51.43544222296898 ], [ -0.139733348750787, 51.435665255732559 ], [ -0.139779385525058, 51.435878245288563 ], [ -0.139851711743648, 51.436258870054502 ], [ -0.139947296487416, 51.436881790652428 ], [ -0.13988694665912, 51.437021170512345 ], [ -0.13971144938334, 51.43730256678311 ], [ -0.139355525798188, 51.437563118890019 ], [ -0.139299557235311, 51.4375945953851 ], [ -0.139093466096704, 51.437709096068602 ], [ -0.138956230438605, 51.437758161836754 ], [ -0.138483332569664, 51.437925153895549 ], [ -0.138281140816153, 51.438048705153307 ], [ -0.137977526766438, 51.438262435181841 ], [ -0.137789830777419, 51.438420378508745 ], [ -0.13765798000843, 51.438581995625654 ], [ -0.137478453154583, 51.438821968888064 ], [ -0.137375598273124, 51.439087343698709 ], [ -0.137357844869099, 51.439383828157794 ], [ -0.137355755442559, 51.439397280259897 ], [ -0.137277726959543, 51.439691008891799 ], [ -0.137234235448399, 51.439733560659832 ], [ -0.137234123291777, 51.439771317716264 ], [ -0.137276220009324, 51.439798058227758 ], [ -0.137260665540393, 51.439862540501373 ], [ -0.137450291261, 51.440010295804953 ], [ -0.137462154875227, 51.440036555885968 ], [ -0.13749263578218, 51.44010096051494 ], [ -0.137472011682689, 51.440150078929655 ], [ -0.137451561308015, 51.44019200793884 ], [ -0.137407563933348, 51.440211986317536 ], [ -0.13734622136854, 51.440340470482234 ], [ -0.137022923448928, 51.440258916158449 ], [ -0.137021391042424, 51.44026158886367 ], [ -0.136985676828446, 51.440252930085336 ], [ -0.136781898790621, 51.440595903706196 ], [ -0.136662635647794, 51.440730748822105 ], [ -0.136398524758905, 51.441139289938036 ], [ -0.136078510153626, 51.441542446234102 ], [ -0.135916237577538, 51.441783589730079 ], [ -0.135878351808446, 51.442006033781794 ], [ -0.135954407802917, 51.442011738422728 ], [ -0.135997639498505, 51.442010627892948 ], [ -0.136369886739004, 51.441915856892962 ], [ -0.136391171442385, 51.441885538753674 ], [ -0.136725483398759, 51.441804547725361 ], [ -0.13732584918513, 51.441725086847754 ], [ -0.137344692377876, 51.441722689227007 ], [ -0.137859511648348, 51.44169580730312 ], [ -0.139016094982602, 51.441703387514842 ], [ -0.140778747932389, 51.441742147712198 ], [ -0.141589892926719, 51.441751414981788 ], [ -0.142333017673572, 51.441770386922585 ], [ -0.142743050525138, 51.441773288517915 ], [ -0.143245603727981, 51.441800129894638 ], [ -0.143595096975031, 51.441838929485947 ], [ -0.143798002580438, 51.442300734833175 ], [ -0.143977892705066, 51.442654292242622 ], [ -0.144312188421803, 51.443246826801357 ], [ -0.144441581677202, 51.443464730564074 ], [ -0.144568597301472, 51.443703274049916 ], [ -0.144724173219247, 51.443913410822077 ], [ -0.144829386450222, 51.444086879288207 ], [ -0.145120479797315, 51.444466468346015 ], [ -0.145381390385984, 51.444917590750556 ], [ -0.145577897926754, 51.445394574392921 ], [ -0.145662372772516, 51.445831217308893 ], [ -0.145670887137192, 51.445870009953524 ], [ -0.145653074682035, 51.445885011537179 ], [ -0.145563656495355, 51.445960013784457 ], [ -0.14556092343763, 51.445992335339362 ], [ -0.145540621543516, 51.446314852957741 ], [ -0.145414856881876, 51.446862345419497 ], [ -0.145257861310561, 51.447328341677128 ], [ -0.145149368452058, 51.447660251949301 ], [ -0.144911526793675, 51.448238335032222 ], [ -0.144769613198817, 51.448542745358907 ], [ -0.144622066900389, 51.448705020913557 ], [ -0.144043143876088, 51.449032180106812 ], [ -0.143591699415003, 51.449305616082576 ], [ -0.143334632327243, 51.449505622546106 ], [ -0.143048016859818, 51.449793354397968 ], [ -0.14292773416636, 51.449920997893514 ], [ -0.142795404560322, 51.450061845822781 ], [ -0.142558233551997, 51.450338672585985 ], [ -0.142418192797084, 51.450561298555208 ], [ -0.142347028826718, 51.45075345946973 ], [ -0.142302380252801, 51.450967706870756 ], [ -0.142297126762759, 51.450991897074644 ], [ -0.143121925221379, 51.451095766023094 ], [ -0.143586704687896, 51.451167047562038 ], [ -0.143743048550147, 51.451215373247905 ], [ -0.144596000051615, 51.451479792183179 ], [ -0.146544227714115, 51.452024039617477 ], [ -0.147334495098127, 51.452237101936696 ], [ -0.147704499955272, 51.452340042475491 ], [ -0.147352554932332, 51.452963970860701 ], [ -0.147605650309468, 51.45297066742669 ], [ -0.147625620501442, 51.452972781009592 ], [ -0.147755218318501, 51.453861526430003 ], [ -0.147932588757932, 51.454742935048138 ], [ -0.14797630192438, 51.454873982620136 ], [ -0.147944537963728, 51.454946300959506 ], [ -0.147951507936246, 51.455129000785178 ], [ -0.148054695113998, 51.455957993179503 ], [ -0.14812856909519, 51.456411453828942 ], [ -0.148308130235751, 51.45720389341033 ], [ -0.14831549286644, 51.457306497217495 ], [ -0.14834037468037, 51.457366225058102 ], [ -0.148639333678575, 51.457912331832517 ], [ -0.148939020518112, 51.458437681923257 ], [ -0.148941767861957, 51.458443119373719 ], [ -0.149191988006834, 51.45887697717049 ], [ -0.149273852907689, 51.459095020386371 ], [ -0.149365230525114, 51.459362569256534 ], [ -0.149646152082071, 51.461245571151608 ], [ -0.149668296473561, 51.461302648034838 ], [ -0.149677471370039, 51.461325268029242 ], [ -0.149760137664848, 51.461488394016492 ], [ -0.149905234295657, 51.461707434410492 ], [ -0.150029656602312, 51.461871219018676 ], [ -0.150359637195978, 51.462255986018903 ], [ -0.15043724934935, 51.462365091261859 ], [ -0.150510555161889, 51.46247502753387 ], [ -0.15063539333381, 51.462699141463524 ], [ -0.150706631497407, 51.462860288455133 ], [ -0.150767973080856, 51.463051935497283 ], [ -0.150942204416447, 51.463837089817609 ], [ -0.150957425861545, 51.463956897906172 ], [ -0.150966702198553, 51.464226836468676 ], [ -0.151206453040406, 51.465885240656007 ], [ -0.150445338320466, 51.465978421875576 ], [ -0.150540701397317, 51.466327032885971 ], [ -0.150616481100073, 51.467266162797948 ], [ -0.150618269325155, 51.467401132157732 ], [ -0.15059369292508, 51.467615697446725 ], [ -0.150320299032662, 51.467683305930819 ], [ -0.149404048860908, 51.468015956645445 ], [ -0.147273359435408, 51.468864508656885 ], [ -0.146089476611261, 51.469334948368903 ], [ -0.143215680622336, 51.470468439834768 ], [ -0.143075393500544, 51.470520158985785 ], [ -0.142651764956526, 51.470064754400759 ], [ -0.141558930024812, 51.470632874897412 ], [ -0.141470624340628, 51.470679122879829 ], [ -0.141759377607312, 51.470909440215088 ], [ -0.140956225558207, 51.471289667414034 ], [ -0.140317630813019, 51.471593386125619 ], [ -0.139841814819356, 51.471324137676753 ], [ -0.139716206017791, 51.471367994604471 ], [ -0.139291185961316, 51.471516869987894 ], [ -0.139430937978005, 51.471656635884472 ], [ -0.139553515883631, 51.471722410346516 ], [ -0.139574671130357, 51.471733534090482 ], [ -0.139477006224763, 51.471796713297643 ], [ -0.139423962463475, 51.471793174677742 ], [ -0.139245367662861, 51.471864149614774 ], [ -0.139184465433266, 51.471875769355343 ], [ -0.139134661894948, 51.471859695886025 ], [ -0.139041240911763, 51.471891476742059 ], [ -0.138721586202333, 51.471997880769919 ], [ -0.13870189390069, 51.471915758321721 ], [ -0.138653588642589, 51.471862849027644 ], [ -0.138490969164721, 51.471897127095474 ], [ -0.138324104159433, 51.47196280288297 ], [ -0.138249099593302, 51.472002966571324 ], [ -0.13801773805045, 51.472130638541493 ], [ -0.137823987989959, 51.472293878814632 ], [ -0.137467485184899, 51.472596667384408 ], [ -0.136892910395185, 51.473091165510681 ], [ -0.136635887309635, 51.472933261154736 ], [ -0.136467570580361, 51.472824503336419 ], [ -0.136363256177624, 51.472768005992272 ], [ -0.136349302204126, 51.472757895122427 ], [ -0.136333769224603, 51.472748658166701 ], [ -0.136318318312235, 51.472740321523148 ], [ -0.136302867405518, 51.472731984877626 ], [ -0.136285874080032, 51.47272362371659 ], [ -0.136268844172645, 51.472716160981705 ], [ -0.13625050914295, 51.472708677501828 ], [ -0.136233479246974, 51.472701214761869 ], [ -0.136054959529117, 51.472700175384198 ], [ -0.135884808360826, 51.472706460844272 ], [ -0.135762043143168, 51.472715297395773 ], [ -0.135679325400771, 51.47273196258169 ], [ -0.135571425221056, 51.472763510511918 ], [ -0.135323702860173, 51.472872847020234 ], [ -0.135213788606139, 51.47295380816098 ], [ -0.135046619153123, 51.473099576312961 ], [ -0.134773657581322, 51.473329966345126 ], [ -0.134722512304105, 51.473314768589951 ], [ -0.134696857648853, 51.473306269389013 ], [ -0.134532646356282, 51.473449296671532 ], [ -0.134461308286539, 51.473646932865982 ], [ -0.134469186949106, 51.473771121618562 ], [ -0.134476887425393, 51.473791921365276 ], [ -0.134512179065729, 51.473881484846522 ], [ -0.134454157234701, 51.473892248869049 ], [ -0.134424043142822, 51.473923235107115 ], [ -0.134436756869214, 51.473966679772211 ], [ -0.134508838052478, 51.473998392912179 ], [ -0.134681438971472, 51.474074857602936 ], [ -0.134902412322322, 51.474164677604641 ], [ -0.135205477162994, 51.474288256505289 ], [ -0.134847810635206, 51.474656646405904 ], [ -0.134832712450431, 51.474671689415622 ], [ -0.134927859137616, 51.474705567175668 ], [ -0.134685725347485, 51.474957124354638 ], [ -0.134502824584445, 51.474888586915597 ], [ -0.134495257084448, 51.474896557610599 ], [ -0.134218920065403, 51.475174450036846 ], [ -0.134086602218251, 51.475277618608231 ], [ -0.134032161194472, 51.475552838151657 ], [ -0.13395531511053, 51.475637920007024 ], [ -0.133858366860115, 51.475683125542702 ], [ -0.133858419953802, 51.475859421843715 ], [ -0.133808680757303, 51.475949430043357 ], [ -0.133620973308024, 51.476243205004572 ], [ -0.13329432613819, 51.4766974883362 ], [ -0.133069815458943, 51.477011353725842 ], [ -0.13260726405181, 51.477653251908123 ], [ -0.132250107635775, 51.478147591794482 ], [ -0.132082272993257, 51.478378750338706 ], [ -0.132036475700879, 51.478441850361421 ], [ -0.131967707494246, 51.478433562808945 ], [ -0.131964594210381, 51.47843710924441 ], [ -0.131963170259118, 51.478437086560142 ], [ -0.131944607016146, 51.478470054128799 ], [ -0.131852127695717, 51.478617906047248 ], [ -0.131804569044864, 51.47872413029917 ], [ -0.131711201528386, 51.478928605454243 ], [ -0.131586705490208, 51.479156767862271 ], [ -0.131519491210197, 51.479252879628497 ], [ -0.131387319859188, 51.479418887988246 ], [ -0.131319968731624, 51.479483442286757 ], [ -0.131143548187955, 51.479604783739944 ], [ -0.130960039767929, 51.479760084359874 ], [ -0.130828669797017, 51.47994417493819 ], [ -0.130636771946842, 51.480200120121495 ], [ -0.130619998094121, 51.480224125932693 ], [ -0.130558347519452, 51.480215951042702 ], [ -0.130542924205935, 51.480241776389484 ], [ -0.130416369742568, 51.480447429576714 ], [ -0.130345678873188, 51.480558768393799 ], [ -0.130327876053469, 51.48057017164831 ], [ -0.130323383715423, 51.480575494069384 ], [ -0.130286390741225, 51.480597379441036 ], [ -0.130194986007745, 51.480648963476639 ], [ -0.130164073199126, 51.480667349728051 ], [ -0.129922591696855, 51.481183305316165 ], [ -0.129434073839553, 51.481366103388474 ], [ -0.129143237232153, 51.48147123260857 ], [ -0.128610570785766, 51.48164163583543 ], [ -0.127964925685982, 51.48186246550555 ], [ -0.127471575504077, 51.482023692069326 ], [ -0.127380803383264, 51.482410703991931 ], [ -0.127254886646397, 51.482881661345253 ], [ -0.127136092345719, 51.483355519227821 ], [ -0.127024077831652, 51.483628916575832 ], [ -0.126848633385469, 51.483870734534193 ], [ -0.126338735932358, 51.484466815834189 ], [ -0.126507021980524, 51.484510050013249 ], [ -0.127027406371652, 51.48460286980216 ], [ -0.127702350111535, 51.484723327398115 ], [ -0.128011091258951, 51.484747135563161 ], [ -0.128146899977989, 51.484736717230717 ], [ -0.128343452065233, 51.484965596659443 ], [ -0.128430738932148, 51.485049698965611 ], [ -0.128560954070971, 51.485175930784223 ], [ -0.129054850162633, 51.485602841509156 ], [ -0.129211459528804, 51.485716817573234 ], [ -0.129386339722638, 51.485842861931722 ], [ -0.129466445341184, 51.485893585395402 ], [ -0.129283719731625, 51.485994057181259 ], [ -0.129111435444369, 51.486120856541042 ], [ -0.128821998873034, 51.486330203759884 ], [ -0.12839310014531, 51.486639002987296 ], [ -0.128173684044469, 51.486826181676705 ], [ -0.127879391284587, 51.487081388677517 ], [ -0.127718770621028, 51.487207383319387 ], [ -0.127502650294527, 51.48734876373473 ], [ -0.127368371364525, 51.487460794293192 ], [ -0.127215126792462, 51.487580612951533 ], [ -0.127141936388459, 51.487645161981327 ], [ -0.127119488830022, 51.487665480793268 ], [ -0.126739895192448, 51.48799933486977 ], [ -0.126590613445489, 51.488161469648311 ], [ -0.126243569408688, 51.488547085870771 ], [ -0.125462946077483, 51.489386246085331 ], [ -0.125001212242754, 51.489897775245332 ], [ -0.124821277791927, 51.490106166443013 ], [ -0.124674384852661, 51.490279215103136 ], [ -0.124535026011665, 51.490445191962309 ], [ -0.124164422796903, 51.490981459657789 ], [ -0.12400541520229, 51.491206456494737 ], [ -0.123947953738663, 51.49130712580962 ], [ -0.123923899442498, 51.491401227303385 ], [ -0.123921888008142, 51.491522561900034 ], [ -0.123928805639404, 51.491773587117414 ], [ -0.123915266586521, 51.491929798813743 ], [ -0.123850494785211, 51.492101463071357 ], [ -0.12378125253919, 51.492245995802904 ], [ -0.123701944124208, 51.492386861661387 ], [ -0.12356994179639, 51.492515107264218 ], [ -0.123499755207603, 51.492610269043098 ], [ -0.123436812646363, 51.492705456787967 ], [ -0.123347622907908, 51.492875741963552 ], [ -0.123228441067804, 51.493113962341084 ], [ -0.123159794255801, 51.493275675833154 ], [ -0.123059360847466, 51.493511409107818 ], [ -0.122984276746927, 51.493690999813587 ], [ -0.122899460187851, 51.494072713571896 ], [ -0.122857898735732, 51.494242951530865 ], [ -0.122801114671761, 51.49453790920257 ], [ -0.122766736524327, 51.494741435827542 ], [ -0.122679557368734, 51.495007138356186 ], [ -0.122476409309536, 51.495883394741107 ], [ -0.122408348423886, 51.496206940175306 ], [ -0.122370647097783, 51.496494111913158 ], [ -0.122363865016985, 51.497112706738001 ], [ -0.122312766357776, 51.497691035265916 ], [ -0.122235314752116, 51.498242870315359 ], [ -0.122115187552242, 51.498991805622417 ], [ -0.122048687257912, 51.499418762603106 ], [ -0.121734110567682, 51.501250056342336 ], [ -0.121406406652573, 51.503191718109889 ], [ -0.121309429538896, 51.503691995746635 ], [ -0.121249640689908, 51.503955438762304 ], [ -0.121189856223384, 51.504357330327736 ], [ -0.121083558358642, 51.504838579083348 ], [ -0.121027061222253, 51.505021972347386 ], [ -0.120881038877861, 51.505382925451428 ], [ -0.120778341852737, 51.505672651241888 ], [ -0.120647492413556, 51.505875620302163 ], [ -0.120523738792861, 51.506012984839927 ], [ -0.120440249206479, 51.506116022748877 ], [ -0.120285866297181, 51.506296048989164 ], [ -0.119961830428302, 51.506674825359909 ], [ -0.119636915701342, 51.5070401914288 ], [ -0.119215066990218, 51.507416498653271 ], [ -0.118702199481195, 51.507798536687709 ], [ -0.118315187156045, 51.508098983115858 ], [ -0.118037192742358, 51.508268123275556 ], [ -0.117779598501551, 51.508400640622156 ], [ -0.117614288093846, 51.508459121011349 ], [ -0.117432925585718, 51.508523636665238 ], [ -0.11686846781623, 51.508724136988853 ], [ -0.11629118261522, 51.508953197415636 ], [ -0.115787921119832, 51.509101543796525 ], [ -0.115539921856602, 51.509174066398188 ], [ -0.115272036303067, 51.509238986913452 ], [ -0.114933320998221, 51.509309960743728 ], [ -0.114555442310821, 51.509388395294287 ], [ -0.113886582189639, 51.509498200928789 ], [ -0.112698046811726, 51.509664282238369 ], [ -0.112023718733295, 51.509730836441548 ], [ -0.111438413911257, 51.509770860582783 ], [ -0.11104804667004, 51.509800535819707 ], [ -0.110591718308821, 51.509821955172335 ], [ -0.110356667602042, 51.509825361087174 ], [ -0.109913623568327, 51.509841597685408 ], [ -0.109162930883636, 51.50987265235819 ], [ -0.109153310766532, 51.509826647241908 ], [ -0.109115206337305, 51.509633552717105 ], [ -0.108899351905003, 51.508442197979676 ], [ -0.108896082228888, 51.508417871767556 ], [ -0.108836845818262, 51.508072412852577 ], [ -0.108774188054363, 51.507706311189942 ], [ -0.108567601954, 51.507754224219802 ], [ -0.108480978876502, 51.507760109437228 ], [ -0.108398988820833, 51.507476405486607 ], [ -0.108380892180033, 51.507425678699086 ], [ -0.108265512538858, 51.507116263628163 ], [ -0.108219480565618, 51.507008537987723 ], [ -0.108150123511704, 51.506910325327915 ], [ -0.107338138980895, 51.507065342702589 ], [ -0.10657139383595, 51.505295834967328 ], [ -0.106567268589441, 51.50529217229677 ], [ -0.106440233400322, 51.504983465983194 ], [ -0.106409134768606, 51.504830939724201 ], [ -0.106409167259187, 51.504689794181324 ], [ -0.106441759064089, 51.504496941242316 ], [ -0.106520219921767, 51.504306716726042 ], [ -0.106541106391176, 51.504255719885975 ], [ -0.106574170969038, 51.504048580128249 ], [ -0.106494453801188, 51.503641745462552 ], [ -0.106493029090138, 51.503641722462248 ], [ -0.106370176691378, 51.503372640329715 ], [ -0.107432670184043, 51.503013819465828 ], [ -0.106726236590543, 51.502223687418699 ], [ -0.106111454650314, 51.502524013636069 ], [ -0.106055496596524, 51.502415227653898 ], [ -0.106025222228948, 51.502274401767082 ], [ -0.106039570538804, 51.502206307947873 ], [ -0.106061504804624, 51.50216440820369 ], [ -0.106090196623435, 51.50213430483425 ], [ -0.105922269011989, 51.502046995289263 ], [ -0.105961275795228, 51.502011664407917 ], [ -0.106501924833214, 51.501585178454896 ], [ -0.10667862705073, 51.501667144807861 ], [ -0.106800442117093, 51.501580108210291 ], [ -0.107821195612681, 51.500799779362737 ], [ -0.10816358768554, 51.500535596853013 ], [ -0.108202699724248, 51.500494782970407 ], [ -0.108328352089264, 51.50034937077185 ], [ -0.109095772462892, 51.499107256613605 ], [ -0.109445153706874, 51.498498680045259 ], [ -0.109494847628457, 51.498377214654894 ], [ -0.109491020260017, 51.498366364745841 ], [ -0.110270181527774, 51.4968762132929 ], [ -0.110278723809658, 51.496844885303275 ], [ -0.110269926416489, 51.496779025336224 ], [ -0.111417417397413, 51.496448600246836 ], [ -0.110947758912991, 51.495577799217777 ], [ -0.110932202790975, 51.495500143191776 ], [ -0.110788411667434, 51.495424107517444 ], [ -0.110639163427684, 51.495408217966109 ], [ -0.110559120252783, 51.495393443178664 ], [ -0.110482149048761, 51.49537332372045 ], [ -0.109374255531106, 51.494957113912058 ], [ -0.107133748127707, 51.494163730378226 ], [ -0.105716820061005, 51.493696647361105 ], [ -0.10531257143545, 51.493614599586792 ], [ -0.104870968007266, 51.493528260805689 ], [ -0.104861661297017, 51.493509231014031 ], [ -0.104768638755871, 51.493320731809639 ], [ -0.104673845135086, 51.493071879713554 ], [ -0.104493785997439, 51.49293141968117 ], [ -0.104375341124916, 51.492731631103076 ], [ -0.104232058454335, 51.492503571295785 ], [ -0.104221327843653, 51.492484518430189 ], [ -0.104079888039744, 51.492249296054595 ], [ -0.10391783542249, 51.491952608056479 ], [ -0.103858098221863, 51.491969622530156 ], [ -0.103706443595997, 51.492014908150033 ], [ -0.103686936330607, 51.491998410459125 ], [ -0.103557674145725, 51.491884752521038 ], [ -0.103380483433522, 51.491781197416053 ], [ -0.103502157248003, 51.491694162610521 ], [ -0.103130937448381, 51.491475002504153 ], [ -0.103370700135941, 51.491321462745823 ], [ -0.103266729840727, 51.491259547251062 ], [ -0.103134469781215, 51.491180991826504 ], [ -0.10323333902468, 51.491056728826969 ], [ -0.103234949772611, 51.491052259803226 ], [ -0.10336770604408, 51.490872715922215 ], [ -0.10377799704688, 51.490462117700083 ], [ -0.104163229633832, 51.49003124472015 ], [ -0.104685806260094, 51.489553234263994 ], [ -0.105302656877536, 51.488955287649901 ], [ -0.105494647098181, 51.488770405207632 ], [ -0.108096252877795, 51.486155993399478 ], [ -0.108427340397365, 51.485849285896364 ], [ -0.10825589902843, 51.485744841849062 ], [ -0.108111497857056, 51.485649913826087 ], [ -0.107966651058986, 51.485565766618748 ], [ -0.107819257882719, 51.485505851564049 ], [ -0.106524994400537, 51.484970545025277 ], [ -0.106332339759446, 51.484891017960074 ], [ -0.106524947998372, 51.484693557537689 ], [ -0.106590665684505, 51.48453189674099 ], [ -0.106718288128752, 51.484337881841611 ], [ -0.106901074812904, 51.484062047861073 ], [ -0.107197353406394, 51.483654992024775 ], [ -0.106952996242753, 51.483573732822215 ], [ -0.106798120678237, 51.48352259615698 ], [ -0.10630338756208, 51.48329614852284 ], [ -0.105638618525322, 51.482966172962179 ], [ -0.105610495081676, 51.482951334475288 ], [ -0.105879625445299, 51.482781183464837 ], [ -0.106018445136946, 51.482698019419075 ], [ -0.105608798409664, 51.482435993473175 ], [ -0.105396575603609, 51.482204126110922 ], [ -0.105301453205317, 51.482101000939714 ], [ -0.105255446408564, 51.482099358603669 ], [ -0.105130323868343, 51.482095538904375 ], [ -0.104873252285268, 51.481834177477815 ], [ -0.104598455549027, 51.481585115135488 ], [ -0.104615177587191, 51.481459523701936 ], [ -0.104595785639384, 51.481440331019414 ], [ -0.104021592442099, 51.480908543075181 ], [ -0.104060619924124, 51.480903779982889 ], [ -0.104981301374676, 51.480791001713818 ], [ -0.105531770603603, 51.48071448964469 ], [ -0.107915331260661, 51.480433732600147 ], [ -0.108060090443415, 51.480416289890918 ], [ -0.108153033395587, 51.480397022170521 ], [ -0.108189583564904, 51.480383227627556 ], [ -0.108212406699699, 51.480353928428748 ], [ -0.108220636060989, 51.480295625423764 ], [ -0.108194041610077, 51.4802754181392 ], [ -0.108042844572461, 51.480207351027019 ], [ -0.107990418366972, 51.480185827920792 ], [ -0.107828905262736, 51.480120291121153 ], [ -0.107177655722169, 51.479848977740616 ], [ -0.105528957027812, 51.479147915354005 ], [ -0.103596457707089, 51.478342359665881 ], [ -0.101485942439211, 51.477527685754104 ], [ -0.099972138636563, 51.4768736697254 ], [ -0.100086087576332, 51.476731584417735 ], [ -0.100144331406518, 51.476647122038408 ], [ -0.100312367747638, 51.476277563515886 ], [ -0.100565848392645, 51.474785255122562 ], [ -0.100657147979248, 51.474459400394025 ], [ -0.100628708712912, 51.474346561700159 ], [ -0.100594055162734, 51.474277584512052 ], [ -0.100547858550564, 51.474212106247876 ], [ -0.100342458484967, 51.473992023078743 ], [ -0.099749706695754, 51.473424930572577 ], [ -0.099517334147428, 51.473056968739137 ], [ -0.099349507723117, 51.472624334462246 ], [ -0.099221767780129, 51.472267058821103 ], [ -0.099151620180422, 51.47218950421609 ], [ -0.098891537320472, 51.471934368508329 ], [ -0.097110107966024, 51.470693216135693 ], [ -0.095971902393667, 51.469881611847853 ], [ -0.095044245386744, 51.470201065058895 ], [ -0.094771475643825, 51.470353960665399 ], [ -0.094427256418554, 51.470529158563593 ], [ -0.094297563264622, 51.47060166893862 ], [ -0.094175025412194, 51.470673396498974 ], [ -0.09408004234935, 51.470741975917861 ], [ -0.094039596726372, 51.470780965205002 ], [ -0.093973624303678, 51.470876987046132 ], [ -0.093701390395613, 51.471603646613403 ], [ -0.093637591936813, 51.471718673057538 ], [ -0.093598123121659, 51.471768376484206 ], [ -0.093461301564012, 51.471906398844794 ], [ -0.093054691469586, 51.47212822629939 ], [ -0.093005466762217, 51.47203033072293 ], [ -0.092998828956261, 51.472015838325333 ], [ -0.092920876441069, 51.470949764760029 ], [ -0.092903216616793, 51.470752590913222 ], [ -0.092823439708532, 51.47014606904991 ], [ -0.092756337908967, 51.469924626042385 ], [ -0.092714540219932, 51.469822356007974 ], [ -0.092692052987868, 51.469775150846459 ], [ -0.09223975756649, 51.469088845522023 ], [ -0.091120577340788, 51.467613841165246 ], [ -0.090110654214232, 51.466318612250717 ], [ -0.090068907180568, 51.466215352950911 ], [ -0.090054069595815, 51.466158472451411 ], [ -0.090045526263808, 51.466087310096398 ], [ -0.090046161685935, 51.466001013868805 ], [ -0.09008031934903, 51.465734469632224 ], [ -0.090641417213171, 51.463294842600433 ], [ -0.090914132959931, 51.46283251059225 ], [ -0.091098454513892, 51.462554117579934 ], [ -0.091513427052568, 51.46199341026545 ], [ -0.092186124471881, 51.461121249033269 ], [ -0.092302041061686, 51.461034132371964 ], [ -0.092526154345997, 51.460837207476104 ], [ -0.092732763997937, 51.460715605475031 ], [ -0.09281439742171, 51.46065930639957 ], [ -0.092912619855785, 51.460580891456736 ], [ -0.09306848001233, 51.460432391201806 ], [ -0.093624664198724, 51.460005232343732 ], [ -0.094116904493456, 51.459594202391905 ], [ -0.094546322914691, 51.459169562583838 ], [ -0.094703936673192, 51.459012907578895 ], [ -0.094841201685923, 51.458863203669367 ], [ -0.094999709020253, 51.458650823045375 ], [ -0.095096948579848, 51.458493185988672 ], [ -0.09512287757005, 51.458457646372558 ], [ -0.095182419207429, 51.458375903688655 ], [ -0.095477990960283, 51.457881567670725 ], [ -0.095639180160802, 51.457604589670986 ], [ -0.095811475998696, 51.457408614495769 ], [ -0.096175822170983, 51.457163615713917 ], [ -0.096550310771755, 51.456880122360104 ], [ -0.097181435578744, 51.456415595580694 ], [ -0.097576525998865, 51.456155808192847 ], [ -0.097823198190673, 51.456037454830536 ], [ -0.098565611327047, 51.455698792826055 ], [ -0.099091802423993, 51.455402469308986 ], [ -0.100019224757966, 51.454769131039157 ], [ -0.100601920213348, 51.454391905362719 ], [ -0.100912706246734, 51.454152316928813 ], [ -0.100980137178535, 51.454054516646849 ], [ -0.101092926240736, 51.453867458663616 ], [ -0.101137050766594, 51.453776472841383 ], [ -0.101009118883668, 51.453215923701045 ], [ -0.101013101133266, 51.453085629200324 ], [ -0.101034970152657, 51.453010465251808 ], [ -0.101080446205833, 51.452921209495557 ], [ -0.101309513153599, 51.452602979338991 ], [ -0.101361764573184, 51.452522014403513 ], [ -0.101443155156848, 51.452365104176394 ], [ -0.101453211686773, 51.452259990939332 ], [ -0.101448884497778, 51.452158330677101 ], [ -0.101431512390005, 51.452056459064217 ], [ -0.10139972014926, 51.451956061966584 ], [ -0.101354804901427, 51.451857340194323 ], [ -0.101314582610721, 51.451785665281179 ], [ -0.101297007633314, 51.451760207734104 ], [ -0.101106357476357, 51.451567333689013 ], [ -0.100932270766922, 51.45135854524618 ], [ -0.100852133164567, 51.451242170915179 ], [ -0.100805281541046, 51.451158701011458 ], [ -0.100776600991609, 51.451086313930972 ], [ -0.1007635099994, 51.451018584748233 ], [ -0.100766848272134, 51.45066073574656 ], [ -0.100740637445185, 51.450357248484714 ], [ -0.100735267659664, 51.450312210029537 ], [ -0.100296544591247, 51.450306896547232 ], [ -0.100179496823138, 51.450319383424727 ], [ -0.100121864173643, 51.450318449041035 ], [ -0.10004306585923, 51.450309979229473 ], [ -0.099967530569865, 51.450294370044034 ], [ -0.09989794181074, 51.450269866946478 ], [ -0.099833039164432, 51.450238247566055 ], [ -0.09978301429979, 51.450196980092095 ], [ -0.099697795576146, 51.450100211227124 ], [ -0.099619800474544, 51.450000952261611 ], [ -0.099539221938176, 51.449863892138694 ], [ -0.099401616061585, 51.449537021096965 ], [ -0.099391331935483, 51.449404607168731 ], [ -0.099377754665617, 51.449348647170915 ], [ -0.099319058476704, 51.449204749560302 ], [ -0.099278472230695, 51.449141968355192 ], [ -0.09922765363228, 51.449082707176494 ], [ -0.098866330321852, 51.448736922851822 ], [ -0.098425743990374, 51.448431206463987 ], [ -0.097932858901717, 51.448136326848072 ], [ -0.097404148316409, 51.4477671430379 ], [ -0.096082374689775, 51.446746583158337 ], [ -0.09587774654856, 51.446508521580725 ], [ -0.095672040452342, 51.446265047928549 ], [ -0.095225890734571, 51.445711995540982 ], [ -0.095114873884057, 51.445545578516843 ], [ -0.095070802941665, 51.445461252305755 ], [ -0.095014374271388, 51.445297520648253 ], [ -0.094999303669249, 51.445209170718435 ], [ -0.094987494301179, 51.445079518432102 ], [ -0.094991335727981, 51.444881704412929 ], [ -0.095017588060116, 51.444701336299133 ], [ -0.095011811027846, 51.444632017077964 ], [ -0.094990523642313, 51.444521989349916 ], [ -0.094927424376705, 51.444344663721459 ], [ -0.094481650393967, 51.443401255412994 ], [ -0.094079972122628, 51.442818354335436 ], [ -0.093978858830215, 51.442690755484968 ], [ -0.093773248259234, 51.442442784599173 ], [ -0.093608368207947, 51.442256699979097 ], [ -0.093331285106389, 51.44196441215432 ], [ -0.09318094538441, 51.441773978613227 ], [ -0.092976994273253, 51.441420846988763 ], [ -0.092848788206822, 51.441077938143231 ], [ -0.092742201225421, 51.440836971406618 ], [ -0.092514724357158, 51.440322529580186 ], [ -0.092232634382196, 51.43959844327042 ], [ -0.092014347784601, 51.439105726663612 ], [ -0.091963740326464, 51.438973554262155 ], [ -0.091872296471995, 51.43881923000054 ], [ -0.091812214015079, 51.438743632033884 ], [ -0.09170058302018, 51.438623951147008 ], [ -0.09146324287052, 51.438312527199535 ], [ -0.091168890289576, 51.437849136841116 ], [ -0.090955567424547, 51.437408552746604 ], [ -0.090639616391142, 51.436669615733344 ], [ -0.090552123754926, 51.436457726851302 ], [ -0.090439004782465, 51.436097979200447 ], [ -0.090199637445578, 51.435144431528933 ], [ -0.089997504145843, 51.434367790147562 ], [ -0.089567271337439, 51.432783426986035 ], [ -0.089282995258881, 51.431803972692855 ], [ -0.088865226011935, 51.43054175226748 ], [ -0.088471389039141, 51.429707049791695 ], [ -0.088293845498651, 51.429445141898306 ], [ -0.088200332499288, 51.429341126346593 ], [ -0.08808918306232, 51.429247611259754 ], [ -0.087848083803127, 51.429096145228705 ], [ -0.087654950821884, 51.429000392490856 ], [ -0.08723195415089, 51.428864835381745 ], [ -0.086587619812635, 51.428723953619681 ], [ -0.086095523265525, 51.428587353548437 ], [ -0.086019647465031, 51.42857802262693 ], [ -0.085971339414212, 51.428564646910424 ], [ -0.085891092072508, 51.428523688448372 ], [ -0.085864650665609, 51.428500780610165 ], [ -0.085842895166713, 51.428470757072752 ], [ -0.085830543101556, 51.428422906534045 ], [ -0.08586160063372, 51.428298448511867 ], [ -0.085919515932743, 51.428186925863834 ], [ -0.086040681263683, 51.428040565201606 ], [ -0.086072899263071, 51.427959279641499 ], [ -0.086074776169651, 51.427914358693243 ], [ -0.086066582083566, 51.427869183303123 ], [ -0.086048234450411, 51.427825729990658 ], [ -0.086014310570215, 51.427777527023196 ], [ -0.085965738889223, 51.427733579878876 ], [ -0.08587844687764, 51.427688101012173 ], [ -0.085768988547621, 51.427659341484961 ], [ -0.085412333780464, 51.427483505952438 ], [ -0.085235958923639, 51.427367345092748 ], [ -0.085224987756791, 51.427354579308584 ], [ -0.085146958996551, 51.427260613604219 ], [ -0.084929447515746, 51.426956780986153 ], [ -0.084626428483065, 51.426530899649123 ], [ -0.084346592666993, 51.426137851707516 ], [ -0.084053015926687, 51.42572749670758 ], [ -0.083836993545269, 51.425391232525115 ], [ -0.083657339821853, 51.425007826728454 ], [ -0.083605854878658, 51.424724600966471 ], [ -0.083592633260154, 51.424527498350727 ], [ -0.083559698737788, 51.424143885280074 ], [ -0.083511130372691, 51.423688903550342 ], [ -0.08348533922303, 51.423412391167368 ], [ -0.083469471840464, 51.423102777220251 ], [ -0.083450839556669, 51.422998185517812 ], [ -0.083413131929642, 51.423006558794718 ], [ -0.082817936492666, 51.423136167502022 ], [ -0.082005946106579, 51.423325245336393 ], [ -0.081753623858517, 51.42337505507539 ], [ -0.081700711761874, 51.423366996369097 ], [ -0.081668706701294, 51.42330713656056 ], [ -0.081132755652511, 51.422333433910225 ], [ -0.08102997103897, 51.4221428647378 ], [ -0.080871074121952, 51.421847988119488 ], [ -0.080826021191453, 51.421859027185391 ], [ -0.080394554193485, 51.42196163808574 ], [ -0.080317523647932, 51.421980154227434 ], [ -0.080051536424385, 51.422047716745844 ], [ -0.079830514230343, 51.422140289517266 ], [ -0.079803033764969, 51.422108373099597 ], [ -0.079603948555165, 51.421881251651826 ], [ -0.079490115525148, 51.421750734577763 ], [ -0.079439314480806, 51.421692363917245 ], [ -0.078905076864007, 51.421570325567032 ], [ -0.078922081660092, 51.421540936580755 ], [ -0.079124044015918, 51.421184458309902 ], [ -0.079235862711688, 51.420986708100727 ], [ -0.079243297956029, 51.420914008858929 ], [ -0.079229630829062, 51.42089490517057 ], [ -0.079197031785592, 51.42084932933237 ], [ -0.079171724315199, 51.420836327930758 ], [ -0.079135147568492, 51.420817747549052 ], [ -0.078280824115504, 51.420608644794243 ], [ -0.078299331851096, 51.420580179579389 ], [ -0.078310120827426, 51.420563275075622 ], [ -0.078378347054627, 51.420409671848034 ], [ -0.078419161892829, 51.420259304886628 ], [ -0.078469394150061, 51.420056858930018 ], [ -0.078504001863822, 51.420020566576213 ], [ -0.078534041942347, 51.419991391497824 ], [ -0.078563656549907, 51.419867721667764 ], [ -0.078522771451229, 51.419847272333982 ], [ -0.078648811639956, 51.419825066284979 ], [ -0.079077710452925, 51.41974939085933 ], [ -0.079299011586068, 51.419720655200493 ], [ -0.079688847529771, 51.419685692217662 ], [ -0.080066203671666, 51.419671200989143 ], [ -0.080266153613393, 51.419670882374206 ], [ -0.080569257364139, 51.419679446170612 ], [ -0.08171704362875, 51.419747697001014 ], [ -0.082320145680282, 51.419771058591678 ], [ -0.082851140245701, 51.419729405994303 ], [ -0.082861288372918, 51.419727774053733 ], [ -0.08330819339433, 51.419669369627655 ], [ -0.083869453485177, 51.419558982832648 ], [ -0.084985599354141, 51.419351492537103 ], [ -0.085513219156607, 51.419288195805358 ], [ -0.085837585865207, 51.419267425478978 ], [ -0.086053375282567, 51.419268254722319 ], [ -0.086159485550969, 51.419274483694359 ], [ -0.086399870759559, 51.419305381975676 ], [ -0.08659359554865, 51.419349002888069 ], [ -0.086800840472703, 51.419415319913888 ], [ -0.086944913442395, 51.419477997633422 ], [ -0.087738697977501, 51.419757070732011 ], [ -0.087985028952914, 51.419850185315248 ], [ -0.088164572189262, 51.41992683595204 ], [ -0.088426336674707, 51.420065062763655 ], [ -0.089021899005709, 51.420545149845623 ], [ -0.089341548569772, 51.420811171062155 ], [ -0.089558313161583, 51.420959449451992 ], [ -0.089694651456654, 51.421037191006526 ], [ -0.089788966675445, 51.421084669228307 ], [ -0.08988366650474, 51.421125770580367 ], [ -0.090018166591058, 51.421176511079587 ], [ -0.090171466330005, 51.421225759901645 ], [ -0.090816973975956, 51.421472815904515 ], [ -0.091075612113187, 51.421584014925557 ], [ -0.091369033825083, 51.421722840723184 ], [ -0.091743080462015, 51.421927618983588 ], [ -0.092114845546415, 51.422221451951991 ], [ -0.092282008992841, 51.422353723695238 ], [ -0.092708559384905, 51.422539575344821 ], [ -0.092982782378046, 51.422621356046243 ], [ -0.093180613939011, 51.422672224834749 ], [ -0.093408625746272, 51.422724573449337 ], [ -0.093618358858451, 51.42276304889878 ], [ -0.093893106155056, 51.422798086829737 ], [ -0.094075206070601, 51.422810939174305 ], [ -0.094320853970819, 51.422818531960779 ], [ -0.09456560283876, 51.422813523303432 ], [ -0.094813644251384, 51.422797779428691 ], [ -0.095623120512244, 51.422773183681336 ], [ -0.09616016581907, 51.422757640086509 ], [ -0.096880246050759, 51.422666763229884 ], [ -0.09720984509398, 51.422628964802485 ], [ -0.09748697525743, 51.422603798581193 ], [ -0.097784109837212, 51.422585249716747 ], [ -0.09808224952486, 51.422573908587985 ], [ -0.098362869101475, 51.42257037345987 ], [ -0.098786909860804, 51.422577256788067 ], [ -0.100118567603663, 51.422583579855861 ], [ -0.100747478000234, 51.42257759642203 ], [ -0.104202339692569, 51.422646154468147 ], [ -0.10459099260081, 51.422639858510394 ], [ -0.105089948298213, 51.422607476295752 ], [ -0.105771681487177, 51.422574452118639 ], [ -0.105961459057532, 51.422576622253999 ], [ -0.106029049006256, 51.422576816250491 ], [ -0.106159702511057, 51.422583424071981 ], [ -0.106489197955566, 51.422613924054239 ], [ -0.106994941942891, 51.422698516004949 ], [ -0.107861210998769, 51.422863549314179 ], [ -0.108662365655186, 51.423037503810711 ], [ -0.10918613238177, 51.423136761587116 ], [ -0.109347875648313, 51.423157353033538 ], [ -0.10957746208513, 51.423169150095653 ], [ -0.109824152639432, 51.423151555114728 ], [ -0.109914809628921, 51.423150321090816 ], [ -0.110041532373624, 51.423148769963731 ], [ -0.110465269996481, 51.423128636332862 ], [ -0.110878948258676, 51.423142501638118 ], [ -0.111498888591474, 51.423175873812745 ], [ -0.112027009736436, 51.42320416656495 ], [ -0.112659729639315, 51.423244031717616 ], [ -0.112686195130883, 51.423229174868759 ], [ -0.112727642207814, 51.423132748720661 ], [ -0.113000970090443, 51.42292039931813 ], [ -0.113269235561735, 51.422764695815125 ], [ -0.113796920726637, 51.422454852663279 ], [ -0.113934079084802, 51.422300542318361 ], [ -0.113960415578832, 51.422254217453059 ], [ -0.114056414673113, 51.422088545836338 ], [ -0.114104738245157, 51.422035292931717 ], [ -0.114195000781323, 51.421936955235012 ], [ -0.114430467815841, 51.421667354740023 ], [ -0.114436311865281, 51.421666549806545 ], [ -0.114466643300124, 51.421664341061387 ], [ -0.114486782707134, 51.421661968228655 ], [ -0.114510384864281, 51.421612902164455 ], [ -0.114554596896034, 51.421518317925873 ], [ -0.11484622610849, 51.421246923650436 ], [ -0.114828351393812, 51.421225958509133 ], [ -0.115301116322303, 51.420921517787555 ], [ -0.115356193389811, 51.420842391407959 ], [ -0.115422676794003, 51.4208002184089 ], [ -0.115568065715409, 51.420656017716588 ], [ -0.115689233175666, 51.420578853561153 ], [ -0.115882017116467, 51.420473083885319 ], [ -0.116140510364049, 51.420375652893895 ], [ -0.11653342624247, 51.420265099822693 ], [ -0.11689966992143, 51.420136945340992 ], [ -0.117081875094786, 51.420077842490407 ], [ -0.117720356561327, 51.419800329703094 ], [ -0.117756956238486, 51.419821595336813 ], [ -0.117821559600823, 51.419787571845205 ], [ -0.118082339940315, 51.419637131260679 ], [ -0.118208639157842, 51.419573442362221 ], [ -0.118344065185884, 51.419498302095697 ], [ -0.118426449388026, 51.419452876262795 ], [ -0.118841023254124, 51.419267952788239 ], [ -0.119069669844931, 51.419166438673678 ], [ -0.119481210131376, 51.418985959298858 ], [ -0.119820700233472, 51.418807109164135 ], [ -0.119996005763449, 51.418566198375892 ], [ -0.120026842081772, 51.418305887822918 ], [ -0.120107071829235, 51.418174120402185 ], [ -0.120202638574342, 51.418018235591525 ], [ -0.120308590336712, 51.417782594529321 ], [ -0.120447320005974, 51.417557278520761 ], [ -0.120658139392767, 51.417254005071825 ], [ -0.120760364000013, 51.41714677368212 ], [ -0.120823341437382, 51.417085751628989 ], [ -0.120820452591009, 51.417083907258736 ], [ -0.120826480169041, 51.417078609833631 ], [ -0.120769744011162, 51.41705971945882 ], [ -0.120745693250607, 51.417047646460162 ], [ -0.120830642917777, 51.416977087639196 ], [ -0.120895919042329, 51.416998812004472 ], [ -0.12094228029426, 51.416955503716174 ], [ -0.121024598490308, 51.416876811371587 ], [ -0.12110911557675, 51.416779184947515 ], [ -0.12118600939293, 51.41665635360544 ], [ -0.121308170068191, 51.416519773860806 ], [ -0.121458870032408, 51.416352275813345 ], [ -0.12154819984729, 51.416241330780032 ], [ -0.121577822954973, 51.416186875703517 ], [ -0.121677731241853, 51.415994289481759 ], [ -0.121910180349282, 51.415796545658907 ], [ -0.122179783664804, 51.415568830109109 ], [ -0.122248481701746, 51.415506999767253 ], [ -0.12245546169173, 51.415299856288811 ], [ -0.122478279390815, 51.415269655270855 ], [ -0.122505657355433, 51.415232335166365 ], [ -0.122468418035429, 51.415194878681774 ], [ -0.122455045686733, 51.415029244917434 ], [ -0.122556923353307, 51.415034473403587 ], [ -0.122967433464889, 51.415054535501319 ], [ -0.122989993149453, 51.415030623366015 ], [ -0.123096804659008, 51.41491537190501 ], [ -0.123379664354184, 51.414714026912982 ], [ -0.123649788192458, 51.414649937349083 ], [ -0.123889237831568, 51.414631295940623 ], [ -0.124048421344193, 51.414609570983984 ], [ -0.124166306408592, 51.414397491363147 ], [ -0.12428468021249, 51.414176339286612 ], [ -0.124367897627035, 51.414005868492801 ], [ -0.124432778786021, 51.41400241188709 ], [ -0.124469861167741, 51.413832191469375 ], [ -0.124502064449568, 51.413679783448863 ], [ -0.124521904551078, 51.413580309672348 ], [ -0.124482964351002, 51.413477198062367 ], [ -0.124441551829241, 51.413364966764725 ], [ -0.124471987776627, 51.413360059769701 ], [ -0.124910568741441, 51.413290661617076 ], [ -0.124912027393435, 51.413289785935959 ], [ -0.125563136385228, 51.41291173530557 ], [ -0.125650968792609, 51.412767408724626 ], [ -0.125760031485693, 51.412631602696202 ], [ -0.12599271945135, 51.412780965512951 ], [ -0.126204456030134, 51.412912102376247 ], [ -0.126233936576551, 51.412930554207279 ], [ -0.126245613808608, 51.412926245808485 ], [ -0.126589081063734, 51.412790500696353 ], [ -0.126835841426608, 51.412700047842591 ], [ -0.127313265093897, 51.412524187457223 ], [ -0.127402223751399, 51.412491446092361 ], [ -0.127725812215058, 51.412316811596078 ], [ -0.127732050165395, 51.41230342589995 ], [ -0.127754248381543, 51.412253435214019 ], [ -0.127862206791071, 51.412005141384 ], [ -0.127898035385013, 51.412007511781702 ], [ -0.132073919615083, 51.412292608950118 ], [ -0.132075341488014, 51.41229263161361 ], [ -0.132688549854402, 51.412348344362812 ], [ -0.133177912030279, 51.412478408662494 ], [ -0.133234912695126, 51.412493701116453 ], [ -0.133546475873707, 51.41257598018246 ], [ -0.133541799052667, 51.412583097922436 ], [ -0.13345486962292, 51.412705869182972 ], [ -0.133348087553904, 51.412856104101756 ], [ -0.133328231701022, 51.412883657693442 ], [ -0.133552054655642, 51.412933972237205 ], [ -0.133713356459591, 51.412679419051322 ], [ -0.133727076725442, 51.412659858925409 ], [ -0.133742844407297, 51.412624958014533 ], [ -0.133777334636397, 51.412555383044577 ], [ -0.133806137967678, 51.412412896178004 ], [ -0.133832407799602, 51.412157900460166 ], [ -0.133839672881978, 51.412084295795083 ], [ -0.133896330952819, 51.411822591693465 ], [ -0.134070214136865, 51.411014166478331 ], [ -0.134074008702268, 51.410990852135981 ], [ -0.134398258983021, 51.411078724757061 ], [ -0.134766774192187, 51.411177280253312 ], [ -0.13499098529985, 51.411215009300165 ], [ -0.135189153046535, 51.411222652373418 ], [ -0.13545368471696, 51.411222358827402 ], [ -0.13588179698913, 51.411304675875691 ], [ -0.136626324149599, 51.411455036023739 ], [ -0.137516882638582, 51.411656166117687 ], [ -0.138076174587657, 51.411801780361081 ], [ -0.138247153877203, 51.41187461637675 ], [ -0.138498488686496, 51.411954120517173 ], [ -0.138647540005375, 51.412000536367614 ], [ -0.139350022471769, 51.412196962611866 ], [ -0.139382716947224, 51.41220647110466 ], [ -0.139524214161441, 51.412225795203867 ], [ -0.139990370023304, 51.412364440437209 ], [ -0.141183793155173, 51.41275832910403 ], [ -0.142020582101573, 51.413116983979961 ], [ -0.14255640664585, 51.413342130050474 ], [ -0.142649717062063, 51.413348101573234 ], [ -0.143004086480148, 51.413155920525462 ], [ -0.144209776241885, 51.4125715553741 ], [ -0.144377038699323, 51.412490499318508 ], [ -0.144459644730675, 51.412473824331499 ], [ -0.14454951513442, 51.412456365065097 ], [ -0.144597272524098, 51.41241306721686 ], [ -0.144780742535328, 51.412394389933034 ], [ -0.144806683026742, 51.412392102767029 ], [ -0.144844190031417, 51.41238820030788 ], [ -0.145144299061113, 51.412543170931968 ], [ -0.145480618644554, 51.412547585257251 ], [ -0.14579821641021, 51.412551702919671 ], [ -0.146778682243668, 51.412559992417009 ], [ -0.147504880712773, 51.412736876358693 ], [ -0.148064730128456, 51.412869776227438 ], [ -0.147866152340797, 51.413051035500018 ], [ -0.147586327349273, 51.413320915857646 ], [ -0.147542910223587, 51.413362485378151 ], [ -0.147303863563287, 51.413582662509626 ], [ -0.147057635816771, 51.413804433914812 ], [ -0.146839336441975, 51.413939529208832 ], [ -0.146658470038681, 51.414037365715146 ], [ -0.146382043128857, 51.414187724996275 ], [ -0.146115326921116, 51.414347137375806 ], [ -0.14611390494883, 51.414347114919266 ], [ -0.145650883654812, 51.414631178555091 ], [ -0.145159315956495, 51.414908495936032 ], [ -0.144321707305857, 51.41534765139307 ], [ -0.144325946288842, 51.415351314536224 ], [ -0.144641807115072, 51.415577469474769 ], [ -0.144983682513482, 51.41579962946355 ], [ -0.14489060159621, 51.415861090808988 ], [ -0.143707835524661, 51.41665628708656 ], [ -0.143023030119948, 51.417124729612674 ], [ -0.143234548180094, 51.417263020043769 ], [ -0.141572738624907, 51.418415614108632 ], [ -0.140379635647101, 51.419249262040523 ], [ -0.139484115752265, 51.419876253170827 ], [ -0.139020880793461, 51.420195343966164 ] ] ] } }
]
}
