{
"type": "FeatureCollection",
"name": "borough_Merton",
"crs": { "type": "name", "properties": { "name": "urn:ogc:def:crs:OGC:1.3:CRS84" } },
"features": [
{ "type": "Feature", "properties": { "DISTRICT": "Merton", "NAME": "Cannon Hill", "GSS_CODE": "E05000456", "LAGSSCODE": "E09000024", "HECTARES": 222.344, "NONLD_AREA": 0.0 }, "geometry": { "type": "Polygon", "coordinates": [ [ [ -0.190302434080596, 51.386347145028132 ], [ -0.190326298797282, 51.386360998765831 ], [ -0.190510265187935, 51.386470822135884 ], [ -0.19076358782622, 51.386642938774813 ], [ -0.190918171678956, 51.386731630577813 ], [ -0.191079874092041, 51.386823129108123 ], [ -0.191637848495124, 51.38707096854872 ], [ -0.191835928176375, 51.38693108269225 ], [ -0.193047989175139, 51.387794131420705 ], [ -0.193176010688989, 51.387865419347911 ], [ -0.193209584164271, 51.38785245189279 ], [ -0.193578982289886, 51.387668366225711 ], [ -0.193926056268117, 51.387870689770466 ], [ -0.195221633796741, 51.387124425281023 ], [ -0.195324089996533, 51.387077456733323 ], [ -0.195420331249447, 51.387043877546255 ], [ -0.19628952913793, 51.386833317100461 ], [ -0.196413172212027, 51.386792966804471 ], [ -0.196500837299651, 51.386757456687121 ], [ -0.197836913685108, 51.386112565186885 ], [ -0.199503509861221, 51.385360270928537 ], [ -0.200292315707148, 51.384962349547877 ], [ -0.200480704403895, 51.384884331780313 ], [ -0.202171736657258, 51.386182751647283 ], [ -0.203493463308118, 51.387224571615498 ], [ -0.205002375324013, 51.386091207180996 ], [ -0.205003796470904, 51.386091228951791 ], [ -0.205993811964377, 51.386538096882617 ], [ -0.206623846443718, 51.386781574721653 ], [ -0.207290104183383, 51.38709293947678 ], [ -0.207566190248435, 51.387272560606469 ], [ -0.207710286847144, 51.387372757224171 ], [ -0.207842559229813, 51.387444993319818 ], [ -0.208693356517007, 51.387816799323197 ], [ -0.208807114857209, 51.387847306807899 ], [ -0.20886427465563, 51.387855372696038 ], [ -0.209031525626553, 51.38787860654935 ], [ -0.209304132322562, 51.387965482224992 ], [ -0.209372009123854, 51.38799348993539 ], [ -0.209470561348058, 51.388046239720559 ], [ -0.209768621697182, 51.388252262897069 ], [ -0.209881550008448, 51.388121833347768 ], [ -0.209995080452024, 51.388048859811462 ], [ -0.210115362609093, 51.387985069331286 ], [ -0.210042096655317, 51.387912928084369 ], [ -0.210050974381043, 51.387904073573736 ], [ -0.210114039244765, 51.387836711966955 ], [ -0.210129000565567, 51.387820758277364 ], [ -0.210140979282953, 51.387808355077027 ], [ -0.210151501743686, 51.387796828643474 ], [ -0.210265431979643, 51.387677112260249 ], [ -0.210328257124244, 51.387649303445926 ], [ -0.210394113104825, 51.387619742862135 ], [ -0.210513392816353, 51.387545148489259 ], [ -0.210854013882886, 51.387215827265408 ], [ -0.211022869680651, 51.387012441531326 ], [ -0.211270802330384, 51.38677160515946 ], [ -0.211525851533979, 51.386533573900351 ], [ -0.211754992468554, 51.386333894141536 ], [ -0.211925331252206, 51.3861682882293 ], [ -0.212061993452699, 51.386018440339249 ], [ -0.212229369191326, 51.385852788748423 ], [ -0.212402823171939, 51.385680127427655 ], [ -0.212611511699467, 51.385488135111629 ], [ -0.212741036931902, 51.385372340037719 ], [ -0.212906448451268, 51.385257002240621 ], [ -0.213017191023064, 51.385182275015616 ], [ -0.213109252132945, 51.385216043465206 ], [ -0.213347444246064, 51.385005710320279 ], [ -0.213131775961421, 51.384896248126303 ], [ -0.212961298291242, 51.384810040000055 ], [ -0.213374192524939, 51.384464732000019 ], [ -0.213468688459735, 51.384512022496786 ], [ -0.213475772502733, 51.384515726560394 ], [ -0.21393271071277, 51.384146814662358 ], [ -0.213883652676436, 51.384116399413841 ], [ -0.213777126600737, 51.384046360612658 ], [ -0.21457257726237, 51.383327405515729 ], [ -0.214719959718456, 51.383193899963189 ], [ -0.215435835206973, 51.382597790181237 ], [ -0.215891095269944, 51.382200885336459 ], [ -0.216270700492625, 51.381823594235513 ], [ -0.216534263251422, 51.381587568975398 ], [ -0.216721839468481, 51.381419520973665 ], [ -0.217106840260091, 51.381089057834757 ], [ -0.21744053667497, 51.380822542008694 ], [ -0.217629305860177, 51.380626641127357 ], [ -0.217864149321499, 51.380388377794972 ], [ -0.21798462043066, 51.380282238129652 ], [ -0.218111935768868, 51.38014932184511 ], [ -0.218338808980769, 51.380189630984333 ], [ -0.218469905301391, 51.380255454090815 ], [ -0.218742919607767, 51.380404435575173 ], [ -0.219126593290473, 51.380626929525747 ], [ -0.219344978740783, 51.38066620869062 ], [ -0.219678921062832, 51.380689352636452 ], [ -0.219850379903914, 51.380713533700245 ], [ -0.219980205318198, 51.380738880167932 ], [ -0.220177904146975, 51.380792227848815 ], [ -0.220303550737346, 51.380848976070752 ], [ -0.220552232330433, 51.380922875753825 ], [ -0.220975793178382, 51.381079532295921 ], [ -0.221978985933051, 51.381520981598023 ], [ -0.22456583392492, 51.382635698300817 ], [ -0.227718246109151, 51.383953283868308 ], [ -0.228864772393304, 51.384632474665622 ], [ -0.230438311935867, 51.385605878625171 ], [ -0.231073132650005, 51.385989544238043 ], [ -0.232061788466937, 51.38658900517877 ], [ -0.233665216679565, 51.387574504177877 ], [ -0.233904415704333, 51.387708466979952 ], [ -0.233647127708389, 51.387819752578004 ], [ -0.233926771775285, 51.388211533300968 ], [ -0.234015159634464, 51.388378284292664 ], [ -0.234103575373276, 51.388507366897308 ], [ -0.234189974202324, 51.388728927706488 ], [ -0.23427009098711, 51.389036789140363 ], [ -0.234365695380092, 51.389317913434056 ], [ -0.234415920457655, 51.389805217236272 ], [ -0.234439532445222, 51.389899969611278 ], [ -0.234465972117605, 51.390072169784723 ], [ -0.234633529929993, 51.390537777060651 ], [ -0.235337606077369, 51.390392852745016 ], [ -0.236393850813923, 51.390174920338467 ], [ -0.236633821075316, 51.390101216383009 ], [ -0.236732570730824, 51.390075731883066 ], [ -0.237569575560482, 51.389912925667709 ], [ -0.238219946812417, 51.389746408640136 ], [ -0.238515347933641, 51.389688817442618 ], [ -0.238611238103078, 51.389660591325217 ], [ -0.238734100939914, 51.389605800078897 ], [ -0.238904718712672, 51.389541837239769 ], [ -0.239214505231621, 51.389408853283911 ], [ -0.239594869605645, 51.389311181285173 ], [ -0.239667298639383, 51.389295188059563 ], [ -0.239683238435602, 51.389293629478466 ], [ -0.239719943432543, 51.389384082385774 ], [ -0.239761857858978, 51.389453037166888 ], [ -0.239862381591846, 51.389569710984745 ], [ -0.239868779207989, 51.389739720961664 ], [ -0.239930969794055, 51.390067986516193 ], [ -0.240003696114191, 51.390381127004638 ], [ -0.240011494873277, 51.390477528658181 ], [ -0.24003993207552, 51.390635283407448 ], [ -0.240092332520221, 51.39080787218564 ], [ -0.24011374311435, 51.390923267671077 ], [ -0.240081338166922, 51.39109458277423 ], [ -0.240084620363265, 51.391194422738238 ], [ -0.24021255515988, 51.39141849068978 ], [ -0.240378876897484, 51.391729440363086 ], [ -0.240448224332253, 51.391797008781957 ], [ -0.240537237603204, 51.391985340442062 ], [ -0.240596238685962, 51.392060035443137 ], [ -0.240669635212167, 51.392096199000285 ], [ -0.240766270964861, 51.392122822236793 ], [ -0.240824327581287, 51.392147967220964 ], [ -0.240944321078869, 51.392165051799047 ], [ -0.240938153480576, 51.392177545423799 ], [ -0.240861695257596, 51.39233561263692 ], [ -0.240800443701138, 51.392430887341703 ], [ -0.240819830849959, 51.392487816114141 ], [ -0.240836547542323, 51.392540209736282 ], [ -0.240911605384212, 51.392718531661167 ], [ -0.241145079203957, 51.393154550668164 ], [ -0.241278025941339, 51.393285194622152 ], [ -0.241321013280006, 51.393326295308441 ], [ -0.241321608104983, 51.393347880510035 ], [ -0.241321720760702, 51.393382044635018 ], [ -0.241668171317803, 51.393870102777782 ], [ -0.241722267153644, 51.393921349032269 ], [ -0.24179951835316, 51.393968357735076 ], [ -0.242025233046739, 51.394081423590677 ], [ -0.242261931563834, 51.394167683435199 ], [ -0.242486473435656, 51.394234072125386 ], [ -0.242768026309008, 51.394278750152658 ], [ -0.243164979767391, 51.394308975515038 ], [ -0.243520356850759, 51.394338576329098 ], [ -0.243524586754245, 51.394339538745214 ], [ -0.243729838550067, 51.394386666771211 ], [ -0.243901595292107, 51.394444979626762 ], [ -0.244053406459981, 51.394494902243743 ], [ -0.244077704671028, 51.394497963386812 ], [ -0.244209485916847, 51.394510726177998 ], [ -0.244571710947543, 51.394661882903655 ], [ -0.244684416125017, 51.394798423003465 ], [ -0.244769561438474, 51.394976893629433 ], [ -0.244968684256362, 51.395181254745175 ], [ -0.245092110178232, 51.395300963706404 ], [ -0.24546484196404, 51.395589823854621 ], [ -0.245512643228519, 51.395657066446738 ], [ -0.245561610219793, 51.395727922519988 ], [ -0.245668916061387, 51.395816733228457 ], [ -0.245751919796827, 51.395902572887223 ], [ -0.245866512673375, 51.396064312455465 ], [ -0.245979471528249, 51.396154106520555 ], [ -0.2461514115843, 51.396319491160391 ], [ -0.246274698643493, 51.396517410832807 ], [ -0.24637659444868, 51.396633110284917 ], [ -0.246470339464457, 51.396738798547169 ], [ -0.246746275689137, 51.396965073332019 ], [ -0.246916697083999, 51.397133131179594 ], [ -0.247401454941433, 51.397577392236791 ], [ -0.247399690154774, 51.397586355957543 ], [ -0.247392272264166, 51.397628498556024 ], [ -0.24718949012308, 51.39785750025635 ], [ -0.247046773101667, 51.398018985397783 ], [ -0.246935720648822, 51.398139679464165 ], [ -0.246869757518804, 51.398287029468001 ], [ -0.246746122545117, 51.398513618437519 ], [ -0.246740648963741, 51.398619619887256 ], [ -0.246736430462454, 51.398689679657735 ], [ -0.246730919053324, 51.398796669450348 ], [ -0.246707697805388, 51.398954547995963 ], [ -0.246697744910852, 51.398988561501724 ], [ -0.246662058989514, 51.399094200763109 ], [ -0.246598682741433, 51.39921102290073 ], [ -0.246585934389637, 51.399280955015975 ], [ -0.246568347446378, 51.399403047279073 ], [ -0.246596058355889, 51.399692134472879 ], [ -0.246636835382609, 51.399980518158358 ], [ -0.246687135561233, 51.40013140570516 ], [ -0.24680070158852, 51.400394807150015 ], [ -0.246823128179903, 51.400484144813127 ], [ -0.246811052887274, 51.400499247328078 ], [ -0.246769532092392, 51.400571446414098 ], [ -0.246695674231109, 51.400658535009249 ], [ -0.246664827490148, 51.400677851841294 ], [ -0.246649805876375, 51.400695607435352 ], [ -0.246454234172901, 51.400806856119019 ], [ -0.246438134225966, 51.400815605358218 ], [ -0.246100565243148, 51.401072257185334 ], [ -0.246061891855823, 51.401104042953094 ], [ -0.245674627880244, 51.401420183800703 ], [ -0.245472363961556, 51.401557491978686 ], [ -0.245352794107263, 51.40164020915681 ], [ -0.245270851916686, 51.401715398563141 ], [ -0.245215330036608, 51.401701081774384 ], [ -0.245210912192365, 51.401701914628291 ], [ -0.245047449566369, 51.40221927868609 ], [ -0.245032251940843, 51.402275689192237 ], [ -0.245021219204678, 51.402300696446055 ], [ -0.244868954906037, 51.4027111548329 ], [ -0.24483188692929, 51.402852734292416 ], [ -0.244821775300712, 51.402893937642666 ], [ -0.244716283824565, 51.403169344707244 ], [ -0.244659709915096, 51.403408624804086 ], [ -0.2446768752012, 51.403712839891149 ], [ -0.244680110709233, 51.403851337102274 ], [ -0.244661470002162, 51.404226937141537 ], [ -0.244694983010877, 51.404364179828022 ], [ -0.244788293292412, 51.404481551046004 ], [ -0.244825288006839, 51.404605270691661 ], [ -0.244863276496072, 51.404703023602252 ], [ -0.244861444351496, 51.404825262561907 ], [ -0.244923373380163, 51.405084298262437 ], [ -0.244989893188236, 51.405338008593922 ], [ -0.245027267262777, 51.405451844667624 ], [ -0.245161220266274, 51.405709262058942 ], [ -0.245168896917032, 51.405920736090742 ], [ -0.245172721262058, 51.406009796118106 ], [ -0.245198381766347, 51.4061261537421 ], [ -0.245206515475856, 51.406139760834755 ], [ -0.245334996904069, 51.406351246194482 ], [ -0.245454214177371, 51.406544612330897 ], [ -0.245509664353739, 51.406635344515841 ], [ -0.245480788281192, 51.406751784361035 ], [ -0.245376653525271, 51.40695439167488 ], [ -0.245315119123547, 51.407022694406194 ], [ -0.245330443481936, 51.407071470872999 ], [ -0.245363754376044, 51.407102536376598 ], [ -0.2454498969299, 51.407181231928334 ], [ -0.245464193097051, 51.407222800840543 ], [ -0.245481745426025, 51.407253630305775 ], [ -0.245680672194353, 51.407427422651537 ], [ -0.245735273397338, 51.407465999008302 ], [ -0.245778253379525, 51.407544947021321 ], [ -0.245787603177196, 51.407563966392381 ], [ -0.245824755020445, 51.407569017775963 ], [ -0.246019366599707, 51.407595306072345 ], [ -0.246169136652731, 51.407625417846376 ], [ -0.246273958546378, 51.407668341850261 ], [ -0.246575500127115, 51.407753767025859 ], [ -0.246710473839872, 51.407758484162201 ], [ -0.24681872415328, 51.407786175695982 ], [ -0.24693328021396, 51.40779777916876 ], [ -0.247009238401856, 51.40784215854741 ], [ -0.247080831560741, 51.40788907971794 ], [ -0.247180103394024, 51.407962486498668 ], [ -0.247234397516138, 51.408009148750843 ], [ -0.247260084644589, 51.408087747631455 ], [ -0.247269136823569, 51.408151803242021 ], [ -0.247272353512793, 51.408182417978821 ], [ -0.247315649321449, 51.408253189133291 ], [ -0.24734012085154, 51.408326375703417 ], [ -0.247371325499286, 51.408375389514603 ], [ -0.247437708319433, 51.408443898866295 ], [ -0.24748455053995, 51.408499439711775 ], [ -0.247486879328856, 51.408512959819284 ], [ -0.247515455023838, 51.408668018389406 ], [ -0.247532754012486, 51.408854463737043 ], [ -0.247533978042896, 51.409048664203056 ], [ -0.247485765108399, 51.40910646732948 ], [ -0.247405849352569, 51.409165504254631 ], [ -0.247234110846603, 51.409294187698507 ], [ -0.247223488829766, 51.40930841264214 ], [ -0.247217629267172, 51.409312819932055 ], [ -0.24720527585945, 51.409335109893092 ], [ -0.247188297513232, 51.409363623596242 ], [ -0.247170287380658, 51.409385019827056 ], [ -0.24715668395234, 51.40940279612316 ], [ -0.247127891938082, 51.409513840275309 ], [ -0.247113784651223, 51.4095819525485 ], [ -0.247147798345075, 51.409709309156369 ], [ -0.247401875520357, 51.410434281219018 ], [ -0.247451929001127, 51.410554595829879 ], [ -0.248212384513644, 51.412138753983207 ], [ -0.248886347385824, 51.413542714542231 ], [ -0.249036822098276, 51.413858801116909 ], [ -0.249362153690446, 51.414526398543053 ], [ -0.249510723005521, 51.4147777286341 ], [ -0.249576528998022, 51.414901873491743 ], [ -0.249579813086871, 51.414964851878963 ], [ -0.249523340390984, 51.415049412226594 ], [ -0.249519936534737, 51.415138451309062 ], [ -0.249577844841063, 51.415428881253511 ], [ -0.249690760461977, 51.415936789560313 ], [ -0.249731704068672, 51.416106501261595 ], [ -0.249797210596028, 51.416502226379336 ], [ -0.24980995031098, 51.41658152781126 ], [ -0.249812004672544, 51.416602235270432 ], [ -0.249835208868982, 51.417012701136429 ], [ -0.249828037216289, 51.417125866744946 ], [ -0.24975043163727, 51.417425059297891 ], [ -0.249660805009491, 51.417660243952035 ], [ -0.249594332433745, 51.417820169627674 ], [ -0.249573929030838, 51.417941317991968 ], [ -0.249551404253329, 51.418077627544612 ], [ -0.249570710109567, 51.418248813442055 ], [ -0.249590467835076, 51.418374067833405 ], [ -0.249619078312905, 51.418528311956386 ], [ -0.249757580211713, 51.418854106199767 ], [ -0.249821851386361, 51.418978227464883 ], [ -0.249863460002057, 51.419056161848836 ], [ -0.250123878181729, 51.419431422806454 ], [ -0.250253711665945, 51.419608754020835 ], [ -0.25036350426823, 51.41978299895834 ], [ -0.250452042610196, 51.4200262382925 ], [ -0.250510089837526, 51.420201598291854 ], [ -0.250556472701777, 51.42038118913316 ], [ -0.250542406510018, 51.42055996734355 ], [ -0.250528507488854, 51.420774707505799 ], [ -0.250559641450196, 51.420974747336906 ], [ -0.250651498959295, 51.42109397583922 ], [ -0.250720400266021, 51.4212460341586 ], [ -0.250802547607188, 51.421544914823258 ], [ -0.25090186244333, 51.421881809068758 ], [ -0.251099590602402, 51.422315464537597 ], [ -0.251150642752894, 51.42237295248146 ], [ -0.251209923423125, 51.422438564175437 ], [ -0.251223612921742, 51.422455849206045 ], [ -0.251419447879183, 51.422600811365484 ], [ -0.251684755813271, 51.422811626761664 ], [ -0.25178068786519, 51.422861603365263 ], [ -0.251998719170618, 51.422950259891273 ], [ -0.252399040614232, 51.423013856336247 ], [ -0.25275985340161, 51.423096550047603 ], [ -0.25293109131958, 51.42320877963661 ], [ -0.252934855153819, 51.423333884646546 ], [ -0.252927175046767, 51.423460527093503 ], [ -0.252899458870274, 51.423695737934459 ], [ -0.252885806016861, 51.42405342047843 ], [ -0.252847934506381, 51.424178713746961 ], [ -0.25277853003123, 51.4243036267018 ], [ -0.252681626690144, 51.424468493993608 ], [ -0.252575910854445, 51.424674673012106 ], [ -0.252470640010132, 51.424869171762488 ], [ -0.252406686305238, 51.425000368791665 ], [ -0.252309684003919, 51.425354111129643 ], [ -0.252256243027677, 51.425623100939802 ], [ -0.25223754470249, 51.425736994693473 ], [ -0.252275886589555, 51.42586351610543 ], [ -0.252311490133141, 51.425987209760024 ], [ -0.252337054906967, 51.42606939979931 ], [ -0.252405844631513, 51.426302456910264 ], [ -0.252504571121654, 51.42650629349248 ], [ -0.252777671837435, 51.426774760846477 ], [ -0.252963695341665, 51.426987899569973 ], [ -0.253060850814099, 51.42711799437248 ], [ -0.253184720265829, 51.427377942753097 ], [ -0.253267844002984, 51.427614718806062 ], [ -0.253358010448321, 51.427813032791597 ], [ -0.253504280265036, 51.428051738617782 ], [ -0.253673260463092, 51.428261025848023 ], [ -0.253851561468296, 51.428564936082367 ], [ -0.253968018805201, 51.428792408963325 ], [ -0.253970658222989, 51.428797842259314 ], [ -0.254079867013482, 51.429028802964154 ], [ -0.254102368056822, 51.429079481904765 ], [ -0.254181488750189, 51.429231691744178 ], [ -0.254224259539066, 51.429316924308189 ], [ -0.254213978899752, 51.429396781744011 ], [ -0.254204056614659, 51.429470351550933 ], [ -0.254197049843599, 51.42957632861355 ], [ -0.254129956925815, 51.429752521156288 ], [ -0.254061787981612, 51.429879163008742 ], [ -0.253909798560072, 51.430091848570548 ], [ -0.253714929854062, 51.430337157957283 ], [ -0.253596443794412, 51.430501706727441 ], [ -0.253422240523799, 51.430693383920961 ], [ -0.253304297641402, 51.430843646528196 ], [ -0.25318502251461, 51.430913788663268 ], [ -0.253079473055248, 51.430966155342148 ], [ -0.252895794312586, 51.431029943341649 ], [ -0.252632391793626, 51.431109623523426 ], [ -0.2525182524351, 51.431160153589587 ], [ -0.252370817390157, 51.431253249051302 ], [ -0.252212497970519, 51.431404616826114 ], [ -0.252083102793531, 51.431516050802351 ], [ -0.251817647324332, 51.431761204011899 ], [ -0.251698673581052, 51.431863713194076 ], [ -0.251562989999727, 51.431987548967747 ], [ -0.251223561566814, 51.432287336867709 ], [ -0.251060392792426, 51.432565480241131 ], [ -0.25089093313745, 51.432595316418102 ], [ -0.250769046603369, 51.43262496307581 ], [ -0.250625121727152, 51.432663270797704 ], [ -0.250252999103549, 51.432762991074121 ], [ -0.24966622337503, 51.432907962291239 ], [ -0.248750503171182, 51.433152392328807 ], [ -0.248212236340154, 51.433269403111069 ], [ -0.247433081949241, 51.43348161176219 ], [ -0.246383577983516, 51.433724923971553 ], [ -0.24594453255153, 51.433843318834086 ], [ -0.244992963843616, 51.434084491422169 ], [ -0.244076377750282, 51.434350453672714 ], [ -0.243705967510669, 51.434442000208193 ], [ -0.243212081480189, 51.434564150258666 ], [ -0.242743254282025, 51.434673098621374 ], [ -0.242237173885356, 51.434813042157032 ], [ -0.241693886581164, 51.434948739664506 ], [ -0.241171825022921, 51.43509383308777 ], [ -0.240687868199057, 51.435219627637778 ], [ -0.240484073929656, 51.435281299082689 ], [ -0.239790630360816, 51.435505625165689 ], [ -0.239177639748897, 51.435695194626632 ], [ -0.238454997328799, 51.435928873676616 ], [ -0.237589416369096, 51.436177571320528 ], [ -0.236875409821753, 51.436411460377251 ], [ -0.236053090983183, 51.436654504077424 ], [ -0.235135187858611, 51.436914982854219 ], [ -0.233144193933517, 51.437543262019318 ], [ -0.23218674579495, 51.437856164726647 ], [ -0.231632275484912, 51.438018618206598 ], [ -0.231299621790572, 51.438138654803197 ], [ -0.231050458762938, 51.4381825445423 ], [ -0.230883465821978, 51.438184520560661 ], [ -0.230439608660791, 51.438201198317849 ], [ -0.230075055544048, 51.438253233962705 ], [ -0.229267263485929, 51.4383427184423 ], [ -0.228785672913346, 51.438405569096105 ], [ -0.227614572839467, 51.438514637064429 ], [ -0.226958278920523, 51.43859461814403 ], [ -0.225869373460179, 51.438697809191623 ], [ -0.225482088444536, 51.438742294599891 ], [ -0.225106816104622, 51.438733918484573 ], [ -0.224774258489631, 51.438664155526403 ], [ -0.224483958989703, 51.438581546141123 ], [ -0.224252967032834, 51.438860340369295 ], [ -0.223215784077894, 51.438743041631831 ], [ -0.22110704061206, 51.438505107997884 ], [ -0.220414272218296, 51.438448747377976 ], [ -0.219680479395145, 51.438523106553234 ], [ -0.219574837993681, 51.438536786071829 ], [ -0.219134269260489, 51.438618200388134 ], [ -0.218791978411663, 51.438652558774564 ], [ -0.218573929994402, 51.438670823158965 ], [ -0.218508997941295, 51.43867792795978 ], [ -0.218442594414824, 51.438683212331746 ], [ -0.218377648590011, 51.438687619792582 ], [ -0.218309927095772, 51.438690187008376 ], [ -0.218243628368081, 51.438692775801762 ], [ -0.218177399421894, 51.438693567567199 ], [ -0.218111205408953, 51.438693460805027 ], [ -0.218045081296106, 51.438691557028626 ], [ -0.218020656984247, 51.438691185891379 ], [ -0.217954567830957, 51.438688383575595 ], [ -0.217888548591719, 51.438683784245988 ], [ -0.217822529366716, 51.438679184879362 ], [ -0.217756698630678, 51.438672790301098 ], [ -0.217690819262225, 51.43866459690765 ], [ -0.217626362692378, 51.438656425102018 ], [ -0.217561976064264, 51.438646456284935 ], [ -0.217497589465138, 51.438636487432824 ], [ -0.217433272817796, 51.438624721569497 ], [ -0.217370532503935, 51.438612080613197 ], [ -0.21730774358896, 51.438597640845316 ], [ -0.217110315949187, 51.438567668877155 ], [ -0.216861310631464, 51.438497355466382 ], [ -0.21650752966324, 51.438345345450905 ], [ -0.216214142848392, 51.438156584103787 ], [ -0.216152338046168, 51.438116896230682 ], [ -0.216145399196525, 51.438112295582037 ], [ -0.216099114970425, 51.4380792268108 ], [ -0.216052949374149, 51.43804615982561 ], [ -0.216009664338814, 51.438012237623418 ], [ -0.215966414357154, 51.437977416918486 ], [ -0.215926163494975, 51.437941742804533 ], [ -0.21589697977286, 51.437914328225993 ], [ -0.215710758256707, 51.437745985436251 ], [ -0.215683230453066, 51.437749162668787 ], [ -0.21552714426608, 51.437766566067793 ], [ -0.215084337560515, 51.437795787900889 ], [ -0.214225392702289, 51.437830449027359 ], [ -0.213757088436296, 51.437850287369827 ], [ -0.213221960892722, 51.437846630210757 ], [ -0.213127623458698, 51.437829010442044 ], [ -0.212945037899544, 51.437826228184299 ], [ -0.212755009771016, 51.437828726332611 ], [ -0.212521789994002, 51.437831464851946 ], [ -0.212205486755174, 51.437862603967922 ], [ -0.212095471202705, 51.437878907104732 ], [ -0.211659878522, 51.437945085799676 ], [ -0.210973032653335, 51.438068653354392 ], [ -0.210363966965214, 51.438153757131964 ], [ -0.209914290824567, 51.438209825198165 ], [ -0.209104832412485, 51.43830444960102 ], [ -0.208661297611312, 51.43834900929356 ], [ -0.208293084002265, 51.438384739011276 ], [ -0.20801853060067, 51.43841290862413 ], [ -0.207852396734936, 51.438429249248109 ], [ -0.207452209071607, 51.438472578862367 ], [ -0.207265004826653, 51.438511971095132 ], [ -0.206658397670835, 51.438643033133772 ], [ -0.205865692653923, 51.438715415878988 ], [ -0.205415231490749, 51.438791233123759 ], [ -0.204533752896542, 51.438961230424155 ], [ -0.204261277489211, 51.439011898557347 ], [ -0.204231628405195, 51.438960200395783 ], [ -0.203657618531624, 51.439067382639287 ], [ -0.202976298114943, 51.439197281148651 ], [ -0.202709757539104, 51.439241743482221 ], [ -0.201581806842427, 51.439458196085106 ], [ -0.198493143408043, 51.440025909587611 ], [ -0.197146371241823, 51.440281307148027 ], [ -0.196681417364243, 51.440359656955664 ], [ -0.196428648475942, 51.440454663078398 ], [ -0.19458616858498, 51.440836363004159 ], [ -0.194523796142406, 51.440739207602476 ], [ -0.194433958339859, 51.440754906210493 ], [ -0.19339180006461, 51.440947523055712 ], [ -0.192839914202285, 51.441039712401462 ], [ -0.192498152997894, 51.441095580203005 ], [ -0.190369376301941, 51.441400880984361 ], [ -0.190067556672538, 51.441463651135692 ], [ -0.190054490298909, 51.441467045618616 ], [ -0.190015279128302, 51.441474531801731 ], [ -0.19000160425188, 51.44142127839465 ], [ -0.190005901132005, 51.441312562824628 ], [ -0.190012224525807, 51.441188595118888 ], [ -0.190038845625749, 51.44098933271043 ], [ -0.190046448318414, 51.440796969027787 ], [ -0.189921490430457, 51.440425452121545 ], [ -0.18973465404377, 51.440055677134005 ], [ -0.18977813245341, 51.440048256918779 ], [ -0.189862243597666, 51.44003337252601 ], [ -0.189916667742654, 51.43982105380779 ], [ -0.189938833904205, 51.439731493468805 ], [ -0.190186041522118, 51.439450227513184 ], [ -0.190267557757545, 51.439314833604968 ], [ -0.190289102168282, 51.439280014173477 ], [ -0.19039592870448, 51.439308722939266 ], [ -0.190437273484121, 51.439319250052918 ], [ -0.190440651571085, 51.439305816809913 ], [ -0.190505827383356, 51.439112543227516 ], [ -0.190621644202394, 51.438949718599446 ], [ -0.19064288856267, 51.438919479501635 ], [ -0.19051083046177, 51.438913846226754 ], [ -0.190246865129141, 51.438856731332415 ], [ -0.189910621753112, 51.438773327774506 ], [ -0.189703874637683, 51.438616314000576 ], [ -0.18952336924089, 51.438557788442822 ], [ -0.189191484461773, 51.438547271010727 ], [ -0.189243005663764, 51.438117343804635 ], [ -0.189325565603541, 51.437628470211799 ], [ -0.189417580413283, 51.437338516827992 ], [ -0.189619047085571, 51.436575478012024 ], [ -0.189735651286544, 51.436173525880889 ], [ -0.189862478590861, 51.435804006406286 ], [ -0.190044358155806, 51.435278097007071 ], [ -0.190160122866785, 51.435008288151451 ], [ -0.190241486821974, 51.434804476184681 ], [ -0.190348916184937, 51.434598459187562 ], [ -0.190615068348945, 51.434089042807912 ], [ -0.19075493490088, 51.433899618447803 ], [ -0.190756428495043, 51.433897843440093 ], [ -0.190842218844826, 51.433837134216205 ], [ -0.190926740429693, 51.433775506443915 ], [ -0.19100833348145, 51.433712934418686 ], [ -0.191021681353769, 51.433702352034331 ], [ -0.191035064701404, 51.433690871173212 ], [ -0.191049799693704, 51.433681209203684 ], [ -0.191079459171787, 51.433660090137046 ], [ -0.191094233172792, 51.43364943983908 ], [ -0.191107581005726, 51.433638857444649 ], [ -0.191121047383377, 51.43362827687713 ], [ -0.191158794250898, 51.433507491036792 ], [ -0.191160603674103, 51.433461668799069 ], [ -0.191152383892834, 51.433417489921361 ], [ -0.191144364887792, 51.433365222937013 ], [ -0.191135104241022, 51.433308351786224 ], [ -0.191119534403664, 51.433264059539717 ], [ -0.191037654980828, 51.433042536102015 ], [ -0.190820418042531, 51.432788267912571 ], [ -0.190643445395041, 51.432568783351137 ], [ -0.190518140775634, 51.432389652701559 ], [ -0.190448670080476, 51.432220463549967 ], [ -0.190424619016635, 51.432099623390272 ], [ -0.190384414503378, 51.431988333318159 ], [ -0.19031797309574, 51.431886617524206 ], [ -0.190199904813441, 51.431779609878753 ], [ -0.189933293364554, 51.431535366190595 ], [ -0.18977225279968, 51.431351187969042 ], [ -0.189094991541065, 51.431596144456059 ], [ -0.189064419233644, 51.431607359671617 ], [ -0.189220006082199, 51.431818425366949 ], [ -0.189229620802565, 51.431830261121682 ], [ -0.188333797796339, 51.432109597433652 ], [ -0.188308095532645, 51.432069643361949 ], [ -0.188218913967017, 51.432105125598504 ], [ -0.187429333150325, 51.43209741994567 ], [ -0.187394836044639, 51.43209688676766 ], [ -0.18727657461337, 51.432906157823183 ], [ -0.187264752473647, 51.432986078074904 ], [ -0.186549142993711, 51.432964226592844 ], [ -0.186399905295985, 51.432955535784487 ], [ -0.185736982548024, 51.433163835022555 ], [ -0.185406129681871, 51.432691134059681 ], [ -0.185263834405191, 51.432507239554084 ], [ -0.184888016687771, 51.432259496218371 ], [ -0.184712181153884, 51.432122820219291 ], [ -0.184555569298159, 51.431935107221136 ], [ -0.184394972387008, 51.431740229999065 ], [ -0.184355245912282, 51.431617257791558 ], [ -0.184368709460862, 51.431460136967381 ], [ -0.184382418299413, 51.431368648713239 ], [ -0.184313454345248, 51.431327934088721 ], [ -0.184232111454336, 51.431276329376701 ], [ -0.184223635734341, 51.431271703030639 ], [ -0.184129442874328, 51.431218101244724 ], [ -0.184173160112998, 51.430911221854934 ], [ -0.184271471748194, 51.430501799888589 ], [ -0.184499232421474, 51.429474774178466 ], [ -0.184515900072536, 51.429126030872055 ], [ -0.184540041054408, 51.428588697971904 ], [ -0.18452803193987, 51.42762268980254 ], [ -0.184322782348841, 51.42695675090404 ], [ -0.184068022446974, 51.426379048244556 ], [ -0.183921044626628, 51.426203170302571 ], [ -0.183207633941883, 51.425548237280523 ], [ -0.181915104785831, 51.424735083174404 ], [ -0.180799225310438, 51.424545972096695 ], [ -0.17904899823618, 51.424355990981056 ], [ -0.178773949254576, 51.424326546462453 ], [ -0.177975404938896, 51.42422243986141 ], [ -0.177445800116032, 51.424122508303434 ], [ -0.176490134223705, 51.423919663141923 ], [ -0.175803386801029, 51.423754348037178 ], [ -0.175561492451771, 51.423687652440428 ], [ -0.175118186727539, 51.423550304722426 ], [ -0.174798598817637, 51.423448235167804 ], [ -0.174667936498109, 51.423405744828429 ], [ -0.174581159341488, 51.423381019123632 ], [ -0.17460536997935, 51.423350829036508 ], [ -0.173746004741091, 51.423041576481118 ], [ -0.173697853653109, 51.423023744922681 ], [ -0.17357212617895, 51.4231818138542 ], [ -0.173322073205854, 51.423070034910104 ], [ -0.172814865906756, 51.422837284469978 ], [ -0.172391031332986, 51.422646287680422 ], [ -0.172205459663048, 51.422574169615636 ], [ -0.172075519166448, 51.422513706919275 ], [ -0.171559456131856, 51.422217880546341 ], [ -0.17134913773874, 51.422082442972027 ], [ -0.171043758423487, 51.421913067138519 ], [ -0.170992156800718, 51.421871805784235 ], [ -0.170608647857333, 51.421713796369104 ], [ -0.169605566405223, 51.421369904533741 ], [ -0.169164438151187, 51.421214676672655 ], [ -0.168422820485525, 51.420981841726885 ], [ -0.16839982081251, 51.420910458873159 ], [ -0.167571617194973, 51.420725714832642 ], [ -0.167537980534007, 51.420700915351254 ], [ -0.167113364605254, 51.420601679147801 ], [ -0.167007507647039, 51.420624298466493 ], [ -0.166711639450905, 51.420576519923941 ], [ -0.166504187373079, 51.420550800793613 ], [ -0.16615577381037, 51.420521078970722 ], [ -0.16504758531002, 51.42039586002241 ], [ -0.164808141841449, 51.420339879293607 ], [ -0.164855417403729, 51.420166206716729 ], [ -0.16502728057522, 51.420183280618687 ], [ -0.165068400897863, 51.420092222681092 ], [ -0.164526815192919, 51.420038705530779 ], [ -0.164114572652192, 51.4199890988302 ], [ -0.163518073298003, 51.419944696553344 ], [ -0.162693843849538, 51.419910208969249 ], [ -0.161645784402742, 51.419862317536939 ], [ -0.161573857001941, 51.419863887042219 ], [ -0.161530570504996, 51.419937828213989 ], [ -0.161156566028254, 51.420619904676457 ], [ -0.160969863230629, 51.420937122774824 ], [ -0.1603358554823, 51.421823784678324 ], [ -0.160336485518671, 51.421917383952454 ], [ -0.160057717880874, 51.421836502737484 ], [ -0.159947686774438, 51.421927466689034 ], [ -0.159939879834368, 51.421941728730062 ], [ -0.160011835968279, 51.421977920061742 ], [ -0.159888534059409, 51.422183752035274 ], [ -0.160018323072517, 51.422209163371228 ], [ -0.159994515553984, 51.42226452990775 ], [ -0.159996880316225, 51.422314912888964 ], [ -0.159893134555608, 51.422281818879505 ], [ -0.159857415942987, 51.422633769457335 ], [ -0.159673637364857, 51.422591328110869 ], [ -0.159675246072706, 51.422442023883406 ], [ -0.159652938801417, 51.422424592177734 ], [ -0.159566721932624, 51.422566275377683 ], [ -0.159263893213723, 51.422443659143497 ], [ -0.158765646749519, 51.422240747081858 ], [ -0.158162587676982, 51.422001933537814 ], [ -0.157519589889021, 51.421750801896977 ], [ -0.156815918857724, 51.421510490388762 ], [ -0.156144929587271, 51.421312853159357 ], [ -0.155733734153637, 51.421237161456098 ], [ -0.155339162957157, 51.421105000726037 ], [ -0.153269599871728, 51.420458207210174 ], [ -0.151884185689687, 51.420038918093276 ], [ -0.151301997537021, 51.419851735856632 ], [ -0.151136274446062, 51.419859014595801 ], [ -0.150975307041415, 51.419892440030495 ], [ -0.150747963853836, 51.419966174943958 ], [ -0.150521933316879, 51.420042627169295 ], [ -0.150402681285939, 51.420076709158188 ], [ -0.150258671650618, 51.420080732680937 ], [ -0.15011001554217, 51.420055913701177 ], [ -0.14989793110968, 51.420001325564861 ], [ -0.149768191466136, 51.419975006311454 ], [ -0.14952304293077, 51.419919896256744 ], [ -0.149315625403159, 51.419855491349402 ], [ -0.149202146971818, 51.419814144368601 ], [ -0.148629349402003, 51.419573968582334 ], [ -0.148162980250263, 51.41933546960842 ], [ -0.147870621127818, 51.419131181263602 ], [ -0.147644255472071, 51.419001744372586 ], [ -0.14757345552372, 51.418975454056664 ], [ -0.147415218442274, 51.41897655258758 ], [ -0.147014291038123, 51.418967526349732 ], [ -0.146892580012562, 51.41895391731483 ], [ -0.146787984661098, 51.418910011362208 ], [ -0.146449180431248, 51.418716673917515 ], [ -0.146246392924814, 51.418573222472681 ], [ -0.146027698778345, 51.41839796351573 ], [ -0.145970435964912, 51.418356602632507 ], [ -0.145856850723013, 51.418282885952465 ], [ -0.145825863478541, 51.418266213898121 ], [ -0.145752803146184, 51.418225502394812 ], [ -0.145573058732645, 51.418151549405209 ], [ -0.145268618883537, 51.418035259378783 ], [ -0.145260113314705, 51.418031528856289 ], [ -0.144979637848362, 51.417888645951109 ], [ -0.144670714548882, 51.41780995298199 ], [ -0.14448010591286, 51.417758392369358 ], [ -0.144454526176693, 51.417751694792472 ], [ -0.143977279868227, 51.417853021609957 ], [ -0.143721211654714, 51.417924490569995 ], [ -0.143487111264924, 51.417986417091392 ], [ -0.143085736576462, 51.418096941441917 ], [ -0.142766354165271, 51.418206154566413 ], [ -0.142639471915073, 51.418249997174357 ], [ -0.141998508855321, 51.418484477609447 ], [ -0.14179652004603, 51.418570283510661 ], [ -0.141551111179883, 51.418665290798536 ], [ -0.141365143035618, 51.418747843349244 ], [ -0.141149469194717, 51.418852310839839 ], [ -0.140970540897629, 51.418936682335136 ], [ -0.140858760663024, 51.418996944492484 ], [ -0.140645679115844, 51.419110532156701 ], [ -0.140379635647101, 51.419249262040523 ], [ -0.141572738624907, 51.418415614108632 ], [ -0.143234548180094, 51.417263020043769 ], [ -0.143023030119948, 51.417124729612674 ], [ -0.143707835524661, 51.41665628708656 ], [ -0.14489060159621, 51.415861090808988 ], [ -0.144983682513482, 51.41579962946355 ], [ -0.144641807115072, 51.415577469474769 ], [ -0.144325946288842, 51.415351314536224 ], [ -0.144321707305857, 51.41534765139307 ], [ -0.145159315956495, 51.414908495936032 ], [ -0.145650883654812, 51.414631178555091 ], [ -0.14611390494883, 51.414347114919266 ], [ -0.146115326921116, 51.414347137375806 ], [ -0.146382043128857, 51.414187724996275 ], [ -0.146658470038681, 51.414037365715146 ], [ -0.146839336441975, 51.413939529208832 ], [ -0.147057635816771, 51.413804433914812 ], [ -0.147303863563287, 51.413582662509626 ], [ -0.147542910223587, 51.413362485378151 ], [ -0.147586327349273, 51.413320915857646 ], [ -0.147866152340797, 51.413051035500018 ], [ -0.148064730128456, 51.412869776227438 ], [ -0.147504880712773, 51.412736876358693 ], [ -0.146778682243668, 51.412559992417009 ], [ -0.14579821641021, 51.412551702919671 ], [ -0.145480618644554, 51.412547585257251 ], [ -0.145144299061113, 51.412543170931968 ], [ -0.144844190031417, 51.41238820030788 ], [ -0.144806683026742, 51.412392102767029 ], [ -0.144780742535328, 51.412394389933034 ], [ -0.144597272524098, 51.41241306721686 ], [ -0.14454951513442, 51.412456365065097 ], [ -0.144459644730675, 51.412473824331499 ], [ -0.144377038699323, 51.412490499318508 ], [ -0.144209776241885, 51.4125715553741 ], [ -0.143004086480148, 51.413155920525462 ], [ -0.142649717062063, 51.413348101573234 ], [ -0.14255640664585, 51.413342130050474 ], [ -0.142020582101573, 51.413116983979961 ], [ -0.141183793155173, 51.41275832910403 ], [ -0.139990370023304, 51.412364440437209 ], [ -0.139524214161441, 51.412225795203867 ], [ -0.139382716947224, 51.41220647110466 ], [ -0.139350022471769, 51.412196962611866 ], [ -0.138647540005375, 51.412000536367614 ], [ -0.138498488686496, 51.411954120517173 ], [ -0.138247153877203, 51.41187461637675 ], [ -0.138076174587657, 51.411801780361081 ], [ -0.137516882638582, 51.411656166117687 ], [ -0.136626324149599, 51.411455036023739 ], [ -0.13588179698913, 51.411304675875691 ], [ -0.13545368471696, 51.411222358827402 ], [ -0.135189153046535, 51.411222652373418 ], [ -0.13499098529985, 51.411215009300165 ], [ -0.134766774192187, 51.411177280253312 ], [ -0.134398258983021, 51.411078724757061 ], [ -0.134074008702268, 51.410990852135981 ], [ -0.134070214136865, 51.411014166478331 ], [ -0.133896330952819, 51.411822591693465 ], [ -0.133839672881978, 51.412084295795083 ], [ -0.133832407799602, 51.412157900460166 ], [ -0.133806137967678, 51.412412896178004 ], [ -0.133777334636397, 51.412555383044577 ], [ -0.133742844407297, 51.412624958014533 ], [ -0.133727076725442, 51.412659858925409 ], [ -0.133713356459591, 51.412679419051322 ], [ -0.133552054655642, 51.412933972237205 ], [ -0.133328231701022, 51.412883657693442 ], [ -0.133348087553904, 51.412856104101756 ], [ -0.13345486962292, 51.412705869182972 ], [ -0.133541799052667, 51.412583097922436 ], [ -0.133546475873707, 51.41257598018246 ], [ -0.133234912695126, 51.412493701116453 ], [ -0.133177912030279, 51.412478408662494 ], [ -0.132688549854402, 51.412348344362812 ], [ -0.132075341488014, 51.41229263161361 ], [ -0.132073919615083, 51.412292608950118 ], [ -0.127898035385013, 51.412007511781702 ], [ -0.127862206791071, 51.412005141384 ], [ -0.127754248381543, 51.412253435214019 ], [ -0.127732050165395, 51.41230342589995 ], [ -0.127725812215058, 51.412316811596078 ], [ -0.127508776760968, 51.412312444955177 ], [ -0.127589409747614, 51.412204861536956 ], [ -0.12770077740149, 51.412012451727726 ], [ -0.127783647883512, 51.411850063425952 ], [ -0.128015136241139, 51.411218870547231 ], [ -0.128167641901282, 51.410933528744138 ], [ -0.128201570923433, 51.410947555991676 ], [ -0.128296322336215, 51.410987727271106 ], [ -0.128454920205115, 51.411011926492414 ], [ -0.128496281577561, 51.410951363411939 ], [ -0.128517552816656, 51.410921136245626 ], [ -0.128614669217757, 51.410833683549413 ], [ -0.128582133969816, 51.41078551574077 ], [ -0.128735929226086, 51.410610773605171 ], [ -0.128916551481749, 51.410377123850061 ], [ -0.129145926632142, 51.410076015935886 ], [ -0.129331470402167, 51.409864020510597 ], [ -0.129452791161471, 51.409851572362832 ], [ -0.12945259363307, 51.409574579471091 ], [ -0.13047482347102, 51.40954234142432 ], [ -0.130486572734357, 51.409536235643884 ], [ -0.130930504566279, 51.409511849674395 ], [ -0.131259969190994, 51.409506314662622 ], [ -0.131288844767775, 51.409222592604849 ], [ -0.131290559543185, 51.409215427727482 ], [ -0.132063154484217, 51.409170115040077 ], [ -0.132047485059744, 51.409025121871359 ], [ -0.132025500259716, 51.408930373606069 ], [ -0.132016564309378, 51.408902361340274 ], [ -0.131982137728487, 51.408792940415502 ], [ -0.131929693722909, 51.408456677247209 ], [ -0.132231687568321, 51.408421033403513 ], [ -0.132233109321631, 51.408421056058017 ], [ -0.132455161404982, 51.40840661349673 ], [ -0.132292578115735, 51.406927368629766 ], [ -0.131642173256502, 51.405352246216836 ], [ -0.131474699468199, 51.405264169632709 ], [ -0.131455145562602, 51.405249473552907 ], [ -0.131416962320407, 51.405200317504935 ], [ -0.131381536838402, 51.405010867135026 ], [ -0.131525130451994, 51.404978093467584 ], [ -0.131507233874376, 51.404925664632017 ], [ -0.131303143884973, 51.404183231231535 ], [ -0.131288661433664, 51.404148837357702 ], [ -0.131253582638024, 51.404093347684629 ], [ -0.131189932355826, 51.404032098372937 ], [ -0.131144120751692, 51.40399271002299 ], [ -0.130885758368909, 51.403805100349942 ], [ -0.130652238443397, 51.40360718783127 ], [ -0.130608912245106, 51.403541767145811 ], [ -0.130595395649069, 51.403486621087794 ], [ -0.130500763419235, 51.403304407906035 ], [ -0.130480338868856, 51.403276212431201 ], [ -0.130455319667604, 51.403256034945422 ], [ -0.1294032235995, 51.402681680327134 ], [ -0.12922762931147, 51.402580885350382 ], [ -0.128855363214967, 51.402367181181482 ], [ -0.128623022994332, 51.402213336508048 ], [ -0.128464549063317, 51.402079459927833 ], [ -0.128310758616348, 51.401903493648732 ], [ -0.128244706537302, 51.401866388533307 ], [ -0.128008354771628, 51.401703488600809 ], [ -0.127985483259521, 51.40170042644138 ], [ -0.12796399659195, 51.401698285408351 ], [ -0.127711511216056, 51.401474802888849 ], [ -0.127743801093603, 51.401459135935873 ], [ -0.127761308328867, 51.401451324203485 ], [ -0.127691759900885, 51.401395373402686 ], [ -0.127615132352756, 51.401335713451438 ], [ -0.127484287540873, 51.401158224750894 ], [ -0.127193413909671, 51.400853216301108 ], [ -0.127008481034094, 51.400665064162034 ], [ -0.126734349628435, 51.400408869271786 ], [ -0.126622020646686, 51.400306384243606 ], [ -0.126498985372447, 51.400187455731441 ], [ -0.126286662043976, 51.399999763694083 ], [ -0.126196482248528, 51.399920916891325 ], [ -0.126116396499978, 51.399838725095449 ], [ -0.125891486752048, 51.399573425198696 ], [ -0.125619687729531, 51.399260626258346 ], [ -0.125412090457412, 51.399027157979532 ], [ -0.125353247290611, 51.398956003614813 ], [ -0.125360771628954, 51.398911172603654 ], [ -0.125370350638834, 51.39885378807444 ], [ -0.125391701274527, 51.398824461475328 ], [ -0.125408411692674, 51.398801353888018 ], [ -0.125470674240057, 51.398722335710794 ], [ -0.125667843105709, 51.398364797605836 ], [ -0.125698788053642, 51.398309552514526 ], [ -0.125251738870034, 51.398273639085787 ], [ -0.124988108710333, 51.398219079604686 ], [ -0.124752119759806, 51.398152375112396 ], [ -0.124610680742226, 51.398095273181681 ], [ -0.124464603347663, 51.397977772322477 ], [ -0.124394403324774, 51.397937991702918 ], [ -0.124519511988522, 51.397829412111832 ], [ -0.124125679673165, 51.397617147527797 ], [ -0.124326127212163, 51.397498085669476 ], [ -0.124496616792006, 51.397407223340743 ], [ -0.125163867626045, 51.396872991160535 ], [ -0.126415862971563, 51.395858756418797 ], [ -0.127077640134204, 51.39531813177809 ], [ -0.127884876673868, 51.394735682435346 ], [ -0.128576245861774, 51.394314102587522 ], [ -0.129344976617425, 51.393829112024825 ], [ -0.129664200910352, 51.393650710685769 ], [ -0.12950416579422, 51.393590621185069 ], [ -0.129093689978199, 51.393469898738374 ], [ -0.12887751268978, 51.393484431290801 ], [ -0.128731038356322, 51.393481195791381 ], [ -0.129557007328937, 51.393036583851611 ], [ -0.130225951253046, 51.392742387728845 ], [ -0.132055879671554, 51.391999996224875 ], [ -0.133287799974992, 51.391468327640219 ], [ -0.133515429701298, 51.391384744903078 ], [ -0.133773077289129, 51.39126828573059 ], [ -0.133912779261743, 51.391193192602238 ], [ -0.134046705355387, 51.391114411373948 ], [ -0.134259905800653, 51.390963081517675 ], [ -0.134294156002955, 51.390933958671745 ], [ -0.134353608260069, 51.390885458246331 ], [ -0.134602877848481, 51.390939767417635 ], [ -0.134695920345164, 51.390951136143904 ], [ -0.134843223357345, 51.390968761655273 ], [ -0.13494921284752, 51.390906616607808 ], [ -0.135153020843504, 51.390843329565023 ], [ -0.135502426777131, 51.390734708633886 ], [ -0.13579665172583, 51.390639504164469 ], [ -0.136117750019803, 51.390518744462113 ], [ -0.136441369034457, 51.3904088122055 ], [ -0.136678073168295, 51.390349551514603 ], [ -0.136853057111098, 51.390321764506737 ], [ -0.137335530779043, 51.39029796145828 ], [ -0.137354790973633, 51.39028478207554 ], [ -0.137382906978383, 51.39026365217893 ], [ -0.137385977351671, 51.390261003889073 ], [ -0.137512710939625, 51.390254026103136 ], [ -0.137633723179531, 51.390247856358378 ], [ -0.137810900410701, 51.390238982099213 ], [ -0.138007584113148, 51.390207941862471 ], [ -0.139059335351494, 51.389899099869474 ], [ -0.139352995316072, 51.389852514768599 ], [ -0.139580500126703, 51.389806587820345 ], [ -0.139681450333283, 51.389798299805562 ], [ -0.139953298390862, 51.389792721894644 ], [ -0.140205167780683, 51.389785927570891 ], [ -0.140512937470351, 51.389744957449906 ], [ -0.140641646133346, 51.389727219548064 ], [ -0.14100291880561, 51.389608882312039 ], [ -0.141795773852908, 51.389374127799243 ], [ -0.141878447586118, 51.38935476028891 ], [ -0.142039470543011, 51.389565971363851 ], [ -0.142170695848299, 51.389661546979504 ], [ -0.143158368613558, 51.390401068601101 ], [ -0.143208266427099, 51.390412646563263 ], [ -0.144353077415721, 51.390678978444065 ], [ -0.146713019681492, 51.390434808203317 ], [ -0.146973731723361, 51.390314864258464 ], [ -0.147095319169682, 51.390259248610015 ], [ -0.147139949843809, 51.39025455956412 ], [ -0.148055248973251, 51.390156548418709 ], [ -0.15029628848859, 51.389935603123455 ], [ -0.151614494755328, 51.389826027968795 ], [ -0.152451172970592, 51.389749317495713 ], [ -0.152455926223974, 51.389775463419909 ], [ -0.152647320475282, 51.389769489745241 ], [ -0.152805708113296, 51.389762096657108 ], [ -0.152809011615781, 51.389715400693966 ], [ -0.154192656234385, 51.389584275429591 ], [ -0.155656959962249, 51.389415745847479 ], [ -0.155935582768101, 51.389385967140193 ], [ -0.157610000010095, 51.38920822209419 ], [ -0.157707227395579, 51.38929245817689 ], [ -0.157871116941102, 51.389289639703705 ], [ -0.15803047671606, 51.389257981810147 ], [ -0.158111744541644, 51.389202621711242 ], [ -0.158220684571383, 51.389104454402762 ], [ -0.15827175188926, 51.389048619696766 ], [ -0.158275338336061, 51.388994736012918 ], [ -0.1582780225809, 51.388963313166933 ], [ -0.158257224448484, 51.388837935436484 ], [ -0.158293181152276, 51.388836702346815 ], [ -0.158513493874792, 51.388827577404641 ], [ -0.158585463910004, 51.388862060868163 ], [ -0.158622084103045, 51.388879717110797 ], [ -0.158675706609912, 51.388904832410503 ], [ -0.158819086497742, 51.38887561943794 ], [ -0.159032330322323, 51.388791675549093 ], [ -0.159678445704888, 51.388593252498431 ], [ -0.16000719757175, 51.388459877086561 ], [ -0.160339527781792, 51.388272706766628 ], [ -0.160609312828113, 51.388070080210632 ], [ -0.160961371679132, 51.387819298722114 ], [ -0.161212482880513, 51.387937410954862 ], [ -0.16152697694947, 51.388053010602 ], [ -0.161745094377331, 51.38813104821142 ], [ -0.161825626207458, 51.388132311022531 ], [ -0.161893130834361, 51.388133369512779 ], [ -0.162789079222877, 51.388155505538364 ], [ -0.162854380384477, 51.388066628873837 ], [ -0.162903507551741, 51.38806200476882 ], [ -0.162945256115601, 51.388058164014083 ], [ -0.163070749082003, 51.388049342537393 ], [ -0.163197364781686, 51.388045033521507 ], [ -0.163323872504179, 51.388043419678986 ], [ -0.163329675526796, 51.388043510599168 ], [ -0.163453161032658, 51.388046344269156 ], [ -0.163576538616237, 51.38805187312029 ], [ -0.163699736343785, 51.388061894027544 ], [ -0.163736933581401, 51.388065173701449 ], [ -0.163858530361759, 51.388079664367467 ], [ -0.163978562183607, 51.388097726399273 ], [ -0.164056115641075, 51.388134901055821 ], [ -0.164141763778967, 51.388111969384489 ], [ -0.16426711282716, 51.388106740374425 ], [ -0.164388680821979, 51.388083472010237 ], [ -0.1645999652513, 51.388048123220862 ], [ -0.165086803503361, 51.387988229612041 ], [ -0.165265305564652, 51.387978437504763 ], [ -0.165369206988151, 51.388041285586176 ], [ -0.1655231465677, 51.388290020872638 ], [ -0.16566380216972, 51.388473909937716 ], [ -0.165827434490034, 51.388658158333932 ], [ -0.166031861253409, 51.388865429833061 ], [ -0.166124397244426, 51.389138465563754 ], [ -0.166231670560787, 51.389404539742124 ], [ -0.166288775291111, 51.389520505080071 ], [ -0.166332886231927, 51.389605791022333 ], [ -0.166430059177643, 51.389691817014509 ], [ -0.166441367610227, 51.389696488894309 ], [ -0.166540301200847, 51.389738491308933 ], [ -0.16668569019477, 51.389768634161008 ], [ -0.166894071679741, 51.389806054883941 ], [ -0.167120904018153, 51.389847359724733 ], [ -0.167356080146776, 51.389931946590053 ], [ -0.167583845391211, 51.39005965906199 ], [ -0.167744308209172, 51.39021679528468 ], [ -0.168022553666524, 51.390519701973012 ], [ -0.168127369079114, 51.390631107891288 ], [ -0.168318292925468, 51.390743769890335 ], [ -0.168737820510426, 51.390963480461288 ], [ -0.168858854353301, 51.390992342065893 ], [ -0.169201678741862, 51.391082205324366 ], [ -0.169854708288744, 51.391396359510608 ], [ -0.169901246448019, 51.391453723491537 ], [ -0.169911157380598, 51.391493434345399 ], [ -0.169900033453475, 51.391555381575252 ], [ -0.16994650781389, 51.391724220689113 ], [ -0.170108923127458, 51.391832839521335 ], [ -0.170145981076732, 51.391839711291375 ], [ -0.170194574557499, 51.391848561205506 ], [ -0.170661628137891, 51.392140028705271 ], [ -0.170951854298713, 51.392321753812851 ], [ -0.171118872105603, 51.392425049834621 ], [ -0.17129220987696, 51.392509565113237 ], [ -0.171354048812806, 51.39247456999658 ], [ -0.171379726047758, 51.392478566784241 ], [ -0.17152994161035, 51.392497992305834 ], [ -0.17155569051952, 51.392500192158963 ], [ -0.171780414277049, 51.392523567029528 ], [ -0.172175446450718, 51.392564791742188 ], [ -0.17246320831127, 51.392594452871172 ], [ -0.172846334285157, 51.392648974729539 ], [ -0.173046402821858, 51.392714126141065 ], [ -0.173425092215181, 51.392841396561614 ], [ -0.174015878820076, 51.393059265159067 ], [ -0.174300604903615, 51.393165290160589 ], [ -0.174842508929712, 51.393417454230196 ], [ -0.175578674874835, 51.392835394849975 ], [ -0.176483911313538, 51.392084251957009 ], [ -0.177660877004353, 51.391115186423676 ], [ -0.178847855748193, 51.390107516012264 ], [ -0.179088818487955, 51.389939550682364 ], [ -0.1792396044072, 51.389834013055939 ], [ -0.179426350602533, 51.3897271460269 ], [ -0.179828026806424, 51.389495958563366 ], [ -0.17999072889126, 51.389594769431909 ], [ -0.18002908144991, 51.3895719909493 ], [ -0.180463504234481, 51.389309844538374 ], [ -0.18132418369382, 51.388808793898804 ], [ -0.182210693910923, 51.388307327974417 ], [ -0.182445276466991, 51.38815624737844 ], [ -0.182687241951891, 51.388034138936725 ], [ -0.182703242514267, 51.388028094018004 ], [ -0.182725010630599, 51.388023037548884 ], [ -0.182866184161143, 51.387980276352785 ], [ -0.183143072820008, 51.387918852134455 ], [ -0.184029410688018, 51.38771413164924 ], [ -0.184264360814804, 51.387622387464859 ], [ -0.184505939045531, 51.387512855177917 ], [ -0.185441116544685, 51.387013826177558 ], [ -0.186051044866118, 51.38671122367559 ], [ -0.187002874952874, 51.386227813478911 ], [ -0.188386647193875, 51.385434442870896 ], [ -0.188418872141483, 51.38545561833206 ], [ -0.188969184939676, 51.385824718306075 ], [ -0.189436063098503, 51.385866994806193 ], [ -0.189543571667242, 51.38587225201195 ], [ -0.18951683515676, 51.385967223927302 ], [ -0.189632404739939, 51.386062506664913 ], [ -0.189711756848775, 51.386126663390471 ], [ -0.190100033778444, 51.38612187333969 ], [ -0.190444678786652, 51.386201814201399 ], [ -0.190302434080596, 51.386347145028132 ] ] ] } }
]
}
