{
"type": "FeatureCollection",
"name": "borough_Waltham_Forest",
"crs": { "type": "name", "properties": { "name": "urn:ogc:def:crs:OGC:1.3:CRS84" } },
"features": [
{ "type": "Feature", "properties": { "DISTRICT": "Waltham Forest", "NAME": "Leyton", "GSS_CODE": "E05000604", "LAGSSCODE": "E09000031", "HECTARES": 203.218, "NONLD_AREA": 0.0 }, "geometry": { "type": "Polygon", "coordinates": [ [ [ -0.017279502531177, 51.552388932983888 ], [ -0.017476631094078, 51.553394122762739 ], [ -0.017648248261885, 51.553727948792321 ], [ -0.017772075163327, 51.553965582013184 ], [ -0.017922844080114, 51.554212750294063 ], [ -0.018048031410711, 51.554088104564968 ], [ -0.018443486354471, 51.555177460911452 ], [ -0.018799948884654, 51.555341790883396 ], [ -0.019132322428694, 51.555493936399849 ], [ -0.020385308938602, 51.556073529765015 ], [ -0.020747259354185, 51.55624055338167 ], [ -0.021906348042489, 51.556759213032748 ], [ -0.022529688064652, 51.557053887870843 ], [ -0.023006466768309, 51.557272373352887 ], [ -0.023066655017126, 51.557280578629694 ], [ -0.023525965789891, 51.557334159055976 ], [ -0.023892316420938, 51.557369991339321 ], [ -0.023941131250344, 51.557374408749013 ], [ -0.023954943759452, 51.557621059997288 ], [ -0.02404412111857, 51.557929212990153 ], [ -0.024176652141518, 51.558299228002937 ], [ -0.024250688582344, 51.558487467761417 ], [ -0.02435010526547, 51.558658244114433 ], [ -0.024419631414754, 51.558750213752113 ], [ -0.0245178688284, 51.558879615577673 ], [ -0.024628850157111, 51.558983969387647 ], [ -0.024731658609834, 51.559073801487976 ], [ -0.02492216627606, 51.559239816090376 ], [ -0.025111445301198, 51.559398527758482 ], [ -0.025507023216497, 51.559693851028939 ], [ -0.025863407488624, 51.559924684514975 ], [ -0.026173210007137, 51.560066541228707 ], [ -0.026344477571523, 51.560144127300262 ], [ -0.026478886957769, 51.56020482167726 ], [ -0.026825323302153, 51.560368868543144 ], [ -0.02750439514859, 51.560677938177143 ], [ -0.027863764510273, 51.560809924817072 ], [ -0.028100320751817, 51.560910091078291 ], [ -0.02852470749346, 51.561073643843002 ], [ -0.029143171943465, 51.561285492682735 ], [ -0.029349169475194, 51.561324909965016 ], [ -0.029562040144001, 51.561340168939743 ], [ -0.029692925595242, 51.561350456019639 ], [ -0.02972874978325, 51.561355552100977 ], [ -0.029766039256668, 51.561359773744151 ], [ -0.030021180142796, 51.56136585192764 ], [ -0.030081880098821, 51.561362375078673 ], [ -0.030090596570728, 51.561361622279023 ], [ -0.030142776523912, 51.561357103473355 ], [ -0.030203554062612, 51.561351829842195 ], [ -0.030264489259618, 51.561345659813469 ], [ -0.030274670990939, 51.56134403256597 ], [ -0.030336952559527, 51.561336986071076 ], [ -0.030397846440778, 51.561329017259276 ], [ -0.030458936764631, 51.561319253689632 ], [ -0.030518520519629, 51.561308565811949 ], [ -0.030578143039145, 51.561296979543471 ], [ -0.030637923191332, 51.561284496877441 ], [ -0.030696196764934, 51.561271089906725 ], [ -0.030754509092401, 51.561256784546153 ], [ -0.030811472496139, 51.561240658517001 ], [ -0.030845064417855, 51.561231332662317 ], [ -0.030900640079159, 51.561214284309706 ], [ -0.030956254482021, 51.561196337569434 ], [ -0.031011907622848, 51.561177492441367 ], [ -0.031066054166406, 51.561157723016862 ], [ -0.031118935732602, 51.561136943447785 ], [ -0.031170345601083, 51.56111443106181 ], [ -0.031663667055514, 51.560918625040401 ], [ -0.03215064909152, 51.560764874265672 ], [ -0.032542476733144, 51.560679740094109 ], [ -0.032847564476806, 51.560630910162644 ], [ -0.033280673316373, 51.560622880890847 ], [ -0.033489107823846, 51.560641654468078 ], [ -0.033643782405437, 51.560668517667537 ], [ -0.033850745812528, 51.560721428394579 ], [ -0.034239674717655, 51.560869083865626 ], [ -0.034701249335219, 51.561072883376532 ], [ -0.034880712428119, 51.56115949453222 ], [ -0.034999832874375, 51.561208236241029 ], [ -0.035236146400984, 51.561281503561979 ], [ -0.035987613075273, 51.561455894534269 ], [ -0.036389461601943, 51.561505766369052 ], [ -0.036581016416317, 51.56151346392371 ], [ -0.036664780116041, 51.561510369169049 ], [ -0.036787883368469, 51.561499840856385 ], [ -0.036937326974858, 51.561479863564344 ], [ -0.037059506142607, 51.561457632377639 ], [ -0.037214043745351, 51.561421557673654 ], [ -0.03765632926502, 51.561269823469679 ], [ -0.037922553835312, 51.561217543779598 ], [ -0.038111257803157, 51.561191927803797 ], [ -0.038340144604038, 51.561169679724728 ], [ -0.038458773861753, 51.56116356998912 ], [ -0.038699497678063, 51.561167590224827 ], [ -0.038810836832653, 51.561162257402245 ], [ -0.038955996452929, 51.56117546941185 ], [ -0.039082023821414, 51.561229716307977 ], [ -0.039206814962806, 51.561315497711298 ], [ -0.039348229755196, 51.561415850769279 ], [ -0.039698392774654, 51.561627659266556 ], [ -0.039883698764203, 51.561714360074454 ], [ -0.040049684049536, 51.561780060914892 ], [ -0.040164686671377, 51.561789172111048 ], [ -0.040287674184741, 51.561781335225554 ], [ -0.040449920588528, 51.561765163129266 ], [ -0.040583552834651, 51.561744917385838 ], [ -0.040714601998895, 51.561718335323285 ], [ -0.041052250117376, 51.561615097402033 ], [ -0.041687237485786, 51.561444086778714 ], [ -0.041861671986455, 51.561415529808706 ], [ -0.042166070761761, 51.561382846081464 ], [ -0.04236286966519, 51.561368146340349 ], [ -0.042512310712851, 51.561381425304944 ], [ -0.042685318651512, 51.561419370124696 ], [ -0.04276665320873, 51.5614396048069 ], [ -0.04334696021549, 51.561603004926077 ], [ -0.043708322037461, 51.56172059183487 ], [ -0.04411882057673, 51.561738216842031 ], [ -0.044337602889388, 51.561715788784099 ], [ -0.044447785926966, 51.561704138282295 ], [ -0.044713852873763, 51.561691486932133 ], [ -0.04507734035679, 51.561759569518152 ], [ -0.045328149653683, 51.561933656974723 ], [ -0.045678972944455, 51.5622335614866 ], [ -0.045699720411511, 51.562251886928806 ], [ -0.046037686572489, 51.562313248766912 ], [ -0.046542371698411, 51.562387361728248 ], [ -0.04655378763932, 51.56239024863514 ], [ -0.046590965521729, 51.562397160061977 ], [ -0.046629650388483, 51.562404995551155 ], [ -0.046666751365129, 51.562413703695292 ], [ -0.046702387332821, 51.562423286472971 ], [ -0.046739530291955, 51.562433793312636 ], [ -0.046775127829025, 51.562444274439187 ], [ -0.04680926036036, 51.562455630201605 ], [ -0.046844781008509, 51.562467908048617 ], [ -0.046877410092945, 51.56248103680916 ], [ -0.046887361058444, 51.562484798331461 ], [ -0.046911465758734, 51.562494189283768 ], [ -0.046934143907299, 51.56250355650856 ], [ -0.046956822065575, 51.562512923729116 ], [ -0.046979461774429, 51.562523189316074 ], [ -0.047002220374149, 51.562533456875599 ], [ -0.047024821646009, 51.562544620824767 ], [ -0.047045996365496, 51.562555761048401 ], [ -0.047065625651116, 51.562566875570511 ], [ -0.047086761934645, 51.562578914157754 ], [ -0.047106471664682, 51.562590929020757 ], [ -0.047124754840001, 51.562602920160202 ], [ -0.047141415666984, 51.562616682341577 ], [ -0.04715962195125, 51.562630470217329 ], [ -0.04716097160647, 51.56263229067882 ], [ -0.047177712881085, 51.562646953202723 ], [ -0.047192908718733, 51.562661590028185 ], [ -0.047208062266247, 51.562677215059622 ], [ -0.047221911982103, 51.562692728509496 ], [ -0.047234177803693, 51.562709114633009 ], [ -0.047246443634282, 51.562725500755292 ], [ -0.04725728290379, 51.562741863157584 ], [ -0.047268083727637, 51.562759123929723 ], [ -0.047276069870812, 51.562775438892942 ], [ -0.047285444138203, 51.562792675945005 ], [ -0.047291846387117, 51.562809863583006 ], [ -0.047298329068872, 51.562827951568025 ], [ -0.047304850208722, 51.562845141181882 ], [ -0.04730600761166, 51.562851453495981 ], [ -0.04731086794374, 51.562871312527179 ], [ -0.047313032464148, 51.562890227727493 ], [ -0.047315039652069, 51.562910039322055 ], [ -0.047315620265343, 51.562929827198353 ], [ -0.047314774302053, 51.562949591356407 ], [ -0.047313889884825, 51.56297025388514 ], [ -0.04731165194906, 51.562989185791054 ], [ -0.047306368911119, 51.563009775188178 ], [ -0.047302669782335, 51.563029491909091 ], [ -0.047296155943301, 51.563048262822072 ], [ -0.047289484763215, 51.563067930128788 ], [ -0.047284628215972, 51.563081334534715 ], [ -0.047276530443637, 51.56310097812181 ], [ -0.047273369648527, 51.56310811765043 ], [ -0.047267044535627, 51.563119699618554 ], [ -0.04725613203645, 51.563138397395399 ], [ -0.047245338409788, 51.563157097147631 ], [ -0.047233037762549, 51.563174872832057 ], [ -0.047219153183344, 51.563193521189675 ], [ -0.047205425929824, 51.563211273151332 ], [ -0.047190310535133, 51.56322810302067 ], [ -0.047173730086291, 51.563245807538507 ], [ -0.047001812530854, 51.56341834578685 ], [ -0.04682750542695, 51.563613319296842 ], [ -0.046821606715847, 51.563617716251173 ], [ -0.046797620235563, 51.563638893592739 ], [ -0.046776486930852, 51.563660118379133 ], [ -0.046755353605609, 51.563681343161392 ], [ -0.046735608394791, 51.563703490035451 ], [ -0.046715982047372, 51.563725638882985 ], [ -0.046699051534238, 51.563748731572154 ], [ -0.046691495389239, 51.5637584950153 ], [ -0.046679194345752, 51.563776270634747 ], [ -0.046666735941252, 51.563794942645828 ], [ -0.046654434877281, 51.563812718262312 ], [ -0.046643640823927, 51.563831417951569 ], [ -0.046634154482854, 51.563850139389316 ], [ -0.046624668133528, 51.563868860826098 ], [ -0.046616608382564, 51.563887605989073 ], [ -0.046608667508479, 51.56390635312863 ], [ -0.046601992035585, 51.563926110224742 ], [ -0.046596904364833, 51.563944904817738 ], [ -0.04659320482955, 51.56396462150807 ], [ -0.046591428521908, 51.563969986024723 ], [ -0.046588809369166, 51.563997811774186 ], [ -0.046589081903977, 51.564024786608222 ], [ -0.046590899934921, 51.56405178714693 ], [ -0.046593987226856, 51.564079707805867 ], [ -0.046598658489566, 51.564106755799152 ], [ -0.046604637487608, 51.564133825542292 ], [ -0.046612161992644, 51.564160920989643 ], [ -0.046617217962468, 51.564178985280037 ], [ -0.046626050214436, 51.564206102476454 ], [ -0.046636462601178, 51.564232436843291 ], [ -0.046646878846817, 51.56425868137223 ], [ -0.046660267228467, 51.564284975331041 ], [ -0.046674963361075, 51.564311291037789 ], [ -0.046700890438007, 51.564380946005137 ], [ -0.046743937219931, 51.564420319340783 ], [ -0.04677410249752, 51.564457680415693 ], [ -0.046810400858356, 51.564518517735522 ], [ -0.047457156261262, 51.565184829576104 ], [ -0.047521184501026, 51.565239924490136 ], [ -0.047640220266516, 51.565324612183424 ], [ -0.048212786433624, 51.565667751058804 ], [ -0.048280019428656, 51.565714717817542 ], [ -0.048407390930896, 51.565807634322525 ], [ -0.048541316012313, 51.565914234621367 ], [ -0.048933388611526, 51.566230097557543 ], [ -0.049027627287684, 51.566318866930267 ], [ -0.04912398823556, 51.566394186333142 ], [ -0.049825769850614, 51.566854626526784 ], [ -0.050420789264397, 51.567216107366008 ], [ -0.050662481480985, 51.567468335153414 ], [ -0.050761854897882, 51.567540107051194 ], [ -0.050826623953709, 51.567578041285962 ], [ -0.051149536371684, 51.567722746030384 ], [ -0.051156554905677, 51.567725559511977 ], [ -0.051908468827758, 51.567993450631683 ], [ -0.052798987678756, 51.568394906312342 ], [ -0.053133238683415, 51.568574954212231 ], [ -0.053268028534985, 51.568664395981443 ], [ -0.053358337830307, 51.568745097950689 ], [ -0.053508714842624, 51.569007407714068 ], [ -0.054150158395324, 51.570074748178513 ], [ -0.05426602072389, 51.570198036932943 ], [ -0.054413240678756, 51.570300269715524 ], [ -0.054530321388969, 51.570364333821843 ], [ -0.05465341978538, 51.570421215689258 ], [ -0.054765790054693, 51.570459040287474 ], [ -0.054954496074227, 51.570500828126086 ], [ -0.05526454968113, 51.570540133347848 ], [ -0.055550250447228, 51.570539477568424 ], [ -0.05575468426566, 51.570550059676556 ], [ -0.055843750015728, 51.570559627575356 ], [ -0.055984515834259, 51.570609608919071 ], [ -0.056146381417839, 51.570672615898509 ], [ -0.05637337734609, 51.570795946884587 ], [ -0.056595847615154, 51.5709948089279 ], [ -0.056744970414282, 51.571356973279229 ], [ -0.05708032801402, 51.57161245476167 ], [ -0.057564632263814, 51.571899260966468 ], [ -0.058200155415427, 51.572326207509697 ], [ -0.05840520849278, 51.572526485691853 ], [ -0.058424554114429, 51.57258074645172 ], [ -0.058470693630094, 51.572715552393774 ], [ -0.058507263696381, 51.572940999560167 ], [ -0.058568195238275, 51.573206316476401 ], [ -0.058717082550614, 51.573504644738257 ], [ -0.058722450018721, 51.573515521685003 ], [ -0.058839146688154, 51.573756679386307 ], [ -0.059053737044594, 51.574071378004419 ], [ -0.059347237381717, 51.57443323159432 ], [ -0.059660544935911, 51.574939343138013 ], [ -0.059716087860718, 51.575023869862896 ], [ -0.059979022775977, 51.575424772277138 ], [ -0.060058018510362, 51.57560417220585 ], [ -0.06030836503043, 51.576164078237149 ], [ -0.060664929952152, 51.576839913957535 ], [ -0.0609693118102, 51.577422288115088 ], [ -0.061158762069539, 51.577786011237471 ], [ -0.061234821404143, 51.57793110944241 ], [ -0.061460942969652, 51.578246892127503 ], [ -0.06186065079543, 51.578692393004822 ], [ -0.061874581659294, 51.57870341130419 ], [ -0.061905339991319, 51.578727293780496 ], [ -0.061934633151859, 51.578752051035622 ], [ -0.061962342221857, 51.578777681105244 ], [ -0.061990170240511, 51.578803313133825 ], [ -0.062014987146044, 51.578829794393577 ], [ -0.06203980407953, 51.578856275648178 ], [ -0.062063155836212, 51.578883631685947 ], [ -0.062085199514901, 51.57891096610058 ], [ -0.06210553635784, 51.578939261206642 ], [ -0.062124568936462, 51.578967444853831 ], [ -0.062143563357256, 51.578996526870476 ], [ -0.062159703746689, 51.579025561718112 ], [ -0.062175725236793, 51.579054594598283 ], [ -0.062188854508438, 51.579084478683498 ], [ -0.062202102715621, 51.579114364732426 ], [ -0.062212377958044, 51.579144201649889 ], [ -0.062221417077276, 51.579169523121585 ], [ -0.062228643000272, 51.57920110765275 ], [ -0.062235949672952, 51.579233592521049 ], [ -0.062241863681497, 51.579265245271479 ], [ -0.062246197381125, 51.579297681009606 ], [ -0.062247795932426, 51.579330071548625 ], [ -0.06224927556552, 51.579362460122326 ], [ -0.062247901122614, 51.579394801531883 ], [ -0.06224652667718, 51.579427142941221 ], [ -0.06224229814783, 51.579459437186223 ], [ -0.062236523650185, 51.57949170588352 ], [ -0.06222944102149, 51.579523952963264 ], [ -0.062222239462077, 51.579556198077135 ], [ -0.062212179984852, 51.579588485862637 ], [ -0.062186360436565, 51.579652787424649 ], [ -0.06212899859389, 51.579748032832775 ], [ -0.062060058617938, 51.579841288859811 ], [ -0.061982509661551, 51.579932694458435 ], [ -0.061920159986975, 51.580008079258043 ], [ -0.061906472008512, 51.580024934089145 ], [ -0.061900301177047, 51.580032923128378 ], [ -0.061850135825289, 51.58009322621605 ], [ -0.061799932153344, 51.580154427652964 ], [ -0.061746789669734, 51.580214771389755 ], [ -0.061693807978941, 51.58027412885734 ], [ -0.061637853095443, 51.580333437154451 ], [ -0.061580509192527, 51.580391823460964 ], [ -0.061520387392563, 51.580448365811776 ], [ -0.061457407481807, 51.580504950783769 ], [ -0.06139905623049, 51.580553431313703 ], [ -0.061331794294694, 51.580607158518475 ], [ -0.061261716249368, 51.580659940122786 ], [ -0.061190249167607, 51.58071179971671 ], [ -0.061115847046183, 51.580762711735375 ], [ -0.061040209192045, 51.580811895168438 ], [ -0.060961601909884, 51.580860939551684 ], [ -0.06088168200032, 51.5809072651669 ], [ -0.060800334846647, 51.580953567126258 ], [ -0.060050326632869, 51.58134850023189 ], [ -0.059735910552481, 51.58151060284051 ], [ -0.059275416614832, 51.581749399441151 ], [ -0.058474456339884, 51.582152469438022 ], [ -0.058436191057789, 51.582170714960895 ], [ -0.0582813922845, 51.58224816317599 ], [ -0.058127824671251, 51.582327429585867 ], [ -0.058118947854147, 51.582331867507435 ], [ -0.058093913187543, 51.582344038989483 ], [ -0.058068840244294, 51.582357108836192 ], [ -0.058043805551125, 51.582369280307311 ], [ -0.058018732580309, 51.582382350143057 ], [ -0.057995086722556, 51.582395443607673 ], [ -0.057971402585973, 51.582409435437484 ], [ -0.057949107297073, 51.582424349267349 ], [ -0.057922220348606, 51.582443682067691 ], [ -0.057896841167194, 51.582463938836888 ], [ -0.0578742779555, 51.58248514124211 ], [ -0.057851714723106, 51.582506343642784 ], [ -0.057830697528606, 51.582527571645009 ], [ -0.057810950249936, 51.582549719680109 ], [ -0.057791202952278, 51.582571867711714 ], [ -0.057778978115034, 51.582587847305327 ], [ -0.057760738577008, 51.582610919308145 ], [ -0.057745234361214, 51.582634036613072 ], [ -0.057640559443105, 51.582752859257198 ], [ -0.057631307709998, 51.582768888081631 ], [ -0.057583260913623, 51.582846305562882 ], [ -0.057533825086227, 51.582922801012508 ], [ -0.057521561790934, 51.5829396789469 ], [ -0.057506015240424, 51.582963784424116 ], [ -0.057490591429818, 51.582987802032136 ], [ -0.057475129327063, 51.583012718007666 ], [ -0.057458159408567, 51.583036710000101 ], [ -0.057441346677891, 51.583059805590231 ], [ -0.05742294957657, 51.583083773935925 ], [ -0.0574018936432, 51.583105900225817 ], [ -0.057380680482618, 51.583128922911236 ], [ -0.057377554143451, 51.583132467135734 ], [ -0.057350555801986, 51.583157191986494 ], [ -0.057322130281013, 51.583181893188012 ], [ -0.057290769777459, 51.583205646756305 ], [ -0.057259409241793, 51.583229400315894 ], [ -0.057228244165488, 51.583251359097908 ], [ -0.057194063713722, 51.58327425681901 ], [ -0.057170340604182, 51.583289146849829 ], [ -0.057136240490206, 51.583310157977493 ], [ -0.057100751474033, 51.583330247079985 ], [ -0.05706371634207, 51.583350310555126 ], [ -0.056900114618471, 51.58343030815125 ], [ -0.056869174902357, 51.583444179539775 ], [ -0.056794144665724, 51.583478896404635 ], [ -0.056720345965661, 51.583515431638418 ], [ -0.056648093241753, 51.583551992446672 ], [ -0.056608203636063, 51.58357479538828 ], [ -0.056520866813176, 51.583624591197292 ], [ -0.056436426470356, 51.583676232956229 ], [ -0.05635476367631, 51.583729718700077 ], [ -0.05627445126233, 51.58378502477904 ], [ -0.056198381812572, 51.583841300061593 ], [ -0.056122349859893, 51.583899462623826 ], [ -0.056050603068478, 51.583957606266011 ], [ -0.056002652843649, 51.583996366693022 ], [ -0.05593831384575, 51.584051037120709 ], [ -0.055876790729959, 51.584106653174494 ], [ -0.055816537391746, 51.584163189226224 ], [ -0.055759372299526, 51.584219866341634 ], [ -0.05570348082575, 51.584277373626144 ], [ -0.055650366929288, 51.584336724900183 ], [ -0.055598837342237, 51.584395203430859 ], [ -0.055568327055958, 51.584432454853314 ], [ -0.055550085343799, 51.584455525957893 ], [ -0.055504145435016, 51.584516883971745 ], [ -0.055459598098331, 51.584579074140322 ], [ -0.05542411604374, 51.584632424777986 ], [ -0.055385357868033, 51.584695609893267 ], [ -0.055349453979316, 51.584758842325336 ], [ -0.055314935023623, 51.584823086591747 ], [ -0.055283393139146, 51.584887290317702 ], [ -0.055254548302927, 51.584952437743752 ], [ -0.055228676726981, 51.585017634469672 ], [ -0.055226981175478, 51.585023899233654 ], [ -0.055206898944088, 51.585090090948775 ], [ -0.05518383946828, 51.58515632317863 ], [ -0.055157929337016, 51.585222418223893 ], [ -0.055154768220045, 51.585229557662565 ], [ -0.055130591917493, 51.585288489587974 ], [ -0.055098930516149, 51.585352691258883 ], [ -0.055065803470342, 51.585417767591579 ], [ -0.055056507894169, 51.585434783993051 ], [ -0.055026733583604, 51.585488229137624 ], [ -0.054994185357571, 51.585542527244527 ], [ -0.05496159480172, 51.58559502667098 ], [ -0.054924722501007, 51.585647455061867 ], [ -0.054886422891412, 51.585699859761931 ], [ -0.054846611541901, 51.585751430284262 ], [ -0.054835965207643, 51.585763839442095 ], [ -0.054804106761874, 51.58580196722793 ], [ -0.054772129327854, 51.585840093029297 ], [ -0.054737335726294, 51.585877273118697 ], [ -0.054702542068974, 51.585914453194825 ], [ -0.054664932238158, 51.585950687555389 ], [ -0.054627360696794, 51.585986023554064 ], [ -0.054586815692962, 51.586021310206867 ], [ -0.054576322623699, 51.586030125947616 ], [ -0.054534542108194, 51.586063684013979 ], [ -0.054491219194444, 51.586097126574238 ], [ -0.054445080094808, 51.586129623407388 ], [ -0.054398979283722, 51.586161221872679 ], [ -0.054351489524389, 51.586191898288327 ], [ -0.054302572462358, 51.586222550998961 ], [ -0.053881399652449, 51.586483548258968 ], [ -0.053260877295175, 51.586850011122586 ], [ -0.053134682849592, 51.586931521212556 ], [ -0.052734066058258, 51.587187461319253 ], [ -0.052732519850671, 51.587187435640914 ], [ -0.052698062135848, 51.587183267459366 ], [ -0.052689037883402, 51.587193905366057 ], [ -0.052676886601266, 51.587208087264891 ], [ -0.052670751487854, 51.587215177226028 ], [ -0.052645367113455, 51.587235432217319 ], [ -0.052617047625081, 51.587254739473501 ], [ -0.052587531109373, 51.587271419794853 ], [ -0.05255500653988, 51.587288859230888 ], [ -0.052522558726635, 51.587304501969101 ], [ -0.052488645228574, 51.587321019334716 ], [ -0.052457705191868, 51.58733758607822 ], [ -0.052426569409678, 51.587355947524131 ], [ -0.052399795971811, 51.587375280402092 ], [ -0.052380274063702, 51.587392036780791 ], [ -0.052359286473107, 51.587409667791079 ], [ -0.052339726142149, 51.587427322505029 ], [ -0.052320246341756, 51.587445877534137 ], [ -0.052300647586098, 51.587464430583452 ], [ -0.052284022308893, 51.587483033022458 ], [ -0.052265812405428, 51.587502508116792 ], [ -0.052250614378891, 51.587521134258857 ], [ -0.052235339548068, 51.587541557085046 ], [ -0.052221411439612, 51.587561103299223 ], [ -0.052207560023084, 51.587581639664592 ], [ -0.05219656699534, 51.587602133613835 ], [ -0.05218557395775, 51.587622627561522 ], [ -0.052176165529733, 51.587642248850798 ], [ -0.052167988640976, 51.587663688560177 ], [ -0.052161396365599, 51.58768425561199 ], [ -0.052154646746082, 51.587705719030403 ], [ -0.052149443344978, 51.587727208134964 ], [ -0.052145548283545, 51.587748718974147 ], [ -0.052143199444542, 51.587770255500033 ], [ -0.052140850603103, 51.587791792025691 ], [ -0.052139929046333, 51.587813352262373 ], [ -0.052140434776202, 51.5878349362102 ], [ -0.052142486735384, 51.587856545845213 ], [ -0.052144458153647, 51.587877255161075 ], [ -0.0521492419148, 51.587899000076973 ], [ -0.052154148460795, 51.587920657134418 ], [ -0.052158936070129, 51.587942312215922 ], [ -0.052166735605931, 51.587963118352405 ], [ -0.052174535148414, 51.587983924488618 ], [ -0.052183761990553, 51.588004754335621 ], [ -0.052194416134269, 51.588025607893144 ], [ -0.052205070287237, 51.588046461450091 ], [ -0.052218617436321, 51.588066464084605 ], [ -0.052232164596776, 51.588086466718075 ], [ -0.052401712091723, 51.588274563181905 ], [ -0.052412788721061, 51.588285534948596 ], [ -0.05253092593977, 51.588392678052934 ], [ -0.052604962478506, 51.588517967187215 ], [ -0.052669506573348, 51.588662067132695 ], [ -0.052718137841988, 51.588707823901025 ], [ -0.052984879590818, 51.589019795346623 ], [ -0.053207599828726, 51.589348115978204 ], [ -0.053352437517001, 51.589607719533184 ], [ -0.053457732708301, 51.589912514497549 ], [ -0.053448882697414, 51.590189343796013 ], [ -0.053454152719685, 51.590470003447443 ], [ -0.053382228484292, 51.590835683580586 ], [ -0.053288241261366, 51.591076937821207 ], [ -0.053143092531858, 51.591364988338682 ], [ -0.052912951907664, 51.591750514929508 ], [ -0.052507855088752, 51.592444272474097 ], [ -0.052498975419009, 51.592651879915394 ], [ -0.052493348280851, 51.59268325083459 ], [ -0.052385352661749, 51.593218239334149 ], [ -0.052335732068979, 51.593735408818887 ], [ -0.052331916419043, 51.593757819993073 ], [ -0.052322930824573, 51.593798124926039 ], [ -0.052312517741612, 51.593838406140861 ], [ -0.0522992458506, 51.59387872975433 ], [ -0.05228455030397, 51.593918939813811 ], [ -0.052269854730429, 51.593959149870649 ], [ -0.052250915130638, 51.593998390427402 ], [ -0.052231856540828, 51.594037629003644 ], [ -0.052227151366361, 51.594047439635325 ], [ -0.052206818981024, 51.594083061111569 ], [ -0.052186524995081, 51.594117784239266 ], [ -0.05216337601483, 51.594152459924764 ], [ -0.052140261588306, 51.594186327095045 ], [ -0.0521157234867, 51.594220080705888 ], [ -0.052109706084391, 51.594227172579885 ], [ -0.052088330379198, 51.594253786870823 ], [ -0.052059548179741, 51.594286570964023 ], [ -0.052012667909379, 51.594336134981596 ], [ -0.051962852038183, 51.594384751214079 ], [ -0.051908949422935, 51.594431501545287 ], [ -0.051853534842366, 51.594477417639645 ], [ -0.051828107027719, 51.594498570644568 ], [ -0.051771307074387, 51.594543474794605 ], [ -0.051711690461049, 51.594587433121262 ], [ -0.051652073732068, 51.594631391414801 ], [ -0.051646091017117, 51.594634887910118 ], [ -0.051529940536754, 51.594717462953405 ], [ -0.051416562120219, 51.594801972744008 ], [ -0.051404638241164, 51.594810764588608 ], [ -0.051386850345849, 51.594823054996354 ], [ -0.051368905029048, 51.594836241769393 ], [ -0.051351117116044, 51.59484853217041 ], [ -0.051333210231503, 51.594860820592757 ], [ -0.051316849855953, 51.594873134690836 ], [ -0.051298904503019, 51.594886321450488 ], [ -0.05128393321472, 51.594899557590509 ], [ -0.051267534362637, 51.594912770023576 ], [ -0.051253833199265, 51.594926926231288 ], [ -0.051240250991199, 51.594941084412262 ], [ -0.051226514964694, 51.594958835965627 ], [ -0.051211082199809, 51.594982852216674 ], [ -0.051197038525188, 51.595007790513634 ], [ -0.051185849954816, 51.595032776219192 ], [ -0.051176088932955, 51.595057785628605 ], [ -0.051167717007802, 51.595083717085949 ], [ -0.051159498645795, 51.595108842008337 ], [ -0.051157840359808, 51.595114208363178 ], [ -0.051150895977335, 51.595140163523965 ], [ -0.051143990041773, 51.595165220340242 ], [ -0.051140019735349, 51.59519122488765 ], [ -0.051136049424446, 51.59521722943451 ], [ -0.051134934239285, 51.595243281394275 ], [ -0.051133819052571, 51.595269333353855 ], [ -0.051134131430888, 51.595295409020046 ], [ -0.051083400827578, 51.595704592218887 ], [ -0.051062523881736, 51.595752880427135 ], [ -0.051016498404154, 51.59585190303131 ], [ -0.050966147937897, 51.595949055810571 ], [ -0.050914246873932, 51.596046272700235 ], [ -0.05085679651693, 51.596142408502573 ], [ -0.050796371784793, 51.596238494857964 ], [ -0.050731621991803, 51.596332711361683 ], [ -0.050699362123217, 51.596379911403567 ], [ -0.050659422398713, 51.596434085810643 ], [ -0.050621029153734, 51.596488285889265 ], [ -0.050579780622365, 51.596542438516863 ], [ -0.050537062365672, 51.596594768745682 ], [ -0.050491488810909, 51.596647051517529 ], [ -0.050443094571416, 51.59669847832059 ], [ -0.050331645585129, 51.596804504395067 ], [ -0.050273296527764, 51.596852079888173 ], [ -0.050164124430677, 51.596941062958493 ], [ -0.049989456903317, 51.597074895427006 ], [ -0.049914822706362, 51.597132987841476 ], [ -0.049737221970518, 51.597265782232363 ], [ -0.049555568001221, 51.597395901884326 ], [ -0.048789693530994, 51.597948806745642 ], [ -0.047789535483667, 51.598675805475196 ], [ -0.046912899692379, 51.599386870786553 ], [ -0.046443655350449, 51.599790070648169 ], [ -0.046102624557926, 51.60013238536051 ], [ -0.0457434089492, 51.60049327438648 ], [ -0.04478688418766, 51.601449421523604 ], [ -0.044027982705556, 51.60223894544481 ], [ -0.043515180942282, 51.602814831863306 ], [ -0.043115960941124, 51.603332467771203 ], [ -0.042683880999077, 51.603943948540248 ], [ -0.042210832430279, 51.604602390628258 ], [ -0.042201450864255, 51.604618415985293 ], [ -0.042128253256637, 51.604742244689454 ], [ -0.042049267370766, 51.60486498783694 ], [ -0.041967621622227, 51.604985888536923 ], [ -0.041881450020019, 51.605106803527974 ], [ -0.041789766666429, 51.605225738551418 ], [ -0.041739230829713, 51.60529052164793 ], [ -0.041693560418195, 51.605347384880218 ], [ -0.041646308247771, 51.605405030783416 ], [ -0.041596158545086, 51.605460830301382 ], [ -0.041544699837301, 51.60551660794254 ], [ -0.041512966018712, 51.60554844198878 ], [ -0.0414723170211, 51.605588218143218 ], [ -0.041431545095015, 51.605628082129904 ], [ -0.041422629943268, 51.605636024243701 ], [ -0.041389506738775, 51.605666936061482 ], [ -0.041345921446538, 51.605705764148333 ], [ -0.041300985527129, 51.605742771675089 ], [ -0.041254582994977, 51.605780653690672 ], [ -0.041208257710503, 51.605816738985538 ], [ -0.041159076596236, 51.60585277657357 ], [ -0.041106997987156, 51.605886967764043 ], [ -0.041055034421021, 51.605921250751301 ], [ -0.041019480328761, 51.605942232913307 ], [ -0.04100164377503, 51.605952722996342 ], [ -0.040964623082783, 51.605974579644965 ], [ -0.040908376545045, 51.606006004152626 ], [ -0.040849351504653, 51.606035584237418 ], [ -0.040790326385874, 51.606065164290428 ], [ -0.040741686084777, 51.606088624791525 ], [ -0.040729950651574, 51.606092923763704 ], [ -0.040669455851697, 51.606120681216495 ], [ -0.040606301547334, 51.606146596224171 ], [ -0.040543066856751, 51.606171610858866 ], [ -0.038646301675693, 51.606887247232798 ], [ -0.037919631570203, 51.607161964367641 ], [ -0.036429742611553, 51.607716077164248 ], [ -0.036368123948937, 51.607739408466287 ], [ -0.036163777531254, 51.607822291101378 ], [ -0.035957769780644, 51.607910539524809 ], [ -0.035806120648554, 51.607978121925058 ], [ -0.035754539544741, 51.608000632076759 ], [ -0.035739830916396, 51.608007577738306 ], [ -0.035669137054736, 51.608039746646604 ], [ -0.035598485749452, 51.608070927330061 ], [ -0.035527795563713, 51.608103006313335 ], [ -0.035458533221863, 51.608135109165701 ], [ -0.035387723838261, 51.608167186066368 ], [ -0.035318422509819, 51.60820018717552 ], [ -0.03525209597151, 51.608233238068031 ], [ -0.035185572761157, 51.608268083616601 ], [ -0.035120438606999, 51.608303851387909 ], [ -0.035058236576832, 51.608340657131365 ], [ -0.034997349897158, 51.608380091958232 ], [ -0.034967580392217, 51.608399371150085 ], [ -0.034833096504926, 51.608502301117916 ], [ -0.034707223488096, 51.608609870305152 ], [ -0.034585472150336, 51.608718497254145 ], [ -0.034574930491331, 51.608728209618469 ], [ -0.034535971583211, 51.608761718830245 ], [ -0.034495426838625, 51.608796100456296 ], [ -0.034456467818191, 51.608829609633347 ], [ -0.034417469659379, 51.608864017693143 ], [ -0.034378391208726, 51.608897525480941 ], [ -0.034340820868372, 51.608931957527481 ], [ -0.03430463575905, 51.608967401676814 ], [ -0.034269882461349, 51.609002779897594 ], [ -0.034236518279652, 51.60903908038788 ], [ -0.034204701032035, 51.609075406782189 ], [ -0.034176971064268, 51.609113599663942 ], [ -0.034175504256976, 51.609114474099989 ], [ -0.034150865677562, 51.60915002173342 ], [ -0.034127616231304, 51.609186491643989 ], [ -0.03410583356007, 51.609222087112272 ], [ -0.034085516324433, 51.609259595049735 ], [ -0.03406655075309, 51.609296136717155 ], [ -0.034049093324978, 51.609333602659369 ], [ -0.034033063864546, 51.609371092523354 ], [ -0.034019890372852, 51.609408630236736 ], [ -0.034006559036979, 51.609447064312931 ], [ -0.033996360500753, 51.60948465186835 ], [ -0.033994660743037, 51.609490916460686 ], [ -0.03398743212554, 51.609523159714932 ], [ -0.033980050737202, 51.609561693481169 ], [ -0.03397803397684, 51.609572537714385 ], [ -0.033973197994415, 51.609618306213477 ], [ -0.033969751183414, 51.609664996999264 ], [ -0.033970588384868, 51.609711759568569 ], [ -0.033971550512221, 51.609722563815069 ], [ -0.033972972595709, 51.609758548059865 ], [ -0.033978132652028, 51.609804484053782 ], [ -0.033984800906109, 51.609851344330046 ], [ -0.033994360138326, 51.609897443939239 ], [ -0.034006779298527, 51.609943501569184 ], [ -0.034019317483318, 51.609989561193295 ], [ -0.034034592723969, 51.610035666679742 ], [ -0.034051453835688, 51.610080899728132 ], [ -0.034069781820599, 51.610125258344119 ], [ -0.034089499038653, 51.610170539247164 ], [ -0.034112107277909, 51.610215059480502 ], [ -0.034136186286044, 51.610258615443662 ], [ -0.034161773544957, 51.610303095686085 ], [ -0.03419017554245, 51.610345825065828 ], [ -0.034218696593423, 51.610388556436128 ], [ -0.034251501783258, 51.610431359582151 ], [ -0.034284345850799, 51.610473264362895 ], [ -0.034318656826081, 51.610514294703904 ], [ -0.034355977865211, 51.610554566359262 ], [ -0.034848980408555, 51.611078947457997 ], [ -0.034919498019888, 51.611150251519703 ], [ -0.03499966394736, 51.611235292342656 ], [ -0.035076820117334, 51.611321091818851 ], [ -0.035149614829212, 51.611408616208628 ], [ -0.035219430838548, 51.61149618055908 ], [ -0.035286397497744, 51.611586304273274 ], [ -0.035350389305408, 51.611676378122013 ], [ -0.035363974178195, 51.611695484872733 ], [ -0.035384352815817, 51.611725493534273 ], [ -0.035406159547457, 51.611755526108794 ], [ -0.03542796630944, 51.611785558679259 ], [ -0.03544830235768, 51.611816555527177 ], [ -0.035468681110944, 51.611846564174094 ], [ -0.035487593026739, 51.611877447263304 ], [ -0.035504957892638, 51.611908304441215 ], [ -0.035522441789214, 51.611939163609442 ], [ -0.035535483690413, 51.611970847398723 ], [ -0.035548525610469, 51.612002531186455 ], [ -0.035549801127347, 51.612008845623386 ], [ -0.03556110463685, 51.612047692385389 ], [ -0.035570980089137, 51.612086515231645 ], [ -0.035577956728196, 51.612126278445515 ], [ -0.035581962092846, 51.612165902000974 ], [ -0.035584539383038, 51.612205501641718 ], [ -0.035584418313731, 51.612244157084973 ], [ -0.035584139441888, 51.61228370889642 ], [ -0.035581004398739, 51.612323212878756 ], [ -0.035576322255409, 51.612362690953347 ], [ -0.035575779128873, 51.612375268011213 ], [ -0.035569826688043, 51.61241382580225 ], [ -0.035560856374922, 51.612453321967763 ], [ -0.03555200893133, 51.612492730289041 ], [ -0.035540225074742, 51.612531190425223 ], [ -0.035527013102864, 51.612569626644763 ], [ -0.035512373011862, 51.61260803894713 ], [ -0.035501209832667, 51.612632125299008 ], [ -0.03546130685387, 51.612717762108339 ], [ -0.035426077344283, 51.612799971029006 ], [ -0.035424455250623, 51.612804438918303 ], [ -0.035391772675786, 51.612891095636193 ], [ -0.035380182553849, 51.612925063946989 ], [ -0.035364998999401, 51.612976053282871 ], [ -0.035361521983551, 51.612990379225927 ], [ -0.035351282315841, 51.613026168172482 ], [ -0.035336094807631, 51.61307724733954 ], [ -0.035317974710194, 51.613127288478196 ], [ -0.03529398690796, 51.613180827385371 ], [ -0.035256095731119, 51.613255709691671 ], [ -0.035213958866557, 51.613329621865979 ], [ -0.035168842720651, 51.613403574027096 ], [ -0.035147175213215, 51.613436474518252 ], [ -0.035099245272454, 51.613509390613252 ], [ -0.035048497719093, 51.613581360483899 ], [ -0.034993385402719, 51.613652358211191 ], [ -0.0345947935063, 51.614087274257699 ], [ -0.033973373999715, 51.614827712869101 ], [ -0.033386955042654, 51.615562530732774 ], [ -0.033349223095047, 51.615600555406893 ], [ -0.032907463153289, 51.616060721091856 ], [ -0.032881663563777, 51.616089955626357 ], [ -0.03278460121787, 51.616197197425763 ], [ -0.032690398721673, 51.616304397191584 ], [ -0.032596156928294, 51.61641249520418 ], [ -0.03249758486838, 51.616518812350336 ], [ -0.03239492833307, 51.616623172940514 ], [ -0.032285047657175, 51.616723816167905 ], [ -0.032067569166531, 51.616910846321204 ], [ -0.031841398117336, 51.617095033055634 ], [ -0.031678379364635, 51.617223550374497 ], [ -0.031596233798101, 51.617285999288711 ], [ -0.031443832866988, 51.617403095596266 ], [ -0.03120361187727, 51.617578859243743 ], [ -0.030260841598113, 51.618201484481858 ], [ -0.029767860601608, 51.618578057005685 ], [ -0.029437588565892, 51.618830605248107 ], [ -0.028645496339585, 51.619506990914338 ], [ -0.027936888949566, 51.620125442256708 ], [ -0.027785196187243, 51.620258727230571 ], [ -0.027424758549599, 51.620574589940823 ], [ -0.027312196767452, 51.620670685400412 ], [ -0.02700595015054, 51.620937115434984 ], [ -0.026970104838157, 51.620964380750713 ], [ -0.026249307319781, 51.621527778610364 ], [ -0.026098271399815, 51.621645699812007 ], [ -0.025974804956611, 51.621762376844167 ], [ -0.025931062848846, 51.621738267007288 ], [ -0.02554881953379, 51.622056453621873 ], [ -0.025316178629831, 51.622355582695874 ], [ -0.025221386474074, 51.62250861107011 ], [ -0.025100325378576, 51.622770063491984 ], [ -0.024950488059544, 51.623126323029233 ], [ -0.024829007455067, 51.623361697637051 ], [ -0.024746835247527, 51.623523028970709 ], [ -0.024661006370907, 51.623735630413556 ], [ -0.024565231700991, 51.623913902992278 ], [ -0.024426995611739, 51.624134521294479 ], [ -0.024256426801793, 51.624369967227587 ], [ -0.024024857830965, 51.624643940152595 ], [ -0.023791953260768, 51.62488552680832 ], [ -0.023499123799254, 51.625173748897382 ], [ -0.023337582502571, 51.625332842386499 ], [ -0.023155768322813, 51.625560905111783 ], [ -0.022922225988048, 51.625814165386991 ], [ -0.022402499691882, 51.62646812757194 ], [ -0.019865180720401, 51.629690382941497 ], [ -0.018667163420644, 51.631185360887592 ], [ -0.017793082695741, 51.632277592568009 ], [ -0.017020895927979, 51.633250999297871 ], [ -0.016809329191937, 51.633528895350523 ], [ -0.016625757201793, 51.633763124302639 ], [ -0.015951173815787, 51.634584472405081 ], [ -0.015411194774034, 51.635269557785563 ], [ -0.015240381694871, 51.635505895559987 ], [ -0.014971794789592, 51.635932067988314 ], [ -0.014822091921627, 51.636249672203256 ], [ -0.014836398204132, 51.636451380291085 ], [ -0.014767639306472, 51.636735291518207 ], [ -0.014765935876265, 51.63674155573716 ], [ -0.014563458057696, 51.637009721558186 ], [ -0.013960400741744, 51.638111860887868 ], [ -0.013488472617137, 51.639187537322918 ], [ -0.013317843814199, 51.639618060399236 ], [ -0.013251425899192, 51.639848070463394 ], [ -0.013141927916606, 51.640567397847761 ], [ -0.013138088256291, 51.640589807953134 ], [ -0.012694675474544, 51.643524773906663 ], [ -0.012259876639438, 51.646228693825414 ], [ -0.012012921959975, 51.64622361648847 ], [ -0.012007141083432, 51.646257681577914 ], [ -0.01163690474522, 51.646392653108506 ], [ -0.011515762425013, 51.646421169713875 ], [ -0.011097350517469, 51.646401501208985 ], [ -0.010751896953092, 51.646370480139751 ], [ -0.010376455149862, 51.646294897993428 ], [ -0.01017603399798, 51.646514462020306 ], [ -0.009214264465123, 51.64652783750266 ], [ -0.008982112358834, 51.64651401438627 ], [ -0.008819468294399, 51.646496873682175 ], [ -0.008592589105404, 51.646463360575915 ], [ -0.008336602240785, 51.646400584762269 ], [ -0.00797716201654, 51.646324367039426 ], [ -0.007600246176303, 51.646217284915387 ], [ -0.007343950914567, 51.646161603924256 ], [ -0.007721917748391, 51.645847870358324 ], [ -0.007987813245275, 51.645521447268258 ], [ -0.007912409852313, 51.645460833002836 ], [ -0.007946287724598, 51.645280703086037 ], [ -0.007964060237192, 51.645236862226476 ], [ -0.00799342058817, 51.64519510579882 ], [ -0.008221078767583, 51.644979603177319 ], [ -0.008320812163364, 51.644683626338171 ], [ -0.008445988181302, 51.644497761974463 ], [ -0.008274029312822, 51.644497543859515 ], [ -0.008284519221305, 51.644290855703701 ], [ -0.008280500540651, 51.644151438461229 ], [ -0.008257687027596, 51.643945983724855 ], [ -0.008258575031956, 51.643762597356442 ], [ -0.008271761091686, 51.643660241980847 ], [ -0.008191560513735, 51.643608536721644 ], [ -0.008137765715494, 51.643582451873577 ], [ -0.008011047050481, 51.643539847030333 ], [ -0.007905016207937, 51.643517371448198 ], [ -0.007281039807513, 51.643443856818358 ], [ -0.006657137194472, 51.643333390014917 ], [ -0.006226812472416, 51.643325188338146 ], [ -0.006024531618575, 51.64332355312321 ], [ -0.005776565036542, 51.643341909570751 ], [ -0.005634187383708, 51.643357473082823 ], [ -0.005493160546158, 51.643377554502003 ], [ -0.004559561637298, 51.643537909689329 ], [ -0.004424622557615, 51.643318951506387 ], [ -0.004394795633499, 51.643241038408462 ], [ -0.004369182225091, 51.643200146979162 ], [ -0.004340197260484, 51.643168188558576 ], [ -0.004209021034085, 51.64306167263895 ], [ -0.004072944654941, 51.642868676562301 ], [ -0.00398426997434, 51.642717031954611 ], [ -0.003655399543416, 51.642832812501659 ], [ -0.002921569793202, 51.643119806284773 ], [ -0.002130489229823, 51.643394134733278 ], [ -0.001821016754094, 51.643496754878043 ], [ -0.001083217104734, 51.643675786488934 ], [ -0.000854982409061, 51.643706065853991 ], [ -0.000494879280546, 51.643710725539137 ], [ -0.000287107864099, 51.643636165477609 ], [ -0.000456348350812, 51.643532870704895 ], [ -0.000380484604258, 51.643483031723065 ], [ -0.000344278528867, 51.643452747404538 ], [ -0.000283930936893, 51.643377999608632 ], [ -0.000268285142965, 51.643340873005663 ], [ -0.000253226330057, 51.643255208718912 ], [ 0.000098631574266, 51.642647587013478 ], [ 0.000203689911355, 51.642438032182604 ], [ 0.000375429912251, 51.642235433086832 ], [ 0.000486308501216, 51.642128359292805 ], [ 0.000604608366792, 51.642024756903673 ], [ 0.000824366253, 51.64186269909829 ], [ 0.000934402462063, 51.641801490482926 ], [ 0.0010670994866, 51.64176237096288 ], [ 0.001256431738475, 51.641761842847515 ], [ 0.001458426812539, 51.641753906635039 ], [ 0.001655985179236, 51.641677721120146 ], [ 0.002107050865378, 51.64164845861869 ], [ 0.002551482142076, 51.641666055845974 ], [ 0.002808410474501, 51.641658079915153 ], [ 0.002973730485904, 51.641637281240548 ], [ 0.003014136644851, 51.641602340159416 ], [ 0.003209263004908, 51.641603508125733 ], [ 0.003496196732956, 51.641654443395637 ], [ 0.003533156254977, 51.641541347333039 ], [ 0.004310723717144, 51.641541568902852 ], [ 0.005076778502533, 51.641575245047044 ], [ 0.0054796559632, 51.641599024328762 ], [ 0.005864667564511, 51.641644593515494 ], [ 0.006142948569064, 51.641661417876335 ], [ 0.00640964043351, 51.641647873302468 ], [ 0.006552770249497, 51.641648125726448 ], [ 0.006620604142188, 51.641646068086757 ], [ 0.007043286190105, 51.641594796318309 ], [ 0.007410001314323, 51.641587631658084 ], [ 0.008422460374087, 51.641472245456086 ], [ 0.008973938987731, 51.641425956842404 ], [ 0.009689506329834, 51.641460466206532 ], [ 0.0097948883309, 51.641458663406958 ], [ 0.009898523510439, 51.641449698358159 ], [ 0.010042048254018, 51.641426565646306 ], [ 0.010760467253984, 51.64136392715475 ], [ 0.01105271383801, 51.641305883439372 ], [ 0.011171389920358, 51.641275982688271 ], [ 0.011458076102873, 51.641189265018639 ], [ 0.011513921283623, 51.641177520778534 ], [ 0.011592986259005, 51.64116807593674 ], [ 0.011737463763526, 51.641166500969653 ], [ 0.012180019272394, 51.641141750744815 ], [ 0.012470598374572, 51.641110702232055 ], [ 0.012806223911587, 51.641052810095566 ], [ 0.013480878686935, 51.640882125386341 ], [ 0.013990231265341, 51.640832040323353 ], [ 0.014162014460407, 51.64082549925363 ], [ 0.014447732480505, 51.640719822005011 ], [ 0.014629113598789, 51.640669064490801 ], [ 0.014871023287666, 51.640618167611912 ], [ 0.015133931347487, 51.640581294109893 ], [ 0.015832742242443, 51.640434364832132 ], [ 0.016395464525673, 51.640349191447051 ], [ 0.016803714841229, 51.64029813246259 ], [ 0.017420502047387, 51.640257875213194 ], [ 0.018123110200975, 51.640263787654938 ], [ 0.019351956570106, 51.640337066820727 ], [ 0.020079444770774, 51.640446914042684 ], [ 0.021832031818219, 51.640922093899505 ], [ 0.021833460699188, 51.640922069308097 ], [ 0.022719360324305, 51.641115477680408 ], [ 0.022729710793864, 51.641088329418501 ], [ 0.022864951767154, 51.640555410014741 ], [ 0.023007108071646, 51.640046734320059 ], [ 0.022964771112487, 51.639518670538124 ], [ 0.02298013058557, 51.638726115757066 ], [ 0.02305696718682, 51.637920006153166 ], [ 0.023082653021813, 51.637718097506443 ], [ 0.023956733979705, 51.637551111332094 ], [ 0.024709701424343, 51.637452642242238 ], [ 0.024921433484086, 51.637439104102192 ], [ 0.025005858260602, 51.637354940828772 ], [ 0.025159029732592, 51.637289370529075 ], [ 0.025024859505113, 51.637131571042829 ], [ 0.02493718304572, 51.637011717019064 ], [ 0.024879440956344, 51.636916519050736 ], [ 0.024836101676585, 51.63682098292314 ], [ 0.024807212136417, 51.636723489641717 ], [ 0.024788162831699, 51.636619533750789 ], [ 0.02471931550847, 51.636339242824484 ], [ 0.024712359759546, 51.636215210557779 ], [ 0.024712219481453, 51.636051594657772 ], [ 0.024731235005371, 51.635959568776293 ], [ 0.024764811806239, 51.635868101048999 ], [ 0.024808713689298, 51.635783737284285 ], [ 0.024964071210973, 51.635540037372557 ], [ 0.024995447520261, 51.635498142507082 ], [ 0.025224221111836, 51.635249580874827 ], [ 0.025441139911901, 51.635026485137203 ], [ 0.025669173440505, 51.634825582531917 ], [ 0.025738477893684, 51.634565385247441 ], [ 0.025572797557981, 51.634382148370449 ], [ 0.025421361632795, 51.634096089572658 ], [ 0.02501343098384, 51.633470945507348 ], [ 0.024622261279004, 51.632959685614068 ], [ 0.024472226873658, 51.632675401504748 ], [ 0.024329495533443, 51.632389193410056 ], [ 0.0240731692953, 51.631826163768501 ], [ 0.023872693691323, 51.631281140355661 ], [ 0.023842967451598, 51.631167390124745 ], [ 0.023899144945415, 51.631128664569196 ], [ 0.023834316655295, 51.630938295327091 ], [ 0.023890854768592, 51.63091035150098 ], [ 0.023926366150864, 51.630897153807474 ], [ 0.023890097155491, 51.630797001229759 ], [ 0.023751184281031, 51.630727474566513 ], [ 0.023716770499579, 51.630701097506318 ], [ 0.022507385585172, 51.629792992135926 ], [ 0.022160451895295, 51.629431185523281 ], [ 0.021818845239947, 51.628832760777129 ], [ 0.021589441639533, 51.628938295045593 ], [ 0.02137356239162, 51.629023818255853 ], [ 0.021358638996799, 51.629012388102559 ], [ 0.021294301278869, 51.628961353410219 ], [ 0.021408324979733, 51.628894663883919 ], [ 0.021375812333634, 51.628846677606283 ], [ 0.021348073181891, 51.628839063944142 ], [ 0.021301245812274, 51.628825485743718 ], [ 0.021208599703465, 51.628855847585797 ], [ 0.021051603832652, 51.628931367150543 ], [ 0.020987476148994, 51.628919884441189 ], [ 0.020971106112345, 51.628843751528692 ], [ 0.020915259460508, 51.628788075597278 ], [ 0.020921101931362, 51.628694389771404 ], [ 0.020982495475146, 51.628580060320147 ], [ 0.021085241286113, 51.628484797284138 ], [ 0.021145451305829, 51.628410852946928 ], [ 0.021143055080203, 51.628356954498777 ], [ 0.021127173483631, 51.628323964936683 ], [ 0.021119272246259, 51.628307019977072 ], [ 0.021061817826343, 51.628316998384641 ], [ 0.021008846994518, 51.628326000635298 ], [ 0.020815077317877, 51.628289778250874 ], [ 0.020695442934596, 51.628297230099641 ], [ 0.020674207823847, 51.628275120501414 ], [ 0.020663610239988, 51.628264514854664 ], [ 0.020698751524586, 51.628208172743058 ], [ 0.020695756922918, 51.628140799672302 ], [ 0.020582187163621, 51.62799253116961 ], [ 0.020588401688735, 51.627936686626647 ], [ 0.02057469003618, 51.627856012972998 ], [ 0.020492274854252, 51.627725188420534 ], [ 0.020489999226156, 51.62767398488004 ], [ 0.020561049390942, 51.627613429201894 ], [ 0.020577693505961, 51.627534930403939 ], [ 0.020620561972241, 51.627456789622777 ], [ 0.020618046670226, 51.627400196235534 ], [ 0.020589462007129, 51.627344051256053 ], [ 0.020547351399618, 51.62730521981436 ], [ 0.020502664142664, 51.627275422621153 ], [ 0.020438179626487, 51.627255854849935 ], [ 0.020317398848527, 51.627269619049606 ], [ 0.02026076590999, 51.627231037268189 ], [ 0.019948033271638, 51.627021465617545 ], [ 0.019948263673027, 51.626991794845608 ], [ 0.019943699644947, 51.626988277347749 ], [ 0.019948015833102, 51.626954041348682 ], [ 0.019949188070721, 51.62688389963958 ], [ 0.019949406810916, 51.626824472357178 ], [ 0.019947610799068, 51.626784048497711 ], [ 0.020164965053564, 51.626603208939713 ], [ 0.020164525984995, 51.626593327552108 ], [ 0.02016360793334, 51.626572666468903 ], [ 0.020161887587308, 51.626533949395387 ], [ 0.020128259674608, 51.626458113173364 ], [ 0.020095000267545, 51.626425422336979 ], [ 0.020088614100468, 51.62628169305448 ], [ 0.020091849180216, 51.626225809868885 ], [ 0.019954814410743, 51.626131074951445 ], [ 0.019826128493596, 51.626098226938417 ], [ 0.019788504496268, 51.626063813082311 ], [ 0.019814029581669, 51.625954595881723 ], [ 0.019818155199033, 51.625950928966311 ], [ 0.019815178644784, 51.625948283163801 ], [ 0.019821318353061, 51.625922915853366 ], [ 0.019630911000732, 51.625801229472984 ], [ 0.01948550818793, 51.6257138298757 ], [ 0.01943402495728, 51.625630209499924 ], [ 0.019474436558284, 51.625563798281235 ], [ 0.019468739123965, 51.625467703556659 ], [ 0.019500346004699, 51.625398835998674 ], [ 0.0195021977473, 51.625343965026524 ], [ 0.01944522909221, 51.625230681256319 ], [ 0.019147520999935, 51.625034422601424 ], [ 0.019294265569035, 51.624953596949972 ], [ 0.019289103507505, 51.624936604649207 ], [ 0.019270647223513, 51.624909951862179 ], [ 0.019165217222245, 51.624880299156025 ], [ 0.019048160873381, 51.624846351193469 ], [ 0.019035443364985, 51.624755770589481 ], [ 0.019026242526376, 51.624288267881433 ], [ 0.018859175608349, 51.624168875218196 ], [ 0.018645875273857, 51.624180632186885 ], [ 0.018610121006663, 51.624156074599767 ], [ 0.018607489335147, 51.62409678570706 ], [ 0.018640089491106, 51.624050286454398 ], [ 0.018768442992236, 51.624046282504715 ], [ 0.018827027459074, 51.623965264421003 ], [ 0.018775739721265, 51.623851073672895 ], [ 0.018797986783283, 51.623799448192344 ], [ 0.018837767572017, 51.623751027447582 ], [ 0.018921118706652, 51.623710038700047 ], [ 0.019031752211851, 51.623760369038429 ], [ 0.01907288871721, 51.623742490973875 ], [ 0.019081802305611, 51.623683003606224 ], [ 0.019068661219115, 51.623647269413354 ], [ 0.01898453851966, 51.623609159349918 ], [ 0.018930535688554, 51.623594804567645 ], [ 0.018891015724994, 51.623584695835078 ], [ 0.018811224809565, 51.623577077267882 ], [ 0.018689575699399, 51.623571077061634 ], [ 0.018573679277182, 51.62356317986255 ], [ 0.018487139014475, 51.623535000028596 ], [ 0.018490658915292, 51.623482797433617 ], [ 0.018598757316005, 51.62341162665745 ], [ 0.018716273924233, 51.623391626911527 ], [ 0.018775064270307, 51.623347464365416 ], [ 0.018834964428883, 51.623298787699731 ], [ 0.018855304318951, 51.623236406948436 ], [ 0.018834862368434, 51.623197202218911 ], [ 0.018775379991391, 51.623161365516701 ], [ 0.01865224496956, 51.623086976797886 ], [ 0.018581666872343, 51.622929965442871 ], [ 0.018523246924204, 51.622850958278171 ], [ 0.018487761869505, 51.622800235103981 ], [ 0.018413199704552, 51.622746677359245 ], [ 0.018308565020904, 51.622699929358589 ], [ 0.018281461714205, 51.622677021055075 ], [ 0.018219913713361, 51.62262413856795 ], [ 0.018086787343264, 51.622552707919489 ], [ 0.017932905366193, 51.622472553822362 ], [ 0.017717048352226, 51.622359392088491 ], [ 0.017596306388706, 51.622309324209432 ], [ 0.017482479148707, 51.622315774520693 ], [ 0.017459587432181, 51.622320662743668 ], [ 0.017367475575463, 51.622395064024921 ], [ 0.017273723094801, 51.622397573308966 ], [ 0.017184608050698, 51.622375729841337 ], [ 0.017101843299442, 51.62236546426233 ], [ 0.017052048206208, 51.622351935418905 ], [ 0.017040343347912, 51.622348540429243 ], [ 0.017047165660005, 51.622338534254638 ], [ 0.017114832836741, 51.622236684025985 ], [ 0.017129172475249, 51.622135659730013 ], [ 0.017133729739689, 51.622106813426051 ], [ 0.017114911731567, 51.622042408535656 ], [ 0.017091854733907, 51.622011339485397 ], [ 0.017055824068587, 51.621980493241274 ], [ 0.017011343689914, 51.621955186106021 ], [ 0.016971665664387, 51.621938786493722 ], [ 0.016581798590367, 51.621844703144397 ], [ 0.01629157166737, 51.6218164229577 ], [ 0.016216143275031, 51.621778161829461 ], [ 0.016261073383938, 51.621649732426661 ], [ 0.016258490162723, 51.62162370575674 ], [ 0.016247576629243, 51.621605913101511 ], [ 0.016143449665751, 51.621506023676687 ], [ 0.016140075402113, 51.621494394594073 ], [ 0.016159115163232, 51.621469794732072 ], [ 0.016183434444271, 51.621462185244127 ], [ 0.01622806780835, 51.621458722018346 ], [ 0.016286266670003, 51.62143614687362 ], [ 0.016312765886452, 51.621415913923634 ], [ 0.016314894211285, 51.621332270322945 ], [ 0.016269415242237, 51.621284415166748 ], [ 0.016169981352736, 51.621225889140973 ], [ 0.016033493562847, 51.621177888110729 ], [ 0.016023455827845, 51.621177161415631 ], [ 0.016010716020252, 51.621150410088276 ], [ 0.015850391898617, 51.620924726041999 ], [ 0.015841145852496, 51.620912298739036 ], [ 0.015689471409992, 51.620911306034401 ], [ 0.0156180904851, 51.620864884114141 ], [ 0.015557941675103, 51.620846138397084 ], [ 0.01551743398067, 51.620843237582008 ], [ 0.015273602835065, 51.620883381873874 ], [ 0.015270069614796, 51.620868159501605 ], [ 0.015262247278469, 51.620823343727096 ], [ 0.015150474059229, 51.620744351647225 ], [ 0.015059090511655, 51.620671212714264 ], [ 0.014858721501383, 51.620552385927198 ], [ 0.014741392241564, 51.620447417501822 ], [ 0.014654700818465, 51.620412944459794 ], [ 0.014515603891267, 51.620402744150617 ], [ 0.014466249486629, 51.620399095602714 ], [ 0.014378002678526, 51.620329498152664 ], [ 0.014340666701691, 51.620304067452061 ], [ 0.014470067290739, 51.620192170297507 ], [ 0.014583398899457, 51.620075154591007 ], [ 0.014672999892149, 51.619946768896646 ], [ 0.01473530057794, 51.61975331430861 ], [ 0.014746178714935, 51.619544469837138 ], [ 0.014702635564073, 51.619408478842111 ], [ 0.014525665820558, 51.618903489407941 ], [ 0.014360070865144, 51.618881157507978 ], [ 0.01422518364615, 51.618869086771625 ], [ 0.014016469953779, 51.618887049814752 ], [ 0.012663700532214, 51.619068462061897 ], [ 0.012263288637044, 51.619095999639683 ], [ 0.011853234095255, 51.619099428042546 ], [ 0.011477495840883, 51.619097772341867 ], [ 0.011221923841145, 51.619066188914871 ], [ 0.010897481465375, 51.619047471032424 ], [ 0.010706890504864, 51.618950046112431 ], [ 0.010513570081552, 51.619022578236532 ], [ 0.010400902931043, 51.619087436586739 ], [ 0.010355796274953, 51.619112481577432 ], [ 0.010253442627921, 51.619151991311142 ], [ 0.010237891225701, 51.619158550456383 ], [ 0.010228487094907, 51.61911016552525 ], [ 0.010148148463963, 51.619057600609537 ], [ 0.010139420404157, 51.619054153991222 ], [ 0.010029171332894, 51.619076717694014 ], [ 0.009951214937692, 51.619078051742953 ], [ 0.009928125561484, 51.619078446855909 ], [ 0.009908726270348, 51.619097657769927 ], [ 0.009860366914193, 51.619148829154277 ], [ 0.009750355578962, 51.619174085510309 ], [ 0.009674462323232, 51.619189768029607 ], [ 0.009484112764142, 51.619165155836022 ], [ 0.009051404227639, 51.619181547955264 ], [ 0.008704427482164, 51.619076006735391 ], [ 0.009028273164097, 51.618984164214382 ], [ 0.009122415467157, 51.618955583991792 ], [ 0.010640611051633, 51.618531168840939 ], [ 0.013549864832066, 51.617744869893698 ], [ 0.014729243207384, 51.617400914885764 ], [ 0.015300396791762, 51.617216619066156 ], [ 0.0158234352553, 51.617056608166735 ], [ 0.016067987859702, 51.616936437534399 ], [ 0.016158629351941, 51.61689622388198 ], [ 0.016278067130896, 51.616852728771363 ], [ 0.02058756150304, 51.612894749014977 ], [ 0.021073963360094, 51.612463753005123 ], [ 0.021259034089809, 51.612273483225096 ], [ 0.021290479109043, 51.612233385458957 ], [ 0.021343373777428, 51.612156059003517 ], [ 0.021391612504255, 51.612038267313942 ], [ 0.02140596732856, 51.611873501301787 ], [ 0.021400815394741, 51.611757527766592 ], [ 0.021378874410923, 51.611587992547577 ], [ 0.021334283834408, 51.611431343489194 ], [ 0.021204907852372, 51.611183645801866 ], [ 0.021401004809849, 51.611145208554213 ], [ 0.021217558976008, 51.610752622245258 ], [ 0.021075543515642, 51.61054739548748 ], [ 0.020861405609746, 51.610603223927633 ], [ 0.020638518733118, 51.610268942150228 ], [ 0.020713495907948, 51.61016867074806 ], [ 0.020449268625299, 51.60978026046611 ], [ 0.020394236893961, 51.609710185629261 ], [ 0.020212392234822, 51.609779841389624 ], [ 0.019877617436157, 51.609103072463633 ], [ 0.019708129298969, 51.608927894173419 ], [ 0.019666668378504, 51.608873767747241 ], [ 0.01955819740456, 51.60873988362701 ], [ 0.019598295273387, 51.60873110286628 ], [ 0.019682655620382, 51.608713469664593 ], [ 0.019650506901254, 51.608638416380764 ], [ 0.019613361615364, 51.608550053865414 ], [ 0.019531454335362, 51.608365368769753 ], [ 0.019502353865612, 51.608262393868394 ], [ 0.019434131463578, 51.608254577249859 ], [ 0.019264329352412, 51.60823592156985 ], [ 0.019268094748798, 51.608224169750528 ], [ 0.019333743591431, 51.608074704904908 ], [ 0.019454213005786, 51.607797447541842 ], [ 0.019578826567521, 51.607610918232496 ], [ 0.019472500892057, 51.60765410132705 ], [ 0.019144881556468, 51.607790181577656 ], [ 0.019130915416729, 51.607767946640237 ], [ 0.018732884241237, 51.607162389032581 ], [ 0.018300272737437, 51.606525959415443 ], [ 0.018013339797515, 51.606048845258286 ], [ 0.018155834078606, 51.606005041743799 ], [ 0.018084992427575, 51.605970299254203 ], [ 0.01800914478172, 51.605889793524497 ], [ 0.018014600006338, 51.605816790473924 ], [ 0.017482384006424, 51.60537454684038 ], [ 0.017458385663644, 51.605354282110881 ], [ 0.017427442246486, 51.605308964584147 ], [ 0.017212791353706, 51.60505994257808 ], [ 0.01707223551064, 51.604854597471721 ], [ 0.015765192913171, 51.603058718999627 ], [ 0.014843199900724, 51.601771530676579 ], [ 0.014169652881975, 51.60094234682326 ], [ 0.013796270451788, 51.600368720610938 ], [ 0.013427194864777, 51.599892115458552 ], [ 0.013256614916331, 51.599593789964679 ], [ 0.013017310979723, 51.599208542256356 ], [ 0.012931133133027, 51.599055394088779 ], [ 0.012883023714552, 51.598392492430413 ], [ 0.012817629565629, 51.597696714511805 ], [ 0.012710955597551, 51.596918038564311 ], [ 0.01262341059629, 51.596405136580586 ], [ 0.012638054746201, 51.595920237656529 ], [ 0.012562802765473, 51.595362175053111 ], [ 0.01256252492474, 51.595355886863722 ], [ 0.01245444493371, 51.594803781620747 ], [ 0.01243842059299, 51.594670106532398 ], [ 0.012402566412544, 51.594513308011535 ], [ 0.012379208262523, 51.594407627592659 ], [ 0.01237357544427, 51.594344794690237 ], [ 0.012368692814315, 51.594301636878754 ], [ 0.012330225176912, 51.594115306314876 ], [ 0.012214337041911, 51.593453657875756 ], [ 0.012200929053446, 51.59337918159062 ], [ 0.012160707687965, 51.592991416636991 ], [ 0.012111331250844, 51.592690112203194 ], [ 0.012116266078432, 51.592149642714027 ], [ 0.012224980532043, 51.592158564676154 ], [ 0.0122173637203, 51.592118151464952 ], [ 0.012290829769687, 51.592016204963329 ], [ 0.012274367340773, 51.591643321463557 ], [ 0.012306599493631, 51.591553769359322 ], [ 0.012301995094339, 51.591449476957017 ], [ 0.012478858330794, 51.591271140371354 ], [ 0.012417119027779, 51.590951174783662 ], [ 0.012417151796928, 51.590757803874197 ], [ 0.012518438261672, 51.590369414465073 ], [ 0.012539789937637, 51.589807006303758 ], [ 0.012601862223246, 51.589315008307096 ], [ 0.012648316475857, 51.588994983359882 ], [ 0.01270717401999, 51.588627009644462 ], [ 0.012858700498908, 51.587613685796015 ], [ 0.0129454173312, 51.586962953983701 ], [ 0.01294533800091, 51.586961157386902 ], [ 0.01305919592623, 51.586008711324823 ], [ 0.013164144156106, 51.585409806902717 ], [ 0.013299958898309, 51.584563961854201 ], [ 0.013351909934768, 51.584104500020381 ], [ 0.013395619591338, 51.583787218541033 ], [ 0.014126807042768, 51.583412279919422 ], [ 0.014892574612458, 51.583397322994493 ], [ 0.015528483284715, 51.583384595588939 ], [ 0.015440362990642, 51.582958016075622 ], [ 0.015412875582788, 51.582726551748003 ], [ 0.01543029897584, 51.582533780691328 ], [ 0.015273403929299, 51.58251130592474 ], [ 0.015405654961833, 51.58220508775819 ], [ 0.015499945448861, 51.582052438395387 ], [ 0.015557214392418, 51.581977647716819 ], [ 0.015696536797029, 51.58186377918878 ], [ 0.015456001074694, 51.581777117020721 ], [ 0.015359279694832, 51.581742820329261 ], [ 0.015259541881978, 51.581707586528097 ], [ 0.016003804946018, 51.580127420031843 ], [ 0.016400888327897, 51.579316723151969 ], [ 0.016642104833855, 51.579190312967341 ], [ 0.017388373405701, 51.577592929865553 ], [ 0.01744008160936, 51.577457192849785 ], [ 0.017406667447938, 51.576505476705165 ], [ 0.017347495237484, 51.575886017846997 ], [ 0.01737774878684, 51.575397168508822 ], [ 0.017383188248246, 51.57493130451256 ], [ 0.017417379679331, 51.574596199271646 ], [ 0.017409264841901, 51.574412853600357 ], [ 0.017344443531043, 51.574252149612896 ], [ 0.017222908280964, 51.574113907543364 ], [ 0.016859769227638, 51.573605839382736 ], [ 0.016492079512669, 51.573121132330058 ], [ 0.016370228307462, 51.572911064862026 ], [ 0.016486222219514, 51.572891898831152 ], [ 0.016699750235562, 51.57285855877933 ], [ 0.017087605114722, 51.572752996140785 ], [ 0.017338140996781, 51.572674068284826 ], [ 0.01749903097905, 51.572593985728709 ], [ 0.017652062526469, 51.572465402446191 ], [ 0.017809809501911, 51.572311655773653 ], [ 0.017919403870413, 51.572180223807237 ], [ 0.01804231323, 51.572021682506694 ], [ 0.018786463652773, 51.572304730075608 ], [ 0.018787890348107, 51.572304705506809 ], [ 0.018909682677723, 51.572349355944866 ], [ 0.01892563718199, 51.572252888465165 ], [ 0.01897250392237, 51.571747564004419 ], [ 0.019052115150163, 51.570874794672221 ], [ 0.019091283717836, 51.57032465277954 ], [ 0.019155633521158, 51.569854177811813 ], [ 0.019156662277754, 51.569845170116608 ], [ 0.019104743687712, 51.569814599416532 ], [ 0.018863018693186, 51.56986371233333 ], [ 0.018644998207392, 51.569956467466483 ], [ 0.018463083114921, 51.570053185436393 ], [ 0.01837178759545, 51.570108697166745 ], [ 0.018274661373619, 51.57013194529307 ], [ 0.018182326492849, 51.570131736914924 ], [ 0.017999317057352, 51.570104321428936 ], [ 0.017822173384607, 51.570080400683764 ], [ 0.017737042578955, 51.570049412132697 ], [ 0.017694672937545, 51.570003393491042 ], [ 0.01771487409793, 51.569938317964883 ], [ 0.017933430102843, 51.569465189378079 ], [ 0.018176651122132, 51.568896252090632 ], [ 0.018444827954722, 51.568305308657919 ], [ 0.018588992006017, 51.567845146593818 ], [ 0.018590299246899, 51.567842427091087 ], [ 0.018935366239272, 51.567196128756777 ], [ 0.018967532290237, 51.567138038627427 ], [ 0.018993714253932, 51.567079152355397 ], [ 0.019015576763102, 51.567019441462314 ], [ 0.019033119833498, 51.566958905950372 ], [ 0.019035495377563, 51.566948076969801 ], [ 0.019045782899715, 51.566887576513189 ], [ 0.019053181530611, 51.566826316704365 ], [ 0.019053447522215, 51.566765179737899 ], [ 0.019049275278041, 51.566703220203486 ], [ 0.019037891360481, 51.566642283877826 ], [ 0.019029286936145, 51.5666118658744 ], [ 0.019009737904681, 51.566559970325152 ], [ 0.018984407746901, 51.566509163242088 ], [ 0.018954719015857, 51.56645933022196 ], [ 0.018920750809676, 51.566409570893619 ], [ 0.018885395955267, 51.566360734440941 ], [ 0.018848654454796, 51.566312820862677 ], [ 0.018847068790268, 51.566309252146517 ], [ 0.018779805313747, 51.566224915025572 ], [ 0.018712983225431, 51.566147852211728 ], [ 0.018508848208181, 51.566003031261459 ], [ 0.018507421706855, 51.566003055823103 ], [ 0.018364750997931, 51.565908329735024 ], [ 0.018178973580739, 51.565818031501067 ], [ 0.017993873434088, 51.565745701430565 ], [ 0.017777550962769, 51.565682898526084 ], [ 0.017536264808978, 51.565642011084314 ], [ 0.017194297407202, 51.56560833954024 ], [ 0.016530859631493, 51.565614359354143 ], [ 0.015623963947113, 51.565597591399261 ], [ 0.014458359738331, 51.565603242188303 ], [ 0.014481621683822, 51.56521438217429 ], [ 0.014389721052307, 51.564701550307667 ], [ 0.014344322001021, 51.564392982532112 ], [ 0.014316739214242, 51.563900711436474 ], [ 0.01430059744256, 51.563764250010408 ], [ 0.01425832801692, 51.563426860200565 ], [ 0.014215694385477, 51.562984292931148 ], [ 0.014220497863406, 51.562244957837905 ], [ 0.01420924563806, 51.561793760255973 ], [ 0.014208888413575, 51.561785675339294 ], [ 0.014217367226405, 51.561326047666881 ], [ 0.014499886530421, 51.560340916955035 ], [ 0.014781815280166, 51.559439582948947 ], [ 0.015031378569044, 51.559439788675839 ], [ 0.015406929843451, 51.559416251624874 ], [ 0.015649513179718, 51.559387717755264 ], [ 0.015815594909761, 51.559358790794363 ], [ 0.015979892933074, 51.559324500233181 ], [ 0.0161025907218, 51.559293621914932 ], [ 0.016307494344194, 51.559228066323577 ], [ 0.01662431180579, 51.559084169659101 ], [ 0.016813397807736, 51.55898912816199 ], [ 0.017158334812346, 51.558797997752436 ], [ 0.017774698569563, 51.55841322219451 ], [ 0.017907638961034, 51.558288668488267 ], [ 0.01805472630154, 51.558188144356919 ], [ 0.01815759726966, 51.558101776521127 ], [ 0.018158983761171, 51.558100853641115 ], [ 0.018275602977559, 51.557997257712579 ], [ 0.018674665527334, 51.557723290403658 ], [ 0.019056882001772, 51.557428934591528 ], [ 0.019764400594466, 51.556793552123544 ], [ 0.020093748707347, 51.556476729375248 ], [ 0.020368685962798, 51.556268814647325 ], [ 0.021344295092549, 51.555172822758784 ], [ 0.02125931208438, 51.555141923753851 ], [ 0.021559295938908, 51.554879543598403 ], [ 0.020103245510917, 51.554411897185354 ], [ 0.019570821589939, 51.554246573397336 ], [ 0.0193660793248, 51.554183573881865 ], [ 0.019405797888125, 51.554102877660981 ], [ 0.018609892886679, 51.553882753670933 ], [ 0.017959488748064, 51.553593592806621 ], [ 0.017958022875672, 51.553592719031187 ], [ 0.016972078354706, 51.553184366223171 ], [ 0.016747572596807, 51.553392304461035 ], [ 0.016281410860292, 51.553224117763605 ], [ 0.015997736442832, 51.553559922643871 ], [ 0.01572692927072, 51.553864040153023 ], [ 0.015650006730082, 51.553950768875893 ], [ 0.014601064191535, 51.554956183343066 ], [ 0.013953491366814, 51.554730870495668 ], [ 0.011648597520327, 51.553918812780566 ], [ 0.01113745622385, 51.554399652892968 ], [ 0.009649640664177, 51.553435088253345 ], [ 0.010848472573176, 51.552261640199376 ], [ 0.010357662584583, 51.55195711275222 ], [ 0.010124739973951, 51.551812770267205 ], [ 0.009667608459764, 51.551584078310647 ], [ 0.009536097958545, 51.551449683218088 ], [ 0.009478661404354, 51.551390434111696 ], [ 0.009535505825341, 51.551239235100475 ], [ 0.008179225015178, 51.551065593602438 ], [ 0.007718612018943, 51.551022149791784 ], [ 0.007589754136875, 51.55100997246474 ], [ 0.006846877024445, 51.550878850696293 ], [ 0.005806880902762, 51.550649332381532 ], [ 0.005530546361505, 51.550661252321603 ], [ 0.005621875455849, 51.55083688467915 ], [ 0.005741159110924, 51.551088364608766 ], [ 0.005788008058943, 51.551236888562634 ], [ 0.005818840080211, 51.5515106489187 ], [ 0.005832885708175, 51.551665038278557 ], [ 0.005831736245, 51.551671351015017 ], [ 0.005762277598224, 51.551863219440428 ], [ 0.005281815399004, 51.551828286642611 ], [ 0.0052586815768, 51.551826884343178 ], [ 0.005202991461985, 51.552134489154021 ], [ 0.004973156499182, 51.552124935131893 ], [ 0.005010695641829, 51.551894056707219 ], [ 0.005004872509165, 51.551894156302858 ], [ 0.00387016940401, 51.55180747497986 ], [ 0.003838340575838, 51.551935678415873 ], [ 0.003826092664262, 51.551984434293423 ], [ 0.00358794415387, 51.551948049377394 ], [ 0.003255360660196, 51.551897994605653 ], [ 0.003204961442436, 51.551966281559118 ], [ 0.003108405745852, 51.552099276763549 ], [ 0.002520003876288, 51.552003156418792 ], [ 0.002127049931922, 51.551956826722964 ], [ 0.001301961617719, 51.551890004539764 ], [ 0.000353126368552, 51.551797329016409 ], [ -0.000323802155672, 51.551721674088839 ], [ -0.000924149073387, 51.551615941051885 ], [ -0.001090157534429, 51.551581013462517 ], [ -0.001574954888411, 51.551476812895139 ], [ -0.002606963722677, 51.551198523178648 ], [ -0.003634643096514, 51.550921049322177 ], [ -0.003794788261133, 51.551150414532628 ], [ -0.00503784718705, 51.550793883728488 ], [ -0.005680649201421, 51.550576373520926 ], [ -0.005964164612554, 51.550489493365568 ], [ -0.006275210180192, 51.550403979267692 ], [ -0.006963271525847, 51.550271737809304 ], [ -0.007989739984533, 51.550050842164083 ], [ -0.008357224421621, 51.549960886637599 ], [ -0.008524295947099, 51.549931358178313 ], [ -0.008648517760026, 51.549927173549435 ], [ -0.008657075185276, 51.549930015827485 ], [ -0.008725257722431, 51.549953648342438 ], [ -0.008862819582553, 51.550305788446728 ], [ -0.009010548092233, 51.550621241294934 ], [ -0.009109655524692, 51.550895413188911 ], [ -0.009141271424472, 51.551097417937648 ], [ -0.009150933436034, 51.551271090920316 ], [ -0.009136781280372, 51.551529855698341 ], [ -0.009163266314226, 51.551683226796705 ], [ -0.009201308223302, 51.55180344070132 ], [ -0.009444279587677, 51.552217601944513 ], [ -0.009750978533407, 51.552329877255019 ], [ -0.009936801750539, 51.552402253176481 ], [ -0.010202943303284, 51.552517345512207 ], [ -0.010381871299753, 51.552581512700527 ], [ -0.010446093823775, 51.552597884975107 ], [ -0.010567681474075, 51.552621523034539 ], [ -0.010688470225767, 51.552630763253653 ], [ -0.010803905959762, 51.552629124462165 ], [ -0.01086181977847, 51.552623813292989 ], [ -0.011091743638299, 51.552544103285499 ], [ -0.011680645368074, 51.552370686891656 ], [ -0.011793173099842, 51.552337532459866 ], [ -0.012343517220546, 51.55221910804589 ], [ -0.012909936242427, 51.552097447138152 ], [ -0.013120742809585, 51.552060561837372 ], [ -0.013340070512381, 51.552024629554055 ], [ -0.013608632612451, 51.551986024302387 ], [ -0.014357593708256, 51.551878234918519 ], [ -0.015671574680822, 51.551716078644482 ], [ -0.016923722295893, 51.551580821706786 ], [ -0.016939883801012, 51.551441658156172 ], [ -0.01694287273737, 51.551405748206506 ], [ -0.01710959438744, 51.551386989780099 ], [ -0.01711862170175, 51.551444679102175 ], [ -0.017140208519456, 51.551577288563912 ], [ -0.017142318451045, 51.551594405446266 ], [ -0.017156114298191, 51.551676448672346 ], [ -0.017161879132584, 51.551710708546814 ], [ -0.017279502531177, 51.552388932983888 ] ] ] } }
]
}
