{
"type": "FeatureCollection",
"name": "borough_Harrow",
"crs": { "type": "name", "properties": { "name": "urn:ogc:def:crs:OGC:1.3:CRS84" } },
"features": [
{ "type": "Feature", "properties": { "DISTRICT": "Harrow", "NAME": "Roxeth", "GSS_CODE": "E05000302", "LAGSSCODE": "E09000015", "HECTARES": 157.492, "NONLD_AREA": 0.0 }, "geometry": { "type": "Polygon", "coordinates": [ [ [ -0.348824555986339, 51.559442386145825 ], [ -0.350691595335122, 51.55911612493216 ], [ -0.351573271811526, 51.558990057517875 ], [ -0.35364368216404, 51.558702565517706 ], [ -0.355391980849028, 51.55842760607193 ], [ -0.35713870153797, 51.558116639848734 ], [ -0.359272094716085, 51.557679709294142 ], [ -0.360183809560199, 51.557599846784328 ], [ -0.360297106781181, 51.557538499839765 ], [ -0.361446240466008, 51.557395327516652 ], [ -0.362224492360762, 51.557295607815021 ], [ -0.362405686100505, 51.557271164929119 ], [ -0.362300210008539, 51.556995415320316 ], [ -0.362179650945706, 51.556735636873931 ], [ -0.362231041586147, 51.556629374846693 ], [ -0.362278216794819, 51.556521256059725 ], [ -0.362409198947499, 51.556490629295958 ], [ -0.362547278318116, 51.556461090222541 ], [ -0.362510726123019, 51.556395854008564 ], [ -0.362476747031872, 51.556335148557835 ], [ -0.362579780290835, 51.556317706529526 ], [ -0.362677042732229, 51.556301981920562 ], [ -0.362618717522071, 51.556200482979911 ], [ -0.362519584351124, 51.556026406698095 ], [ -0.362948675887109, 51.555928107029715 ], [ -0.363137631769984, 51.5558893877256 ], [ -0.363489156816352, 51.555821379423264 ], [ -0.363972652550658, 51.555695066904754 ], [ -0.364353584902355, 51.555609576081785 ], [ -0.364522203535917, 51.555574077396955 ], [ -0.364651494462151, 51.555550706445565 ], [ -0.364678965403182, 51.555547493062541 ], [ -0.364702285535871, 51.55554062595867 ], [ -0.364961530552161, 51.555511872342137 ], [ -0.365199696565475, 51.555507097158738 ], [ -0.365253105285036, 51.555506941642513 ], [ -0.366020079286542, 51.555398950309865 ], [ -0.366127292535797, 51.555384260372875 ], [ -0.366568161453043, 51.555322070886021 ], [ -0.366467557467774, 51.555148876886001 ], [ -0.36671541822145, 51.555075911242724 ], [ -0.366972062612416, 51.554996774402184 ], [ -0.367286764054797, 51.554990272504206 ], [ -0.36753699550923, 51.554973973717281 ], [ -0.367565860339602, 51.554971678029908 ], [ -0.367690331909775, 51.554959923546349 ], [ -0.367904617242276, 51.554937730480823 ], [ -0.368597326935015, 51.554810716134249 ], [ -0.368853388434184, 51.554747752213942 ], [ -0.369186812291167, 51.554663298800307 ], [ -0.369425391383192, 51.55464683740361 ], [ -0.369619593851409, 51.554620769071576 ], [ -0.369821304497739, 51.554587612926341 ], [ -0.370072858944435, 51.554530876532667 ], [ -0.370107740975387, 51.554523270343125 ], [ -0.370333989685458, 51.554449101256601 ], [ -0.370604795767428, 51.55433950157601 ], [ -0.370704051332999, 51.55426446696034 ], [ -0.370990428661168, 51.554165061260456 ], [ -0.37138509981906, 51.554057179536677 ], [ -0.371423049438526, 51.554046918601834 ], [ -0.371508751119031, 51.554028330712441 ], [ -0.371667251601729, 51.553992773618837 ], [ -0.37177778479645, 51.553968237326409 ], [ -0.37190270177266, 51.553943900534819 ], [ -0.37201835404357, 51.553939212554162 ], [ -0.37208962269283, 51.553961776922122 ], [ -0.372146667849845, 51.55397964900969 ], [ -0.372450276789781, 51.55396048778492 ], [ -0.372833941155, 51.553717601819471 ], [ -0.373343754458845, 51.55402591877111 ], [ -0.373685802679704, 51.553819311067173 ], [ -0.373887330514571, 51.553911193137232 ], [ -0.374910465390148, 51.553495478291666 ], [ -0.375840364486013, 51.553062371981071 ], [ -0.376468354300885, 51.553535925408731 ], [ -0.376529661040657, 51.553514299308908 ], [ -0.376899375769357, 51.553866510153419 ], [ -0.377269092684601, 51.554218809784182 ], [ -0.377544375835269, 51.554591287953905 ], [ -0.377654161081032, 51.554828428302962 ], [ -0.377612083374723, 51.554837735195093 ], [ -0.377616011323373, 51.554847678272125 ], [ -0.377673183532614, 51.554982416604091 ], [ -0.377679859687984, 51.554998690528009 ], [ -0.377787059719402, 51.554987587149917 ], [ -0.377840540839291, 51.554982033780043 ], [ -0.377931676221453, 51.555178461991545 ], [ -0.377973602377133, 51.555337261796943 ], [ -0.378041688018463, 51.555492917229415 ], [ -0.378200738075585, 51.555726153359636 ], [ -0.3783386090297, 51.555906146722585 ], [ -0.378604389013927, 51.556258713572632 ], [ -0.37875391118847, 51.556475725580221 ], [ -0.378858493573589, 51.556658764334806 ], [ -0.378949657151196, 51.556894747184543 ], [ -0.37901388153208, 51.557075520088304 ], [ -0.379119873071713, 51.557302628002539 ], [ -0.379236529947152, 51.557591103564178 ], [ -0.379365688833263, 51.557812328367092 ], [ -0.379578331926091, 51.558121008053782 ], [ -0.379789008239282, 51.558444942824046 ], [ -0.38010279571771, 51.558829633567605 ], [ -0.380271731220637, 51.559109844694113 ], [ -0.380186215198149, 51.559243512848454 ], [ -0.380116135088158, 51.559347817219312 ], [ -0.38001301551652, 51.55944797943009 ], [ -0.380068589928744, 51.559547636033457 ], [ -0.380088883102045, 51.559585763840552 ], [ -0.380136376870943, 51.55967182394344 ], [ -0.38039913958451, 51.559705118680327 ], [ -0.380334515300923, 51.560104368051242 ], [ -0.380241103486593, 51.56037646192847 ], [ -0.380241326089775, 51.56057433324132 ], [ -0.380288095395258, 51.560677464140241 ], [ -0.380487228461517, 51.560961687979798 ], [ -0.380560004420746, 51.561066076803584 ], [ -0.380687918397328, 51.561242337022712 ], [ -0.380940120736363, 51.561452586415065 ], [ -0.381370783475965, 51.561919892558514 ], [ -0.381742297857134, 51.562304483026047 ], [ -0.38185506568979, 51.562418412709732 ], [ -0.381973656851477, 51.562532512513137 ], [ -0.382360356611247, 51.56289843173208 ], [ -0.382125937900458, 51.562997683982445 ], [ -0.381948734545771, 51.563073542076914 ], [ -0.382039172188335, 51.563166486754213 ], [ -0.382167524358594, 51.563290520032488 ], [ -0.382422728253086, 51.563580908048536 ], [ -0.382482517416148, 51.563722964252364 ], [ -0.382493665209731, 51.563857966859587 ], [ -0.382482137740355, 51.563978272905949 ], [ -0.382381044985527, 51.564306000004166 ], [ -0.382356886989095, 51.564460383455554 ], [ -0.382354334781813, 51.564532267654315 ], [ -0.382378216176625, 51.564710687393315 ], [ -0.382473288987655, 51.565001563919225 ], [ -0.382649311507719, 51.565488637914825 ], [ -0.382845931230834, 51.565965297623755 ], [ -0.382951423678827, 51.566204085978654 ], [ -0.383459925440096, 51.567161689714617 ], [ -0.383276406272398, 51.567250857896198 ], [ -0.384008802049562, 51.568326531028774 ], [ -0.384309074440796, 51.568769557582904 ], [ -0.384526149117638, 51.569035953442402 ], [ -0.384486450161775, 51.569138881115258 ], [ -0.384609358310205, 51.569336555069505 ], [ -0.385002131869348, 51.569855470101132 ], [ -0.385664343632354, 51.57063430490139 ], [ -0.385913773318354, 51.5709651513301 ], [ -0.386439665519828, 51.571555924036772 ], [ -0.386033694546231, 51.571855189005788 ], [ -0.385687077418903, 51.572148077332621 ], [ -0.385965729579512, 51.572510700683871 ], [ -0.386640955790057, 51.573289798857431 ], [ -0.386835940173584, 51.573569460842684 ], [ -0.38716529909505, 51.574049648046504 ], [ -0.387437674434547, 51.574385211735198 ], [ -0.388054794790469, 51.57497192707828 ], [ -0.387492272058338, 51.57528972247858 ], [ -0.38775135642113, 51.575513627283883 ], [ -0.387828675489102, 51.57561178141431 ], [ -0.387857094552778, 51.575666111702546 ], [ -0.388255927615291, 51.576792998904615 ], [ -0.388392442498379, 51.577256148885454 ], [ -0.388592711906241, 51.577757123101378 ], [ -0.388999500775552, 51.578128690921886 ], [ -0.389639708323801, 51.578922573021643 ], [ -0.390173585831256, 51.57965826577535 ], [ -0.390809170189751, 51.580503320243956 ], [ -0.391205971507474, 51.581077915670349 ], [ -0.391093824796129, 51.581106134447133 ], [ -0.3912513205436, 51.581262921270422 ], [ -0.391342058342246, 51.581352266935163 ], [ -0.391551182392391, 51.581560194823311 ], [ -0.391483758825577, 51.581710301446115 ], [ -0.391027248905756, 51.581723909279283 ], [ -0.391046811744701, 51.582069481256987 ], [ -0.391122736421448, 51.582901372868818 ], [ -0.391150395711442, 51.583058267038766 ], [ -0.391012982669748, 51.583067170502915 ], [ -0.391023566768178, 51.583134740212323 ], [ -0.391099961578245, 51.58358627379414 ], [ -0.391187089970094, 51.584104570074203 ], [ -0.39132834396837, 51.584108304972453 ], [ -0.391390447498571, 51.58447603610314 ], [ -0.391504908987318, 51.584995605963229 ], [ -0.39149762875582, 51.585444194177526 ], [ -0.391519525198605, 51.586050596247958 ], [ -0.391709193385014, 51.586974935042008 ], [ -0.391717781354487, 51.587018204479612 ], [ -0.391815853580919, 51.587223710365514 ], [ -0.391869314749405, 51.587469059415895 ], [ -0.391921071226921, 51.587718880035808 ], [ -0.392012052718101, 51.588330723648667 ], [ -0.392157806276548, 51.58849723707128 ], [ -0.392515491446254, 51.58870899685904 ], [ -0.392850571527685, 51.588870012344728 ], [ -0.393050194896532, 51.589021170575506 ], [ -0.393474298122978, 51.589398352939263 ], [ -0.393651069944724, 51.589664268393456 ], [ -0.394125179853287, 51.590220133724898 ], [ -0.394450544062596, 51.590451222979866 ], [ -0.394677031285379, 51.590414766489658 ], [ -0.394624022389721, 51.590321444838295 ], [ -0.394870288456276, 51.590257389817751 ], [ -0.395138402420794, 51.590309603293008 ], [ -0.395468463159967, 51.590201653641508 ], [ -0.395514655910107, 51.590407345771531 ], [ -0.395527028848393, 51.590545959963464 ], [ -0.395528072444639, 51.590681812134818 ], [ -0.395500082347536, 51.590820773319855 ], [ -0.395482621054917, 51.590944685500624 ], [ -0.395449841048069, 51.591303924418796 ], [ -0.395467479276488, 51.591620701169717 ], [ -0.395527057884268, 51.591895798789452 ], [ -0.395573379989096, 51.592057352043312 ], [ -0.395590055839562, 51.59211781263015 ], [ -0.395668307781616, 51.592271801528135 ], [ -0.395931279474916, 51.592797892438149 ], [ -0.39605956668447, 51.593008212888833 ], [ -0.396190354234779, 51.593272596893861 ], [ -0.396271623936634, 51.593422131679674 ], [ -0.396343317663687, 51.593600213413701 ], [ -0.396398234657479, 51.593805125501774 ], [ -0.396449930461661, 51.594098094905206 ], [ -0.396471951572197, 51.594581245330673 ], [ -0.396476302766194, 51.594785466230626 ], [ -0.396469112644429, 51.594989529383575 ], [ -0.39648582541308, 51.595089546079919 ], [ -0.396551720820779, 51.595226194688799 ], [ -0.396674624150264, 51.595383490080252 ], [ -0.396907041188202, 51.595632181094345 ], [ -0.397042824408782, 51.595792259154138 ], [ -0.397106654453127, 51.59586594968053 ], [ -0.397317448732101, 51.596072990751424 ], [ -0.397522893195366, 51.596306928162115 ], [ -0.397675708738665, 51.596517581721947 ], [ -0.397718523043863, 51.596654004311894 ], [ -0.397715675628771, 51.596734874814196 ], [ -0.397691425546797, 51.596808261075381 ], [ -0.397679508180181, 51.596859340931076 ], [ -0.39765775491386, 51.596946336080286 ], [ -0.397617338711463, 51.59702579448966 ], [ -0.398073172167667, 51.597079665847154 ], [ -0.398896790773406, 51.597186201704837 ], [ -0.399770166438104, 51.597313278180273 ], [ -0.400312011811261, 51.597423152511894 ], [ -0.400045722523313, 51.597933925247332 ], [ -0.400044199854492, 51.597936601461726 ], [ -0.400042399042418, 51.597987819503309 ], [ -0.399946064658791, 51.598222131810587 ], [ -0.400254091113733, 51.598579726300123 ], [ -0.400538242156607, 51.598874963966296 ], [ -0.400937543581824, 51.599264366651163 ], [ -0.401201576070208, 51.59959708615802 ], [ -0.401260597630396, 51.599685991713891 ], [ -0.401386164220859, 51.5998936618995 ], [ -0.401565104255579, 51.600307029316973 ], [ -0.401658671668063, 51.600642817816222 ], [ -0.401790530749451, 51.600918894796308 ], [ -0.401959315963686, 51.601252110616642 ], [ -0.402133208030914, 51.601562021901984 ], [ -0.402338056347892, 51.601939778519707 ], [ -0.402525256774896, 51.602942364214584 ], [ -0.40251881118223, 51.603248023842546 ], [ -0.402426354910062, 51.603700847146271 ], [ -0.402426251370976, 51.603869946177348 ], [ -0.402470415927998, 51.604338112822802 ], [ -0.402506112474822, 51.604844011808453 ], [ -0.402508330642713, 51.605191142830556 ], [ -0.402400435263808, 51.605551159691004 ], [ -0.402351503493667, 51.606120634650168 ], [ -0.402176116313154, 51.606262985984792 ], [ -0.401913025905459, 51.606515708354081 ], [ -0.401760653667551, 51.606619715581296 ], [ -0.40193471468751, 51.606721962507585 ], [ -0.402106601922897, 51.606886120135442 ], [ -0.40234673527943, 51.607409184599334 ], [ -0.402349339191927, 51.607416411961673 ], [ -0.402477324855501, 51.607884819857837 ], [ -0.402493493559699, 51.608204271771427 ], [ -0.402603163155655, 51.608370369158521 ], [ -0.40282028975538, 51.608606251551201 ], [ -0.402935898384224, 51.608766046603321 ], [ -0.403106996137927, 51.608912302032671 ], [ -0.403215946909782, 51.609098975514861 ], [ -0.40328878847814, 51.609412005249425 ], [ -0.403386007771373, 51.609766719921296 ], [ -0.403414879642107, 51.610179029351471 ], [ -0.403393748403705, 51.610658892094385 ], [ -0.403549969316888, 51.611392074161898 ], [ -0.4036615956223, 51.611791124787608 ], [ -0.403858983380072, 51.612298230970644 ], [ -0.404050355095424, 51.613183909138243 ], [ -0.403988308623288, 51.613183964728002 ], [ -0.403180871324025, 51.613184673077683 ], [ -0.402743655042963, 51.613172433128945 ], [ -0.402301877708497, 51.613208674869213 ], [ -0.401663116156477, 51.613177506369645 ], [ -0.401419261308483, 51.613169690198347 ], [ -0.401328069139631, 51.61317563958184 ], [ -0.401159550441497, 51.613203009890618 ], [ -0.400765582224007, 51.613315497952549 ], [ -0.40070696739842, 51.61333987066579 ], [ -0.400650128479053, 51.613354378684733 ], [ -0.400573362855387, 51.613363221103327 ], [ -0.400530003899252, 51.613363529008332 ], [ -0.400439348503168, 51.613354202215881 ], [ -0.399955851428723, 51.613344013611226 ], [ -0.399654782634294, 51.613401937638187 ], [ -0.39946535739798, 51.613407444628024 ], [ -0.398464061854787, 51.613664466579408 ], [ -0.397886243469096, 51.613870627081347 ], [ -0.397284222364741, 51.614107828848176 ], [ -0.396974638187564, 51.614204376117215 ], [ -0.396473406186153, 51.614328779195503 ], [ -0.395743029683356, 51.614477106784399 ], [ -0.394796155996413, 51.614746438640957 ], [ -0.394203331981732, 51.614887648607386 ], [ -0.393330259159131, 51.61502942331996 ], [ -0.392679131226667, 51.615182413046448 ], [ -0.391599713505752, 51.615275499528963 ], [ -0.390790255969728, 51.615335510355152 ], [ -0.389872930577832, 51.615377763663538 ], [ -0.389533865940719, 51.615408170708967 ], [ -0.389203490497075, 51.615438696069432 ], [ -0.388961925399229, 51.61553067225725 ], [ -0.388436317120973, 51.615525251973558 ], [ -0.387843527390296, 51.615500027475839 ], [ -0.387294343268311, 51.615548217487138 ], [ -0.387110199072728, 51.615569059978462 ], [ -0.386886593302999, 51.615601136406703 ], [ -0.386664378500368, 51.615637636584239 ], [ -0.386376221479859, 51.615696603184247 ], [ -0.385872120112878, 51.615820022684545 ], [ -0.385229486927708, 51.615977583014235 ], [ -0.384577100609596, 51.616168178207403 ], [ -0.383937689257717, 51.616355442396646 ], [ -0.383503321161115, 51.616506871748918 ], [ -0.383209166724455, 51.616653848913344 ], [ -0.382089313932995, 51.617396439961126 ], [ -0.382026331272657, 51.617422631019622 ], [ -0.38199133866941, 51.617432037346838 ], [ -0.381750215311917, 51.617467368469832 ], [ -0.381502652800135, 51.617482832512898 ], [ -0.380952340772349, 51.617481532893109 ], [ -0.380447332297225, 51.617465573230731 ], [ -0.379969414080406, 51.617541682339557 ], [ -0.379083767816448, 51.617709338149034 ], [ -0.378510652822172, 51.617779631186352 ], [ -0.378262606932291, 51.617808566553187 ], [ -0.377564972878801, 51.61780701264324 ], [ -0.376966354786961, 51.617944369669551 ], [ -0.376546303410395, 51.618057314773871 ], [ -0.376020996937493, 51.618166014704371 ], [ -0.375839662049189, 51.618187777387995 ], [ -0.375387724994817, 51.618302973926944 ], [ -0.374898530581956, 51.618450825391271 ], [ -0.374075594518163, 51.618762251263362 ], [ -0.373235096319305, 51.61895835726127 ], [ -0.372839828809522, 51.619023896404492 ], [ -0.372736366763129, 51.619049431196707 ], [ -0.372469546974586, 51.619116750479847 ], [ -0.371613182921468, 51.619353079296005 ], [ -0.371282209441746, 51.619478928675612 ], [ -0.37043968050643, 51.619810733827961 ], [ -0.3698769454351, 51.620075400431254 ], [ -0.369273236942288, 51.620313334286955 ], [ -0.368879258806986, 51.620422119393226 ], [ -0.368174694052657, 51.620652352500066 ], [ -0.367262111439783, 51.620761109647447 ], [ -0.366918705754033, 51.620791390764083 ], [ -0.366764156024615, 51.620829693949503 ], [ -0.366609563665823, 51.620872491283315 ], [ -0.366240298828507, 51.621015772924132 ], [ -0.366174199783012, 51.621045418100529 ], [ -0.365536944955755, 51.621334197477999 ], [ -0.365156561877184, 51.621544655096436 ], [ -0.364718369933778, 51.621838900618002 ], [ -0.363432058691226, 51.622537728873084 ], [ -0.363334912279997, 51.62262896960241 ], [ -0.362621439010445, 51.623504788387145 ], [ -0.36259574821865, 51.623536793445595 ], [ -0.362555683946611, 51.6235676989089 ], [ -0.362428980678019, 51.623513789172627 ], [ -0.362377076511387, 51.623552620219172 ], [ -0.361792741474815, 51.623729744275828 ], [ -0.361519162036959, 51.624026276159256 ], [ -0.361312153402611, 51.6242768998925 ], [ -0.361069774026146, 51.62446778580955 ], [ -0.36090394783587, 51.624620095325554 ], [ -0.360714595641377, 51.624744297151537 ], [ -0.360184797078733, 51.62505342751875 ], [ -0.360081672553861, 51.625108622437395 ], [ -0.359767760542898, 51.625238183655583 ], [ -0.359678744455386, 51.625262200752161 ], [ -0.359453126603907, 51.625308490587791 ], [ -0.359000102655346, 51.625371377321727 ], [ -0.358530495101542, 51.625415151532486 ], [ -0.358161395527873, 51.625433360731229 ], [ -0.357807156600322, 51.625439190929747 ], [ -0.357527514719773, 51.625464044151826 ], [ -0.356959554892927, 51.625585635783544 ], [ -0.356546486317534, 51.625623900762385 ], [ -0.356262793028391, 51.625678360659919 ], [ -0.35600687154664, 51.625761976553662 ], [ -0.355750452430521, 51.625823110276514 ], [ -0.355267146116407, 51.625962061673825 ], [ -0.35520313293837, 51.625976447051812 ], [ -0.355058027231442, 51.625993291437354 ], [ -0.354972681027093, 51.625994791798078 ], [ -0.354814209855445, 51.625982680947985 ], [ -0.354396245808495, 51.625994799135945 ], [ -0.354120798230468, 51.626018804001319 ], [ -0.353015706327842, 51.626255102306352 ], [ -0.352528309595139, 51.626309390469793 ], [ -0.352289929128639, 51.626349194274418 ], [ -0.351577150502447, 51.626482210664044 ], [ -0.350791814274308, 51.62658264775046 ], [ -0.350479574914998, 51.626586348939618 ], [ -0.350417118833342, 51.626597157604394 ], [ -0.350354445783005, 51.626610660143186 ], [ -0.349881160157063, 51.626755123820253 ], [ -0.349536918873311, 51.626842877096323 ], [ -0.349222511508226, 51.626909473497847 ], [ -0.349070391659179, 51.626958575185114 ], [ -0.348925552255156, 51.627010565995668 ], [ -0.348256192333, 51.627298798463045 ], [ -0.347895348176296, 51.627446545355667 ], [ -0.347528721271847, 51.627596007690364 ], [ -0.346953438055518, 51.627802851179489 ], [ -0.346407094786064, 51.628006503857797 ], [ -0.346075870081717, 51.628096228612606 ], [ -0.345637394798409, 51.628193430042209 ], [ -0.345106441651297, 51.628330768764151 ], [ -0.344726133429631, 51.628498908290148 ], [ -0.344308226459988, 51.628665706939159 ], [ -0.344142254227677, 51.628741576505675 ], [ -0.341819483592008, 51.629834663531469 ], [ -0.340426574494866, 51.630467814504783 ], [ -0.339889818843738, 51.630723714498174 ], [ -0.339853115948058, 51.630740275953436 ], [ -0.339811552609849, 51.630811606898824 ], [ -0.339613697720986, 51.630569586378819 ], [ -0.339330048273864, 51.630344420848118 ], [ -0.338981178201403, 51.630084978802515 ], [ -0.338833558424488, 51.630091878734518 ], [ -0.338771275954414, 51.630058633318122 ], [ -0.338813480650945, 51.630008887524717 ], [ -0.338824869696828, 51.629935241820398 ], [ -0.33854145774357, 51.629703784697568 ], [ -0.338533389821588, 51.629686589664544 ], [ -0.338284009051671, 51.629472604669139 ], [ -0.337459383123942, 51.630133545932821 ], [ -0.337445729217386, 51.630190887741612 ], [ -0.337384201269539, 51.63021518755567 ], [ -0.337198227428566, 51.630361874096693 ], [ -0.336804213688752, 51.630665631507249 ], [ -0.336427657899724, 51.63096424124695 ], [ -0.336131625920928, 51.631237022094894 ], [ -0.335675243478282, 51.631545285343947 ], [ -0.335343323495612, 51.63176981889854 ], [ -0.334917592040713, 51.632112675765995 ], [ -0.334634546942119, 51.632303829593795 ], [ -0.334547168946645, 51.632363720739697 ], [ -0.334464090102493, 51.632420076885602 ], [ -0.334140786307169, 51.632646617712496 ], [ -0.333698845291361, 51.632956877044379 ], [ -0.333571320398909, 51.633045864026386 ], [ -0.333262746100512, 51.633263621761913 ], [ -0.333089256572121, 51.633384408863549 ], [ -0.3330086238083, 51.633455182574686 ], [ -0.333060222603797, 51.63354581450443 ], [ -0.333063474865824, 51.633577325330336 ], [ -0.33306814750201, 51.633644815905164 ], [ -0.33304784543443, 51.633727324419247 ], [ -0.332971543475246, 51.633835917177301 ], [ -0.332851224055886, 51.633806339168608 ], [ -0.332583362688472, 51.633742301013577 ], [ -0.332455998502597, 51.633826794142905 ], [ -0.331734842499779, 51.634303975954097 ], [ -0.330826871468542, 51.634868305357131 ], [ -0.329983085494049, 51.635335641407522 ], [ -0.329323747824922, 51.635623911821988 ], [ -0.328824717639753, 51.635832653591869 ], [ -0.32832289423095, 51.636039465612164 ], [ -0.327328680753545, 51.636432720827095 ], [ -0.327048076333882, 51.636439508728316 ], [ -0.326774531968522, 51.636607315856587 ], [ -0.326546416861267, 51.636719133827313 ], [ -0.325926760559524, 51.636909062466586 ], [ -0.325639449871646, 51.636981377655545 ], [ -0.324597052595392, 51.637190438686979 ], [ -0.323159592034185, 51.637491836154467 ], [ -0.322288645561168, 51.637635902311573 ], [ -0.32146977182392, 51.637779717993233 ], [ -0.320549001715401, 51.637978796151224 ], [ -0.319792977788729, 51.63822068064497 ], [ -0.319428809838017, 51.638376385568492 ], [ -0.319096134358238, 51.638579377921538 ], [ -0.318727157655843, 51.638984122377806 ], [ -0.318640857457858, 51.639088067977333 ], [ -0.318505971544149, 51.639297488271581 ], [ -0.318436109045954, 51.639507840140318 ], [ -0.318406105318205, 51.639574834579435 ], [ -0.31823262344, 51.639732369111272 ], [ -0.318063409702969, 51.639932306917629 ], [ -0.317778621115365, 51.640090133143403 ], [ -0.317493867147027, 51.640246970289567 ], [ -0.317111670653405, 51.640422277101713 ], [ -0.316913300168818, 51.640469775672287 ], [ -0.316672427908759, 51.640535543071685 ], [ -0.315897895379088, 51.64018182453043 ], [ -0.314892350960933, 51.639782531137961 ], [ -0.314240133127675, 51.639601366290066 ], [ -0.313951822021327, 51.639503729091061 ], [ -0.313359234263706, 51.639311729144147 ], [ -0.313187836959827, 51.6392553260252 ], [ -0.312687200333415, 51.639077320136899 ], [ -0.312318670263718, 51.638961354666996 ], [ -0.311694056380817, 51.638813925138479 ], [ -0.311275074793387, 51.638731482105356 ], [ -0.311049999312691, 51.638683203379379 ], [ -0.310810811599417, 51.638626720046958 ], [ -0.309094324561393, 51.63815151404728 ], [ -0.308908895008921, 51.638085013504799 ], [ -0.308209372866107, 51.637892345226597 ], [ -0.307671550086517, 51.637744347367722 ], [ -0.306967851808906, 51.637548914420869 ], [ -0.306338447635634, 51.637374327368811 ], [ -0.305377305093992, 51.637107834267695 ], [ -0.305127013486349, 51.636998048411854 ], [ -0.304733444428548, 51.636739746228017 ], [ -0.30467846108906, 51.636702902260112 ], [ -0.304586142421587, 51.636622457076847 ], [ -0.304528023394155, 51.636551495888021 ], [ -0.304504006836382, 51.636499007274374 ], [ -0.304517233704579, 51.636454248721179 ], [ -0.304560607773579, 51.636377472085876 ], [ -0.304459014962307, 51.636350832396431 ], [ -0.305026110534104, 51.635403125458424 ], [ -0.305550451400077, 51.634399959787316 ], [ -0.305561655968248, 51.634332697071407 ], [ -0.305573849912431, 51.634120620790881 ], [ -0.305438551601707, 51.63337142437296 ], [ -0.305028510654082, 51.632779179593484 ], [ -0.30446097983001, 51.632033627078144 ], [ -0.303930138966399, 51.631467501504538 ], [ -0.302515238250969, 51.630431809840481 ], [ -0.302162173030333, 51.630137136330362 ], [ -0.301814726897897, 51.629845240033589 ], [ -0.301158675001919, 51.629268297837115 ], [ -0.300519502872148, 51.62862596877784 ], [ -0.300129433418193, 51.628200397277688 ], [ -0.299231228192107, 51.627413973930807 ], [ -0.298645260626808, 51.626974768784883 ], [ -0.298003783652532, 51.626510392426923 ], [ -0.297689190869716, 51.62626849301941 ], [ -0.297252119732551, 51.625903270883377 ], [ -0.295884331631944, 51.624697363245922 ], [ -0.295165454429547, 51.624106884908706 ], [ -0.29485591061, 51.623807424871188 ], [ -0.294340469784653, 51.623297212097846 ], [ -0.293847441953595, 51.622808988789771 ], [ -0.293127545964257, 51.622205896741576 ], [ -0.292653079203804, 51.621760101255788 ], [ -0.291649925902551, 51.620892167352686 ], [ -0.291547718052522, 51.620806982083479 ], [ -0.289576880811961, 51.61916680688546 ], [ -0.288252863388499, 51.618039657345378 ], [ -0.287985313782364, 51.617778549223665 ], [ -0.287675453714768, 51.617300074390684 ], [ -0.287542196195148, 51.617154289283604 ], [ -0.286828927169092, 51.616610589471101 ], [ -0.286729523230903, 51.61652732895633 ], [ -0.285980414822886, 51.61589859474001 ], [ -0.285283784642034, 51.61541365300581 ], [ -0.284386789276969, 51.614914902481104 ], [ -0.284162158397468, 51.614783062125099 ], [ -0.283938875044156, 51.614650252298283 ], [ -0.283389019991656, 51.614294210751432 ], [ -0.282176427994495, 51.613358330520825 ], [ -0.281458822877049, 51.612702173387461 ], [ -0.28012720724687, 51.611441713483011 ], [ -0.27934469777393, 51.610745943300955 ], [ -0.279316660080986, 51.61072215892478 ], [ -0.278722674928727, 51.61015860258032 ], [ -0.27791418500494, 51.609426487825999 ], [ -0.277291902171676, 51.608887684697834 ], [ -0.277112615908277, 51.60873852333112 ], [ -0.276629393363905, 51.608455363771959 ], [ -0.276422281575001, 51.608320986821134 ], [ -0.276013429058169, 51.608017341218037 ], [ -0.275532119533567, 51.607570595010372 ], [ -0.275248847347283, 51.607309243957246 ], [ -0.274909100218164, 51.606973348451625 ], [ -0.27487018490323, 51.606935020718645 ], [ -0.273784112477138, 51.60571500292415 ], [ -0.272946506693009, 51.605028297293927 ], [ -0.27022275624787, 51.602901136052935 ], [ -0.270055796447956, 51.602770128594763 ], [ -0.26871218436096, 51.601721676345605 ], [ -0.268424043150803, 51.601477322622273 ], [ -0.267591505688985, 51.600735829954488 ], [ -0.267131677070457, 51.600372977413222 ], [ -0.267970492662467, 51.599958144305333 ], [ -0.268346991229936, 51.599778501267814 ], [ -0.268652799051179, 51.599673240135523 ], [ -0.268765272669077, 51.599602079568761 ], [ -0.268794733301888, 51.599588129793645 ], [ -0.269119567203446, 51.599436401104782 ], [ -0.269448223483509, 51.599262343403836 ], [ -0.269754121637914, 51.599076173386294 ], [ -0.270236947392962, 51.598795516579699 ], [ -0.270636550777557, 51.598577550620092 ], [ -0.270833288039255, 51.598453599151178 ], [ -0.270969891700259, 51.598392679941938 ], [ -0.270989032523066, 51.59838397168555 ], [ -0.271117222525351, 51.598315736825555 ], [ -0.271184537373519, 51.598292454325552 ], [ -0.27120049891411, 51.598289093113692 ], [ -0.271216579438769, 51.598285733648943 ], [ -0.271233934719657, 51.598283291893615 ], [ -0.271249947059795, 51.598281729362576 ], [ -0.271267268247804, 51.598280186071435 ], [ -0.271284708421008, 51.598278644526985 ], [ -0.271301995517721, 51.598277999699889 ], [ -0.271317973765201, 51.598277335628723 ], [ -0.271335260861107, 51.598276690796695 ], [ -0.271352632854644, 51.598276946180576 ], [ -0.271364174521719, 51.598277115851999 ], [ -0.27138436809831, 51.598278311680843 ], [ -0.271404442689728, 51.598279505757063 ], [ -0.271426064103766, 51.598280722568475 ], [ -0.271446189510763, 51.59828371532533 ], [ -0.27146634900645, 51.598285809609443 ], [ -0.271486474418278, 51.598288802359477 ], [ -0.271505018925386, 51.598292670837914 ], [ -0.27152511025769, 51.59829656205077 ], [ -0.271543739672759, 51.598301330741563 ], [ -0.271563796927735, 51.598306120417305 ], [ -0.271582273280237, 51.598311785822503 ], [ -0.271599440787064, 51.598317431986487 ], [ -0.271610846131769, 51.598321195511467 ], [ -0.271989693786415, 51.598383398575407 ], [ -0.272068751152255, 51.598392651062198 ], [ -0.272147910770175, 51.598399208087059 ], [ -0.272228532322592, 51.598404887568911 ], [ -0.272291968972845, 51.598408516561051 ], [ -0.27237119678975, 51.598413276496643 ], [ -0.272451920599242, 51.598416260416208 ], [ -0.272532644420163, 51.598419244280478 ], [ -0.272612042606182, 51.598419511704158 ], [ -0.272693004887337, 51.59841620616794 ], [ -0.27277276049001, 51.598410185939855 ], [ -0.272774188330134, 51.598410206913016 ], [ -0.272816157019401, 51.598405429548905 ], [ -0.272856884967457, 51.598398836004776 ], [ -0.272897646963836, 51.598391343976097 ], [ -0.272936896180161, 51.598382930744002 ], [ -0.272977726266463, 51.598373641746463 ], [ -0.273017043568636, 51.598363431546431 ], [ -0.273054933015615, 51.598353200363192 ], [ -0.273094403326957, 51.598342093413713 ], [ -0.273132360850428, 51.598330065264072 ], [ -0.273170437341447, 51.598318038849136 ], [ -0.273208394827046, 51.598306010674136 ], [ -0.273285890616344, 51.598281078529759 ], [ -0.273323813992985, 51.598269948786751 ], [ -0.273358881680115, 51.598258777099304 ], [ -0.273469986472131, 51.598223460789285 ], [ -0.273579727955177, 51.598186416313254 ], [ -0.273689384327507, 51.598148471513568 ], [ -0.273796405975294, 51.598107791021029 ], [ -0.273901914665415, 51.598066189250446 ], [ -0.274006063419302, 51.598022769481339 ], [ -0.274108818192581, 51.597978430188206 ], [ -0.274119136190225, 51.597973187804392 ], [ -0.275602188623314, 51.597434706927025 ], [ -0.276952388685928, 51.596895159481917 ], [ -0.276491687148938, 51.596517043013193 ], [ -0.279328088610499, 51.596231266079286 ], [ -0.279346989516129, 51.596228845734757 ], [ -0.281352898077112, 51.596027953487059 ], [ -0.281739341209506, 51.595964380066668 ], [ -0.282631973836965, 51.59584068633275 ], [ -0.283308178525358, 51.595751673122926 ], [ -0.284045646399949, 51.595606914779331 ], [ -0.284560554030237, 51.595466906126497 ], [ -0.284920400945941, 51.595382258278001 ], [ -0.285370526918004, 51.595277270589833 ], [ -0.285486029282369, 51.595238503639393 ], [ -0.285588393855537, 51.595204039586108 ], [ -0.285742685803892, 51.59482413943055 ], [ -0.285772975912748, 51.594749966991571 ], [ -0.285910863487589, 51.594805918518446 ], [ -0.286111524870548, 51.594886159560744 ], [ -0.286259357176041, 51.594946750732461 ], [ -0.286694629474467, 51.594736451042451 ], [ -0.286738781812155, 51.594714621025169 ], [ -0.287099022157863, 51.594539992792832 ], [ -0.287661863709803, 51.594317975883129 ], [ -0.287978461531262, 51.594268654452826 ], [ -0.288310940645078, 51.59418000884304 ], [ -0.289103784205054, 51.594020669946964 ], [ -0.289329583445605, 51.593967324705723 ], [ -0.289701554555877, 51.593866664782652 ], [ -0.290081543301875, 51.593742657167503 ], [ -0.290336515247482, 51.593603433205793 ], [ -0.290398473867524, 51.593570174346432 ], [ -0.289873476404043, 51.593247797849351 ], [ -0.289629553629922, 51.593130884178379 ], [ -0.289463363419339, 51.593058343160486 ], [ -0.289268398338726, 51.592981786774551 ], [ -0.289068948295966, 51.592910558571454 ], [ -0.288706415313975, 51.592798207482872 ], [ -0.288421935566826, 51.592724839932451 ], [ -0.287540368193574, 51.592556463503122 ], [ -0.287291399202716, 51.592497994766589 ], [ -0.286972828942989, 51.592406956142668 ], [ -0.286774676753081, 51.592339339009612 ], [ -0.286581129781149, 51.592266394919143 ], [ -0.286368084385997, 51.592170691634642 ], [ -0.286114235762253, 51.592049130604728 ], [ -0.285883330012837, 51.591931589680136 ], [ -0.285648518255054, 51.591804012540422 ], [ -0.285435356795793, 51.591676840913756 ], [ -0.285267628040602, 51.591566513985235 ], [ -0.285135629762321, 51.591468305477562 ], [ -0.284889302072942, 51.591264235291661 ], [ -0.28463032579489, 51.591010451556812 ], [ -0.284515303329745, 51.590881927583446 ], [ -0.284407602909095, 51.590751802250338 ], [ -0.284278449313476, 51.590578212768023 ], [ -0.283973619988497, 51.590240063394525 ], [ -0.283827402568229, 51.589865661927377 ], [ -0.283340463787952, 51.588883790028824 ], [ -0.283214839067443, 51.588348680862538 ], [ -0.283096185133487, 51.588010639858147 ], [ -0.283054901266039, 51.587805069515568 ], [ -0.283029782658001, 51.587436030861369 ], [ -0.282844128692085, 51.586731845212064 ], [ -0.282536126525559, 51.586289453194354 ], [ -0.282409443503023, 51.586126595219405 ], [ -0.282348257084596, 51.586025914518615 ], [ -0.282312019944457, 51.585951668710258 ], [ -0.282280658975026, 51.585864908393276 ], [ -0.282247870721422, 51.585740280117676 ], [ -0.282296310584567, 51.585223084886458 ], [ -0.282317322442292, 51.585085757868526 ], [ -0.282408986134454, 51.585104177599078 ], [ -0.282426217728878, 51.58510802524691 ], [ -0.282430974706062, 51.585095509004709 ], [ -0.282447097145132, 51.585049896495534 ], [ -0.284043018322451, 51.585296235986235 ], [ -0.288989033169907, 51.58593676296767 ], [ -0.292079511666557, 51.586323479208808 ], [ -0.294292683657256, 51.58658760002421 ], [ -0.295685767009228, 51.5867005216462 ], [ -0.297807627592329, 51.58678165686424 ], [ -0.298142642625114, 51.586779323441341 ], [ -0.298308453861773, 51.586785323501296 ], [ -0.298588881274816, 51.586813661111549 ], [ -0.299263010635929, 51.586928610495704 ], [ -0.300042404748252, 51.587125178145321 ], [ -0.300191389181758, 51.58715790064641 ], [ -0.300476691183493, 51.587208778222781 ], [ -0.300768460282148, 51.587242668404251 ], [ -0.301164703046161, 51.587264585589459 ], [ -0.302038907066622, 51.587280826847547 ], [ -0.302113849653988, 51.587281910266448 ], [ -0.302590468278566, 51.58727711294096 ], [ -0.303040043467052, 51.587260236414878 ], [ -0.303555421013161, 51.587218238656654 ], [ -0.304067236917168, 51.587160005786373 ], [ -0.30482320950262, 51.587055761787248 ], [ -0.305298235032466, 51.586975417161781 ], [ -0.305363634797872, 51.58696107836257 ], [ -0.305752311457183, 51.586875890029795 ], [ -0.305863073786369, 51.586845124906787 ], [ -0.306066010851006, 51.586784135320791 ], [ -0.3064506280811, 51.586651240690564 ], [ -0.306818266803482, 51.586545967922518 ], [ -0.308345574425039, 51.586003242029456 ], [ -0.310559663141915, 51.585230258065728 ], [ -0.311738009021153, 51.584791329505784 ], [ -0.313052327753284, 51.584263453980512 ], [ -0.31335912497446, 51.584125820891693 ], [ -0.313586947031008, 51.584015730591268 ], [ -0.314269486613265, 51.583668546485555 ], [ -0.317066929917747, 51.582105366023711 ], [ -0.31877442040447, 51.581091254782201 ], [ -0.319239000475459, 51.580859591934377 ], [ -0.319776468975235, 51.580610091651707 ], [ -0.320188383209658, 51.580437990796362 ], [ -0.320684428622307, 51.580256213891452 ], [ -0.321021972131275, 51.580145074307616 ], [ -0.32340062241062, 51.579397587612554 ], [ -0.325261347993431, 51.578995237652741 ], [ -0.326649268286816, 51.578774005393988 ], [ -0.326686018534601, 51.578677440399375 ], [ -0.326642674987561, 51.578480758054752 ], [ -0.326592959034938, 51.57830205419144 ], [ -0.326563770159832, 51.578235024862117 ], [ -0.32646748552223, 51.578025092681656 ], [ -0.326278556274816, 51.577668117952591 ], [ -0.325883828569536, 51.576943949306752 ], [ -0.325530172087637, 51.576316644853982 ], [ -0.325411899084698, 51.576041583603939 ], [ -0.325357459755526, 51.575871802079469 ], [ -0.324969687667155, 51.574095685719307 ], [ -0.324952328687768, 51.573901263548876 ], [ -0.324902515191215, 51.573647856638011 ], [ -0.324861334712783, 51.573512336151353 ], [ -0.324812863904038, 51.573377700576422 ], [ -0.324719307428936, 51.573174910559892 ], [ -0.324094040254096, 51.572321694497781 ], [ -0.323555266886793, 51.571553222271653 ], [ -0.322914561478149, 51.570729445503261 ], [ -0.322497340359497, 51.570108424160118 ], [ -0.322131612302126, 51.569656241571089 ], [ -0.322886845014958, 51.569327126159671 ], [ -0.323772403131535, 51.568909069985203 ], [ -0.324459812237998, 51.56865718608217 ], [ -0.32515311275092, 51.568442239298001 ], [ -0.325051580481719, 51.568259202781576 ], [ -0.325774731523636, 51.568057263063857 ], [ -0.326152877303115, 51.567935896423407 ], [ -0.326725578426502, 51.567900811979953 ], [ -0.327631286013141, 51.567794142359283 ], [ -0.327476932272014, 51.56755902564116 ], [ -0.328709279759199, 51.567281608827187 ], [ -0.329266641005824, 51.567151992631253 ], [ -0.329723428804277, 51.567088365567749 ], [ -0.329655611058663, 51.566656613016271 ], [ -0.329624213900239, 51.566214680227937 ], [ -0.32904799891897, 51.565992442196453 ], [ -0.328647178837795, 51.56594449014068 ], [ -0.328571131066029, 51.564948871263219 ], [ -0.328517404419785, 51.564129768913588 ], [ -0.32831065274852, 51.563276215753859 ], [ -0.328558414285646, 51.563010857091264 ], [ -0.328301746525817, 51.562733826281381 ], [ -0.328227576703655, 51.56251153263031 ], [ -0.328728520302233, 51.562465620783804 ], [ -0.329024190974494, 51.562467129863649 ], [ -0.329170100194638, 51.562462013385954 ], [ -0.32951185758936, 51.56242641974044 ], [ -0.329666006514762, 51.562394450564483 ], [ -0.32976381948301, 51.562364377160158 ], [ -0.329860448676611, 51.562324398125213 ], [ -0.329942727712643, 51.56228322614016 ], [ -0.331307640593019, 51.561574273937687 ], [ -0.331398856063031, 51.561526126128669 ], [ -0.331194846469029, 51.561461198824752 ], [ -0.331974269867361, 51.560939897473595 ], [ -0.331831540302362, 51.560819206069219 ], [ -0.332612746581883, 51.560089275244124 ], [ -0.333396155704089, 51.559376542122415 ], [ -0.333900722642917, 51.55887560253467 ], [ -0.334001330084865, 51.558370803301145 ], [ -0.333971824011883, 51.557992714053931 ], [ -0.333956168589065, 51.55771101447224 ], [ -0.334886508942711, 51.55783298886854 ], [ -0.335526835005491, 51.556689184611606 ], [ -0.335562406603354, 51.556584505533429 ], [ -0.3355787433762, 51.556534392962405 ], [ -0.335810160896994, 51.556594308990654 ], [ -0.335882012652663, 51.556642974012128 ], [ -0.336272561602254, 51.556693456432853 ], [ -0.336305598267959, 51.556697520360679 ], [ -0.336373968413524, 51.556720963725333 ], [ -0.337154851834395, 51.556984729668223 ], [ -0.337575511041797, 51.557080583770741 ], [ -0.337830145010876, 51.557140015043679 ], [ -0.338303031622246, 51.557225817440916 ], [ -0.338548480792287, 51.557259855289217 ], [ -0.338844422405398, 51.557295505652945 ], [ -0.339032704759241, 51.557315249049097 ], [ -0.340996823082276, 51.557413126537142 ], [ -0.341422053215906, 51.557422727249886 ], [ -0.342137139381534, 51.557475164268944 ], [ -0.342523901978708, 51.557469744225301 ], [ -0.342522235501223, 51.557515659363716 ], [ -0.342961419922806, 51.557576694032953 ], [ -0.343959090631694, 51.557793935553754 ], [ -0.344606877137335, 51.558029702009193 ], [ -0.3453498079587, 51.55835131004234 ], [ -0.345351456450302, 51.558384595988734 ], [ -0.345472203472797, 51.558436640210282 ], [ -0.345558535194719, 51.558440553030827 ], [ -0.345659220293295, 51.558491505416661 ], [ -0.345979388392846, 51.558653337233956 ], [ -0.347161771830947, 51.55930483539526 ], [ -0.347232414098916, 51.55946593597487 ], [ -0.347533142465957, 51.559685020363425 ], [ -0.348824555986339, 51.559442386145825 ] ] ] } }
]
}
