{
"type": "FeatureCollection",
"name": "borough_Ealing",
"crs": { "type": "name", "properties": { "name": "urn:ogc:def:crs:OGC:1.3:CRS84" } },
"features": [
{ "type": "Feature", "properties": { "DISTRICT": "Ealing", "NAME": "Norwood Green", "GSS_CODE": "E05000186", "LAGSSCODE": "E09000009", "HECTARES": 379.609, "NONLD_AREA": 0.0 }, "geometry": { "type": "Polygon", "coordinates": [ [ [ -0.257510285140668, 51.494905153791308 ], [ -0.258518737685552, 51.49483022668349 ], [ -0.259735178880726, 51.494739497139008 ], [ -0.260071175169597, 51.494730995427865 ], [ -0.260333396136395, 51.494691641910379 ], [ -0.261260082923071, 51.494608286815428 ], [ -0.261303346644752, 51.494604432964245 ], [ -0.261447401847345, 51.494642527751118 ], [ -0.261629597651932, 51.494627247412701 ], [ -0.261719211600759, 51.494619585151327 ], [ -0.261833018244706, 51.494581715198429 ], [ -0.261872384316864, 51.494567914380916 ], [ -0.262276603224637, 51.494508274963522 ], [ -0.262651017137588, 51.494473364838711 ], [ -0.263751142621471, 51.494373589322599 ], [ -0.264416886505109, 51.494292640439618 ], [ -0.265526656005547, 51.494167009833291 ], [ -0.266666609832786, 51.49404082578662 ], [ -0.267652971425129, 51.49393672585051 ], [ -0.267695624198701, 51.494027255696444 ], [ -0.268039400707897, 51.494004462038319 ], [ -0.268397949696454, 51.493971097438262 ], [ -0.268900620369526, 51.494011778447508 ], [ -0.269377918292491, 51.494076356041312 ], [ -0.270027556772932, 51.494228967978401 ], [ -0.270709520212133, 51.494443993872792 ], [ -0.270978474161621, 51.494568513757109 ], [ -0.271266526178319, 51.494721992529385 ], [ -0.271403226076332, 51.494804017707054 ], [ -0.27153539464988, 51.494889661865372 ], [ -0.271776471497821, 51.49506672029537 ], [ -0.2719954648123, 51.495256128862749 ], [ -0.272144592034223, 51.495427337196674 ], [ -0.272280468300896, 51.495644289099573 ], [ -0.27245868742637, 51.496148735199803 ], [ -0.272709423698225, 51.496337620854568 ], [ -0.272926968250515, 51.496527905267307 ], [ -0.273281906489978, 51.496782152494525 ], [ -0.273711538447916, 51.497002526568963 ], [ -0.27423820100026, 51.497286357288445 ], [ -0.275685584024873, 51.497947905446644 ], [ -0.276285251108001, 51.498284042673816 ], [ -0.276716404966191, 51.498540387872637 ], [ -0.277273078754726, 51.498983768348758 ], [ -0.277873640554133, 51.499489012118367 ], [ -0.278036489779249, 51.499640636104139 ], [ -0.278189075506846, 51.499796694131632 ], [ -0.27836853484796, 51.500002501323408 ], [ -0.278519378882137, 51.500207978278297 ], [ -0.278668511448907, 51.500417924910963 ], [ -0.278811593776762, 51.500633985646758 ], [ -0.278948873285489, 51.500852747948727 ], [ -0.279197451228782, 51.501292587978902 ], [ -0.279407967402829, 51.501632889565244 ], [ -0.279529069022148, 51.501783000115282 ], [ -0.279656019801601, 51.501932387197009 ], [ -0.279829554237559, 51.502106640151332 ], [ -0.279873551590332, 51.502086608224005 ], [ -0.280234172327807, 51.502419219767425 ], [ -0.280713590365995, 51.502812005856029 ], [ -0.280761054636, 51.502851358266092 ], [ -0.281015387356942, 51.502719335990101 ], [ -0.282354480709517, 51.502091488674139 ], [ -0.282470756401778, 51.501988008053964 ], [ -0.283188278801982, 51.501644124219212 ], [ -0.283881270750253, 51.50137737085722 ], [ -0.28470968780873, 51.50106935153228 ], [ -0.285050327456977, 51.500976250252144 ], [ -0.285143593444074, 51.500950643468336 ], [ -0.28560545867148, 51.500811755237628 ], [ -0.28571047696493, 51.500780026740074 ], [ -0.286129740805404, 51.500741111872792 ], [ -0.286788163862539, 51.500663524813866 ], [ -0.287762315733625, 51.500776724321376 ], [ -0.288106642345416, 51.500813213490211 ], [ -0.288677252392282, 51.50085030525905 ], [ -0.289214093098339, 51.500945336688979 ], [ -0.289941635804474, 51.501099781976173 ], [ -0.290657999463307, 51.501245159777724 ], [ -0.291352128174566, 51.501372139536969 ], [ -0.292035965907168, 51.501463095385091 ], [ -0.293012566361399, 51.501546529868385 ], [ -0.293393300228409, 51.501575442106926 ], [ -0.293620440958238, 51.501591331560434 ], [ -0.29379214176629, 51.501583939499582 ], [ -0.293923759944108, 51.50157146939879 ], [ -0.294027782941313, 51.50156309291814 ], [ -0.294147112397802, 51.501529766979026 ], [ -0.294205487784727, 51.501512635721824 ], [ -0.29432780417084, 51.501475667139069 ], [ -0.295030604032998, 51.501253041505912 ], [ -0.29558993201903, 51.501051611696084 ], [ -0.296105317614196, 51.500872016038421 ], [ -0.296742937815845, 51.500657423668535 ], [ -0.298521945636136, 51.500050162340109 ], [ -0.299750404693782, 51.499638070736047 ], [ -0.300090900330048, 51.499547710868839 ], [ -0.300696184348846, 51.499348720962651 ], [ -0.30064932084024, 51.499254546751061 ], [ -0.300542175282002, 51.498804306436483 ], [ -0.30037932373857, 51.498650826434385 ], [ -0.300286799255709, 51.49858026347637 ], [ -0.300221499959253, 51.498515488832588 ], [ -0.300149493669538, 51.498436233056538 ], [ -0.300078311983451, 51.498338020379911 ], [ -0.300028542785034, 51.498165591191402 ], [ -0.299975534992627, 51.497923802507572 ], [ -0.299923458922863, 51.497813370509455 ], [ -0.299796304898613, 51.497706255629048 ], [ -0.299765794860877, 51.497677045650242 ], [ -0.29961419503552, 51.497531009402167 ], [ -0.299517450538694, 51.497420738926699 ], [ -0.299335185082675, 51.497169974351564 ], [ -0.299054252092811, 51.496780951923903 ], [ -0.298907246846313, 51.496588233516242 ], [ -0.298808426430522, 51.496457255397956 ], [ -0.298370764086196, 51.495945582981363 ], [ -0.298191452237051, 51.495772083035817 ], [ -0.297959236098409, 51.495545673542217 ], [ -0.298056858169693, 51.495517422854874 ], [ -0.297531345815023, 51.494890210186412 ], [ -0.298256612563443, 51.4947946507558 ], [ -0.299401895237515, 51.494641257182714 ], [ -0.301088531701538, 51.49441846923493 ], [ -0.301228658657042, 51.494716357730617 ], [ -0.301316265120464, 51.494919001185714 ], [ -0.301346151526429, 51.495083140971467 ], [ -0.301333563639492, 51.495226797988664 ], [ -0.302207613169503, 51.495432822096262 ], [ -0.302654334324188, 51.495506709390384 ], [ -0.303285381198288, 51.495622816165103 ], [ -0.303923294164771, 51.495707643834834 ], [ -0.304628505856309, 51.495841896190257 ], [ -0.305219085798128, 51.495998851457351 ], [ -0.305366941873038, 51.496054027533283 ], [ -0.305625487776982, 51.49615125653564 ], [ -0.305828922174699, 51.49618116368481 ], [ -0.305857596308449, 51.496071001333299 ], [ -0.305870255057731, 51.495921861085137 ], [ -0.305836951570672, 51.49561563217668 ], [ -0.305800524167715, 51.495355206868787 ], [ -0.305637567197046, 51.494970691280244 ], [ -0.305418769413349, 51.49453862127416 ], [ -0.30653846076976, 51.494180714245019 ], [ -0.30750827866295, 51.493860190748364 ], [ -0.308010788797409, 51.493713619795322 ], [ -0.308381382949304, 51.493585012810627 ], [ -0.30882205859134, 51.49339529422484 ], [ -0.309669197634918, 51.493002863285987 ], [ -0.310938276369158, 51.492422228096615 ], [ -0.311902785887131, 51.491970245905136 ], [ -0.311954423261301, 51.492016029124969 ], [ -0.312458129929546, 51.492456682089859 ], [ -0.312608827154238, 51.492589203435358 ], [ -0.312662294084675, 51.492585477332774 ], [ -0.312805847198627, 51.492715288599285 ], [ -0.313284121367059, 51.493105225947531 ], [ -0.313629063351501, 51.493400648769928 ], [ -0.3139143682044, 51.493593537415109 ], [ -0.313926082381404, 51.493588311774886 ], [ -0.314022777480502, 51.493542953478091 ], [ -0.31403964523651, 51.493555781749691 ], [ -0.314090129847099, 51.493594264844518 ], [ -0.31410026757014, 51.493589915530819 ], [ -0.314392212750709, 51.493448472732361 ], [ -0.314671950007908, 51.493715086904785 ], [ -0.314724140043959, 51.493704149564849 ], [ -0.314865287489403, 51.493822146848572 ], [ -0.315081903613705, 51.493964691376426 ], [ -0.315061158721544, 51.493979676386054 ], [ -0.314902943312312, 51.494092475590143 ], [ -0.314453483883064, 51.494363000128345 ], [ -0.314525045325157, 51.494416169673521 ], [ -0.314754900465233, 51.494589470720385 ], [ -0.315710931372822, 51.495346844438963 ], [ -0.315658123929614, 51.495371258264626 ], [ -0.315269568488981, 51.49555545778712 ], [ -0.315297886681167, 51.495570248248391 ], [ -0.315360036590336, 51.495601706291524 ], [ -0.315425088257768, 51.495635003944905 ], [ -0.315766749395917, 51.495904302209155 ], [ -0.315825388444845, 51.495876376057851 ], [ -0.317224007030676, 51.495216532939516 ], [ -0.318206772279217, 51.49470102556792 ], [ -0.318573172194793, 51.494492226577634 ], [ -0.319189556906762, 51.494223179194513 ], [ -0.319892443346291, 51.494579448516966 ], [ -0.320515190606265, 51.494883324093308 ], [ -0.320944630161064, 51.495036995301859 ], [ -0.321456841053744, 51.495210638155775 ], [ -0.322493084039408, 51.49555008535436 ], [ -0.323412330839663, 51.49589953884022 ], [ -0.324003693762264, 51.49576504763062 ], [ -0.324736510921389, 51.496012938256762 ], [ -0.324849072381833, 51.495929949941178 ], [ -0.325674883048076, 51.495371684301091 ], [ -0.326136865929799, 51.49503018468527 ], [ -0.326904460953006, 51.49562566053276 ], [ -0.327396458182026, 51.496037403756134 ], [ -0.329954212747224, 51.495075592008455 ], [ -0.330532121186497, 51.495347312786372 ], [ -0.330952571763172, 51.495468456307762 ], [ -0.331113726762159, 51.495514799623265 ], [ -0.331239185394823, 51.495549847036351 ], [ -0.331751034822449, 51.49569557177842 ], [ -0.331809716621615, 51.495627183242256 ], [ -0.33207353087889, 51.495701954822799 ], [ -0.332648449979501, 51.495857652215662 ], [ -0.333235533660574, 51.49595679282799 ], [ -0.334024497696854, 51.496086666325226 ], [ -0.33467476901105, 51.496153523981462 ], [ -0.334684384478493, 51.496205802458704 ], [ -0.335292098033823, 51.496211732054682 ], [ -0.335424623677859, 51.496212714123544 ], [ -0.335977672294471, 51.496216067477242 ], [ -0.336765646940674, 51.496256013164007 ], [ -0.337575461838137, 51.496254010150309 ], [ -0.33861577203317, 51.496247176014151 ], [ -0.339301654700612, 51.496203849390497 ], [ -0.340270348684428, 51.496150946585736 ], [ -0.341360027690998, 51.496014431907774 ], [ -0.341394508737535, 51.496098526475421 ], [ -0.342092424669288, 51.496040969752073 ], [ -0.343476751834216, 51.496560554286354 ], [ -0.344717761862016, 51.497020473705781 ], [ -0.344719186549276, 51.497020493813807 ], [ -0.346162244588276, 51.497553460987561 ], [ -0.34723646880917, 51.497926495410276 ], [ -0.348257072266689, 51.498347310554209 ], [ -0.349464719998923, 51.498894900657568 ], [ -0.349623280484975, 51.498974445780654 ], [ -0.349766808405204, 51.499029506237925 ], [ -0.349910856125401, 51.499070189871198 ], [ -0.350033847156014, 51.499095294140389 ], [ -0.350172986455442, 51.499110736468694 ], [ -0.350342661621157, 51.499119416162927 ], [ -0.350515629637274, 51.499119151949188 ], [ -0.350678743838941, 51.499108859938573 ], [ -0.35093501949307, 51.499074705720361 ], [ -0.352269959399708, 51.498772435689439 ], [ -0.353300666007631, 51.498555778895508 ], [ -0.354536348944506, 51.49833039200292 ], [ -0.354563850640337, 51.498325383850158 ], [ -0.354586497788901, 51.498257287958644 ], [ -0.354588084374409, 51.498252815235865 ], [ -0.354755617455545, 51.49828132619141 ], [ -0.354852143340229, 51.49828268015564 ], [ -0.354966176060188, 51.498276188620956 ], [ -0.355128737744587, 51.498201963974275 ], [ -0.355253250365376, 51.498184831185938 ], [ -0.355486225727205, 51.498157532146998 ], [ -0.355628170766737, 51.498177502213316 ], [ -0.355820487341802, 51.498157723434048 ], [ -0.356055760154993, 51.498106182597049 ], [ -0.356096687948391, 51.498087877340275 ], [ -0.356219773255375, 51.498031167728051 ], [ -0.356285439160396, 51.498008714131508 ], [ -0.356368514464414, 51.497981110498031 ], [ -0.356576330648153, 51.497929992966327 ], [ -0.356904983635143, 51.497848294029929 ], [ -0.357279908712493, 51.497797808127544 ], [ -0.357530584006917, 51.4977968238465 ], [ -0.358006493861159, 51.497785507564636 ], [ -0.358157984828589, 51.497738183595175 ], [ -0.35842191941358, 51.497649191636491 ], [ -0.358476099483918, 51.497625677087427 ], [ -0.35869774534577, 51.49747055593938 ], [ -0.359172535820926, 51.497209208943751 ], [ -0.359561544278532, 51.497007791947766 ], [ -0.360088445491608, 51.496776926979742 ], [ -0.360554060826954, 51.496688053229811 ], [ -0.360752212667581, 51.496627893349967 ], [ -0.360940959715869, 51.496545126860411 ], [ -0.361144000148195, 51.496467863873789 ], [ -0.361480595473467, 51.496362889588362 ], [ -0.361570287627793, 51.496312899975152 ], [ -0.361635990735794, 51.496285949022948 ], [ -0.361707758810612, 51.496255486781131 ], [ -0.361710150193209, 51.496228550373424 ], [ -0.361713476051515, 51.496175556200114 ], [ -0.361896942792288, 51.49608093765633 ], [ -0.36213858017747, 51.496050150676197 ], [ -0.362254149643192, 51.496043673635761 ], [ -0.36239729303895, 51.496026793579553 ], [ -0.362496237496956, 51.496000306308041 ], [ -0.36261291185493, 51.495959682592755 ], [ -0.362789619097191, 51.495934280719752 ], [ -0.362854087237107, 51.495945069588814 ], [ -0.362891291555255, 51.495950982885738 ], [ -0.362976972861091, 51.495933300010158 ], [ -0.363165909241768, 51.495845048843854 ], [ -0.363229580124628, 51.495758735109767 ], [ -0.363271291129436, 51.495638852129602 ], [ -0.363475964954018, 51.495515759386628 ], [ -0.363514231144713, 51.495492020533824 ], [ -0.36353308563484, 51.495489586643764 ], [ -0.363605449011906, 51.495478909440031 ], [ -0.363677142939775, 51.495006050469406 ], [ -0.363711151699332, 51.494699878393888 ], [ -0.363857372571508, 51.494600242308188 ], [ -0.364054785936763, 51.494437581562032 ], [ -0.364354931851807, 51.494261879583263 ], [ -0.364533873461755, 51.494134021179825 ], [ -0.364724172375458, 51.493967574291261 ], [ -0.364959846348647, 51.49370475841679 ], [ -0.365360832343338, 51.493326298631665 ], [ -0.365779743976232, 51.493658561268397 ], [ -0.366042425604647, 51.493523776644963 ], [ -0.366471893262528, 51.49327525488917 ], [ -0.366641111391382, 51.49309682452084 ], [ -0.366723666647324, 51.493003580132552 ], [ -0.36682317821075, 51.492917763774351 ], [ -0.366952213156339, 51.492856631261084 ], [ -0.366960889035979, 51.492853156107756 ], [ -0.366943342763917, 51.492822346029634 ], [ -0.366953434839021, 51.492779245038975 ], [ -0.366994343529306, 51.492764531838596 ], [ -0.367007476030181, 51.492759320756861 ], [ -0.367350562555038, 51.492631046924068 ], [ -0.367720223092254, 51.492486960153848 ], [ -0.368010083272768, 51.492395611346168 ], [ -0.368253772548245, 51.49231000244334 ], [ -0.368356497566679, 51.492297048603021 ], [ -0.368227694502269, 51.492152225889491 ], [ -0.367910354399402, 51.491802506385092 ], [ -0.367900584782016, 51.491793380481518 ], [ -0.368663324234063, 51.491530612874563 ], [ -0.36936037000104, 51.491291291399108 ], [ -0.369788564764371, 51.491160511006477 ], [ -0.371148043213844, 51.490685775019131 ], [ -0.371851443049649, 51.490470710308522 ], [ -0.371842281518132, 51.490524522572308 ], [ -0.371830174944455, 51.490580990900803 ], [ -0.371787145007925, 51.490658695360985 ], [ -0.371703325135347, 51.490787884786066 ], [ -0.371836205064698, 51.490898508791503 ], [ -0.37192686432615, 51.490980767319925 ], [ -0.37214091098807, 51.49095668068437 ], [ -0.372292146752954, 51.49095878105512 ], [ -0.372399186535576, 51.490984630192685 ], [ -0.372636797771511, 51.491109293435194 ], [ -0.372773034694605, 51.491289185297184 ], [ -0.373017273560338, 51.491467969131499 ], [ -0.373200642940176, 51.491578393336532 ], [ -0.373292329371527, 51.491631897265641 ], [ -0.373472726476927, 51.491825885976581 ], [ -0.373591670936481, 51.491841021382605 ], [ -0.373687160595759, 51.49187111408299 ], [ -0.373712464333795, 51.491887647018949 ], [ -0.373775906409698, 51.491927183886048 ], [ -0.373785773155543, 51.491933613720249 ], [ -0.373984036036986, 51.492233121232957 ], [ -0.374607012666665, 51.493267868337711 ], [ -0.37477720504178, 51.493545408841548 ], [ -0.374985759733271, 51.493876521238903 ], [ -0.374953976074928, 51.493921929055539 ], [ -0.374944766545757, 51.493937084194087 ], [ -0.375065157601639, 51.494075399521897 ], [ -0.375207683132475, 51.494239283112655 ], [ -0.37545962151786, 51.494529642360497 ], [ -0.375650588352384, 51.494871297461849 ], [ -0.375818911574146, 51.495402325038199 ], [ -0.376404626184935, 51.495338519870742 ], [ -0.376752011752314, 51.495292987485371 ], [ -0.377052056433551, 51.495282758182768 ], [ -0.377199637565891, 51.495304579091837 ], [ -0.377864475061854, 51.495447730237238 ], [ -0.377736615004023, 51.496044866532436 ], [ -0.377719928647397, 51.496190361531376 ], [ -0.377693184290766, 51.49641842420727 ], [ -0.37766725979665, 51.496459418870408 ], [ -0.377630518873683, 51.496517344601706 ], [ -0.377653191759119, 51.496531143198766 ], [ -0.377815366413535, 51.496546872296669 ], [ -0.377832126171894, 51.496563285994945 ], [ -0.377872331579565, 51.496605195776105 ], [ -0.378480302997966, 51.49640324391887 ], [ -0.37894478263027, 51.496264840993327 ], [ -0.379125988726786, 51.496192730711599 ], [ -0.379119798144048, 51.496162978535153 ], [ -0.379684545524185, 51.49596033306446 ], [ -0.38008263861659, 51.495824693986314 ], [ -0.381163580089213, 51.49544479153974 ], [ -0.381825343647438, 51.495225585988884 ], [ -0.382170042278887, 51.495134961360293 ], [ -0.382392805624852, 51.495069712641524 ], [ -0.382621076161666, 51.495009933413556 ], [ -0.383010034297498, 51.494927198826481 ], [ -0.383316481566164, 51.494856719925927 ], [ -0.383506558456184, 51.494818886896788 ], [ -0.38369926192361, 51.494787382681906 ], [ -0.383912084051077, 51.494757953497533 ], [ -0.384386322653264, 51.494708753608627 ], [ -0.384741822177013, 51.494678592363059 ], [ -0.385148958854989, 51.494652736693212 ], [ -0.385453369779423, 51.494639848405392 ], [ -0.385691121572535, 51.494637728328676 ], [ -0.385966230683884, 51.494640616986644 ], [ -0.387083920117019, 51.494688361942309 ], [ -0.387533410099718, 51.494849170295716 ], [ -0.387650144128953, 51.494890331084775 ], [ -0.387776472077111, 51.494901957158596 ], [ -0.388191484544509, 51.494939127853144 ], [ -0.389298765438458, 51.495161201836027 ], [ -0.390700764157139, 51.495480805759335 ], [ -0.392269231213598, 51.495860211075964 ], [ -0.394011862511307, 51.49632747507205 ], [ -0.395680820459555, 51.496799908277261 ], [ -0.397894174886353, 51.497402110683588 ], [ -0.398541406415394, 51.497555690441096 ], [ -0.399942030699536, 51.49792191333151 ], [ -0.40017003851999, 51.497991639900683 ], [ -0.400220562459399, 51.49794639109605 ], [ -0.401518352302557, 51.498285121404351 ], [ -0.40277825259346, 51.498637792301658 ], [ -0.403438283531062, 51.498837366722817 ], [ -0.404819729262295, 51.499214056197147 ], [ -0.406620564817195, 51.499630681606796 ], [ -0.406884908908681, 51.499694505973039 ], [ -0.406321321249499, 51.500322612506736 ], [ -0.405144134726181, 51.501563751291158 ], [ -0.405121646131624, 51.501588617046167 ], [ -0.404252639566959, 51.502541676042739 ], [ -0.40386905454773, 51.502922209868331 ], [ -0.403673526583014, 51.503115616781599 ], [ -0.403618760080257, 51.503159820402864 ], [ -0.403562481182559, 51.50320310441279 ], [ -0.403504808633527, 51.503245470426258 ], [ -0.403444317499107, 51.503286899035466 ], [ -0.403382313965976, 51.503327408025243 ], [ -0.403319063773721, 51.503366191924037 ], [ -0.403255729261555, 51.503403985751305 ], [ -0.403189544770579, 51.503441740721897 ], [ -0.403121966626803, 51.503478577681179 ], [ -0.403053026225613, 51.503513598067336 ], [ -0.402982692176146, 51.503547700437544 ], [ -0.40291096447959, 51.503580884789386 ], [ -0.402836330847616, 51.503612231529779 ], [ -0.402761847261934, 51.503642681277256 ], [ -0.402750171960889, 51.50364701713827 ], [ -0.402684486009879, 51.503670484703278 ], [ -0.402615984645883, 51.503692924981259 ], [ -0.402546089675209, 51.503714447240426 ], [ -0.40247625745278, 51.503734172337651 ], [ -0.402404881479361, 51.503753876353663 ], [ -0.402333687009651, 51.503771784824742 ], [ -0.402262461076201, 51.503790591808979 ], [ -0.402189722803256, 51.503808479148965 ], [ -0.402130140748593, 51.503823848805709 ], [ -0.401920862821972, 51.503876733273152 ], [ -0.401710134993744, 51.503926900627221 ], [ -0.401498103859695, 51.5039735437351 ], [ -0.401284743485681, 51.50401738136302 ], [ -0.401204941917752, 51.504033373723139 ], [ -0.400469523764326, 51.504213926146782 ], [ -0.399849599004238, 51.504431200803133 ], [ -0.399049835278033, 51.50475928822253 ], [ -0.397735191389851, 51.505269210010262 ], [ -0.3964741594026, 51.505767264160554 ], [ -0.395714593876804, 51.506058929622945 ], [ -0.394982510286348, 51.506349258227424 ], [ -0.394339470744521, 51.50660394355787 ], [ -0.394074792487614, 51.506714578403198 ], [ -0.39402356407976, 51.506735452132389 ], [ -0.393972422795676, 51.506757226015502 ], [ -0.393922524591241, 51.506780814874894 ], [ -0.393872745087789, 51.506804405338571 ], [ -0.393702814958555, 51.506882985263843 ], [ -0.393565732462952, 51.506970105965415 ], [ -0.393395319775002, 51.507106303632916 ], [ -0.393276722568779, 51.507198172257532 ], [ -0.393096915160841, 51.507395371525448 ], [ -0.393000051852869, 51.507527992032315 ], [ -0.392926262824418, 51.507656523799199 ], [ -0.392840728190978, 51.507794693373967 ], [ -0.392749242053166, 51.508020971483425 ], [ -0.392619439693915, 51.508309652844794 ], [ -0.392227662808911, 51.509164873388585 ], [ -0.391526683430427, 51.510735206767642 ], [ -0.391066290492432, 51.511819615310287 ], [ -0.390895847517882, 51.512198531086575 ], [ -0.390737238909388, 51.512568619298399 ], [ -0.390612470050811, 51.51283489074757 ], [ -0.390498073173158, 51.513015901784662 ], [ -0.390422263315183, 51.513204544543044 ], [ -0.390420560868828, 51.513209016040754 ], [ -0.390364526500559, 51.51340970691529 ], [ -0.390150236742209, 51.513724191921938 ], [ -0.389997162124973, 51.513937034235767 ], [ -0.389548267932131, 51.514363363825659 ], [ -0.389362875594908, 51.514511933905624 ], [ -0.389001907630292, 51.514736211297603 ], [ -0.388597645061931, 51.514917730335817 ], [ -0.387048297053522, 51.51552947540381 ], [ -0.386755917794133, 51.515645014701121 ], [ -0.386088113716442, 51.515905602485176 ], [ -0.385219623677997, 51.516252419828305 ], [ -0.384967775663646, 51.516364108037109 ], [ -0.384823835398043, 51.516442133772699 ], [ -0.384629949387121, 51.516544643614779 ], [ -0.384566483622024, 51.516585122330468 ], [ -0.384237698349232, 51.51679553827303 ], [ -0.383909605448364, 51.517063497252607 ], [ -0.383709017249835, 51.517234325573469 ], [ -0.38342153171891, 51.517496461390188 ], [ -0.383381382199763, 51.517532856054252 ], [ -0.382844974343865, 51.517944475698862 ], [ -0.382597480874178, 51.517932972371575 ], [ -0.38258845950116, 51.51794273674016 ], [ -0.382548216583834, 51.517981736877964 ], [ -0.382551505627509, 51.518009650579238 ], [ -0.382450771382613, 51.518085573623566 ], [ -0.382070266009753, 51.518369886739606 ], [ -0.381880144920192, 51.518530069191442 ], [ -0.381755312959356, 51.518635325522474 ], [ -0.381712942388058, 51.518694073566202 ], [ -0.38138385272593, 51.519153585701794 ], [ -0.38089982014798, 51.51971254292549 ], [ -0.380810474598496, 51.519755359585353 ], [ -0.380187957868517, 51.520358250154928 ], [ -0.379908686142899, 51.520632267684611 ], [ -0.379316267111117, 51.521280518431325 ], [ -0.379086236863491, 51.521549820535 ], [ -0.378895188685967, 51.52181237921495 ], [ -0.37852657506438, 51.522248862914033 ], [ -0.378354397262068, 51.522468530594075 ], [ -0.377679261423241, 51.523335969592566 ], [ -0.377133239829044, 51.524014517686602 ], [ -0.376962366034015, 51.524240584188981 ], [ -0.376611720088619, 51.524451577017153 ], [ -0.37652667599711, 51.524573560211032 ], [ -0.376353173092381, 51.524709691552552 ], [ -0.376159833450024, 51.524915578531868 ], [ -0.376075570125894, 51.525055641700511 ], [ -0.375948460870787, 51.525307484038834 ], [ -0.375907819216388, 51.525557736141174 ], [ -0.375933175369751, 51.525737072495374 ], [ -0.375965755768672, 51.52591381192903 ], [ -0.376090549280208, 51.526378599842516 ], [ -0.376129297973101, 51.526665998079359 ], [ -0.376216870655977, 51.5269208101112 ], [ -0.376249484484946, 51.527380725861804 ], [ -0.376181743585971, 51.528800612626029 ], [ -0.376181392003005, 51.528810496444734 ], [ -0.376182817730338, 51.528810516176883 ], [ -0.37618401972336, 51.52881682561182 ], [ -0.376260785991644, 51.528847554086845 ], [ -0.376355886079141, 51.528887525934898 ], [ -0.376503440959771, 51.52891653691686 ], [ -0.376946868496704, 51.528972115287075 ], [ -0.377643694919541, 51.529041983720617 ], [ -0.379031165647484, 51.529148450578603 ], [ -0.379612408861289, 51.529223003021499 ], [ -0.380969389218809, 51.529415236603889 ], [ -0.381606006620863, 51.529514006100634 ], [ -0.382453455344991, 51.529644355817339 ], [ -0.383977865204308, 51.529916262852723 ], [ -0.384510711681975, 51.530015294940235 ], [ -0.385662231902397, 51.530310816306333 ], [ -0.385847409825012, 51.530375393619082 ], [ -0.386522971370732, 51.530391880840234 ], [ -0.386616652369327, 51.530394967483417 ], [ -0.386619884933271, 51.53038422435759 ], [ -0.386701376689765, 51.53015700793631 ], [ -0.386857019353183, 51.529913641074096 ], [ -0.387094513804928, 51.529557230905787 ], [ -0.387134211670421, 51.529577554072546 ], [ -0.387840728367102, 51.529942449161084 ], [ -0.388369387216311, 51.53020061614793 ], [ -0.388852906245412, 51.530431101824419 ], [ -0.389252781777065, 51.530620073251377 ], [ -0.389257963321127, 51.530800027593529 ], [ -0.389582146960282, 51.530846730752458 ], [ -0.389823215757877, 51.53088060542467 ], [ -0.39054827008871, 51.531007422905468 ], [ -0.392324957819676, 51.531402254372004 ], [ -0.393534867761673, 51.531601413128378 ], [ -0.394443496046562, 51.531754993092633 ], [ -0.395321311166752, 51.531885760194299 ], [ -0.395860498259252, 51.531927296870769 ], [ -0.396247667108018, 51.531947874144549 ], [ -0.396805824216613, 51.532024725610249 ], [ -0.396957843974996, 51.532045681841417 ], [ -0.398585056403766, 51.532308924640937 ], [ -0.400084078768632, 51.532526346933338 ], [ -0.401379263938067, 51.532719306810982 ], [ -0.402509513457617, 51.532890317277037 ], [ -0.404376380421004, 51.533104511286446 ], [ -0.404563330460859, 51.533116043982766 ], [ -0.404638181798358, 51.533120657947549 ], [ -0.404807148946398, 51.53315352087283 ], [ -0.404938938434989, 51.533178686253869 ], [ -0.405040962118472, 51.533188164299538 ], [ -0.405229174794115, 51.533207803799478 ], [ -0.405479461296041, 51.533264335419815 ], [ -0.405629742995572, 51.533297842099152 ], [ -0.406920870369244, 51.533526642084048 ], [ -0.407397401331314, 51.533586242111483 ], [ -0.409375376869395, 51.534007817926529 ], [ -0.409549661909167, 51.534011080186481 ], [ -0.410264503521739, 51.534143929337404 ], [ -0.410661204691699, 51.534181668048369 ], [ -0.410918061959088, 51.534176158421033 ], [ -0.410944672275196, 51.534197195192874 ], [ -0.411064050052726, 51.534288799104175 ], [ -0.411812255732586, 51.534084887748143 ], [ -0.411862806650173, 51.534125126796489 ], [ -0.411900493335668, 51.534200251416856 ], [ -0.411941241458949, 51.534272810464202 ], [ -0.411989647672873, 51.534333696690112 ], [ -0.412029948697922, 51.534374695865459 ], [ -0.412078886615699, 51.534420306790985 ], [ -0.412133965973094, 51.534453415277611 ], [ -0.412182015830096, 51.534480135804181 ], [ -0.412248871586161, 51.534506211903498 ], [ -0.412305933544915, 51.534526761589937 ], [ -0.412404397314201, 51.534553265431136 ], [ -0.412500628276876, 51.53456535547889 ], [ -0.412680516331661, 51.534575071587561 ], [ -0.413066453123506, 51.534587485372505 ], [ -0.413193016407853, 51.534599086250573 ], [ -0.413295846201039, 51.534626547374181 ], [ -0.413384360537822, 51.534652016834436 ], [ -0.41346081771775, 51.534692605604896 ], [ -0.413484421445972, 51.534718095971314 ], [ -0.413523510728939, 51.534756381334716 ], [ -0.413582066621565, 51.534894715434838 ], [ -0.413626828902137, 51.535019468327704 ], [ -0.413656368274329, 51.535205954228971 ], [ -0.413694283009495, 51.535565335048865 ], [ -0.413830625742418, 51.535750568321987 ], [ -0.413883844721861, 51.535796236371517 ], [ -0.413926567881859, 51.535812096529774 ], [ -0.414006722501397, 51.535828462793404 ], [ -0.4141628758098, 51.535857632993491 ], [ -0.414533227747693, 51.53590489098216 ], [ -0.414626391637784, 51.535923230598165 ], [ -0.414687802737128, 51.535938444091755 ], [ -0.41483793418963, 51.536017784314147 ], [ -0.414922388868611, 51.53607466162012 ], [ -0.415002372581807, 51.536140468129751 ], [ -0.4150915237963, 51.536229861517413 ], [ -0.415151765273322, 51.536323269172897 ], [ -0.415245784794841, 51.536522402301365 ], [ -0.415319088625459, 51.536568341046426 ], [ -0.415437909908167, 51.536594218382845 ], [ -0.415598971746567, 51.536605383717188 ], [ -0.415769076799886, 51.536609479225781 ], [ -0.415919111147437, 51.536606111695825 ], [ -0.41609393676478, 51.536594089061616 ], [ -0.4164881774861, 51.536535585228322 ], [ -0.416736996104419, 51.536511974962757 ], [ -0.416856659765592, 51.536513590099048 ], [ -0.417009415183071, 51.536517449642929 ], [ -0.41713713606778, 51.536533556714438 ], [ -0.417198667644254, 51.53654877051536 ], [ -0.417287250126807, 51.536572439998622 ], [ -0.417376697728268, 51.536612302508289 ], [ -0.417459917588231, 51.536663767508735 ], [ -0.417573956413529, 51.53674531415971 ], [ -0.417618785862605, 51.536782776610309 ], [ -0.417647935275586, 51.536816431649115 ], [ -0.41768008208523, 51.536887074690839 ], [ -0.41766004547363, 51.537005468147107 ], [ -0.417653555161881, 51.537069207304576 ], [ -0.417592763276152, 51.537200625364378 ], [ -0.417519504930677, 51.537400106854832 ], [ -0.417489589251379, 51.537470811601466 ], [ -0.417445876386537, 51.537569108294491 ], [ -0.417406168469552, 51.53763419720066 ], [ -0.417394595180559, 51.537717645046939 ], [ -0.417411475869033, 51.537769113960152 ], [ -0.417446445537477, 51.5378029374669 ], [ -0.417485826914588, 51.537829538845095 ], [ -0.417533815172689, 51.537861650131362 ], [ -0.41754382268687, 51.537864482045038 ], [ -0.417582276734593, 51.537876687397578 ], [ -0.417658126983762, 51.537893892053255 ], [ -0.417834463549958, 51.537924138682875 ], [ -0.418143083965555, 51.537962461845538 ], [ -0.418433911506533, 51.538016726124802 ], [ -0.418726305560866, 51.538111554406612 ], [ -0.418831935362021, 51.538140846543151 ], [ -0.41892668643018, 51.538154709477467 ], [ -0.419062930788032, 51.538175424444404 ], [ -0.419171936533414, 51.538193075204475 ], [ -0.419284971388229, 51.538217971911237 ], [ -0.419360075124952, 51.538256740788114 ], [ -0.41945447817039, 51.538359596425508 ], [ -0.419573310429859, 51.53855007096886 ], [ -0.419593849235713, 51.538581811615416 ], [ -0.41960140378012, 51.538614276258315 ], [ -0.419593090838331, 51.538648325014627 ], [ -0.419569844069454, 51.538694758076076 ], [ -0.41943903837455, 51.538764103651104 ], [ -0.419319358182014, 51.538807439062957 ], [ -0.419116639295445, 51.538831675694013 ], [ -0.418668934361368, 51.538892163543622 ], [ -0.418543828465906, 51.538965090923192 ], [ -0.418386961499553, 51.539038488809226 ], [ -0.418308341236205, 51.539059992601622 ], [ -0.418229287916144, 51.539093986147464 ], [ -0.41815621269914, 51.539123565579864 ], [ -0.418140867510296, 51.53915122663048 ], [ -0.418157133396797, 51.539179313978309 ], [ -0.418209526289882, 51.539207888508386 ], [ -0.41821665085124, 51.539211580453916 ], [ -0.418249308208441, 51.539226404381104 ], [ -0.41831236838221, 51.539235345571477 ], [ -0.418392373977559, 51.539256201830945 ], [ -0.41854815714767, 51.539341007615299 ], [ -0.418596744687022, 51.539352450398823 ], [ -0.418678167034357, 51.539414767972886 ], [ -0.418806001267173, 51.539513580051057 ], [ -0.41887196424948, 51.539565710524307 ], [ -0.41893929115749, 51.539619657284327 ], [ -0.419024924584765, 51.539687425201507 ], [ -0.419141855497723, 51.539768110590259 ], [ -0.419387936436228, 51.539906272555591 ], [ -0.419448750699873, 51.539983504414991 ], [ -0.419474555381922, 51.540027991493012 ], [ -0.419501310866072, 51.540130834376086 ], [ -0.419499816694721, 51.540173964683774 ], [ -0.419487349497219, 51.540242118202414 ], [ -0.419461280812801, 51.540287614222613 ], [ -0.419431833265955, 51.540344841173045 ], [ -0.419387723189866, 51.540413467179697 ], [ -0.419324692159337, 51.54044138461002 ], [ -0.419286946015213, 51.54044986552735 ], [ -0.419246446774616, 51.540452016551249 ], [ -0.419181715421007, 51.540446649187956 ], [ -0.419101583040761, 51.54042938760508 ], [ -0.419044661479705, 51.540407944029369 ], [ -0.418934822819684, 51.540331848987726 ], [ -0.41889943696833, 51.540313392578028 ], [ -0.418776766403306, 51.540274791129008 ], [ -0.41869657215785, 51.540259326374517 ], [ -0.418624685300673, 51.540251165323291 ], [ -0.418513719706049, 51.540248770025343 ], [ -0.418499776097341, 51.540235996450427 ], [ -0.418570958914387, 51.540219875964908 ], [ -0.418524980177253, 51.540174307581857 ], [ -0.418365651288914, 51.540112827079803 ], [ -0.418301481182648, 51.540091285393757 ], [ -0.418056494144544, 51.540086183506013 ], [ -0.417688825490225, 51.540083921283845 ], [ -0.417554087252992, 51.540101880923807 ], [ -0.417386005254425, 51.540124784337905 ], [ -0.41727295821089, 51.540141238379682 ], [ -0.416812819114652, 51.540144917397093 ], [ -0.416683124061866, 51.540185418288402 ], [ -0.416442096466146, 51.540192952217964 ], [ -0.416130287165186, 51.540242680349387 ], [ -0.416021299346287, 51.54026548076763 ], [ -0.415808513582344, 51.540332816505931 ], [ -0.415438431045105, 51.540441087612123 ], [ -0.415349801582448, 51.5404596675845 ], [ -0.415232162646643, 51.540485047298709 ], [ -0.414790982768685, 51.540606829151564 ], [ -0.414426167240785, 51.540689997158481 ], [ -0.41394319583344, 51.540768869541537 ], [ -0.413380579819701, 51.540857450273265 ], [ -0.412579247412255, 51.540968957915346 ], [ -0.411925567701869, 51.541104843491354 ], [ -0.410732059929905, 51.541336883735134 ], [ -0.409435785347919, 51.541542347285599 ], [ -0.408706095138259, 51.541705951154945 ], [ -0.407856087123359, 51.541807776512194 ], [ -0.407930058151451, 51.541960706002115 ], [ -0.407073513573988, 51.54212356674698 ], [ -0.40539543086384, 51.54243707085098 ], [ -0.404831981006715, 51.542507620073785 ], [ -0.404329412424739, 51.542530450402829 ], [ -0.403832831018573, 51.542545269313763 ], [ -0.403242888436292, 51.542547128630524 ], [ -0.402243733682887, 51.542540714731942 ], [ -0.402169685741048, 51.542512736991263 ], [ -0.401504366863353, 51.542527944154017 ], [ -0.401287902146159, 51.542533084272797 ], [ -0.400388913423293, 51.542464190944941 ], [ -0.400033505193775, 51.542444060356182 ], [ -0.399148388939276, 51.542393326158283 ], [ -0.397652335889877, 51.542326149051142 ], [ -0.397246268805535, 51.54235026631477 ], [ -0.395252069263038, 51.542548727209507 ], [ -0.395354929145911, 51.542988022348446 ], [ -0.39548657152762, 51.543714572079907 ], [ -0.395561249351546, 51.54404920102963 ], [ -0.395571321191223, 51.544090781274548 ], [ -0.395695186895726, 51.544095172672684 ], [ -0.395721215035443, 51.544095528722956 ], [ -0.395745938813082, 51.544335891555839 ], [ -0.395812310283468, 51.54462276135861 ], [ -0.395837529428073, 51.544683337213634 ], [ -0.395906140232515, 51.544865957226889 ], [ -0.396073807907486, 51.545224331870479 ], [ -0.3961772326797, 51.545441588639186 ], [ -0.396221583925991, 51.545532990973406 ], [ -0.396321681306869, 51.54567918359556 ], [ -0.396536668753489, 51.545963500320404 ], [ -0.397066690458803, 51.545861071661342 ], [ -0.397030319066461, 51.545789556025085 ], [ -0.39786546682134, 51.545663335959709 ], [ -0.397885296563396, 51.545714937956788 ], [ -0.39804874820774, 51.546153260361329 ], [ -0.39842183276167, 51.547191540322487 ], [ -0.398386992712098, 51.547198256273823 ], [ -0.398298406818972, 51.54721502581495 ], [ -0.398308800361218, 51.547247530623473 ], [ -0.398305916218165, 51.547248390201915 ], [ -0.39831655899319, 51.547273796563793 ], [ -0.398408230505034, 51.547578989695467 ], [ -0.398444339422742, 51.547576785908085 ], [ -0.398518133959061, 51.547571500862503 ], [ -0.398533027458459, 51.547597774321382 ], [ -0.398537488330212, 51.547596037300082 ], [ -0.398561633225927, 51.547646709230179 ], [ -0.398700111584247, 51.547892310398076 ], [ -0.398678195228546, 51.54790010186283 ], [ -0.398580300468569, 51.547934723871393 ], [ -0.398352375563183, 51.547937005124169 ], [ -0.397820791084639, 51.547836161461717 ], [ -0.3975192791705, 51.547800578062947 ], [ -0.397217427894562, 51.547771282029053 ], [ -0.39694557784802, 51.547747789119235 ], [ -0.396482284841043, 51.547717183300712 ], [ -0.39565516174758, 51.547654629968115 ], [ -0.394868267012936, 51.547638468781777 ], [ -0.394987538684892, 51.54802045457054 ], [ -0.395064376423469, 51.548459393468399 ], [ -0.395059462038987, 51.548477395471885 ], [ -0.394965888905511, 51.548757491859106 ], [ -0.394167882956484, 51.54864768120536 ], [ -0.393923745218469, 51.548698276113726 ], [ -0.393464564664858, 51.548837709518573 ], [ -0.392808691998117, 51.548990537270683 ], [ -0.392108407066718, 51.549215658735243 ], [ -0.391934860953529, 51.549270813172953 ], [ -0.390178681142329, 51.549785381075964 ], [ -0.389074250690174, 51.550142478064025 ], [ -0.388932923247088, 51.550059629590152 ], [ -0.388883167278783, 51.550037370838211 ], [ -0.38855475455905, 51.550147027572407 ], [ -0.388047074757601, 51.550352296850491 ], [ -0.387515264073779, 51.550543658229088 ], [ -0.386978726938598, 51.550666721602276 ], [ -0.386172424632208, 51.550911927737246 ], [ -0.385248694339033, 51.551171693395055 ], [ -0.384667654618374, 51.551409114552158 ], [ -0.383894875457215, 51.551764447048569 ], [ -0.382951347960032, 51.55221909566469 ], [ -0.381938045235307, 51.552725814005072 ], [ -0.381936618762859, 51.552725794332083 ], [ -0.381817836548045, 51.552822144817682 ], [ -0.38148818990953, 51.553005574240402 ], [ -0.380832064870105, 51.553326536137476 ], [ -0.380636897106647, 51.553460487261262 ], [ -0.380173077051123, 51.55368431287701 ], [ -0.378450442715346, 51.554383474978017 ], [ -0.377667797227828, 51.554689185358349 ], [ -0.377755662756082, 51.554897255205226 ], [ -0.377779244678512, 51.554963206681236 ], [ -0.377787059719402, 51.554987587149917 ], [ -0.377679859687984, 51.554998690528009 ], [ -0.377673183532614, 51.554982416604091 ], [ -0.377616011323373, 51.554847678272125 ], [ -0.377612083374723, 51.554837735195093 ], [ -0.377654161081032, 51.554828428302962 ], [ -0.377544375835269, 51.554591287953905 ], [ -0.377269092684601, 51.554218809784182 ], [ -0.376899375769357, 51.553866510153419 ], [ -0.376529661040657, 51.553514299308908 ], [ -0.376468354300885, 51.553535925408731 ], [ -0.375840364486013, 51.553062371981071 ], [ -0.374910465390148, 51.553495478291666 ], [ -0.373887330514571, 51.553911193137232 ], [ -0.373685802679704, 51.553819311067173 ], [ -0.373343754458845, 51.55402591877111 ], [ -0.372833941155, 51.553717601819471 ], [ -0.372450276789781, 51.55396048778492 ], [ -0.372146667849845, 51.55397964900969 ], [ -0.37208962269283, 51.553961776922122 ], [ -0.37201835404357, 51.553939212554162 ], [ -0.37190270177266, 51.553943900534819 ], [ -0.37177778479645, 51.553968237326409 ], [ -0.371667251601729, 51.553992773618837 ], [ -0.371508751119031, 51.554028330712441 ], [ -0.371423049438526, 51.554046918601834 ], [ -0.37138509981906, 51.554057179536677 ], [ -0.370990428661168, 51.554165061260456 ], [ -0.370704051332999, 51.55426446696034 ], [ -0.370604795767428, 51.55433950157601 ], [ -0.370333989685458, 51.554449101256601 ], [ -0.370107740975387, 51.554523270343125 ], [ -0.370072858944435, 51.554530876532667 ], [ -0.369821304497739, 51.554587612926341 ], [ -0.369619593851409, 51.554620769071576 ], [ -0.369425391383192, 51.55464683740361 ], [ -0.369186812291167, 51.554663298800307 ], [ -0.368853388434184, 51.554747752213942 ], [ -0.368597326935015, 51.554810716134249 ], [ -0.367904617242276, 51.554937730480823 ], [ -0.367690331909775, 51.554959923546349 ], [ -0.367565860339602, 51.554971678029908 ], [ -0.36753699550923, 51.554973973717281 ], [ -0.367286764054797, 51.554990272504206 ], [ -0.366972062612416, 51.554996774402184 ], [ -0.36671541822145, 51.555075911242724 ], [ -0.366467557467774, 51.555148876886001 ], [ -0.366568161453043, 51.555322070886021 ], [ -0.366127292535797, 51.555384260372875 ], [ -0.366020079286542, 51.555398950309865 ], [ -0.365253105285036, 51.555506941642513 ], [ -0.365199696565475, 51.555507097158738 ], [ -0.364961530552161, 51.555511872342137 ], [ -0.364702285535871, 51.55554062595867 ], [ -0.364678965403182, 51.555547493062541 ], [ -0.364651494462151, 51.555550706445565 ], [ -0.364522203535917, 51.555574077396955 ], [ -0.364353584902355, 51.555609576081785 ], [ -0.363972652550658, 51.555695066904754 ], [ -0.363489156816352, 51.555821379423264 ], [ -0.363137631769984, 51.5558893877256 ], [ -0.362948675887109, 51.555928107029715 ], [ -0.362519584351124, 51.556026406698095 ], [ -0.362618717522071, 51.556200482979911 ], [ -0.362677042732229, 51.556301981920562 ], [ -0.362579780290835, 51.556317706529526 ], [ -0.362476747031872, 51.556335148557835 ], [ -0.362510726123019, 51.556395854008564 ], [ -0.362547278318116, 51.556461090222541 ], [ -0.362409198947499, 51.556490629295958 ], [ -0.362278216794819, 51.556521256059725 ], [ -0.362231041586147, 51.556629374846693 ], [ -0.362179650945706, 51.556735636873931 ], [ -0.362300210008539, 51.556995415320316 ], [ -0.362405686100505, 51.557271164929119 ], [ -0.362224492360762, 51.557295607815021 ], [ -0.361446240466008, 51.557395327516652 ], [ -0.360297106781181, 51.557538499839765 ], [ -0.360183809560199, 51.557599846784328 ], [ -0.359272094716085, 51.557679709294142 ], [ -0.35713870153797, 51.558116639848734 ], [ -0.355391980849028, 51.55842760607193 ], [ -0.35364368216404, 51.558702565517706 ], [ -0.351573271811526, 51.558990057517875 ], [ -0.350691595335122, 51.55911612493216 ], [ -0.348824555986339, 51.559442386145825 ], [ -0.347533142465957, 51.559685020363425 ], [ -0.347232414098916, 51.55946593597487 ], [ -0.347161771830947, 51.55930483539526 ], [ -0.345979388392846, 51.558653337233956 ], [ -0.345659220293295, 51.558491505416661 ], [ -0.345558535194719, 51.558440553030827 ], [ -0.345472203472797, 51.558436640210282 ], [ -0.345351456450302, 51.558384595988734 ], [ -0.3453498079587, 51.55835131004234 ], [ -0.344606877137335, 51.558029702009193 ], [ -0.343959090631694, 51.557793935553754 ], [ -0.342961419922806, 51.557576694032953 ], [ -0.342522235501223, 51.557515659363716 ], [ -0.342523901978708, 51.557469744225301 ], [ -0.342137139381534, 51.557475164268944 ], [ -0.341422053215906, 51.557422727249886 ], [ -0.340996823082276, 51.557413126537142 ], [ -0.339032704759241, 51.557315249049097 ], [ -0.338844422405398, 51.557295505652945 ], [ -0.338548480792287, 51.557259855289217 ], [ -0.338303031622246, 51.557225817440916 ], [ -0.337830145010876, 51.557140015043679 ], [ -0.337575511041797, 51.557080583770741 ], [ -0.337154851834395, 51.556984729668223 ], [ -0.336373968413524, 51.556720963725333 ], [ -0.336305598267959, 51.556697520360679 ], [ -0.336272561602254, 51.556693456432853 ], [ -0.335882012652663, 51.556642974012128 ], [ -0.335810160896994, 51.556594308990654 ], [ -0.3355787433762, 51.556534392962405 ], [ -0.335562406603354, 51.556584505533429 ], [ -0.334710810699814, 51.556361978186622 ], [ -0.334211900704572, 51.556197576621322 ], [ -0.334182095598045, 51.556222325872049 ], [ -0.33415383588937, 51.556247097038664 ], [ -0.334131478965447, 51.556266557925071 ], [ -0.334095803712631, 51.556295718889963 ], [ -0.33318994958526, 51.556132731101286 ], [ -0.3322130370161, 51.555945263035952 ], [ -0.331378502738312, 51.555806648014247 ], [ -0.330392580277579, 51.555667582684983 ], [ -0.329382020456308, 51.555529147355564 ], [ -0.328630238988876, 51.555417760912761 ], [ -0.327942121840561, 51.555299095206948 ], [ -0.327000643543519, 51.555012298106405 ], [ -0.32610182454965, 51.554700929232261 ], [ -0.325564755388696, 51.554475712710506 ], [ -0.324731653140001, 51.554143693951382 ], [ -0.323920120963212, 51.55384973519255 ], [ -0.322750168865516, 51.553422003629848 ], [ -0.322241357769825, 51.55321515509484 ], [ -0.321974162204585, 51.553107052153933 ], [ -0.321268956240438, 51.552865837264079 ], [ -0.320473399041787, 51.55257208224964 ], [ -0.319660451325653, 51.552282567815183 ], [ -0.319031140636666, 51.552057708281694 ], [ -0.318349639438203, 51.551803419427721 ], [ -0.317956242736463, 51.55163497346156 ], [ -0.317756365739305, 51.551617725340307 ], [ -0.317629662578187, 51.551534998948554 ], [ -0.317348389595379, 51.551415804840644 ], [ -0.316539731185887, 51.551049912319343 ], [ -0.316597375115238, 51.550973424225155 ], [ -0.315794968038154, 51.550631889302842 ], [ -0.314516560108978, 51.550057782862183 ], [ -0.314421701516103, 51.550127441278335 ], [ -0.313750032991273, 51.5498021596634 ], [ -0.312785193105362, 51.549294661015118 ], [ -0.312575438443506, 51.549155808717003 ], [ -0.312499443802449, 51.548908392754591 ], [ -0.312361136427421, 51.548593465748716 ], [ -0.312217798505755, 51.548334203736765 ], [ -0.312083235078288, 51.548111027370069 ], [ -0.311922456710289, 51.547934311379301 ], [ -0.311707010163013, 51.547756719144118 ], [ -0.311471939900902, 51.547559965479053 ], [ -0.31134501251102, 51.547480826648034 ], [ -0.311269972782791, 51.547445585630051 ], [ -0.311200186621465, 51.547419410048654 ], [ -0.309769745316087, 51.546986098265542 ], [ -0.309633017876602, 51.546937292338079 ], [ -0.309391675835503, 51.546833130310638 ], [ -0.308578149987645, 51.546449140785725 ], [ -0.308154189609193, 51.546212800654494 ], [ -0.307673840353388, 51.545865070406833 ], [ -0.307245542949954, 51.545476735186249 ], [ -0.307144145864854, 51.545370091332735 ], [ -0.307101096778887, 51.545325330183005 ], [ -0.307147017064684, 51.545292729646526 ], [ -0.307170673588598, 51.545276888907118 ], [ -0.307198894154503, 51.545256619014793 ], [ -0.307264151259118, 51.545247670983635 ], [ -0.308040526126762, 51.545234589079463 ], [ -0.30886742489854, 51.545218633815097 ], [ -0.308872709942025, 51.544960609621754 ], [ -0.308452003852846, 51.544870942968423 ], [ -0.308032644401752, 51.544514204049079 ], [ -0.307976425996808, 51.54443338369758 ], [ -0.308015764349093, 51.544036416825733 ], [ -0.308192205687969, 51.543709838745606 ], [ -0.308313420666953, 51.54351290826623 ], [ -0.3084447850158, 51.543356488565962 ], [ -0.308466641570877, 51.543270500299357 ], [ -0.308552897964467, 51.54324027824881 ], [ -0.307636596853966, 51.542397935041976 ], [ -0.307041126786917, 51.541812021055676 ], [ -0.306938233442196, 51.541710750090786 ], [ -0.306320342008584, 51.541069672379692 ], [ -0.305899355303254, 51.540755157079502 ], [ -0.305506516303737, 51.540460824116295 ], [ -0.305007133070543, 51.540125396373853 ], [ -0.304702530944049, 51.539862899891219 ], [ -0.304721488222875, 51.539855082739017 ], [ -0.304759573612325, 51.539841248863446 ], [ -0.305944298234959, 51.539430341303742 ], [ -0.30596255687112, 51.539172505974719 ], [ -0.305862298569072, 51.53764053614475 ], [ -0.305873150941585, 51.537348432427812 ], [ -0.305863338920141, 51.536719719875691 ], [ -0.305937426126961, 51.536082329018605 ], [ -0.305946252468047, 51.536001547626668 ], [ -0.306009884948569, 51.535450308489089 ], [ -0.306071218970927, 51.535002509431315 ], [ -0.306168733312503, 51.534592000843752 ], [ -0.306233956518038, 51.534231459441848 ], [ -0.306312697490278, 51.53393584001541 ], [ -0.306354247682085, 51.5338285610556 ], [ -0.306407653253464, 51.533786180107022 ], [ -0.306501241357497, 51.533753368620495 ], [ -0.306791842496662, 51.5336909451458 ], [ -0.306961551717148, 51.533625069608256 ], [ -0.307060959253872, 51.533512331805234 ], [ -0.30713531633146, 51.5333730722094 ], [ -0.307210695173795, 51.533244705035507 ], [ -0.307363030046815, 51.533140820983618 ], [ -0.307400083415769, 51.533116183565475 ], [ -0.30747823305845, 51.533066877079818 ], [ -0.307441340067432, 51.533051961430083 ], [ -0.307366935122235, 51.533035605968493 ], [ -0.306034059945609, 51.532744798100559 ], [ -0.304726313030211, 51.532472407426582 ], [ -0.302708741142928, 51.531983694251473 ], [ -0.302514161172538, 51.532136495720991 ], [ -0.301419300069299, 51.532421011976894 ], [ -0.300398870923875, 51.532838747124146 ], [ -0.299534152359598, 51.533253334952377 ], [ -0.298475676309822, 51.533877359578618 ], [ -0.298065285786956, 51.534170863907228 ], [ -0.297662238446471, 51.534461776322068 ], [ -0.297301444265627, 51.534859470550721 ], [ -0.297178170799427, 51.534954773336466 ], [ -0.29709398694777, 51.53500928955161 ], [ -0.29697457091666, 51.535077678455316 ], [ -0.296851179048908, 51.53513791867779 ], [ -0.296701948029784, 51.53519607583376 ], [ -0.296566141170001, 51.535241751848709 ], [ -0.296375457585046, 51.535289328399124 ], [ -0.29627687901481, 51.53530587769032 ], [ -0.296153872589023, 51.535317577460766 ], [ -0.296032493374444, 51.535323906794538 ], [ -0.295938830034509, 51.535323446378555 ], [ -0.295858267813479, 51.535315984149683 ], [ -0.295802469132909, 51.53530438638078 ], [ -0.295761267183266, 51.535290303504745 ], [ -0.29566641317631, 51.535242179255192 ], [ -0.295376778413246, 51.534966390319141 ], [ -0.295340190227969, 51.534943384404421 ], [ -0.29525350731034, 51.534908863262942 ], [ -0.295203497796466, 51.53489824825121 ], [ -0.295150316310244, 51.534892981083189 ], [ -0.295089737011075, 51.534894798364668 ], [ -0.295023033279648, 51.534904617563761 ], [ -0.294345543192218, 51.535015241445464 ], [ -0.293500684573942, 51.53493464144946 ], [ -0.293271481837956, 51.534972663205757 ], [ -0.292888179576452, 51.535081261985979 ], [ -0.29211534567836, 51.535274182420778 ], [ -0.292035319334293, 51.535293694989043 ], [ -0.290342991657225, 51.535741212197301 ], [ -0.290165403643176, 51.535788070391717 ], [ -0.288720326348579, 51.536102428769539 ], [ -0.286729008595153, 51.536756797919487 ], [ -0.285689028638799, 51.537150746857087 ], [ -0.285115578197117, 51.537404966729092 ], [ -0.284139398530053, 51.537865548278937 ], [ -0.282750503201392, 51.538522357432932 ], [ -0.282540361234428, 51.538628060893139 ], [ -0.282462465788782, 51.538666476769919 ], [ -0.282352385464883, 51.538565078401412 ], [ -0.281578537908, 51.537901806171696 ], [ -0.280506451769373, 51.53703898942657 ], [ -0.279682408563282, 51.53633361464793 ], [ -0.279146674047069, 51.535893257696415 ], [ -0.278819673114154, 51.535655534874955 ], [ -0.278646719668581, 51.535503676356853 ], [ -0.278428765592897, 51.535356641409585 ], [ -0.27819438233652, 51.535222849900521 ], [ -0.277974704169861, 51.535121547405957 ], [ -0.277774680578874, 51.535072764245811 ], [ -0.277858734279676, 51.534987694314701 ], [ -0.277940429697256, 51.534961923146689 ], [ -0.277940463623901, 51.534961024653263 ], [ -0.278041237541552, 51.534927442392579 ], [ -0.278123453442511, 51.534582446992381 ], [ -0.278130140424077, 51.534556474343461 ], [ -0.278449945598396, 51.53456566020445 ], [ -0.27856781624716, 51.534041299377314 ], [ -0.278660603357605, 51.533759388031392 ], [ -0.278772605651585, 51.533541586691285 ], [ -0.278877271211598, 51.533329161517962 ], [ -0.278986967968374, 51.533210215244473 ], [ -0.279253730141682, 51.533055903869297 ], [ -0.279736903150205, 51.532900179027173 ], [ -0.280227235107049, 51.532781505668403 ], [ -0.280928452120862, 51.532577728118788 ], [ -0.281005671744315, 51.532670556151196 ], [ -0.281485913127595, 51.533242334593844 ], [ -0.281580384897161, 51.533221242969752 ], [ -0.282253464777015, 51.533076468834231 ], [ -0.283515993232634, 51.532819757871763 ], [ -0.284015942762066, 51.533519470281362 ], [ -0.284166455739393, 51.53346863020581 ], [ -0.285270973106773, 51.533082741614038 ], [ -0.285647860683981, 51.533065770871438 ], [ -0.285707706544378, 51.532969553842371 ], [ -0.285761924094518, 51.532909214194511 ], [ -0.285815448614688, 51.532864147229745 ], [ -0.28589373602883, 51.532814946837227 ], [ -0.286456432760143, 51.532652263011229 ], [ -0.287290512274197, 51.532363182346728 ], [ -0.288368538204578, 51.532029107177614 ], [ -0.289365394719304, 51.531668667827425 ], [ -0.289053903618529, 51.531438392498266 ], [ -0.288751796545177, 51.53118937431028 ], [ -0.288167908753048, 51.530843651037202 ], [ -0.287572091791493, 51.5304707810716 ], [ -0.286962051726187, 51.530052750944265 ], [ -0.286345686730849, 51.52968946360339 ], [ -0.286093336305981, 51.52953735652661 ], [ -0.285728983655879, 51.529180441659456 ], [ -0.284230803856389, 51.528920230212613 ], [ -0.284243221779478, 51.529010400715443 ], [ -0.284170759947997, 51.529059684851021 ], [ -0.283336525236227, 51.528930526988653 ], [ -0.282957668168386, 51.528845873716691 ], [ -0.28243429892983, 51.5287698923185 ], [ -0.28210339368775, 51.528715604696899 ], [ -0.28061223624891, 51.528459041885142 ], [ -0.280455617433987, 51.52840730274464 ], [ -0.280228064276041, 51.528439928200633 ], [ -0.280114763270362, 51.528462540676784 ], [ -0.279708841771448, 51.528559975513481 ], [ -0.279559882072696, 51.52857307485656 ], [ -0.279223712373887, 51.528730953892172 ], [ -0.279067534874629, 51.528667532463828 ], [ -0.278949856143512, 51.528730534282971 ], [ -0.278834418161704, 51.528809750707602 ], [ -0.277173372015594, 51.529234156417445 ], [ -0.275298884056985, 51.529470929266225 ], [ -0.273534541313308, 51.529689604753372 ], [ -0.272258613471426, 51.529842626391201 ], [ -0.271438746044513, 51.529946524462019 ], [ -0.271437201579505, 51.529946501715145 ], [ -0.270569860028982, 51.530045199581139 ], [ -0.270394540482288, 51.529765725809789 ], [ -0.269653146655788, 51.530003819051387 ], [ -0.269363847787524, 51.529836835483451 ], [ -0.269222737451075, 51.529755643096706 ], [ -0.269122895195394, 51.529727200844839 ], [ -0.268998436867014, 51.529739749204914 ], [ -0.268680533512952, 51.529834848475787 ], [ -0.268699809672682, 51.529859405686175 ], [ -0.268775267763367, 51.529960307188617 ], [ -0.268159236163056, 51.53001145140361 ], [ -0.267854246165209, 51.530069970470841 ], [ -0.26750191719215, 51.530157366953993 ], [ -0.266946365286736, 51.530362317194822 ], [ -0.266587297136958, 51.530514339114333 ], [ -0.266095991466827, 51.530808335713111 ], [ -0.265336520321778, 51.531254882568959 ], [ -0.265311464823687, 51.531269795200451 ], [ -0.265261217105884, 51.531303214408325 ], [ -0.265210816334434, 51.531337530328564 ], [ -0.265161925836786, 51.531372767545065 ], [ -0.265114426803943, 51.531408924303712 ], [ -0.265069779122597, 51.531445123189201 ], [ -0.265025063022737, 51.531483119037624 ], [ -0.264905439832547, 51.531596512102709 ], [ -0.264905405657174, 51.531597410592852 ], [ -0.264897919022668, 51.531603592890882 ], [ -0.264890551196039, 51.53160977694472 ], [ -0.264883064557373, 51.531615959241762 ], [ -0.264875612092625, 51.531621243048171 ], [ -0.264868244259952, 51.53162742710056 ], [ -0.264860757615197, 51.531633609396145 ], [ -0.264853270968357, 51.531639791691227 ], [ -0.264847328850177, 51.531645996818206 ], [ -0.264841267920255, 51.53165220018851 ], [ -0.264835325798721, 51.531658405314843 ], [ -0.264832200941138, 51.531665551083471 ], [ -0.264829025626413, 51.531670898115372 ], [ -0.2648259007669, 51.531678043883801 ], [ -0.264822775906359, 51.531685189652123 ], [ -0.264821076766944, 51.531692356496727 ], [ -0.264819377626957, 51.53169952334126 ], [ -0.264819070031759, 51.53170760975231 ], [ -0.264818796613681, 51.531714797673196 ], [ -0.26481852319549, 51.531721985594089 ], [ -0.264819641323247, 51.531730093081464 ], [ -0.264820793628636, 51.531737302078703 ], [ -0.264823371658197, 51.531744532152281 ], [ -0.264759798172799, 51.531900107424974 ], [ -0.264758133192983, 51.531906375778263 ], [ -0.264751627889131, 51.531924259514234 ], [ -0.264745241390734, 51.531942145006212 ], [ -0.264740161806822, 51.531960049818693 ], [ -0.264735201029593, 51.531977956387351 ], [ -0.264732007773662, 51.531986899132846 ], [ -0.264831058762351, 51.532186232288382 ], [ -0.264421773456147, 51.532295252626184 ], [ -0.264411469339143, 51.532300494239166 ], [ -0.263846324710191, 51.532490904385256 ], [ -0.263354622997091, 51.532678712597018 ], [ -0.26288490752774, 51.532935257730173 ], [ -0.262051586073992, 51.533427438719258 ], [ -0.261206023329586, 51.533934625715553 ], [ -0.260602195337841, 51.534306134882826 ], [ -0.260522142908965, 51.534363383394421 ], [ -0.260410222703907, 51.534536130145774 ], [ -0.260294812039422, 51.534501156837834 ], [ -0.260105332460199, 51.534590945087402 ], [ -0.259639158132572, 51.534716276722122 ], [ -0.258431644717339, 51.535074238025253 ], [ -0.258082316209157, 51.535196712218735 ], [ -0.258020975925534, 51.535218366763004 ], [ -0.257785611492487, 51.535338935287832 ], [ -0.257344518820886, 51.535183963277909 ], [ -0.25719518502952, 51.535131402342131 ], [ -0.256511064923345, 51.534958524552252 ], [ -0.25642829134018, 51.534937517137571 ], [ -0.25641881008575, 51.534921194350837 ], [ -0.256405291834528, 51.534898518615705 ], [ -0.256390194611038, 51.534876718422034 ], [ -0.25637521965503, 51.534854830142606 ], [ -0.256372505424854, 51.534851193834875 ], [ -0.256354522250247, 51.534830249764774 ], [ -0.256335078925777, 51.534810182999173 ], [ -0.256314209804068, 51.534790095050205 ], [ -0.256296311146094, 51.534770051223383 ], [ -0.256278293686111, 51.53475000562878 ], [ -0.256268675113532, 51.534737276778529 ], [ -0.256240162959253, 51.534690105351302 ], [ -0.256217541626703, 51.534641223433262 ], [ -0.256196380503904, 51.534591464205079 ], [ -0.256178040120649, 51.534542555974959 ], [ -0.256159849512042, 51.534492840868438 ], [ -0.256142965928614, 51.534443145175906 ], [ -0.256128968339511, 51.534392593358312 ], [ -0.256117941197289, 51.534342085669017 ], [ -0.256026139529321, 51.533954062894587 ], [ -0.255645640022929, 51.533987065925977 ], [ -0.255247842958659, 51.534021608612932 ], [ -0.254014157310624, 51.534081477350192 ], [ -0.2528371505241, 51.534129590820804 ], [ -0.252317539634673, 51.534144330417242 ], [ -0.252142139741047, 51.534130031767589 ], [ -0.252064900757199, 51.534113598636701 ], [ -0.252006572468372, 51.534093851074552 ], [ -0.251793546298666, 51.534009768685344 ], [ -0.251776405878872, 51.534004119410902 ], [ -0.251542389545383, 51.533940400938 ], [ -0.251432173184908, 51.53391898131791 ], [ -0.251333172029886, 51.533905819644772 ], [ -0.251231078187967, 51.533898904806627 ], [ -0.251117252508355, 51.533897209091606 ], [ -0.250982883561133, 51.533904197178629 ], [ -0.250907616009755, 51.533913863720073 ], [ -0.250750042000069, 51.534184901315854 ], [ -0.249000379794273, 51.533863854887471 ], [ -0.247997012574264, 51.533671691657467 ], [ -0.247632329194676, 51.533596126400546 ], [ -0.247335459814873, 51.533516178501991 ], [ -0.247203025406623, 51.533472847177329 ], [ -0.2471349148373, 51.533444770291645 ], [ -0.247127770759147, 51.533441966618106 ], [ -0.24709527770107, 51.533424400438882 ], [ -0.246753406249288, 51.533129727305138 ], [ -0.246497542028928, 51.532883175749973 ], [ -0.246370995453183, 51.532801184518412 ], [ -0.246287687637785, 51.532754090997699 ], [ -0.246347495341503, 51.532586871577124 ], [ -0.246411765268949, 51.532451992868985 ], [ -0.246559009491894, 51.532221351528015 ], [ -0.246915035610119, 51.531850707521841 ], [ -0.246920945728389, 51.53184540178934 ], [ -0.246970937124459, 51.531785016408278 ], [ -0.246348823452148, 51.531538298324151 ], [ -0.246263080061849, 51.531557694333358 ], [ -0.245316485565381, 51.531238697421216 ], [ -0.245245386392239, 51.531214260590652 ], [ -0.245382842218127, 51.531052697327709 ], [ -0.24552701045052, 51.531050357230981 ], [ -0.245816457262396, 51.531060077097003 ], [ -0.245899002924733, 51.531049623636939 ], [ -0.245983127610465, 51.531038294714236 ], [ -0.246025224492255, 51.531031731746751 ], [ -0.246305999309288, 51.530964006848286 ], [ -0.246611256875351, 51.53086239511056 ], [ -0.246932025008325, 51.530731437154493 ], [ -0.247702384770883, 51.530309442148024 ], [ -0.248484627561864, 51.529800506534983 ], [ -0.248453689249235, 51.529742508924024 ], [ -0.248830903390046, 51.529490933410464 ], [ -0.249302354956207, 51.529190418355483 ], [ -0.249319389880942, 51.529198763420446 ], [ -0.249411282783773, 51.529245083898338 ], [ -0.249545223111866, 51.529137403510418 ], [ -0.249621026154584, 51.529076413087118 ], [ -0.250368952409565, 51.528410437934092 ], [ -0.250444990903104, 51.528343247420182 ], [ -0.25011224500734, 51.528223215361045 ], [ -0.250042607958171, 51.528197904197356 ], [ -0.250213358425606, 51.528032247046525 ], [ -0.250537063103697, 51.527823919554145 ], [ -0.250597657335547, 51.527784367726653 ], [ -0.250272256640065, 51.52736139293156 ], [ -0.250271251188646, 51.527310134991886 ], [ -0.250271561746019, 51.527190482833703 ], [ -0.250271906395776, 51.527181497979832 ], [ -0.250341504305845, 51.527096231552179 ], [ -0.25064452361682, 51.526900181468378 ], [ -0.251111598272178, 51.52652677540209 ], [ -0.252280261334681, 51.525335569162422 ], [ -0.252369431361246, 51.525226319881419 ], [ -0.252505912272179, 51.525089006957401 ], [ -0.252615825810558, 51.524779499239372 ], [ -0.252637257444502, 51.524595433220348 ], [ -0.252617803927462, 51.52438648543702 ], [ -0.252429151167851, 51.523968248016608 ], [ -0.252231844614184, 51.523586740393569 ], [ -0.25206974340539, 51.523192271701731 ], [ -0.251995263730221, 51.522763057896213 ], [ -0.251900148892819, 51.522236534353972 ], [ -0.250668606339157, 51.520633604100759 ], [ -0.250565863760414, 51.520418110255555 ], [ -0.250281789655603, 51.520158469178824 ], [ -0.250462080274951, 51.51992912438542 ], [ -0.250475750633383, 51.519910449118228 ], [ -0.250510888010519, 51.519858830763887 ], [ -0.250544599960855, 51.519807191151735 ], [ -0.250575461146246, 51.519755509037722 ], [ -0.250604812586163, 51.519702905410178 ], [ -0.250614141343311, 51.519685873517794 ], [ -0.250628156025101, 51.51965821334408 ], [ -0.250643596028274, 51.519630574412886 ], [ -0.250656219781291, 51.519601994501961 ], [ -0.250668809072414, 51.519574313077989 ], [ -0.250680007456282, 51.51954571191964 ], [ -0.250689780489939, 51.519517089516008 ], [ -0.250698265954801, 51.519484851912686 ], [ -0.250703885295769, 51.519449874584602 ], [ -0.250709504627309, 51.519414897255984 ], [ -0.250712429953413, 51.519378890872296 ], [ -0.250713773278052, 51.519343849812074 ], [ -0.250713606937789, 51.519307887249035 ], [ -0.250713710270215, 51.519305191782827 ], [ -0.250712202934959, 51.519270108235077 ], [ -0.250709304719019, 51.519234104954855 ], [ -0.250704827960398, 51.519198977149244 ], [ -0.250697500559634, 51.519163806856035 ], [ -0.250690291946661, 51.519128638332667 ], [ -0.250681539245524, 51.519093446794621 ], [ -0.250581593739109, 51.518541587975257 ], [ -0.250203291617716, 51.517355198960821 ], [ -0.249728994316613, 51.515818478985658 ], [ -0.249416729268994, 51.515204120264301 ], [ -0.249338035565278, 51.514925964677126 ], [ -0.249260788671433, 51.514721638464295 ], [ -0.249109593682648, 51.514230147277061 ], [ -0.249068706216506, 51.514056929318265 ], [ -0.249047358559253, 51.514012469933981 ], [ -0.249028685464418, 51.513972635347606 ], [ -0.248973141697905, 51.513881007655804 ], [ -0.24879027971208, 51.51368850029624 ], [ -0.248378542860948, 51.513223775778478 ], [ -0.247698118780761, 51.512478056075594 ], [ -0.247185403786086, 51.511945203212917 ], [ -0.246627120377955, 51.511247149917494 ], [ -0.246424433916141, 51.510819613159029 ], [ -0.246416524208442, 51.510799716943723 ], [ -0.246207107907444, 51.510287662958675 ], [ -0.246193601788823, 51.510264986082667 ], [ -0.246030772120903, 51.509963095186258 ], [ -0.245928025192094, 51.509448948923605 ], [ -0.245827197175766, 51.50918484345997 ], [ -0.245752687254506, 51.508913040308293 ], [ -0.245756633076904, 51.508621733292401 ], [ -0.245723345395545, 51.508473799661445 ], [ -0.245443394465157, 51.507809568309284 ], [ -0.245333305754734, 51.507601062262829 ], [ -0.245063675283016, 51.506742800074491 ], [ -0.245153143395888, 51.506739643077758 ], [ -0.246490645835601, 51.506732577516878 ], [ -0.246494072138439, 51.506680486709037 ], [ -0.246487947158139, 51.506577010164101 ], [ -0.246453502866206, 51.506384918507756 ], [ -0.246412296130282, 51.506257543690793 ], [ -0.246357070325598, 51.506120879444673 ], [ -0.246258066474914, 51.505920720773887 ], [ -0.246205973909791, 51.505813860180474 ], [ -0.245999590102598, 51.505371883424729 ], [ -0.24568838936463, 51.504658639067792 ], [ -0.245692817207477, 51.504657806265726 ], [ -0.245679539323281, 51.50462614273475 ], [ -0.246261475492159, 51.504557527546268 ], [ -0.246621931503585, 51.504514278318297 ], [ -0.247988087586135, 51.504359379207138 ], [ -0.248011160953164, 51.504436138731144 ], [ -0.248057733458575, 51.504609532021959 ], [ -0.249016704422898, 51.504477218923846 ], [ -0.249257393333148, 51.50444035527169 ], [ -0.249325195664419, 51.504664408768825 ], [ -0.249408048959273, 51.504681826867341 ], [ -0.249417440239612, 51.50466308797408 ], [ -0.249464453447899, 51.504564809444226 ], [ -0.249653796034275, 51.504587411961928 ], [ -0.249845985101544, 51.504610146527625 ], [ -0.249852307854394, 51.5045939689333 ], [ -0.249868619072501, 51.504546565218781 ], [ -0.24990601707166, 51.504435647009693 ], [ -0.250004731226984, 51.504451503245527 ], [ -0.25031165402, 51.504453383205139 ], [ -0.250815140266359, 51.50454989063531 ], [ -0.251023475117664, 51.50464118792658 ], [ -0.251223462219042, 51.504649562560608 ], [ -0.252492350661142, 51.504511951726904 ], [ -0.25250431156347, 51.504540897857488 ], [ -0.252520776093156, 51.504712941897409 ], [ -0.252568546548397, 51.504706461364016 ], [ -0.252771298982951, 51.504679813829227 ], [ -0.253689333465015, 51.504561238257018 ], [ -0.253741496921464, 51.504554822629729 ], [ -0.253661190113034, 51.504355847475971 ], [ -0.253636289183056, 51.504292456979741 ], [ -0.254284515767847, 51.504220294481655 ], [ -0.254516839516744, 51.504175204915278 ], [ -0.254535309543499, 51.504179974682401 ], [ -0.254545058775065, 51.50418910971139 ], [ -0.254845107634662, 51.504445382726054 ], [ -0.255067395616555, 51.504320940940062 ], [ -0.255044909856354, 51.504306222540023 ], [ -0.255049406148531, 51.504303592410444 ], [ -0.254539555608168, 51.50395699604951 ], [ -0.254488972765837, 51.503922081563282 ], [ -0.254479239304233, 51.503915643762589 ], [ -0.254456806916423, 51.503896431043941 ], [ -0.254402396187156, 51.503849772576693 ], [ -0.254349222049612, 51.503770768494576 ], [ -0.254152318917154, 51.503569968974077 ], [ -0.253900595621647, 51.503333292310366 ], [ -0.253643138260401, 51.503131680636571 ], [ -0.253469375870828, 51.503003144346579 ], [ -0.253384655422353, 51.502922771222387 ], [ -0.253342948344212, 51.502882594359903 ], [ -0.253333080702534, 51.502839295472512 ], [ -0.253302350175096, 51.50269850411874 ], [ -0.253220464423436, 51.502581314076565 ], [ -0.253236071189941, 51.502474565441169 ], [ -0.253160228990197, 51.502121747550788 ], [ -0.253087405836282, 51.501764569440013 ], [ -0.253050455526924, 51.5016777152873 ], [ -0.253053048854371, 51.501647187900268 ], [ -0.253057823067222, 51.501596914984653 ], [ -0.253087277588208, 51.501578474533559 ], [ -0.253091773720355, 51.501575844475909 ], [ -0.253121922013089, 51.501464727444933 ], [ -0.253061044667675, 51.501400891049187 ], [ -0.253054198936392, 51.501353142120564 ], [ -0.253044813026097, 51.501297264369448 ], [ -0.252999843114019, 51.501041188875028 ], [ -0.252937814285545, 51.500777667341708 ], [ -0.252918202534955, 51.500650616299374 ], [ -0.252839365007799, 51.500491128403063 ], [ -0.252773397301877, 51.500367881883108 ], [ -0.252725069951101, 51.500277262071123 ], [ -0.252722716506054, 51.50007486183106 ], [ -0.252763732117644, 51.499906370484887 ], [ -0.252888929947799, 51.499720343559105 ], [ -0.253092654541061, 51.499406838617801 ], [ -0.253353875831584, 51.499018673162752 ], [ -0.253570379248702, 51.498780873743797 ], [ -0.253899629428311, 51.498346881693742 ], [ -0.254212617721671, 51.497921726665787 ], [ -0.254599451968057, 51.497450831410383 ], [ -0.254660052575734, 51.497372620782222 ], [ -0.255003916502972, 51.496972195986977 ], [ -0.255011554504609, 51.496884207437297 ], [ -0.255018680991667, 51.496809606401328 ], [ -0.255071763313375, 51.496589241495506 ], [ -0.255082351951044, 51.496539054886334 ], [ -0.255093716047313, 51.49635663667528 ], [ -0.255095552556297, 51.496345875969226 ], [ -0.255245941019778, 51.496330132461736 ], [ -0.255490082339026, 51.496276226734622 ], [ -0.255375908739926, 51.49609643682426 ], [ -0.255457443667483, 51.496073376170969 ], [ -0.255604586776454, 51.496030613904082 ], [ -0.255565527301814, 51.49599587110135 ], [ -0.25550712555122, 51.49594196165603 ], [ -0.255449397171896, 51.495792678119777 ], [ -0.255362215977938, 51.495661925522548 ], [ -0.255384441906238, 51.495496749813434 ], [ -0.255411698791981, 51.494932402234824 ], [ -0.255552917432945, 51.494932704032067 ], [ -0.255866657986767, 51.494940964484222 ], [ -0.256326165470371, 51.494942400549739 ], [ -0.257510285140668, 51.494905153791308 ] ] ] } }
]
}
