{
"type": "FeatureCollection",
"name": "borough_Haringey",
"crs": { "type": "name", "properties": { "name": "urn:ogc:def:crs:OGC:1.3:CRS84" } },
"features": [
{ "type": "Feature", "properties": { "DISTRICT": "Haringey", "NAME": "Highgate", "GSS_CODE": "E05000272", "LAGSSCODE": "E09000014", "HECTARES": 249.482, "NONLD_AREA": 0.0 }, "geometry": { "type": "Polygon", "coordinates": [ [ [ -0.097773394640302, 51.573618975464868 ], [ -0.097428032338375, 51.572970408594692 ], [ -0.096886514450503, 51.571941796396587 ], [ -0.096839210696053, 51.571832249770338 ], [ -0.096736483932045, 51.571596752757131 ], [ -0.096666559782608, 51.571507515636945 ], [ -0.096578831189595, 51.571397312407782 ], [ -0.096416741675245, 51.57109612321117 ], [ -0.096341865555155, 51.570988735587122 ], [ -0.096191958331608, 51.570811895310939 ], [ -0.096089883012956, 51.570700559592922 ], [ -0.09602962270927, 51.570656338936075 ], [ -0.096327443651479, 51.570436427387044 ], [ -0.098080130741505, 51.569100655787977 ], [ -0.098715058673693, 51.568616420349855 ], [ -0.09901627305841, 51.568382982904396 ], [ -0.100674567290597, 51.567127543639806 ], [ -0.101354745160949, 51.566663713199027 ], [ -0.103069606536974, 51.56556925545673 ], [ -0.104281216806547, 51.564814548064874 ], [ -0.104365238277477, 51.564773653924313 ], [ -0.104376396585358, 51.56478282438723 ], [ -0.104437633253164, 51.564835057745761 ], [ -0.104577616730835, 51.564767199450849 ], [ -0.104845551887103, 51.564637580848078 ], [ -0.106178715530796, 51.565541316993702 ], [ -0.106608224927214, 51.565829642513677 ], [ -0.106878030982958, 51.566039062108651 ], [ -0.106995671164457, 51.566125467932331 ], [ -0.107304431110442, 51.56633371754419 ], [ -0.107585365115391, 51.566553204034406 ], [ -0.107744206145747, 51.566724780081124 ], [ -0.107817930342061, 51.566791597088439 ], [ -0.108294546004396, 51.567160866967441 ], [ -0.108396676766315, 51.567239828515532 ], [ -0.108588562178865, 51.567377773640132 ], [ -0.108789540928785, 51.567508763101408 ], [ -0.108834552432794, 51.567536459050913 ], [ -0.109030269492406, 51.567653788408791 ], [ -0.109282714480917, 51.567794597113576 ], [ -0.110311475089759, 51.568422679801891 ], [ -0.110646433959497, 51.568590796397096 ], [ -0.110681751207184, 51.568608446448984 ], [ -0.111595376687395, 51.569055672448336 ], [ -0.115017311679631, 51.570577448883562 ], [ -0.115020069202514, 51.570614351806157 ], [ -0.115022031358922, 51.570635959112316 ], [ -0.115067606782304, 51.570650176774045 ], [ -0.1151402392228, 51.570674718340264 ], [ -0.11513369892954, 51.570832925283433 ], [ -0.115113487154652, 51.571321830527715 ], [ -0.115116869935336, 51.57141268287706 ], [ -0.115173764124368, 51.571435173376763 ], [ -0.115481808234927, 51.571558792266508 ], [ -0.115580267079116, 51.571620607262503 ], [ -0.115575682085941, 51.571625028509658 ], [ -0.115379891981796, 51.571894364895122 ], [ -0.11572325778579, 51.572035721606518 ], [ -0.116073577944691, 51.572181594081187 ], [ -0.116102025740774, 51.572192839101838 ], [ -0.115559488317274, 51.572575269773445 ], [ -0.115793025864326, 51.572826335416046 ], [ -0.116561134165841, 51.573374655243249 ], [ -0.117158612626202, 51.573828442767834 ], [ -0.117425434460012, 51.574043180891039 ], [ -0.117559502150843, 51.574150515304446 ], [ -0.117774270428249, 51.574190911973645 ], [ -0.118208623077227, 51.574261712747287 ], [ -0.118842200503284, 51.57436626670269 ], [ -0.119038170477652, 51.574372105417908 ], [ -0.119541216605267, 51.57438736055628 ], [ -0.119461589195372, 51.57442833681727 ], [ -0.118873245130189, 51.574732742567598 ], [ -0.118864416404013, 51.574736196975302 ], [ -0.119114541464175, 51.574900316626504 ], [ -0.119238276097166, 51.574981411025682 ], [ -0.11921303144789, 51.574996289171125 ], [ -0.119368122764206, 51.575260470559073 ], [ -0.119513664198169, 51.575511013843347 ], [ -0.119542596895477, 51.575510578551409 ], [ -0.119624913383199, 51.575508301824136 ], [ -0.119902503691248, 51.57545961992853 ], [ -0.121732967571149, 51.575028564318806 ], [ -0.121750044831656, 51.575067494176295 ], [ -0.121769054892516, 51.575062404555212 ], [ -0.122345345262459, 51.57491160830309 ], [ -0.122381786710071, 51.574971524670829 ], [ -0.123247851412758, 51.574686826665257 ], [ -0.123409709345772, 51.574683122560103 ], [ -0.123583278500672, 51.574672413615943 ], [ -0.123749565053813, 51.574665183913055 ], [ -0.123797107389573, 51.574631782596953 ], [ -0.123819451610756, 51.574615059114585 ], [ -0.123934547665817, 51.574518819870697 ], [ -0.124093588151359, 51.574407191212906 ], [ -0.124257729151265, 51.574345088220383 ], [ -0.124378713049078, 51.574351517200071 ], [ -0.12448079838973, 51.57436034093562 ], [ -0.124528251298904, 51.574363796402878 ], [ -0.124552202897449, 51.574273291558391 ], [ -0.124597437143835, 51.574157146128442 ], [ -0.124687928558647, 51.57413252181555 ], [ -0.124855128952541, 51.574100133491946 ], [ -0.125079786220252, 51.574076753965819 ], [ -0.125450549879517, 51.574044920482798 ], [ -0.125451976784665, 51.574044943279439 ], [ -0.126129704648759, 51.574025203297666 ], [ -0.12620654770201, 51.574048905192953 ], [ -0.126504376103802, 51.57410670137422 ], [ -0.12667379643652, 51.574127386194625 ], [ -0.126751571107015, 51.574131324871253 ], [ -0.127098453742132, 51.574118882646196 ], [ -0.127470655419596, 51.574156287798615 ], [ -0.128729566434563, 51.573935353436184 ], [ -0.129349184162484, 51.573849940961175 ], [ -0.129726101753106, 51.57381010119505 ], [ -0.130504030384457, 51.573702843403069 ], [ -0.130999076747028, 51.57363161911659 ], [ -0.131171766185023, 51.573607400126832 ], [ -0.131363942712208, 51.5735664104675 ], [ -0.131586257218217, 51.573492637869741 ], [ -0.131706857280596, 51.573438731106044 ], [ -0.131889735591636, 51.573377814802434 ], [ -0.132327769452033, 51.573251737924679 ], [ -0.132655877973937, 51.573168769502374 ], [ -0.132775773034698, 51.573132021087787 ], [ -0.132951321874412, 51.573072784468408 ], [ -0.133086303334181, 51.573019195030838 ], [ -0.13337029310768, 51.572886168199751 ], [ -0.133401353738344, 51.572868592681147 ], [ -0.134199411968348, 51.572443389025636 ], [ -0.135164744511634, 51.571916464011721 ], [ -0.135232343596713, 51.5718869722091 ], [ -0.135577325056537, 51.57174321950415 ], [ -0.135879139454312, 51.571633750971039 ], [ -0.136144507809387, 51.57153098482808 ], [ -0.136525012529429, 51.571330168163136 ], [ -0.136677999182356, 51.571257980453375 ], [ -0.136867168882716, 51.571185467794123 ], [ -0.13725918750586, 51.571055042407849 ], [ -0.137569746848718, 51.570943910264035 ], [ -0.138046573971391, 51.570714950045577 ], [ -0.138318125457014, 51.570603287121621 ], [ -0.138403300544176, 51.570568678260422 ], [ -0.138422371841555, 51.570559091805542 ], [ -0.138651407579845, 51.570462935709884 ], [ -0.138831132110198, 51.570338937874752 ], [ -0.139068629316787, 51.570213248487015 ], [ -0.139463900960484, 51.570002767375769 ], [ -0.140495369306175, 51.569479536785209 ], [ -0.140680419692291, 51.569399760758486 ], [ -0.140890152652861, 51.569353637881377 ], [ -0.141561876030396, 51.569263586555273 ], [ -0.142145186123423, 51.569150466628926 ], [ -0.142390091780037, 51.5691228774377 ], [ -0.142386653340633, 51.569280235927884 ], [ -0.142392250673722, 51.569283021460464 ], [ -0.143829664674212, 51.569915450966896 ], [ -0.144127677178164, 51.570003768346538 ], [ -0.144391456211598, 51.570082553994951 ], [ -0.144577025783593, 51.570133133362489 ], [ -0.145103076792058, 51.570219658143152 ], [ -0.14609378451458, 51.570448457327409 ], [ -0.147070943239837, 51.57061860005625 ], [ -0.148041940459553, 51.570802931383689 ], [ -0.14913710752864, 51.571088191031187 ], [ -0.149517487890342, 51.571208358924046 ], [ -0.14975004701352, 51.571309205066925 ], [ -0.150088048003624, 51.571515006108243 ], [ -0.150325186890259, 51.571576367776728 ], [ -0.151151688161486, 51.571619053471451 ], [ -0.152680697322674, 51.571707849409144 ], [ -0.153907619918973, 51.571805360173229 ], [ -0.155365838223681, 51.571932562986795 ], [ -0.156955953267241, 51.572078988865179 ], [ -0.158837360276556, 51.572195710078255 ], [ -0.15978818748178, 51.572592776622088 ], [ -0.160140930321334, 51.572720657085469 ], [ -0.16016648992704, 51.572730047494289 ], [ -0.160193512729308, 51.572738561839095 ], [ -0.160220654451494, 51.572747078041061 ], [ -0.160249140459605, 51.5727547163143 ], [ -0.160277745387157, 51.57276235644396 ], [ -0.160306386591702, 51.57276909814783 ], [ -0.160312057994632, 51.572770086002286 ], [ -0.160340735475883, 51.572775929278954 ], [ -0.160369330320857, 51.572780872266634 ], [ -0.160399471000145, 51.572785839468331 ], [ -0.160429647951055, 51.572789908243401 ], [ -0.160459742261957, 51.572793076728736 ], [ -0.1604899554871, 51.572796247069427 ], [ -0.160520204979747, 51.572798518983433 ], [ -0.160527339572824, 51.572798630764915 ], [ -0.160557625331534, 51.572800004250318 ], [ -0.160586556697145, 51.572799558534442 ], [ -0.160616796071187, 51.572799133303675 ], [ -0.160645763696689, 51.572797789154194 ], [ -0.160676158239342, 51.572796467351992 ], [ -0.160706470129999, 51.572794245260027 ], [ -0.160735510268083, 51.572791104250278 ], [ -0.160765822152681, 51.572788882142923 ], [ -0.160794826025942, 51.572786639537483 ], [ -0.160813686300491, 51.572785137012268 ], [ -0.160907749836061, 51.572777620615355 ], [ -0.161003395424121, 51.572769229936625 ], [ -0.161097603906446, 51.572758119710258 ], [ -0.161190421677166, 51.572746088640464 ], [ -0.161283275648843, 51.572733159077586 ], [ -0.161376320971874, 51.572718434464306 ], [ -0.161469319815691, 51.572701911075889 ], [ -0.161527498424574, 51.572690236291329 ], [ -0.162582898049567, 51.57256912315804 ], [ -0.163359382998668, 51.572530929332004 ], [ -0.163978161930627, 51.572502850066918 ], [ -0.164064836516756, 51.572501508503088 ], [ -0.164151438716692, 51.572501963716377 ], [ -0.164238004730313, 51.572503317286426 ], [ -0.164275461180607, 51.572503902945982 ], [ -0.164361954829432, 51.572507053265959 ], [ -0.164448293396858, 51.572511100083965 ], [ -0.164534642339029, 51.572517843959844 ], [ -0.164569100248494, 51.572521978593947 ], [ -0.164607921631585, 51.572527080417437 ], [ -0.164646515569145, 51.572534875631824 ], [ -0.164683682606212, 51.572542648527914 ], [ -0.164720932385466, 51.572551321691975 ], [ -0.164758027090051, 51.572560891406411 ], [ -0.164795157989222, 51.572569562688344 ], [ -0.164832371634258, 51.572579134238147 ], [ -0.164869502562874, 51.572587805496696 ], [ -0.164886718660239, 51.572591670537236 ], [ -0.165245930734087, 51.572665607559507 ], [ -0.1656081786522, 51.572735095971879 ], [ -0.165745801253694, 51.572759810684595 ], [ -0.165864435442917, 51.572750786312817 ], [ -0.165931148856705, 51.572742838627839 ], [ -0.166188918436473, 51.57279190427608 ], [ -0.166295770166141, 51.572862795097727 ], [ -0.16657018250308, 51.572930009650214 ], [ -0.166828318863122, 51.572969999845419 ], [ -0.167081785357681, 51.572981149013813 ], [ -0.16734770009443, 51.572972714251961 ], [ -0.168423080956457, 51.572896003392451 ], [ -0.169123220489148, 51.572853893913241 ], [ -0.169888268107365, 51.572777642618526 ], [ -0.169921769024047, 51.572770074438452 ], [ -0.170479341123052, 51.572648419485432 ], [ -0.170983339143786, 51.57253042138084 ], [ -0.171259995660708, 51.572432160608535 ], [ -0.171214707365574, 51.57302406665071 ], [ -0.171156254348217, 51.573614868348216 ], [ -0.170933161188773, 51.573638359233897 ], [ -0.170561482322476, 51.573693693745696 ], [ -0.169921950002388, 51.57384112955387 ], [ -0.169458818003492, 51.573984033179237 ], [ -0.169456524897001, 51.57400557305651 ], [ -0.169459033736897, 51.57423044861887 ], [ -0.169434545114167, 51.574514235898036 ], [ -0.169446745221821, 51.574714091088858 ], [ -0.169481421936721, 51.574893530492048 ], [ -0.169561319069667, 51.575455025442089 ], [ -0.169609678154343, 51.575797486364372 ], [ -0.169528071815269, 51.575779131945168 ], [ -0.169565798200774, 51.576350759804157 ], [ -0.169728197776884, 51.57640183969702 ], [ -0.169662057531767, 51.576576110781218 ], [ -0.169597504228912, 51.576781961169836 ], [ -0.169541375897436, 51.576923215660749 ], [ -0.169434675716302, 51.577135510193067 ], [ -0.16932965344863, 51.577412648047947 ], [ -0.169320441297496, 51.577428686093647 ], [ -0.168259721718028, 51.576995802268662 ], [ -0.168063211584705, 51.576928907681889 ], [ -0.167731549400113, 51.577352640700795 ], [ -0.167608911601006, 51.577496453121448 ], [ -0.16742737780482, 51.577773205816413 ], [ -0.167351332080192, 51.57787099766567 ], [ -0.167059015056915, 51.578212635598057 ], [ -0.167142195856525, 51.57822741904878 ], [ -0.167335646833295, 51.57826100459755 ], [ -0.167298022770153, 51.578299972870376 ], [ -0.167183568025115, 51.578417751895437 ], [ -0.167027066639736, 51.578539459208081 ], [ -0.166813152572168, 51.578656583996036 ], [ -0.166829335707623, 51.578792674113956 ], [ -0.16699045301484, 51.579665592074051 ], [ -0.167050925762086, 51.579671031172083 ], [ -0.167061767276916, 51.580584844114568 ], [ -0.167110730610643, 51.580586507542264 ], [ -0.167191412327008, 51.580589565117236 ], [ -0.167196047347262, 51.580619304150531 ], [ -0.167208319931464, 51.580707686672568 ], [ -0.167191619927948, 51.581122849268212 ], [ -0.167194533730673, 51.581301883671024 ], [ -0.16712152898623, 51.581539875252822 ], [ -0.167036340690203, 51.581755291699153 ], [ -0.16698894685832, 51.581821076973291 ], [ -0.166932361032387, 51.581899394458695 ], [ -0.166876790743116, 51.581952466156139 ], [ -0.1668708650104, 51.581957767567154 ], [ -0.166190461158033, 51.582044232216091 ], [ -0.16634712913579, 51.582167143957932 ], [ -0.166337940674635, 51.582179586297116 ], [ -0.166108522812918, 51.582465567293433 ], [ -0.165747007402046, 51.582946452508679 ], [ -0.16572143541174, 51.583223930585113 ], [ -0.165178785463963, 51.583438489783283 ], [ -0.164882863403052, 51.583546237955701 ], [ -0.164989350027915, 51.58358835701948 ], [ -0.165024990358925, 51.58359880299281 ], [ -0.164843881124245, 51.583760576878959 ], [ -0.164604173133431, 51.583941122242855 ], [ -0.164464895038039, 51.583959621376621 ], [ -0.164285249804363, 51.583975691141106 ], [ -0.163784666148596, 51.58428889141684 ], [ -0.163721032370836, 51.584329249572122 ], [ -0.163670322976886, 51.584296991733453 ], [ -0.163657177402471, 51.584301281048376 ], [ -0.163608985584721, 51.584315810006061 ], [ -0.163552820680886, 51.584277173852243 ], [ -0.163551465834359, 51.584275354679157 ], [ -0.163537353528207, 51.584265245029989 ], [ -0.163191458537561, 51.584360610124293 ], [ -0.162657960086375, 51.58445384718673 ], [ -0.162480673493724, 51.58451759747296 ], [ -0.162264289025172, 51.584621189922018 ], [ -0.162036930164779, 51.584748972727965 ], [ -0.1618935420032, 51.584866293155258 ], [ -0.161398338323231, 51.585225415460101 ], [ -0.16132561579075, 51.585275608679382 ], [ -0.161198149548522, 51.585358117030644 ], [ -0.16108423850894, 51.585355433686274 ], [ -0.160831010183221, 51.5851922557789 ], [ -0.160516187803096, 51.584980555727434 ], [ -0.160244896534125, 51.584799113802688 ], [ -0.160028868901166, 51.584681556544446 ], [ -0.159859396088743, 51.584587113468544 ], [ -0.159617576568121, 51.584462858269362 ], [ -0.159555329894334, 51.584504134838177 ], [ -0.15917886165897, 51.584781503156734 ], [ -0.157940816024477, 51.585735955911446 ], [ -0.15789751285049, 51.586197535673598 ], [ -0.157896640874173, 51.586219097684953 ], [ -0.15734300514912, 51.586203216609846 ], [ -0.1571568564483, 51.586200294465243 ], [ -0.157161039326446, 51.586205754053317 ], [ -0.157286258498601, 51.586393810087614 ], [ -0.157404655468266, 51.58657106096603 ], [ -0.157646512101804, 51.586585644915509 ], [ -0.158679713852453, 51.586633320671375 ], [ -0.158688600573475, 51.587161345480673 ], [ -0.158678355200374, 51.587414789107257 ], [ -0.158672424311186, 51.587526170504283 ], [ -0.158671080515776, 51.587559411956313 ], [ -0.158629246964288, 51.587557856750522 ], [ -0.158600497749587, 51.587556506782455 ], [ -0.158601053446309, 51.58757809119485 ], [ -0.158598053400072, 51.587581640082767 ], [ -0.158607463046983, 51.587811119347244 ], [ -0.158615255587919, 51.587977554231017 ], [ -0.160247831800881, 51.587979779178688 ], [ -0.160070957746901, 51.588106551032823 ], [ -0.160078358635165, 51.588209151630785 ], [ -0.160078213467559, 51.588212745305974 ], [ -0.16006305416212, 51.588443637410897 ], [ -0.160055069765374, 51.58864128952959 ], [ -0.160050438377381, 51.589006385679717 ], [ -0.160123045312393, 51.588997545005924 ], [ -0.160120065729384, 51.589071305180752 ], [ -0.160114513001177, 51.589208763237735 ], [ -0.160124559629233, 51.589351949626987 ], [ -0.160143952938635, 51.589693958749514 ], [ -0.159742887558755, 51.589721833131151 ], [ -0.159809410068855, 51.590114025429727 ], [ -0.159821492271903, 51.590206810538902 ], [ -0.159776576058308, 51.59039048865543 ], [ -0.159721784159893, 51.590529871638275 ], [ -0.159576008228104, 51.590994340164819 ], [ -0.159455470465203, 51.59158236541122 ], [ -0.15932579506406, 51.591577634956067 ], [ -0.159146551230723, 51.59168899525973 ], [ -0.159045093804492, 51.591734151321866 ], [ -0.158717913649696, 51.591900815605875 ], [ -0.158681298497454, 51.591949685478895 ], [ -0.158668451693885, 51.59198184746473 ], [ -0.158664009218789, 51.592056393669239 ], [ -0.158667565292629, 51.592074429190099 ], [ -0.158788037237626, 51.592271489266693 ], [ -0.15883862788367, 51.59237746450254 ], [ -0.159650122631983, 51.592267928696835 ], [ -0.159750033467423, 51.592511413074305 ], [ -0.159786025714916, 51.592657613555929 ], [ -0.159826249387156, 51.59276980869685 ], [ -0.160144448388316, 51.59339698720752 ], [ -0.160174513513161, 51.593474861430991 ], [ -0.160204412588888, 51.593592198651869 ], [ -0.16020457488563, 51.593732533340237 ], [ -0.16024047491277, 51.593842772709998 ], [ -0.16037090950245, 51.594082240156858 ], [ -0.160459245657522, 51.594217574047775 ], [ -0.160665792569388, 51.594429466483561 ], [ -0.160945545076644, 51.594833091355582 ], [ -0.161000639002227, 51.59511363008825 ], [ -0.161082732675361, 51.595297501051661 ], [ -0.161464042540049, 51.596293531595393 ], [ -0.161690444918246, 51.596836561435516 ], [ -0.161735067598805, 51.597019845055001 ], [ -0.161754243030164, 51.597152296785076 ], [ -0.161748690846077, 51.597395925703843 ], [ -0.16176129565756, 51.597478830119755 ], [ -0.161757433641698, 51.597539091777996 ], [ -0.161743462435289, 51.597599105186028 ], [ -0.161705503161604, 51.597681217555156 ], [ -0.159904346709271, 51.600230208213986 ], [ -0.158668508591902, 51.602047087193966 ], [ -0.158710147413563, 51.602089093801141 ], [ -0.157249072427946, 51.604149730739074 ], [ -0.156748470775443, 51.604924162648025 ], [ -0.156545115734863, 51.605129621840071 ], [ -0.156370273962421, 51.605345417466694 ], [ -0.15634232321242, 51.605359362017644 ], [ -0.155961841026965, 51.605445978335752 ], [ -0.156112294932984, 51.605297313678925 ], [ -0.156134811920676, 51.605205881421043 ], [ -0.156137068479858, 51.605150179977578 ], [ -0.156126909231115, 51.605115859007157 ], [ -0.156116022069061, 51.605099506243597 ], [ -0.155387826977578, 51.604681631164944 ], [ -0.155243696669962, 51.604603760904773 ], [ -0.155162002330624, 51.604551234534128 ], [ -0.154769275229647, 51.604264487021339 ], [ -0.154618387774813, 51.604138953592759 ], [ -0.154550220952876, 51.604075851762673 ], [ -0.154422597259996, 51.603911038848722 ], [ -0.153980040508203, 51.603429324866639 ], [ -0.153558356912806, 51.603002685728306 ], [ -0.153286966257914, 51.60268098435116 ], [ -0.153359900908104, 51.602092309938058 ], [ -0.153398400856117, 51.601677406200224 ], [ -0.153408960241458, 51.6013466569744 ], [ -0.153442112018101, 51.600990192758907 ], [ -0.153438163851068, 51.600873262916444 ], [ -0.153412087582649, 51.60070015804947 ], [ -0.153191559019092, 51.599835190771245 ], [ -0.153094953750431, 51.599545905261081 ], [ -0.153005127086659, 51.59923335276298 ], [ -0.152898144324628, 51.599059063765104 ], [ -0.152036013788122, 51.598277487959159 ], [ -0.151598089602517, 51.597683464255383 ], [ -0.151523813246298, 51.597592306268837 ], [ -0.151360535848699, 51.597453089506452 ], [ -0.151349177959894, 51.597448415724728 ], [ -0.148769607688483, 51.598392422817859 ], [ -0.147741276079847, 51.598754763928291 ], [ -0.147387366646946, 51.598865238023599 ], [ -0.147477651437254, 51.599022187020665 ], [ -0.146975252362539, 51.599197740228838 ], [ -0.146657510254056, 51.599308693071016 ], [ -0.145069164547282, 51.599909477840626 ], [ -0.144469698109351, 51.600129334402013 ], [ -0.144497877784116, 51.600217880168984 ], [ -0.144498167438967, 51.600421144819244 ], [ -0.144463810064535, 51.600557247085305 ], [ -0.144174001962056, 51.601112911159831 ], [ -0.144001469764228, 51.601236040843048 ], [ -0.143885796979998, 51.601345775522709 ], [ -0.143858430838181, 51.60138040309338 ], [ -0.143797538167525, 51.601492711917992 ], [ -0.143554138734341, 51.601759546236828 ], [ -0.143436750204529, 51.601949262674793 ], [ -0.143232330792142, 51.602214824921084 ], [ -0.143164290782972, 51.602397230788966 ], [ -0.143128822829705, 51.602452406597365 ], [ -0.143086609726707, 51.602494889956091 ], [ -0.143038795242651, 51.60253458774649 ], [ -0.142482766358589, 51.602961077312408 ], [ -0.142215245956756, 51.603182577996535 ], [ -0.142154240695592, 51.603227460545291 ], [ -0.142115585368627, 51.603290676420116 ], [ -0.142089417254304, 51.603470957473995 ], [ -0.142011913188579, 51.603707151697733 ], [ -0.141999927689289, 51.603787870293978 ], [ -0.142014492126854, 51.604280023275223 ], [ -0.142065270311435, 51.604593762278562 ], [ -0.142189438093374, 51.604912258691641 ], [ -0.142297895055197, 51.605049721260123 ], [ -0.14238132712768, 51.605129342831439 ], [ -0.142632544100913, 51.605450748208192 ], [ -0.142799848915564, 51.605739361139278 ], [ -0.142892474445446, 51.605873875733927 ], [ -0.142921936629064, 51.605930977633854 ], [ -0.143078252761657, 51.606348959452923 ], [ -0.143136698375544, 51.60658002308017 ], [ -0.143277580777175, 51.607338564063177 ], [ -0.14338117453046, 51.607738540940794 ], [ -0.143389081787437, 51.607789907903381 ], [ -0.143403153115053, 51.607906188862898 ], [ -0.143427260172054, 51.608234787970972 ], [ -0.143425431890834, 51.608848942562197 ], [ -0.142797391651942, 51.609053863858108 ], [ -0.141112507745192, 51.609536196503733 ], [ -0.138760310000606, 51.610194913276516 ], [ -0.137703871975617, 51.610423668694551 ], [ -0.136174473303659, 51.610811216784185 ], [ -0.135941489319972, 51.610891122201096 ], [ -0.135476951718372, 51.611091498284537 ], [ -0.135258032895514, 51.611217473644636 ], [ -0.134941292009607, 51.611190865961355 ], [ -0.133258063399896, 51.610784644548183 ], [ -0.131798873084719, 51.610409833629895 ], [ -0.131289215612759, 51.610334295659051 ], [ -0.13087897071848, 51.610195522430097 ], [ -0.129715187093923, 51.609802016288256 ], [ -0.128667287584103, 51.609541597429597 ], [ -0.12787717857349, 51.609440895401164 ], [ -0.1273784152612, 51.609381695664482 ], [ -0.126442898936799, 51.609373955464463 ], [ -0.126349541282214, 51.609324818964545 ], [ -0.12631144248038, 51.609304433091914 ], [ -0.125863550521544, 51.609588640711557 ], [ -0.125969694168757, 51.609642476683646 ], [ -0.125330133488482, 51.610020711310895 ], [ -0.124872457568485, 51.60994687462982 ], [ -0.124991369635646, 51.609864270391924 ], [ -0.12409814233273, 51.6092870533396 ], [ -0.124157803729004, 51.609275421291514 ], [ -0.12413673855932, 51.609260700866074 ], [ -0.124058086690917, 51.609207302673397 ], [ -0.123916522997373, 51.609137526096305 ], [ -0.123969822329949, 51.609106913826601 ], [ -0.123999286971781, 51.609091203192996 ], [ -0.123518238329661, 51.608709445879249 ], [ -0.123467412878563, 51.608717622963873 ], [ -0.123351088123296, 51.608734641388303 ], [ -0.123121495279872, 51.608769625761596 ], [ -0.122410253349813, 51.608680036780342 ], [ -0.122008145260483, 51.608627754366942 ], [ -0.121787211306407, 51.608626016456057 ], [ -0.121566499763416, 51.608618887799217 ], [ -0.121330665911255, 51.608594435981999 ], [ -0.119499217928637, 51.608425669835079 ], [ -0.119178129595796, 51.60836658513557 ], [ -0.118711226352495, 51.608654955917615 ], [ -0.118115737378415, 51.608424167198955 ], [ -0.117492233405842, 51.608202900442144 ], [ -0.117264502228389, 51.608437565175485 ], [ -0.115931043364981, 51.608309083410923 ], [ -0.115882083517099, 51.608303802002062 ], [ -0.115891467093313, 51.60842810220548 ], [ -0.115540403003054, 51.60842875497999 ], [ -0.115332485130904, 51.608429010060959 ], [ -0.114633227741038, 51.608435751256145 ], [ -0.114451006473065, 51.608404953455924 ], [ -0.114436756648292, 51.608401128437329 ], [ -0.114283976566656, 51.608358128033892 ], [ -0.11404578928129, 51.608356096192772 ], [ -0.113825012795259, 51.60835344488472 ], [ -0.113813470095994, 51.608353259255978 ], [ -0.113812884573658, 51.608401884798198 ], [ -0.112753095052548, 51.608427987679633 ], [ -0.111490733134735, 51.608466102103684 ], [ -0.110851940002565, 51.608479188225871 ], [ -0.110811440665924, 51.608582817908193 ], [ -0.110798555908579, 51.608614973751166 ], [ -0.110788515688179, 51.608613014060602 ], [ -0.110603410427015, 51.608585759749452 ], [ -0.110587576637545, 51.608582807728077 ], [ -0.110429878271844, 51.608555095665295 ], [ -0.110442688702736, 51.608524736629597 ], [ -0.110509976494986, 51.608366700675084 ], [ -0.110455566433002, 51.608355036312872 ], [ -0.110399765726115, 51.608342450537442 ], [ -0.109870888099106, 51.608280798654469 ], [ -0.109870962691943, 51.608279001890416 ], [ -0.109864673619641, 51.608255526977878 ], [ -0.109262725774923, 51.608281783974583 ], [ -0.107087910418616, 51.608279157371257 ], [ -0.10707042491097, 51.608281572115793 ], [ -0.106947036981659, 51.608299358269129 ], [ -0.106254422109068, 51.60842122660975 ], [ -0.105877947579815, 51.608411551354749 ], [ -0.105869111329071, 51.608415004586384 ], [ -0.105873125913746, 51.608387200930871 ], [ -0.105877259489384, 51.608359399196772 ], [ -0.105684937710017, 51.608362585995366 ], [ -0.105257014288115, 51.608444673078957 ], [ -0.104130409658106, 51.608448043063433 ], [ -0.103922635073614, 51.608441987349273 ], [ -0.103699034031011, 51.608435675382268 ], [ -0.103489831625028, 51.608429595815387 ], [ -0.102993875538366, 51.608238182443117 ], [ -0.102513672273757, 51.608046032916562 ], [ -0.102179107168343, 51.608416484934047 ], [ -0.101960592992259, 51.608462393034387 ], [ -0.101758575420852, 51.608492475910573 ], [ -0.101485951807826, 51.608519527016703 ], [ -0.10125193517267, 51.608520232126295 ], [ -0.101064501612289, 51.608511802470183 ], [ -0.100789984782383, 51.608478588252844 ], [ -0.100359967390302, 51.608470722391054 ], [ -0.09994288335365, 51.608463963545752 ], [ -0.099074840444657, 51.6084660738696 ], [ -0.09782430611343, 51.60849703290252 ], [ -0.097460609279991, 51.608523494834678 ], [ -0.097656107093378, 51.608925906582968 ], [ -0.097634449474579, 51.608925555156574 ], [ -0.097427956904423, 51.608925800275308 ], [ -0.097365921447931, 51.608925692518881 ], [ -0.097357309716915, 51.608923754778935 ], [ -0.097333021500522, 51.608917966661245 ], [ -0.097238530527044, 51.608896655322511 ], [ -0.097045840632849, 51.60905094109998 ], [ -0.0967967471287, 51.609135897767629 ], [ -0.096785016441515, 51.609140202290206 ], [ -0.09641920940167, 51.609216970497201 ], [ -0.096193544192496, 51.60926275071845 ], [ -0.095787582949262, 51.609300208319191 ], [ -0.095568112231895, 51.60926338076321 ], [ -0.095327589602862, 51.608901584928127 ], [ -0.095311946055858, 51.608825815564195 ], [ -0.095132679940578, 51.608659198095992 ], [ -0.093999215613606, 51.608826056849637 ], [ -0.093555610142451, 51.609003227297443 ], [ -0.092940157432654, 51.608905026424488 ], [ -0.092534955550129, 51.608856181791552 ], [ -0.092461559742608, 51.608848694660495 ], [ -0.092448009528072, 51.609069716347086 ], [ -0.092446766982703, 51.609099362895996 ], [ -0.092067053575981, 51.609061719307881 ], [ -0.092069837317057, 51.609029400859058 ], [ -0.092076538349456, 51.608937722715957 ], [ -0.092060899975744, 51.608932973250866 ], [ -0.091802895941373, 51.608849662775263 ], [ -0.091771656980099, 51.608839265388767 ], [ -0.091744428923075, 51.608866690996109 ], [ -0.091714313225376, 51.608897665568577 ], [ -0.091418264318038, 51.608793058573426 ], [ -0.090883941536966, 51.608790651752493 ], [ -0.090880934881389, 51.608794198725732 ], [ -0.090851786476952, 51.608904299822953 ], [ -0.089691258916233, 51.608818870142684 ], [ -0.089659681104927, 51.608816557636935 ], [ -0.088697679897552, 51.608750535340235 ], [ -0.088370653541824, 51.608697557371734 ], [ -0.087980499013747, 51.608633660151469 ], [ -0.087499652463523, 51.608597049689791 ], [ -0.08710663740525, 51.608567264267883 ], [ -0.086561050932453, 51.608524109836289 ], [ -0.085826679608214, 51.608470768742215 ], [ -0.084817271371999, 51.60847046551595 ], [ -0.084519030533532, 51.608486270169159 ], [ -0.084354194224229, 51.608489870017152 ], [ -0.083248783007492, 51.608504257532147 ], [ -0.082135308610605, 51.60846977781631 ], [ -0.081962093863065, 51.608468742335589 ], [ -0.081344159146529, 51.608464025971436 ], [ -0.080688189685775, 51.608502823876712 ], [ -0.079610572999482, 51.608510350331279 ], [ -0.079301659862206, 51.608505290298154 ], [ -0.079155890019621, 51.608502902288294 ], [ -0.078979548752483, 51.608505407122699 ], [ -0.078680945251052, 51.608498716397712 ], [ -0.078118664633239, 51.608476016328318 ], [ -0.077066482256782, 51.608425502252608 ], [ -0.07664824117726, 51.608412349230932 ], [ -0.076119071434465, 51.608426142125474 ], [ -0.075673251285531, 51.608448492522264 ], [ -0.075602264120508, 51.608454519317895 ], [ -0.074750396827462, 51.608516049351948 ], [ -0.073835656132113, 51.608597217051418 ], [ -0.072847977813129, 51.608662884964204 ], [ -0.072151987956381, 51.608726958203469 ], [ -0.072069381221446, 51.608734589794516 ], [ -0.072056918894732, 51.608685839578975 ], [ -0.071702240563871, 51.608706976613931 ], [ -0.071477576735593, 51.608725756210532 ], [ -0.070845013770976, 51.608793561933574 ], [ -0.070851334902018, 51.608779282141022 ], [ -0.070873734902185, 51.608728408419061 ], [ -0.070836479725771, 51.608722401519998 ], [ -0.070771850792839, 51.608713247238619 ], [ -0.070689586649018, 51.608712792611684 ], [ -0.070326654783482, 51.608687042339767 ], [ -0.069650303148861, 51.60866422219059 ], [ -0.069646797342795, 51.608746871338951 ], [ -0.069339545687719, 51.60873911546652 ], [ -0.069261717840735, 51.60873513693695 ], [ -0.068332416482825, 51.608682072934542 ], [ -0.067969803736233, 51.608819936720366 ], [ -0.067794767677575, 51.608657032581107 ], [ -0.06772701660891, 51.608654118137096 ], [ -0.067605874788641, 51.608649424782442 ], [ -0.067483305052397, 51.608644707768065 ], [ -0.067451973900972, 51.608670262052158 ], [ -0.067115519126255, 51.608940797459709 ], [ -0.067047178924186, 51.608918094788855 ], [ -0.067044089584629, 51.608920740871604 ], [ -0.066279225619251, 51.608668907202642 ], [ -0.065451968979638, 51.608630089783169 ], [ -0.06521809056388, 51.608593867232614 ], [ -0.065020397239817, 51.608588807007067 ], [ -0.062955530743374, 51.608612248969607 ], [ -0.062370109919215, 51.608624152140287 ], [ -0.061198349110545, 51.608669510346999 ], [ -0.059034552498299, 51.60874527706342 ], [ -0.058052952327561, 51.608801842607654 ], [ -0.056116369055351, 51.608865946222807 ], [ -0.055590783729458, 51.608895888928153 ], [ -0.054354409617764, 51.608864591610661 ], [ -0.053954688137718, 51.608788735194857 ], [ -0.053046691228291, 51.608577590816552 ], [ -0.05298711866653, 51.608550530730653 ], [ -0.052923419815219, 51.608522503096353 ], [ -0.052885043116501, 51.608506582880835 ], [ -0.052943748341834, 51.608450920959704 ], [ -0.052954285542122, 51.608441206976032 ], [ -0.052958909153569, 51.608399929923337 ], [ -0.052966040405592, 51.608336219603146 ], [ -0.052890104039481, 51.608321473676526 ], [ -0.052890798446242, 51.60810204019473 ], [ -0.052581275829102, 51.60808071784647 ], [ -0.052159018005185, 51.607991895149603 ], [ -0.051751279104891, 51.607900525244304 ], [ -0.051484088184516, 51.607799893425138 ], [ -0.051505625031409, 51.60776968526465 ], [ -0.051527158225664, 51.607736780047837 ], [ -0.050206040584707, 51.607356937693432 ], [ -0.049918710802147, 51.607290040787817 ], [ -0.049612573486905, 51.607220223390144 ], [ -0.049288759527088, 51.607160000216034 ], [ -0.049061264747525, 51.607111267068618 ], [ -0.048800760377922, 51.60705479244988 ], [ -0.04843815464971, 51.606957871928465 ], [ -0.048031074017581, 51.606884573052803 ], [ -0.047606199214916, 51.606790299694573 ], [ -0.045329875937772, 51.606325278257628 ], [ -0.044290152317435, 51.606121766712263 ], [ -0.04283569158792, 51.605887953338645 ], [ -0.041772206656567, 51.605700295020071 ], [ -0.041422629943268, 51.605636024243701 ], [ -0.041431545095015, 51.605628082129904 ], [ -0.0414723170211, 51.605588218143218 ], [ -0.041512966018712, 51.60554844198878 ], [ -0.041544699837301, 51.60551660794254 ], [ -0.041596158545086, 51.605460830301382 ], [ -0.041646308247771, 51.605405030783416 ], [ -0.041693560418195, 51.605347384880218 ], [ -0.041739230829713, 51.60529052164793 ], [ -0.041789766666429, 51.605225738551418 ], [ -0.041881450020019, 51.605106803527974 ], [ -0.041967621622227, 51.604985888536923 ], [ -0.042049267370766, 51.60486498783694 ], [ -0.042128253256637, 51.604742244689454 ], [ -0.042201450864255, 51.604618415985293 ], [ -0.042210832430279, 51.604602390628258 ], [ -0.042683880999077, 51.603943948540248 ], [ -0.043115960941124, 51.603332467771203 ], [ -0.043515180942282, 51.602814831863306 ], [ -0.044027982705556, 51.60223894544481 ], [ -0.04478688418766, 51.601449421523604 ], [ -0.0457434089492, 51.60049327438648 ], [ -0.046102624557926, 51.60013238536051 ], [ -0.046443655350449, 51.599790070648169 ], [ -0.046912899692379, 51.599386870786553 ], [ -0.047789535483667, 51.598675805475196 ], [ -0.048789693530994, 51.597948806745642 ], [ -0.049555568001221, 51.597395901884326 ], [ -0.049737221970518, 51.597265782232363 ], [ -0.049914822706362, 51.597132987841476 ], [ -0.049989456903317, 51.597074895427006 ], [ -0.050164124430677, 51.596941062958493 ], [ -0.050273296527764, 51.596852079888173 ], [ -0.050331645585129, 51.596804504395067 ], [ -0.050443094571416, 51.59669847832059 ], [ -0.050491488810909, 51.596647051517529 ], [ -0.050537062365672, 51.596594768745682 ], [ -0.050579780622365, 51.596542438516863 ], [ -0.050621029153734, 51.596488285889265 ], [ -0.050659422398713, 51.596434085810643 ], [ -0.050699362123217, 51.596379911403567 ], [ -0.050731621991803, 51.596332711361683 ], [ -0.050796371784793, 51.596238494857964 ], [ -0.05085679651693, 51.596142408502573 ], [ -0.050914246873932, 51.596046272700235 ], [ -0.050966147937897, 51.595949055810571 ], [ -0.051016498404154, 51.59585190303131 ], [ -0.051062523881736, 51.595752880427135 ], [ -0.051083400827578, 51.595704592218887 ], [ -0.051134131430888, 51.595295409020046 ], [ -0.051133819052571, 51.595269333353855 ], [ -0.051134934239285, 51.595243281394275 ], [ -0.051136049424446, 51.59521722943451 ], [ -0.051140019735349, 51.59519122488765 ], [ -0.051143990041773, 51.595165220340242 ], [ -0.051150895977335, 51.595140163523965 ], [ -0.051157840359808, 51.595114208363178 ], [ -0.051159498645795, 51.595108842008337 ], [ -0.051167717007802, 51.595083717085949 ], [ -0.051176088932955, 51.595057785628605 ], [ -0.051185849954816, 51.595032776219192 ], [ -0.051197038525188, 51.595007790513634 ], [ -0.051211082199809, 51.594982852216674 ], [ -0.051226514964694, 51.594958835965627 ], [ -0.051240250991199, 51.594941084412262 ], [ -0.051253833199265, 51.594926926231288 ], [ -0.051267534362637, 51.594912770023576 ], [ -0.05128393321472, 51.594899557590509 ], [ -0.051298904503019, 51.594886321450488 ], [ -0.051316849855953, 51.594873134690836 ], [ -0.051333210231503, 51.594860820592757 ], [ -0.051351117116044, 51.59484853217041 ], [ -0.051368905029048, 51.594836241769393 ], [ -0.051386850345849, 51.594823054996354 ], [ -0.051404638241164, 51.594810764588608 ], [ -0.051416562120219, 51.594801972744008 ], [ -0.051529940536754, 51.594717462953405 ], [ -0.051646091017117, 51.594634887910118 ], [ -0.051652073732068, 51.594631391414801 ], [ -0.051711690461049, 51.594587433121262 ], [ -0.051771307074387, 51.594543474794605 ], [ -0.051828107027719, 51.594498570644568 ], [ -0.051853534842366, 51.594477417639645 ], [ -0.051908949422935, 51.594431501545287 ], [ -0.051962852038183, 51.594384751214079 ], [ -0.052012667909379, 51.594336134981596 ], [ -0.052059548179741, 51.594286570964023 ], [ -0.052088330379198, 51.594253786870823 ], [ -0.052109706084391, 51.594227172579885 ], [ -0.0521157234867, 51.594220080705888 ], [ -0.052140261588306, 51.594186327095045 ], [ -0.05216337601483, 51.594152459924764 ], [ -0.052186524995081, 51.594117784239266 ], [ -0.052206818981024, 51.594083061111569 ], [ -0.052227151366361, 51.594047439635325 ], [ -0.052231856540828, 51.594037629003644 ], [ -0.052250915130638, 51.593998390427402 ], [ -0.052269854730429, 51.593959149870649 ], [ -0.05228455030397, 51.593918939813811 ], [ -0.0522992458506, 51.59387872975433 ], [ -0.052312517741612, 51.593838406140861 ], [ -0.052322930824573, 51.593798124926039 ], [ -0.052331916419043, 51.593757819993073 ], [ -0.052335732068979, 51.593735408818887 ], [ -0.052385352661749, 51.593218239334149 ], [ -0.052493348280851, 51.59268325083459 ], [ -0.052498975419009, 51.592651879915394 ], [ -0.052507855088752, 51.592444272474097 ], [ -0.052912951907664, 51.591750514929508 ], [ -0.053143092531858, 51.591364988338682 ], [ -0.053288241261366, 51.591076937821207 ], [ -0.053382228484292, 51.590835683580586 ], [ -0.053454152719685, 51.590470003447443 ], [ -0.053448882697414, 51.590189343796013 ], [ -0.053457732708301, 51.589912514497549 ], [ -0.053352437517001, 51.589607719533184 ], [ -0.053207599828726, 51.589348115978204 ], [ -0.052984879590818, 51.589019795346623 ], [ -0.052718137841988, 51.588707823901025 ], [ -0.052669506573348, 51.588662067132695 ], [ -0.052604962478506, 51.588517967187215 ], [ -0.05253092593977, 51.588392678052934 ], [ -0.052412788721061, 51.588285534948596 ], [ -0.052401712091723, 51.588274563181905 ], [ -0.052232164596776, 51.588086466718075 ], [ -0.052218617436321, 51.588066464084605 ], [ -0.052205070287237, 51.588046461450091 ], [ -0.052194416134269, 51.588025607893144 ], [ -0.052183761990553, 51.588004754335621 ], [ -0.052174535148414, 51.587983924488618 ], [ -0.052166735605931, 51.587963118352405 ], [ -0.052158936070129, 51.587942312215922 ], [ -0.052154148460795, 51.587920657134418 ], [ -0.0521492419148, 51.587899000076973 ], [ -0.052144458153647, 51.587877255161075 ], [ -0.052142486735384, 51.587856545845213 ], [ -0.052140434776202, 51.5878349362102 ], [ -0.052139929046333, 51.587813352262373 ], [ -0.052140850603103, 51.587791792025691 ], [ -0.052143199444542, 51.587770255500033 ], [ -0.052145548283545, 51.587748718974147 ], [ -0.052149443344978, 51.587727208134964 ], [ -0.052154646746082, 51.587705719030403 ], [ -0.052161396365599, 51.58768425561199 ], [ -0.052167988640976, 51.587663688560177 ], [ -0.052176165529733, 51.587642248850798 ], [ -0.05218557395775, 51.587622627561522 ], [ -0.05219656699534, 51.587602133613835 ], [ -0.052207560023084, 51.587581639664592 ], [ -0.052221411439612, 51.587561103299223 ], [ -0.052235339548068, 51.587541557085046 ], [ -0.052250614378891, 51.587521134258857 ], [ -0.052265812405428, 51.587502508116792 ], [ -0.052284022308893, 51.587483033022458 ], [ -0.052300647586098, 51.587464430583452 ], [ -0.052320246341756, 51.587445877534137 ], [ -0.052339726142149, 51.587427322505029 ], [ -0.052359286473107, 51.587409667791079 ], [ -0.052380274063702, 51.587392036780791 ], [ -0.052399795971811, 51.587375280402092 ], [ -0.052426569409678, 51.587355947524131 ], [ -0.052457705191868, 51.58733758607822 ], [ -0.052488645228574, 51.587321019334716 ], [ -0.052522558726635, 51.587304501969101 ], [ -0.05255500653988, 51.587288859230888 ], [ -0.052587531109373, 51.587271419794853 ], [ -0.052617047625081, 51.587254739473501 ], [ -0.052645367113455, 51.587235432217319 ], [ -0.052670751487854, 51.587215177226028 ], [ -0.052676886601266, 51.587208087264891 ], [ -0.052689037883402, 51.587193905366057 ], [ -0.052698062135848, 51.587183267459366 ], [ -0.052732519850671, 51.587187435640914 ], [ -0.052734066058258, 51.587187461319253 ], [ -0.053134682849592, 51.586931521212556 ], [ -0.053260877295175, 51.586850011122586 ], [ -0.053881399652449, 51.586483548258968 ], [ -0.054302572462358, 51.586222550998961 ], [ -0.054351489524389, 51.586191898288327 ], [ -0.054398979283722, 51.586161221872679 ], [ -0.054445080094808, 51.586129623407388 ], [ -0.054491219194444, 51.586097126574238 ], [ -0.054534542108194, 51.586063684013979 ], [ -0.054576322623699, 51.586030125947616 ], [ -0.054586815692962, 51.586021310206867 ], [ -0.054627360696794, 51.585986023554064 ], [ -0.054664932238158, 51.585950687555389 ], [ -0.054702542068974, 51.585914453194825 ], [ -0.054737335726294, 51.585877273118697 ], [ -0.054772129327854, 51.585840093029297 ], [ -0.054804106761874, 51.58580196722793 ], [ -0.054835965207643, 51.585763839442095 ], [ -0.054846611541901, 51.585751430284262 ], [ -0.054886422891412, 51.585699859761931 ], [ -0.054924722501007, 51.585647455061867 ], [ -0.05496159480172, 51.58559502667098 ], [ -0.054994185357571, 51.585542527244527 ], [ -0.055026733583604, 51.585488229137624 ], [ -0.055056507894169, 51.585434783993051 ], [ -0.055065803470342, 51.585417767591579 ], [ -0.055098930516149, 51.585352691258883 ], [ -0.055130591917493, 51.585288489587974 ], [ -0.055154768220045, 51.585229557662565 ], [ -0.055157929337016, 51.585222418223893 ], [ -0.05518383946828, 51.58515632317863 ], [ -0.055206898944088, 51.585090090948775 ], [ -0.055226981175478, 51.585023899233654 ], [ -0.055228676726981, 51.585017634469672 ], [ -0.055254548302927, 51.584952437743752 ], [ -0.055283393139146, 51.584887290317702 ], [ -0.055314935023623, 51.584823086591747 ], [ -0.055349453979316, 51.584758842325336 ], [ -0.055385357868033, 51.584695609893267 ], [ -0.05542411604374, 51.584632424777986 ], [ -0.055459598098331, 51.584579074140322 ], [ -0.055504145435016, 51.584516883971745 ], [ -0.055550085343799, 51.584455525957893 ], [ -0.055568327055958, 51.584432454853314 ], [ -0.055598837342237, 51.584395203430859 ], [ -0.055650366929288, 51.584336724900183 ], [ -0.05570348082575, 51.584277373626144 ], [ -0.055759372299526, 51.584219866341634 ], [ -0.055816537391746, 51.584163189226224 ], [ -0.055876790729959, 51.584106653174494 ], [ -0.05593831384575, 51.584051037120709 ], [ -0.056002652843649, 51.583996366693022 ], [ -0.056050603068478, 51.583957606266011 ], [ -0.056122349859893, 51.583899462623826 ], [ -0.056198381812572, 51.583841300061593 ], [ -0.05627445126233, 51.58378502477904 ], [ -0.05635476367631, 51.583729718700077 ], [ -0.056436426470356, 51.583676232956229 ], [ -0.056520866813176, 51.583624591197292 ], [ -0.056608203636063, 51.58357479538828 ], [ -0.056648093241753, 51.583551992446672 ], [ -0.056720345965661, 51.583515431638418 ], [ -0.056794144665724, 51.583478896404635 ], [ -0.056869174902357, 51.583444179539775 ], [ -0.056900114618471, 51.58343030815125 ], [ -0.05706371634207, 51.583350310555126 ], [ -0.057100751474033, 51.583330247079985 ], [ -0.057136240490206, 51.583310157977493 ], [ -0.057170340604182, 51.583289146849829 ], [ -0.057194063713722, 51.58327425681901 ], [ -0.057228244165488, 51.583251359097908 ], [ -0.057259409241793, 51.583229400315894 ], [ -0.057290769777459, 51.583205646756305 ], [ -0.057322130281013, 51.583181893188012 ], [ -0.057350555801986, 51.583157191986494 ], [ -0.057377554143451, 51.583132467135734 ], [ -0.057380680482618, 51.583128922911236 ], [ -0.0574018936432, 51.583105900225817 ], [ -0.05742294957657, 51.583083773935925 ], [ -0.057441346677891, 51.583059805590231 ], [ -0.057458159408567, 51.583036710000101 ], [ -0.057475129327063, 51.583012718007666 ], [ -0.057490591429818, 51.582987802032136 ], [ -0.057506015240424, 51.582963784424116 ], [ -0.057521561790934, 51.5829396789469 ], [ -0.057533825086227, 51.582922801012508 ], [ -0.057583260913623, 51.582846305562882 ], [ -0.057631307709998, 51.582768888081631 ], [ -0.057640559443105, 51.582752859257198 ], [ -0.057745234361214, 51.582634036613072 ], [ -0.057760738577008, 51.582610919308145 ], [ -0.057778978115034, 51.582587847305327 ], [ -0.057791202952278, 51.582571867711714 ], [ -0.057810950249936, 51.582549719680109 ], [ -0.057830697528606, 51.582527571645009 ], [ -0.057851714723106, 51.582506343642784 ], [ -0.0578742779555, 51.58248514124211 ], [ -0.057896841167194, 51.582463938836888 ], [ -0.057922220348606, 51.582443682067691 ], [ -0.057949107297073, 51.582424349267349 ], [ -0.057971402585973, 51.582409435437484 ], [ -0.057995086722556, 51.582395443607673 ], [ -0.058018732580309, 51.582382350143057 ], [ -0.058043805551125, 51.582369280307311 ], [ -0.058068840244294, 51.582357108836192 ], [ -0.058093913187543, 51.582344038989483 ], [ -0.058118947854147, 51.582331867507435 ], [ -0.058127824671251, 51.582327429585867 ], [ -0.0582813922845, 51.58224816317599 ], [ -0.058436191057789, 51.582170714960895 ], [ -0.058474456339884, 51.582152469438022 ], [ -0.059275416614832, 51.581749399441151 ], [ -0.059735910552481, 51.58151060284051 ], [ -0.060050326632869, 51.58134850023189 ], [ -0.060800334846647, 51.580953567126258 ], [ -0.06088168200032, 51.5809072651669 ], [ -0.060961601909884, 51.580860939551684 ], [ -0.061040209192045, 51.580811895168438 ], [ -0.061115847046183, 51.580762711735375 ], [ -0.061190249167607, 51.58071179971671 ], [ -0.061261716249368, 51.580659940122786 ], [ -0.061331794294694, 51.580607158518475 ], [ -0.06139905623049, 51.580553431313703 ], [ -0.061457407481807, 51.580504950783769 ], [ -0.061520387392563, 51.580448365811776 ], [ -0.061580509192527, 51.580391823460964 ], [ -0.061637853095443, 51.580333437154451 ], [ -0.061693807978941, 51.58027412885734 ], [ -0.061746789669734, 51.580214771389755 ], [ -0.061799932153344, 51.580154427652964 ], [ -0.061850135825289, 51.58009322621605 ], [ -0.061900301177047, 51.580032923128378 ], [ -0.061906472008512, 51.580024934089145 ], [ -0.061920159986975, 51.580008079258043 ], [ -0.061982509661551, 51.579932694458435 ], [ -0.062060058617938, 51.579841288859811 ], [ -0.06212899859389, 51.579748032832775 ], [ -0.062186360436565, 51.579652787424649 ], [ -0.062212179984852, 51.579588485862637 ], [ -0.062222239462077, 51.579556198077135 ], [ -0.06222944102149, 51.579523952963264 ], [ -0.062236523650185, 51.57949170588352 ], [ -0.06224229814783, 51.579459437186223 ], [ -0.06224652667718, 51.579427142941221 ], [ -0.062247901122614, 51.579394801531883 ], [ -0.06224927556552, 51.579362460122326 ], [ -0.062247795932426, 51.579330071548625 ], [ -0.062246197381125, 51.579297681009606 ], [ -0.062241863681497, 51.579265245271479 ], [ -0.062235949672952, 51.579233592521049 ], [ -0.062228643000272, 51.57920110765275 ], [ -0.062221417077276, 51.579169523121585 ], [ -0.062212377958044, 51.579144201649889 ], [ -0.062202102715621, 51.579114364732426 ], [ -0.062188854508438, 51.579084478683498 ], [ -0.062175725236793, 51.579054594598283 ], [ -0.062159703746689, 51.579025561718112 ], [ -0.062143563357256, 51.578996526870476 ], [ -0.062124568936462, 51.578967444853831 ], [ -0.06210553635784, 51.578939261206642 ], [ -0.062085199514901, 51.57891096610058 ], [ -0.062063155836212, 51.578883631685947 ], [ -0.06203980407953, 51.578856275648178 ], [ -0.062014987146044, 51.578829794393577 ], [ -0.061990170240511, 51.578803313133825 ], [ -0.061962342221857, 51.578777681105244 ], [ -0.061934633151859, 51.578752051035622 ], [ -0.061905339991319, 51.578727293780496 ], [ -0.061874581659294, 51.57870341130419 ], [ -0.06186065079543, 51.578692393004822 ], [ -0.061460942969652, 51.578246892127503 ], [ -0.061234821404143, 51.57793110944241 ], [ -0.061158762069539, 51.577786011237471 ], [ -0.062690554619309, 51.577468718791664 ], [ -0.06374061793427, 51.577246838172478 ], [ -0.064207861863101, 51.577152965390034 ], [ -0.064595928448342, 51.577020834885467 ], [ -0.065446865259433, 51.576864066415446 ], [ -0.066103385052725, 51.576731864695958 ], [ -0.066757556322036, 51.576621286583858 ], [ -0.066712398151022, 51.576358842275894 ], [ -0.067063995835023, 51.576303506576899 ], [ -0.067209264645498, 51.576281628118906 ], [ -0.067346822759727, 51.576270410427206 ], [ -0.067404723664826, 51.576265970734518 ], [ -0.067969143414591, 51.576195170873099 ], [ -0.068306197067063, 51.576143188264517 ], [ -0.068723870885567, 51.576095232792937 ], [ -0.069305457910132, 51.575992440200601 ], [ -0.069463873688653, 51.575966281826751 ], [ -0.069705183234209, 51.57592710458578 ], [ -0.069950924205363, 51.575881616930516 ], [ -0.070462198430192, 51.575803731815583 ], [ -0.07090860687766, 51.575692412760866 ], [ -0.071827157763761, 51.575606751348374 ], [ -0.071832452449629, 51.575619424469181 ], [ -0.071867684959774, 51.575706398090531 ], [ -0.07189534292099, 51.575702358132446 ], [ -0.072296146341379, 51.575642335725917 ], [ -0.072341273919443, 51.575633189021673 ], [ -0.072352770115186, 51.575634277118546 ], [ -0.072487848928472, 51.575614023893799 ], [ -0.072742978628923, 51.575655977842864 ], [ -0.07301770458504, 51.575642515458483 ], [ -0.073520166850728, 51.575604028345879 ], [ -0.073519104046554, 51.575629182858151 ], [ -0.07359860619356, 51.575625994740399 ], [ -0.073603369978893, 51.575651245028887 ], [ -0.073615211170181, 51.575711762527767 ], [ -0.073736645434384, 51.575707465575476 ], [ -0.073736621539783, 51.575671415312641 ], [ -0.073974275517296, 51.575651048351411 ], [ -0.074210264574265, 51.575630653556246 ], [ -0.07434932491725, 51.575620352629407 ], [ -0.074368154937678, 51.575687277848928 ], [ -0.074423165620151, 51.575683596840896 ], [ -0.074410115247369, 51.575615058500667 ], [ -0.074408915980183, 51.575609644802491 ], [ -0.07515011038901, 51.575556194169117 ], [ -0.075179770811561, 51.575332739631598 ], [ -0.075298307071391, 51.575326595450321 ], [ -0.075349473854955, 51.575346314883014 ], [ -0.075404845563705, 51.575367901358696 ], [ -0.075727572396358, 51.575482969434255 ], [ -0.075758866186312, 51.575494271327919 ], [ -0.075873136665832, 51.575349519921581 ], [ -0.075947942888196, 51.575254554638505 ], [ -0.076221242461407, 51.574933511858625 ], [ -0.077030655665969, 51.57507355590883 ], [ -0.077067965402937, 51.575080461146818 ], [ -0.077026535391991, 51.575137407509644 ], [ -0.077495916092477, 51.575231413031361 ], [ -0.077520340762774, 51.57523630873542 ], [ -0.077542822189125, 51.575180040266964 ], [ -0.07800560000779, 51.575261349358286 ], [ -0.078003870205374, 51.575268513021804 ], [ -0.077998561886149, 51.575290002061976 ], [ -0.078042968605564, 51.575297922385531 ], [ -0.078442856916099, 51.575363814245179 ], [ -0.078933365801886, 51.57543658429897 ], [ -0.079322740308525, 51.575478117579422 ], [ -0.079815332420579, 51.575501472851812 ], [ -0.07981107865653, 51.575534666018122 ], [ -0.08083627245479, 51.575589217059346 ], [ -0.080851401990372, 51.57564250550714 ], [ -0.08182180819043, 51.575455129772415 ], [ -0.082209533081454, 51.575366181049425 ], [ -0.082774579034282, 51.575313395267507 ], [ -0.083586329752003, 51.57519173223448 ], [ -0.083795867625111, 51.575186168586455 ], [ -0.084879467802129, 51.575122072474748 ], [ -0.085663739258101, 51.575039588509014 ], [ -0.085827802048385, 51.574878559273159 ], [ -0.086029637183052, 51.574849490814245 ], [ -0.086063038534348, 51.574844642154837 ], [ -0.086638258769863, 51.574756041247745 ], [ -0.087206143191979, 51.574703277948039 ], [ -0.087154699876505, 51.57451985126648 ], [ -0.087148426339452, 51.574496374849872 ], [ -0.087018165964843, 51.574504138190505 ], [ -0.086929205794621, 51.57445773630193 ], [ -0.086840364165346, 51.574374477196677 ], [ -0.086846575967047, 51.574294477508168 ], [ -0.087395655889798, 51.574383538709441 ], [ -0.087581173076737, 51.574397353496714 ], [ -0.087687800184447, 51.574402689022271 ], [ -0.087765721451576, 51.574403061170671 ], [ -0.087875347125533, 51.574402152430899 ], [ -0.087970892382598, 51.574396518915272 ], [ -0.088076727065568, 51.57438386113688 ], [ -0.088387671002835, 51.574334902346862 ], [ -0.088613319205936, 51.574322399907594 ], [ -0.088813380762644, 51.574335550896713 ], [ -0.088960091204183, 51.574346932781935 ], [ -0.088991763863128, 51.574349247130826 ], [ -0.089128175374885, 51.574365045807404 ], [ -0.089194374489651, 51.574369720923507 ], [ -0.089262000493914, 51.574374419260387 ], [ -0.089328124354149, 51.57438089107437 ], [ -0.08939582567005, 51.574383792559878 ], [ -0.08951815462524, 51.574392079340214 ], [ -0.08981093972183, 51.574395951775948 ], [ -0.089955468184062, 51.574388417844467 ], [ -0.090067128774833, 51.574375853215102 ], [ -0.09012236225258, 51.574366774237404 ], [ -0.090163129033332, 51.57435934743674 ], [ -0.090270502843058, 51.574344015775331 ], [ -0.090326259198195, 51.574322449124246 ], [ -0.090634979019415, 51.574221396142647 ], [ -0.090971841742644, 51.574104618727254 ], [ -0.091238931337704, 51.574031564329509 ], [ -0.091364115509491, 51.574005733722032 ], [ -0.091462701355358, 51.573995651910309 ], [ -0.091520633709612, 51.57399030213427 ], [ -0.091562714026796, 51.573985593246789 ], [ -0.091606183603812, 51.573981805961353 ], [ -0.091733318898291, 51.573977582713063 ], [ -0.091775323996166, 51.573974670523903 ], [ -0.091818718361038, 51.573972679934222 ], [ -0.091860648264595, 51.573971564488751 ], [ -0.091885180379188, 51.573971064826864 ], [ -0.091926953783433, 51.573970845809249 ], [ -0.091967344046281, 51.573972402260829 ], [ -0.092007696722205, 51.573974857085553 ], [ -0.092049357362896, 51.573977333185539 ], [ -0.092089672459631, 51.573980686368969 ], [ -0.092129987562448, 51.573984039538502 ], [ -0.092148618138257, 51.573985241765875 ], [ -0.09231696921583, 51.573996971676209 ], [ -0.092486634507634, 51.574011419724201 ], [ -0.092654760308799, 51.574028539469381 ], [ -0.092693573475779, 51.574033666001 ], [ -0.092775662138686, 51.574036799641028 ], [ -0.092857907293552, 51.574039036770927 ], [ -0.092938681828364, 51.574039451920626 ], [ -0.093020958375971, 51.574038093453169 ], [ -0.093039745475585, 51.574038399085651 ], [ -0.093125176307325, 51.574029899873345 ], [ -0.093220908130911, 51.574019770165819 ], [ -0.093515419288236, 51.573982307580714 ], [ -0.093557536978674, 51.573976699593508 ], [ -0.093698684466096, 51.573947530167686 ], [ -0.093800949702708, 51.573917728291846 ], [ -0.094277113056336, 51.573747379124342 ], [ -0.094550355862947, 51.573632254455198 ], [ -0.094684855451704, 51.573591288859852 ], [ -0.094867555789541, 51.573604147367206 ], [ -0.094896368268012, 51.573603716649998 ], [ -0.094925262116885, 51.573604186245454 ], [ -0.094954118433084, 51.573605554221032 ], [ -0.094982855846399, 51.573606920257077 ], [ -0.095011712166305, 51.573608288218445 ], [ -0.095040449583321, 51.573609654240336 ], [ -0.095069268375681, 51.57361192057472 ], [ -0.095098005796939, 51.573613286582471 ], [ -0.095128288982047, 51.573614677702651 ], [ -0.095224808450744, 51.573619842147835 ], [ -0.095321171511332, 51.573625902968502 ], [ -0.095417578454227, 51.573633762416129 ], [ -0.095513910385574, 51.573643418558639 ], [ -0.095539756602391, 51.573645636479803 ], [ -0.096101879542618, 51.573730283673868 ], [ -0.096498175472527, 51.573814033397419 ], [ -0.096542846386743, 51.573815657784742 ], [ -0.096587517304474, 51.573817282155012 ], [ -0.096616292406341, 51.573817749400995 ], [ -0.096661038331837, 51.573817576968629 ], [ -0.096705784257452, 51.573817404519218 ], [ -0.096752032046913, 51.573815458445516 ], [ -0.096782427918296, 51.573814153974148 ], [ -0.096828750698331, 51.573810411095728 ], [ -0.096876500335946, 51.573806691365 ], [ -0.096924443864369, 51.57380117677075 ], [ -0.096973695340935, 51.57379568339141 ], [ -0.097049137051551, 51.573787019184358 ], [ -0.097124572307573, 51.57377565783699 ], [ -0.097200126433787, 51.573764298371756 ], [ -0.097275755503821, 51.573751142083736 ], [ -0.09731643927412, 51.57374281250307 ], [ -0.097532685543341, 51.573678897690996 ], [ -0.097639122453026, 51.573654554239198 ], [ -0.097773394640302, 51.573618975464868 ] ] ] } }
]
}
