{
"type": "FeatureCollection",
"name": "borough_Kingston_upon_Thames",
"crs": { "type": "name", "properties": { "name": "urn:ogc:def:crs:OGC:1.3:CRS84" } },
"features": [
{ "type": "Feature", "properties": { "DISTRICT": "Kingston upon Thames", "NAME": "Chessington South", "GSS_CODE": "E05000405", "LAGSSCODE": "E09000021", "HECTARES": 755.173, "NONLD_AREA": 0.0 }, "geometry": { "type": "Polygon", "coordinates": [ [ [ -0.330268773517532, 51.329269395995581 ], [ -0.329890025241882, 51.329459073355011 ], [ -0.329610201328464, 51.329655644637384 ], [ -0.329405358320715, 51.32984060946383 ], [ -0.329297514915317, 51.329965018164977 ], [ -0.329191093686974, 51.330089357156773 ], [ -0.329092959256109, 51.330262449289137 ], [ -0.329089576470012, 51.330394551510274 ], [ -0.329147751252533, 51.330728095324581 ], [ -0.329167934077781, 51.330964006774614 ], [ -0.329279558849974, 51.331526744814241 ], [ -0.329339343157168, 51.331617496204032 ], [ -0.32953112396276, 51.331870239789637 ], [ -0.329555532576797, 51.332185321928463 ], [ -0.329570793866698, 51.332279932863756 ], [ -0.329666551375594, 51.332488154992795 ], [ -0.329695948999603, 51.332669269933589 ], [ -0.329695322932249, 51.332764643069865 ], [ -0.329690278109197, 51.332864358179066 ], [ -0.329619905832007, 51.333494619801201 ], [ -0.329605515973678, 51.333851400479716 ], [ -0.329527040194948, 51.334154226600546 ], [ -0.329460956270505, 51.334353846546911 ], [ -0.32952301565372, 51.334463508854704 ], [ -0.329408526112819, 51.334848527327949 ], [ -0.329387311538983, 51.335116211088817 ], [ -0.329335801678224, 51.335308847040253 ], [ -0.329184726287344, 51.335632212397215 ], [ -0.329173841893131, 51.33593150786632 ], [ -0.329188960897991, 51.336306688879795 ], [ -0.329168619366671, 51.33670653528754 ], [ -0.329018088333587, 51.337571274763249 ], [ -0.328876947559846, 51.338174454489305 ], [ -0.328845741243139, 51.338677618379741 ], [ -0.328858782640455, 51.339028497122051 ], [ -0.328842015397311, 51.339411313673089 ], [ -0.32884727812612, 51.339582285113735 ], [ -0.328852740270188, 51.339747775611244 ], [ -0.32893585305917, 51.340108644291107 ], [ -0.328955777687573, 51.340231280007686 ], [ -0.328885616169807, 51.340776948906914 ], [ -0.328757053750723, 51.341076362260289 ], [ -0.3285186913509, 51.341748273815881 ], [ -0.328501852270961, 51.34177509272395 ], [ -0.328322595058184, 51.342045823446625 ], [ -0.32817773156687, 51.342318033853012 ], [ -0.327986638146495, 51.342952861673567 ], [ -0.327920598354247, 51.343345851599892 ], [ -0.327883215573157, 51.343741857804496 ], [ -0.32777260956439, 51.343902094385783 ], [ -0.327457246728996, 51.344005556844635 ], [ -0.328153895906869, 51.344039779996599 ], [ -0.328460044373091, 51.344544074455271 ], [ -0.328643240048382, 51.344913653692466 ], [ -0.328874886902904, 51.345295521136521 ], [ -0.329182255652599, 51.345887122161827 ], [ -0.329322286849292, 51.346141734046128 ], [ -0.32994727339316, 51.347278332305464 ], [ -0.330303646659178, 51.347900295926834 ], [ -0.330510321917359, 51.348419437915055 ], [ -0.330343653882447, 51.348577978259584 ], [ -0.330191989338813, 51.348760195740994 ], [ -0.330079059114561, 51.34898422874619 ], [ -0.329913397188153, 51.349235467590901 ], [ -0.329728364244374, 51.349543964477313 ], [ -0.329539706464636, 51.349916236852621 ], [ -0.329449348853697, 51.350069661776715 ], [ -0.329287547548554, 51.350331742464299 ], [ -0.329012368562645, 51.350712671076522 ], [ -0.328741621776924, 51.351127827588989 ], [ -0.328329442608441, 51.351719953973003 ], [ -0.328022853316651, 51.352133788169105 ], [ -0.327923319070838, 51.352184508270341 ], [ -0.327736109758907, 51.352278925678498 ], [ -0.327251906300595, 51.352520220657226 ], [ -0.326818191678784, 51.352799094228729 ], [ -0.3264563265408, 51.353033054754796 ], [ -0.325742429569367, 51.353351160727854 ], [ -0.324813987171576, 51.353723638784807 ], [ -0.324430301454642, 51.353889856481516 ], [ -0.324135107999913, 51.354106874517036 ], [ -0.323728962409186, 51.354411304093013 ], [ -0.323511378213462, 51.354668987785857 ], [ -0.323161104709567, 51.355174692174963 ], [ -0.322838171663733, 51.355521754607274 ], [ -0.322552366514158, 51.355837793373802 ], [ -0.322236022803079, 51.3562019398396 ], [ -0.32192928212438, 51.356617466103678 ], [ -0.321505510898567, 51.357208506683605 ], [ -0.321193759387796, 51.357679697410632 ], [ -0.320924430518018, 51.358094948767842 ], [ -0.32072102160798, 51.358391488269724 ], [ -0.320235576074563, 51.359097616177436 ], [ -0.320055487660087, 51.359426859780456 ], [ -0.320154569742574, 51.359547850433046 ], [ -0.320141409190846, 51.359593601395105 ], [ -0.319933176836764, 51.359630170760589 ], [ -0.319768556757492, 51.359928170381345 ], [ -0.31952280238511, 51.360482124455288 ], [ -0.319384780970804, 51.360917245896317 ], [ -0.319163739753959, 51.361620880895821 ], [ -0.319036495996339, 51.362311477662978 ], [ -0.318261593273704, 51.363504497369796 ], [ -0.318281000492469, 51.36368287139949 ], [ -0.318386527303447, 51.364682565512986 ], [ -0.31841288250313, 51.365337608233872 ], [ -0.318423220026598, 51.365407879975521 ], [ -0.318498464720214, 51.365863143560794 ], [ -0.318499587872299, 51.366185097685523 ], [ -0.318395850041173, 51.366980317467508 ], [ -0.318270258071924, 51.367897580292038 ], [ -0.318095176529408, 51.368914823356775 ], [ -0.317993299571194, 51.369578904038775 ], [ -0.317899486625749, 51.369786129735424 ], [ -0.317897638608783, 51.369797790440273 ], [ -0.317891667192882, 51.369844453648625 ], [ -0.317882108152136, 51.369908236600565 ], [ -0.318005958736734, 51.370294883425117 ], [ -0.317926047017349, 51.370633655067223 ], [ -0.317724347448744, 51.371235079653943 ], [ -0.317482020097534, 51.371968975218302 ], [ -0.317461656367438, 51.372017229823172 ], [ -0.317374304246081, 51.372203061309925 ], [ -0.317260904200742, 51.372437065694101 ], [ -0.317085772117155, 51.372707043312602 ], [ -0.316925868926126, 51.372916915303179 ], [ -0.316671064553071, 51.373165969828534 ], [ -0.316402832796085, 51.373386961403646 ], [ -0.316201143062057, 51.373560271497873 ], [ -0.315968499478414, 51.373753903813217 ], [ -0.315644553616776, 51.373966002023302 ], [ -0.31519957349485, 51.374232008796326 ], [ -0.314759844558235, 51.374428954976239 ], [ -0.314318262375861, 51.374637560099252 ], [ -0.313863077770535, 51.3746678725539 ], [ -0.313353955393343, 51.374683022809833 ], [ -0.312937374577791, 51.374720180299491 ], [ -0.312651687144613, 51.374751129570278 ], [ -0.312487330071545, 51.374768541754406 ], [ -0.312132006120022, 51.374818265542928 ], [ -0.311518921599677, 51.374925498433356 ], [ -0.311066475635582, 51.374997194318908 ], [ -0.310460674935336, 51.375141386389075 ], [ -0.309619614579596, 51.375310861382594 ], [ -0.309073978152284, 51.375381205601329 ], [ -0.308672040100791, 51.375448316724366 ], [ -0.308434188833042, 51.375859420243707 ], [ -0.308319060025383, 51.376058328807829 ], [ -0.307970615993954, 51.376663909860426 ], [ -0.307941625977399, 51.377061844639258 ], [ -0.307819106957207, 51.377538441386996 ], [ -0.307869268018258, 51.378363831330006 ], [ -0.307365617707593, 51.378383529489263 ], [ -0.307497789880799, 51.379008634724684 ], [ -0.308279148899785, 51.380031575614744 ], [ -0.308303110744429, 51.38008226625162 ], [ -0.308494692998405, 51.380500555538454 ], [ -0.309253848410296, 51.380447679084746 ], [ -0.309295779743242, 51.381104743951525 ], [ -0.309222694795468, 51.38113965023156 ], [ -0.309259450304056, 51.381312791118184 ], [ -0.309270770788615, 51.381356107086539 ], [ -0.309294431848667, 51.381492289398665 ], [ -0.309277620984375, 51.381636788130159 ], [ -0.309279419876928, 51.381707027060727 ], [ -0.309308159591188, 51.381862971026976 ], [ -0.309475605371262, 51.381842910969006 ], [ -0.309535308340575, 51.382445392118392 ], [ -0.30963184971779, 51.382516907580616 ], [ -0.309729183841576, 51.382644173248856 ], [ -0.30981983868409, 51.382837060419881 ], [ -0.309864068718613, 51.382845789364815 ], [ -0.309888595994993, 51.382881204589822 ], [ -0.310324515297516, 51.383651022146324 ], [ -0.310265657062835, 51.383804803947612 ], [ -0.310284596375312, 51.383953504289714 ], [ -0.310390118229426, 51.384209446770264 ], [ -0.310420215034713, 51.38425132523281 ], [ -0.310518117144854, 51.384363315371552 ], [ -0.310631856457508, 51.384515090370648 ], [ -0.310543753265312, 51.384603811800943 ], [ -0.310557706126748, 51.384656155793785 ], [ -0.310608369770281, 51.384763868862841 ], [ -0.310642370472992, 51.384815602806967 ], [ -0.310707195761057, 51.384889447297688 ], [ -0.310927367658469, 51.385037361964493 ], [ -0.311104563680891, 51.385142403242746 ], [ -0.31176501220384, 51.385785005056782 ], [ -0.31084636851853, 51.386186394191704 ], [ -0.311386805293776, 51.386731882928594 ], [ -0.311436259863, 51.386792020355998 ], [ -0.311477421703944, 51.386845655280503 ], [ -0.311341381791829, 51.386910222291654 ], [ -0.311671226082156, 51.387124534837426 ], [ -0.311800429251481, 51.387207307406065 ], [ -0.311746194361729, 51.387235294619629 ], [ -0.311712489978994, 51.387252789386842 ], [ -0.311823001197909, 51.387376647345896 ], [ -0.311717554616222, 51.387430957184478 ], [ -0.31284993290101, 51.388489492545979 ], [ -0.313136115119713, 51.388799367180326 ], [ -0.313166551130504, 51.388832169811963 ], [ -0.313325737153088, 51.388763438795799 ], [ -0.315958525182221, 51.387632221065275 ], [ -0.316495850316858, 51.388264936880134 ], [ -0.316576579098689, 51.388454979787859 ], [ -0.316594815853833, 51.388584700045186 ], [ -0.316793612786067, 51.388573171218972 ], [ -0.316789387659957, 51.388610869206261 ], [ -0.3167874396827, 51.388625225483707 ], [ -0.316783359446855, 51.388655733423526 ], [ -0.316778009268378, 51.388685324107001 ], [ -0.31676969804745, 51.388714872260763 ], [ -0.31675573125101, 51.388743530067984 ], [ -0.316737503831645, 51.388772036775336 ], [ -0.31669413349279, 51.388817263641705 ], [ -0.316640827192748, 51.388858751706309 ], [ -0.316583355646422, 51.38889748286546 ], [ -0.316523074310017, 51.38893527461606 ], [ -0.31646722140549, 51.388968634871986 ], [ -0.316402689207669, 51.38900276942806 ], [ -0.316335495296261, 51.389035157576913 ], [ -0.315825729920155, 51.389257081793708 ], [ -0.315435294330353, 51.38947901096136 ], [ -0.314958400764107, 51.389744646415842 ], [ -0.314111751118812, 51.390217128670791 ], [ -0.314251633596177, 51.390361275230539 ], [ -0.314659846535163, 51.390750216984323 ], [ -0.314797520162535, 51.390915907521453 ], [ -0.314904594359356, 51.391053198532752 ], [ -0.315124281866895, 51.391335141941532 ], [ -0.315220362944574, 51.391458789396495 ], [ -0.31571021153172, 51.391974853352018 ], [ -0.316321301783706, 51.392559188171724 ], [ -0.316733177085209, 51.3929301989454 ], [ -0.316975438209939, 51.393104493236088 ], [ -0.317091360735464, 51.393197948472633 ], [ -0.317272416756767, 51.393354281689504 ], [ -0.317698054056319, 51.393667050188888 ], [ -0.317580569858696, 51.39377153822317 ], [ -0.317422523916916, 51.393889738205644 ], [ -0.316623247003571, 51.394439429534955 ], [ -0.314190066961508, 51.396189460829177 ], [ -0.312955982885105, 51.397109650566932 ], [ -0.312564312265692, 51.397401677329725 ], [ -0.312500559385442, 51.397452902542348 ], [ -0.312189218904867, 51.398023073729462 ], [ -0.312125946928841, 51.39814182225328 ], [ -0.312001061300533, 51.398372870111167 ], [ -0.311966387786468, 51.398416512617061 ], [ -0.311868061473504, 51.398508594427483 ], [ -0.311451471830394, 51.398813743592235 ], [ -0.310700632538809, 51.399334423187611 ], [ -0.310460469568157, 51.399492784508496 ], [ -0.310195764532182, 51.399654477383493 ], [ -0.30992819833709, 51.399813341405341 ], [ -0.309771367819, 51.399897385343863 ], [ -0.309672237127642, 51.399972462113595 ], [ -0.309631824494293, 51.400014133153682 ], [ -0.309384691979311, 51.400364872257619 ], [ -0.309328256861758, 51.400452162124431 ], [ -0.309232677829713, 51.400627082964654 ], [ -0.309053934446477, 51.401029159993392 ], [ -0.309000319701942, 51.401197495036996 ], [ -0.308874302503154, 51.401651577759878 ], [ -0.308766300352896, 51.402202207148015 ], [ -0.308692220476777, 51.402964599601745 ], [ -0.308672881064804, 51.40348953748088 ], [ -0.308704193449602, 51.404007115146435 ], [ -0.308818590903783, 51.404763237585613 ], [ -0.30896309050454, 51.405564746104055 ], [ -0.308969253979549, 51.405632352667418 ], [ -0.30899538068782, 51.406052669469211 ], [ -0.308983697084724, 51.406253974806994 ], [ -0.308990021755684, 51.406510291332843 ], [ -0.308977743683446, 51.406689112177801 ], [ -0.309045238584682, 51.408136185386709 ], [ -0.309074103215077, 51.40930199638813 ], [ -0.309070389665735, 51.409364062637515 ], [ -0.309059992632666, 51.409491568414289 ], [ -0.308815759360636, 51.41104283710888 ], [ -0.308695503506628, 51.41161213605605 ], [ -0.308489012668239, 51.412297956713275 ], [ -0.308443300492604, 51.412521233660989 ], [ -0.308422691579765, 51.412809599872475 ], [ -0.308420472854985, 51.4131008386424 ], [ -0.308477201574161, 51.413513572137106 ], [ -0.308490436339136, 51.413620742304509 ], [ -0.308487422973914, 51.41378260579458 ], [ -0.308479776889918, 51.413947908429265 ], [ -0.30844879070602, 51.414282871901264 ], [ -0.308452323472777, 51.414460112611408 ], [ -0.30843013836956, 51.414630599199356 ], [ -0.308380559815439, 51.414804376069647 ], [ -0.308351089469471, 51.4150179985457 ], [ -0.30828653810722, 51.415247206235286 ], [ -0.307758450082036, 51.416542565767493 ], [ -0.307707065541721, 51.416684851725535 ], [ -0.307668626579339, 51.416791275440822 ], [ -0.307650730158194, 51.41688729800417 ], [ -0.307596721881274, 51.41702675914339 ], [ -0.307539750333255, 51.417166177438034 ], [ -0.307477617359159, 51.417291227174118 ], [ -0.307409679974777, 51.417416103094006 ], [ -0.307210392290885, 51.417709977514242 ], [ -0.307119669677792, 51.417870573197774 ], [ -0.306851712621012, 51.418389099154659 ], [ -0.306693095778938, 51.418750175077768 ], [ -0.306667169151787, 51.419060038991326 ], [ -0.30668189073994, 51.419364197561073 ], [ -0.306672812615306, 51.4196481446088 ], [ -0.306615048818366, 51.420004385236943 ], [ -0.306568436645802, 51.420174518000465 ], [ -0.306514808988048, 51.420341942284018 ], [ -0.306381106924651, 51.420651147058692 ], [ -0.306095965567902, 51.421088514464657 ], [ -0.306008644692331, 51.421233785880474 ], [ -0.306015130139654, 51.421484785447696 ], [ -0.306081134320406, 51.421761817086889 ], [ -0.306192463832337, 51.422057483625196 ], [ -0.306261368912521, 51.422217689466656 ], [ -0.306335867544136, 51.422380583170941 ], [ -0.306515188270438, 51.422704201700903 ], [ -0.306720484528424, 51.423024599431756 ], [ -0.306868933154592, 51.423288438376105 ], [ -0.3069499149203, 51.423394789507995 ], [ -0.307474596643325, 51.424026443386694 ], [ -0.307751990028724, 51.424344284767329 ], [ -0.307975937579887, 51.424628990261525 ], [ -0.308559060428964, 51.425156302206027 ], [ -0.309239412385751, 51.425703892750327 ], [ -0.309611537962087, 51.425949290058512 ], [ -0.309993051743066, 51.426136477772722 ], [ -0.310367234320883, 51.426364911541334 ], [ -0.311082746095835, 51.426738505758095 ], [ -0.311805699621723, 51.427106808814116 ], [ -0.312347549763277, 51.427352934502132 ], [ -0.312867173261745, 51.42757797113952 ], [ -0.313162845342174, 51.427713569241064 ], [ -0.3133976352393, 51.427821230908606 ], [ -0.31444756351601, 51.428258950111648 ], [ -0.314204124794844, 51.42854051377212 ], [ -0.31394792599648, 51.428856054507662 ], [ -0.313732492653574, 51.429198251793103 ], [ -0.312801138569844, 51.430343986923774 ], [ -0.312224850246273, 51.430914809064163 ], [ -0.311995004283877, 51.431139029475844 ], [ -0.310894304137412, 51.432001738945765 ], [ -0.31065635869893, 51.432210467522495 ], [ -0.310395829318971, 51.43201882441334 ], [ -0.310109504989123, 51.432175612476556 ], [ -0.310096283708002, 51.432183512602506 ], [ -0.309961627272298, 51.432168085753354 ], [ -0.309761115254435, 51.432143617962581 ], [ -0.309613730350025, 51.43200394799846 ], [ -0.309353869025613, 51.431832898766068 ], [ -0.308083775699101, 51.431089808570491 ], [ -0.308066832340999, 51.431079675133709 ], [ -0.30850854720833, 51.430807279221327 ], [ -0.308545298951304, 51.430785335294907 ], [ -0.308089511148395, 51.430581788198602 ], [ -0.307718785835485, 51.430416415952394 ], [ -0.307449748297106, 51.430298269550157 ], [ -0.307306816229877, 51.430234175126536 ], [ -0.307273341644374, 51.430244479277121 ], [ -0.307239985595059, 51.430254785130792 ], [ -0.306935072087219, 51.430250379531543 ], [ -0.306933363922787, 51.430181133404957 ], [ -0.306932971828338, 51.430153259365568 ], [ -0.30640798100932, 51.430150166955798 ], [ -0.306405610645482, 51.430525097200992 ], [ -0.306396956364333, 51.430524972107833 ], [ -0.306241786547499, 51.430519133180383 ], [ -0.306225857274767, 51.431183428809234 ], [ -0.306108831532704, 51.43123657481577 ], [ -0.305919990987373, 51.431361589666807 ], [ -0.305845767720862, 51.431347930775829 ], [ -0.304209436683851, 51.431053576629466 ], [ -0.302155093324404, 51.430664143761767 ], [ -0.301758011512163, 51.430391301891007 ], [ -0.301740421453321, 51.430401834706522 ], [ -0.301509497727224, 51.430538728458018 ], [ -0.301812218704858, 51.430909091416375 ], [ -0.302047802330163, 51.431151724389487 ], [ -0.301595768884544, 51.431429340680808 ], [ -0.301158341345044, 51.431121751030481 ], [ -0.300880536315848, 51.430933431909665 ], [ -0.300626057389594, 51.430775026890394 ], [ -0.300384580641229, 51.430611505921803 ], [ -0.300071932516566, 51.430393822165392 ], [ -0.298862812689565, 51.429598386109589 ], [ -0.298194293954511, 51.429200228872531 ], [ -0.298275035563554, 51.429156452459523 ], [ -0.29830156537884, 51.429141555071539 ], [ -0.298043888725029, 51.428951633585541 ], [ -0.297734271982758, 51.428729582519452 ], [ -0.297678129229458, 51.428689211705745 ], [ -0.297623698387909, 51.428685723967533 ], [ -0.297471563555279, 51.428560263223375 ], [ -0.297291960454788, 51.428474947181819 ], [ -0.297136677913587, 51.428357620984862 ], [ -0.296629398811916, 51.428111927732793 ], [ -0.296215722459525, 51.427900855665271 ], [ -0.296123915697116, 51.427856369586401 ], [ -0.295940786374872, 51.427751222587126 ], [ -0.295924652090013, 51.427760876739811 ], [ -0.295805514181677, 51.427829264584105 ], [ -0.295442710489999, 51.427644101140054 ], [ -0.295343607846668, 51.427330622946968 ], [ -0.29541352158335, 51.427039381149761 ], [ -0.29540060056269, 51.427039193179311 ], [ -0.294921025178613, 51.427015134828217 ], [ -0.294709866790393, 51.427006668014492 ], [ -0.294749418239392, 51.426795083969338 ], [ -0.294761656161603, 51.426657627985897 ], [ -0.294767565282841, 51.426460837004385 ], [ -0.293414901449017, 51.426511264275142 ], [ -0.293387603749489, 51.426511765671549 ], [ -0.293380058835436, 51.426790429995201 ], [ -0.293374371638525, 51.427098787757103 ], [ -0.29336690306645, 51.427181385284229 ], [ -0.293311557004868, 51.428550986549538 ], [ -0.293281160414723, 51.428555038711792 ], [ -0.292872365726564, 51.428601314423013 ], [ -0.292999270673061, 51.42893857321468 ], [ -0.292946094917391, 51.428939596494118 ], [ -0.29067703129366, 51.428988324788101 ], [ -0.290616590569877, 51.428990140010519 ], [ -0.290029490723111, 51.427684882676175 ], [ -0.289966142501512, 51.427532839370215 ], [ -0.289873423709748, 51.427319326513164 ], [ -0.289547522189618, 51.426607700217026 ], [ -0.289486514861841, 51.426469265418092 ], [ -0.289391025954919, 51.426253823835744 ], [ -0.287421767861053, 51.422024742663318 ], [ -0.286596463971558, 51.420171919804496 ], [ -0.286187482312439, 51.420263028661481 ], [ -0.285616708493629, 51.420412090702087 ], [ -0.284934550489066, 51.420612469750502 ], [ -0.282730721082594, 51.421237616418892 ], [ -0.282669598940983, 51.421254700229234 ], [ -0.280436365599536, 51.421855909337928 ], [ -0.276801401127231, 51.424766362891908 ], [ -0.27678436579812, 51.424758920492025 ], [ -0.276416900912307, 51.425084431113277 ], [ -0.275812935259876, 51.42557376134927 ], [ -0.275367087665807, 51.425876539938891 ], [ -0.274160493654412, 51.426900066489324 ], [ -0.273527725360865, 51.427428516594716 ], [ -0.272980198014582, 51.427872726419587 ], [ -0.272138621734426, 51.428559009407323 ], [ -0.271354653362033, 51.429204783113754 ], [ -0.271169436809338, 51.429347775761919 ], [ -0.271090903829786, 51.429407747923278 ], [ -0.270939099446966, 51.429542243369504 ], [ -0.270611624513962, 51.429720803280496 ], [ -0.270285447664791, 51.429899471351263 ], [ -0.269360395915543, 51.430394727024492 ], [ -0.268920578727729, 51.430651722437723 ], [ -0.268657801122092, 51.430790868378274 ], [ -0.268386943837281, 51.430952279037044 ], [ -0.267995132355576, 51.431081426853773 ], [ -0.267706624132818, 51.431251566317144 ], [ -0.267316055432846, 51.431422983395017 ], [ -0.266697865413998, 51.431791507301625 ], [ -0.266237555740361, 51.432094040683623 ], [ -0.265788720680246, 51.432322126439637 ], [ -0.265276134877739, 51.432560864176132 ], [ -0.264576433510477, 51.432916574940286 ], [ -0.264233052961105, 51.433053530918848 ], [ -0.262968095965706, 51.433556386688863 ], [ -0.262754656076461, 51.433644920663994 ], [ -0.262186532324879, 51.433905388945526 ], [ -0.261834001996121, 51.434020629741433 ], [ -0.26090296864796, 51.434407060779122 ], [ -0.260400791243303, 51.434595594242474 ], [ -0.259990954054024, 51.434817051486661 ], [ -0.258762293691341, 51.435308638040411 ], [ -0.258092503274346, 51.435596350718448 ], [ -0.257128917183593, 51.436001149069625 ], [ -0.256790794497667, 51.436151651114955 ], [ -0.256380065597631, 51.436320940624107 ], [ -0.2563201486512, 51.43634612086543 ], [ -0.256255776454025, 51.436373032838475 ], [ -0.256433657575912, 51.436502439019151 ], [ -0.256311936454088, 51.43656185149068 ], [ -0.256337030523092, 51.436582002961259 ], [ -0.256184753004542, 51.436652558117771 ], [ -0.256156934353087, 51.436626073005272 ], [ -0.255659447325209, 51.436618672428594 ], [ -0.255245510251057, 51.436794113642584 ], [ -0.255115387318685, 51.436849803853107 ], [ -0.255006845947415, 51.436905725236372 ], [ -0.254483589288496, 51.437119992383707 ], [ -0.254067000134962, 51.437290086018479 ], [ -0.254011380331179, 51.437239812037092 ], [ -0.253790518160915, 51.437030558871719 ], [ -0.253714485080483, 51.436949414244118 ], [ -0.253586367413293, 51.436799977831988 ], [ -0.253533062079176, 51.436726363713433 ], [ -0.253488583225827, 51.43664838598216 ], [ -0.253449932516267, 51.436566898996396 ], [ -0.253427666204364, 51.436360603291142 ], [ -0.253425537508878, 51.436077292400732 ], [ -0.25343256017847, 51.43589309923113 ], [ -0.253375966956073, 51.43571595953842 ], [ -0.253298256371753, 51.435563767463449 ], [ -0.253233198123972, 51.435459321663039 ], [ -0.253086914107589, 51.435298016553332 ], [ -0.253000913655854, 51.435213935855828 ], [ -0.252911534932234, 51.435140682810129 ], [ -0.252820166996107, 51.435085380323002 ], [ -0.252702766516674, 51.435031487791775 ], [ -0.252585861848375, 51.434967713368302 ], [ -0.252076161909777, 51.434711897087936 ], [ -0.251965823762521, 51.43466260413399 ], [ -0.251762220877303, 51.434570475705435 ], [ -0.251646451278925, 51.434511212269555 ], [ -0.251591471225284, 51.434481623827139 ], [ -0.251450886391602, 51.434395020124263 ], [ -0.25138805689399, 51.434347334472797 ], [ -0.251275670137097, 51.434236787835616 ], [ -0.251230854611414, 51.434167794373025 ], [ -0.251190478672275, 51.434094372026557 ], [ -0.25106973574715, 51.433789514513272 ], [ -0.251013609973193, 51.433526080320128 ], [ -0.251002594865237, 51.433438713289036 ], [ -0.251016012973159, 51.43320238722486 ], [ -0.251012885025018, 51.432830964754864 ], [ -0.25104187940245, 51.432637123891418 ], [ -0.251060392792426, 51.432565480241131 ], [ -0.251223561566814, 51.432287336867709 ], [ -0.251562989999727, 51.431987548967747 ], [ -0.251698673581052, 51.431863713194076 ], [ -0.251817647324332, 51.431761204011899 ], [ -0.252083102793531, 51.431516050802351 ], [ -0.252212497970519, 51.431404616826114 ], [ -0.252370817390157, 51.431253249051302 ], [ -0.2525182524351, 51.431160153589587 ], [ -0.252632391793626, 51.431109623523426 ], [ -0.252895794312586, 51.431029943341649 ], [ -0.253079473055248, 51.430966155342148 ], [ -0.25318502251461, 51.430913788663268 ], [ -0.253304297641402, 51.430843646528196 ], [ -0.253422240523799, 51.430693383920961 ], [ -0.253596443794412, 51.430501706727441 ], [ -0.253714929854062, 51.430337157957283 ], [ -0.253909798560072, 51.430091848570548 ], [ -0.254061787981612, 51.429879163008742 ], [ -0.254129956925815, 51.429752521156288 ], [ -0.254197049843599, 51.42957632861355 ], [ -0.254204056614659, 51.429470351550933 ], [ -0.254213978899752, 51.429396781744011 ], [ -0.254224259539066, 51.429316924308189 ], [ -0.254181488750189, 51.429231691744178 ], [ -0.254102368056822, 51.429079481904765 ], [ -0.254079867013482, 51.429028802964154 ], [ -0.253970658222989, 51.428797842259314 ], [ -0.253968018805201, 51.428792408963325 ], [ -0.253851561468296, 51.428564936082367 ], [ -0.253673260463092, 51.428261025848023 ], [ -0.253504280265036, 51.428051738617782 ], [ -0.253358010448321, 51.427813032791597 ], [ -0.253267844002984, 51.427614718806062 ], [ -0.253184720265829, 51.427377942753097 ], [ -0.253060850814099, 51.42711799437248 ], [ -0.252963695341665, 51.426987899569973 ], [ -0.252777671837435, 51.426774760846477 ], [ -0.252504571121654, 51.42650629349248 ], [ -0.252405844631513, 51.426302456910264 ], [ -0.252337054906967, 51.42606939979931 ], [ -0.252311490133141, 51.425987209760024 ], [ -0.252275886589555, 51.42586351610543 ], [ -0.25223754470249, 51.425736994693473 ], [ -0.252256243027677, 51.425623100939802 ], [ -0.252309684003919, 51.425354111129643 ], [ -0.252406686305238, 51.425000368791665 ], [ -0.252470640010132, 51.424869171762488 ], [ -0.252575910854445, 51.424674673012106 ], [ -0.252681626690144, 51.424468493993608 ], [ -0.25277853003123, 51.4243036267018 ], [ -0.252847934506381, 51.424178713746961 ], [ -0.252885806016861, 51.42405342047843 ], [ -0.252899458870274, 51.423695737934459 ], [ -0.252927175046767, 51.423460527093503 ], [ -0.252934855153819, 51.423333884646546 ], [ -0.25293109131958, 51.42320877963661 ], [ -0.25275985340161, 51.423096550047603 ], [ -0.252399040614232, 51.423013856336247 ], [ -0.251998719170618, 51.422950259891273 ], [ -0.25178068786519, 51.422861603365263 ], [ -0.251684755813271, 51.422811626761664 ], [ -0.251419447879183, 51.422600811365484 ], [ -0.251223612921742, 51.422455849206045 ], [ -0.251209923423125, 51.422438564175437 ], [ -0.251150642752894, 51.42237295248146 ], [ -0.251099590602402, 51.422315464537597 ], [ -0.25090186244333, 51.421881809068758 ], [ -0.250802547607188, 51.421544914823258 ], [ -0.250720400266021, 51.4212460341586 ], [ -0.250651498959295, 51.42109397583922 ], [ -0.250559641450196, 51.420974747336906 ], [ -0.250528507488854, 51.420774707505799 ], [ -0.250542406510018, 51.42055996734355 ], [ -0.250556472701777, 51.42038118913316 ], [ -0.250510089837526, 51.420201598291854 ], [ -0.250452042610196, 51.4200262382925 ], [ -0.25036350426823, 51.41978299895834 ], [ -0.250253711665945, 51.419608754020835 ], [ -0.250123878181729, 51.419431422806454 ], [ -0.249863460002057, 51.419056161848836 ], [ -0.249821851386361, 51.418978227464883 ], [ -0.249757580211713, 51.418854106199767 ], [ -0.249619078312905, 51.418528311956386 ], [ -0.249590467835076, 51.418374067833405 ], [ -0.249570710109567, 51.418248813442055 ], [ -0.249551404253329, 51.418077627544612 ], [ -0.249573929030838, 51.417941317991968 ], [ -0.249594332433745, 51.417820169627674 ], [ -0.249660805009491, 51.417660243952035 ], [ -0.24975043163727, 51.417425059297891 ], [ -0.249828037216289, 51.417125866744946 ], [ -0.249835208868982, 51.417012701136429 ], [ -0.249812004672544, 51.416602235270432 ], [ -0.24980995031098, 51.41658152781126 ], [ -0.249797210596028, 51.416502226379336 ], [ -0.249731704068672, 51.416106501261595 ], [ -0.249690760461977, 51.415936789560313 ], [ -0.249577844841063, 51.415428881253511 ], [ -0.249519936534737, 51.415138451309062 ], [ -0.249523340390984, 51.415049412226594 ], [ -0.249579813086871, 51.414964851878963 ], [ -0.249576528998022, 51.414901873491743 ], [ -0.249510723005521, 51.4147777286341 ], [ -0.249362153690446, 51.414526398543053 ], [ -0.249036822098276, 51.413858801116909 ], [ -0.248886347385824, 51.413542714542231 ], [ -0.248212384513644, 51.412138753983207 ], [ -0.247451929001127, 51.410554595829879 ], [ -0.247401875520357, 51.410434281219018 ], [ -0.247147798345075, 51.409709309156369 ], [ -0.247113784651223, 51.4095819525485 ], [ -0.247127891938082, 51.409513840275309 ], [ -0.24715668395234, 51.40940279612316 ], [ -0.247170287380658, 51.409385019827056 ], [ -0.247188297513232, 51.409363623596242 ], [ -0.24720527585945, 51.409335109893092 ], [ -0.247217629267172, 51.409312819932055 ], [ -0.247223488829766, 51.40930841264214 ], [ -0.247234110846603, 51.409294187698507 ], [ -0.247405849352569, 51.409165504254631 ], [ -0.247485765108399, 51.40910646732948 ], [ -0.247533978042896, 51.409048664203056 ], [ -0.247532754012486, 51.408854463737043 ], [ -0.247515455023838, 51.408668018389406 ], [ -0.247486879328856, 51.408512959819284 ], [ -0.24748455053995, 51.408499439711775 ], [ -0.247437708319433, 51.408443898866295 ], [ -0.247371325499286, 51.408375389514603 ], [ -0.24734012085154, 51.408326375703417 ], [ -0.247315649321449, 51.408253189133291 ], [ -0.247272353512793, 51.408182417978821 ], [ -0.247269136823569, 51.408151803242021 ], [ -0.247260084644589, 51.408087747631455 ], [ -0.247234397516138, 51.408009148750843 ], [ -0.247180103394024, 51.407962486498668 ], [ -0.247080831560741, 51.40788907971794 ], [ -0.247009238401856, 51.40784215854741 ], [ -0.24693328021396, 51.40779777916876 ], [ -0.24681872415328, 51.407786175695982 ], [ -0.246710473839872, 51.407758484162201 ], [ -0.246575500127115, 51.407753767025859 ], [ -0.246273958546378, 51.407668341850261 ], [ -0.246169136652731, 51.407625417846376 ], [ -0.246019366599707, 51.407595306072345 ], [ -0.245824755020445, 51.407569017775963 ], [ -0.245787603177196, 51.407563966392381 ], [ -0.245778253379525, 51.407544947021321 ], [ -0.245735273397338, 51.407465999008302 ], [ -0.245680672194353, 51.407427422651537 ], [ -0.245481745426025, 51.407253630305775 ], [ -0.245464193097051, 51.407222800840543 ], [ -0.2454498969299, 51.407181231928334 ], [ -0.245363754376044, 51.407102536376598 ], [ -0.245330443481936, 51.407071470872999 ], [ -0.245315119123547, 51.407022694406194 ], [ -0.245376653525271, 51.40695439167488 ], [ -0.245480788281192, 51.406751784361035 ], [ -0.245509664353739, 51.406635344515841 ], [ -0.245454214177371, 51.406544612330897 ], [ -0.245334996904069, 51.406351246194482 ], [ -0.245206515475856, 51.406139760834755 ], [ -0.245198381766347, 51.4061261537421 ], [ -0.245172721262058, 51.406009796118106 ], [ -0.245168896917032, 51.405920736090742 ], [ -0.245161220266274, 51.405709262058942 ], [ -0.245027267262777, 51.405451844667624 ], [ -0.244989893188236, 51.405338008593922 ], [ -0.244923373380163, 51.405084298262437 ], [ -0.244861444351496, 51.404825262561907 ], [ -0.244863276496072, 51.404703023602252 ], [ -0.244825288006839, 51.404605270691661 ], [ -0.244788293292412, 51.404481551046004 ], [ -0.244694983010877, 51.404364179828022 ], [ -0.244661470002162, 51.404226937141537 ], [ -0.244680110709233, 51.403851337102274 ], [ -0.2446768752012, 51.403712839891149 ], [ -0.244659709915096, 51.403408624804086 ], [ -0.244716283824565, 51.403169344707244 ], [ -0.244821775300712, 51.402893937642666 ], [ -0.24483188692929, 51.402852734292416 ], [ -0.244868954906037, 51.4027111548329 ], [ -0.245021219204678, 51.402300696446055 ], [ -0.245032251940843, 51.402275689192237 ], [ -0.245047449566369, 51.40221927868609 ], [ -0.245210912192365, 51.401701914628291 ], [ -0.245215330036608, 51.401701081774384 ], [ -0.245270851916686, 51.401715398563141 ], [ -0.245352794107263, 51.40164020915681 ], [ -0.245472363961556, 51.401557491978686 ], [ -0.245674627880244, 51.401420183800703 ], [ -0.246061891855823, 51.401104042953094 ], [ -0.246100565243148, 51.401072257185334 ], [ -0.246438134225966, 51.400815605358218 ], [ -0.246454234172901, 51.400806856119019 ], [ -0.246649805876375, 51.400695607435352 ], [ -0.246664827490148, 51.400677851841294 ], [ -0.246695674231109, 51.400658535009249 ], [ -0.246769532092392, 51.400571446414098 ], [ -0.246811052887274, 51.400499247328078 ], [ -0.246823128179903, 51.400484144813127 ], [ -0.24680070158852, 51.400394807150015 ], [ -0.246687135561233, 51.40013140570516 ], [ -0.246636835382609, 51.399980518158358 ], [ -0.246596058355889, 51.399692134472879 ], [ -0.246568347446378, 51.399403047279073 ], [ -0.246585934389637, 51.399280955015975 ], [ -0.246598682741433, 51.39921102290073 ], [ -0.246662058989514, 51.399094200763109 ], [ -0.246697744910852, 51.398988561501724 ], [ -0.246707697805388, 51.398954547995963 ], [ -0.246730919053324, 51.398796669450348 ], [ -0.246736430462454, 51.398689679657735 ], [ -0.246740648963741, 51.398619619887256 ], [ -0.246746122545117, 51.398513618437519 ], [ -0.246869757518804, 51.398287029468001 ], [ -0.246935720648822, 51.398139679464165 ], [ -0.247046773101667, 51.398018985397783 ], [ -0.24718949012308, 51.39785750025635 ], [ -0.247392272264166, 51.397628498556024 ], [ -0.247399690154774, 51.397586355957543 ], [ -0.247401454941433, 51.397577392236791 ], [ -0.246916697083999, 51.397133131179594 ], [ -0.246746275689137, 51.396965073332019 ], [ -0.246470339464457, 51.396738798547169 ], [ -0.24637659444868, 51.396633110284917 ], [ -0.246274698643493, 51.396517410832807 ], [ -0.2461514115843, 51.396319491160391 ], [ -0.245979471528249, 51.396154106520555 ], [ -0.245866512673375, 51.396064312455465 ], [ -0.245751919796827, 51.395902572887223 ], [ -0.245668916061387, 51.395816733228457 ], [ -0.245561610219793, 51.395727922519988 ], [ -0.245512643228519, 51.395657066446738 ], [ -0.24546484196404, 51.395589823854621 ], [ -0.245092110178232, 51.395300963706404 ], [ -0.244968684256362, 51.395181254745175 ], [ -0.244769561438474, 51.394976893629433 ], [ -0.244684416125017, 51.394798423003465 ], [ -0.244571710947543, 51.394661882903655 ], [ -0.244209485916847, 51.394510726177998 ], [ -0.244077704671028, 51.394497963386812 ], [ -0.244053406459981, 51.394494902243743 ], [ -0.243901595292107, 51.394444979626762 ], [ -0.243729838550067, 51.394386666771211 ], [ -0.243524586754245, 51.394339538745214 ], [ -0.243520356850759, 51.394338576329098 ], [ -0.243164979767391, 51.394308975515038 ], [ -0.242768026309008, 51.394278750152658 ], [ -0.242486473435656, 51.394234072125386 ], [ -0.242261931563834, 51.394167683435199 ], [ -0.242025233046739, 51.394081423590677 ], [ -0.24179951835316, 51.393968357735076 ], [ -0.241722267153644, 51.393921349032269 ], [ -0.241668171317803, 51.393870102777782 ], [ -0.241321720760702, 51.393382044635018 ], [ -0.241321608104983, 51.393347880510035 ], [ -0.241321013280006, 51.393326295308441 ], [ -0.241278025941339, 51.393285194622152 ], [ -0.241145079203957, 51.393154550668164 ], [ -0.240911605384212, 51.392718531661167 ], [ -0.240836547542323, 51.392540209736282 ], [ -0.240819830849959, 51.392487816114141 ], [ -0.240800443701138, 51.392430887341703 ], [ -0.240861695257596, 51.39233561263692 ], [ -0.240938153480576, 51.392177545423799 ], [ -0.240944321078869, 51.392165051799047 ], [ -0.240824327581287, 51.392147967220964 ], [ -0.240766270964861, 51.392122822236793 ], [ -0.240669635212167, 51.392096199000285 ], [ -0.240596238685962, 51.392060035443137 ], [ -0.240537237603204, 51.391985340442062 ], [ -0.240448224332253, 51.391797008781957 ], [ -0.240378876897484, 51.391729440363086 ], [ -0.24021255515988, 51.39141849068978 ], [ -0.240084620363265, 51.391194422738238 ], [ -0.240081338166922, 51.39109458277423 ], [ -0.24011374311435, 51.390923267671077 ], [ -0.240092332520221, 51.39080787218564 ], [ -0.24003993207552, 51.390635283407448 ], [ -0.240011494873277, 51.390477528658181 ], [ -0.240003696114191, 51.390381127004638 ], [ -0.239930969794055, 51.390067986516193 ], [ -0.239868779207989, 51.389739720961664 ], [ -0.239862381591846, 51.389569710984745 ], [ -0.239761857858978, 51.389453037166888 ], [ -0.239719943432543, 51.389384082385774 ], [ -0.239683238435602, 51.389293629478466 ], [ -0.239622356383847, 51.389156873677393 ], [ -0.239614813100587, 51.389127991867653 ], [ -0.239576586622314, 51.388962897794599 ], [ -0.239558175191056, 51.388917670432058 ], [ -0.23954765161621, 51.388892339905112 ], [ -0.239550190721923, 51.388866306605493 ], [ -0.239560979588887, 51.388733324513403 ], [ -0.239588548240789, 51.388651029261851 ], [ -0.239556688794308, 51.388508416304838 ], [ -0.239467265744157, 51.388365028423408 ], [ -0.239471151836661, 51.388226638431682 ], [ -0.239447085518908, 51.388143477538421 ], [ -0.239435747793638, 51.387950917890649 ], [ -0.23929997318318, 51.38770605383182 ], [ -0.239200120147444, 51.38746083036034 ], [ -0.2390735533612, 51.387238579769964 ], [ -0.238989964092802, 51.387057520510503 ], [ -0.238972111952508, 51.386849489722266 ], [ -0.238947228056318, 51.386747526996871 ], [ -0.238932433881993, 51.386685272585936 ], [ -0.238720846986179, 51.386093956523204 ], [ -0.238831239102524, 51.386027290492294 ], [ -0.238890474012146, 51.38598134201451 ], [ -0.239012131523213, 51.385917542162936 ], [ -0.239167267434576, 51.385883013752533 ], [ -0.239353820250048, 51.385777035911318 ], [ -0.239727157017211, 51.385599155500643 ], [ -0.239889000830546, 51.385500896770679 ], [ -0.240035825039156, 51.385420392553712 ], [ -0.240696337463867, 51.385061534590328 ], [ -0.241041260372137, 51.384873424095652 ], [ -0.24137956010856, 51.384672537054527 ], [ -0.241596532555469, 51.384523859360364 ], [ -0.241802692682586, 51.384354251763206 ], [ -0.241927477864234, 51.384174522715703 ], [ -0.242070514248979, 51.384003967586281 ], [ -0.242534787253059, 51.383403013714322 ], [ -0.242531643573786, 51.38337060176454 ], [ -0.242529557960539, 51.383350791995007 ], [ -0.242797834802445, 51.383062543108586 ], [ -0.242907693513544, 51.382932034170636 ], [ -0.242936023347374, 51.382944146251717 ], [ -0.244150970619194, 51.383491072226519 ], [ -0.244316303939953, 51.382926086687114 ], [ -0.244460239648362, 51.382430993955701 ], [ -0.24467157558992, 51.381641851560047 ], [ -0.2446486082512, 51.381601051510302 ], [ -0.2447549238523, 51.38100191732309 ], [ -0.244768943360653, 51.381010218522469 ], [ -0.244811945762081, 51.380861624926283 ], [ -0.244898922437822, 51.380880009105013 ], [ -0.244960989110649, 51.380648002006808 ], [ -0.244968611468405, 51.380600467980535 ], [ -0.245012481326868, 51.380091199483999 ], [ -0.245030428134152, 51.380033930830976 ], [ -0.245505214692801, 51.380058122070508 ], [ -0.245563937042927, 51.3799879785158 ], [ -0.245955960340058, 51.380144073967415 ], [ -0.246087886401617, 51.380189201751044 ], [ -0.246494104529049, 51.380162916407031 ], [ -0.246602381137145, 51.380150961399828 ], [ -0.246816412845351, 51.380115505874549 ], [ -0.247199338056684, 51.379985482024885 ], [ -0.247564767193225, 51.380161761868031 ], [ -0.247618907878635, 51.380174348727373 ], [ -0.247667695327999, 51.380175078316839 ], [ -0.247723983859233, 51.380168637975565 ], [ -0.247751646530127, 51.38016096043323 ], [ -0.24782352836189, 51.380121579297978 ], [ -0.247893624327779, 51.380169376571281 ], [ -0.248350497844922, 51.380057536067739 ], [ -0.248631682192597, 51.38003207126085 ], [ -0.248844736263515, 51.379984910137708 ], [ -0.249077081929892, 51.379922753513355 ], [ -0.249917810286915, 51.379618767176446 ], [ -0.25051774748359, 51.379411870553142 ], [ -0.250784649836381, 51.379307073426389 ], [ -0.250978392667463, 51.379237953736521 ], [ -0.251452280096555, 51.379095788394899 ], [ -0.251638091878985, 51.379048215673926 ], [ -0.252349401981381, 51.378896912442087 ], [ -0.252766490936949, 51.378849190844917 ], [ -0.253397892901827, 51.378795672088771 ], [ -0.253580829622668, 51.378783115254713 ], [ -0.253947729761064, 51.378771501356219 ], [ -0.254525555022033, 51.378768422447699 ], [ -0.255060551066452, 51.378757510758668 ], [ -0.25558753880432, 51.378767154910776 ], [ -0.255755873935775, 51.378761569489946 ], [ -0.256291698972526, 51.378803706791672 ], [ -0.257175238483735, 51.378846518524448 ], [ -0.257278340526675, 51.378855244064624 ], [ -0.257364102216199, 51.378868206751356 ], [ -0.257467943502658, 51.378894923547129 ], [ -0.258420783741295, 51.37896932309296 ], [ -0.259335700425633, 51.379169104426772 ], [ -0.259769808520492, 51.379241180535914 ], [ -0.25989883594372, 51.37928804765513 ], [ -0.25999415385737, 51.379314635629086 ], [ -0.260149540758904, 51.379347509530284 ], [ -0.260636698279402, 51.379498674775213 ], [ -0.260817050184065, 51.379554393867174 ], [ -0.261006489146196, 51.379598560257179 ], [ -0.261101255541635, 51.379599067527948 ], [ -0.261148740146884, 51.379599772149845 ], [ -0.26114218659538, 51.379469316853069 ], [ -0.261354041550726, 51.379187380766474 ], [ -0.261395827682814, 51.379106998943719 ], [ -0.261417224154068, 51.379036293729911 ], [ -0.2614682308173, 51.378524518545937 ], [ -0.261495476640909, 51.378487073975442 ], [ -0.261567045509998, 51.378418012093597 ], [ -0.261877747684114, 51.378219442267195 ], [ -0.261913497643532, 51.378185809725672 ], [ -0.261945362142016, 51.378142140409047 ], [ -0.261967940210673, 51.378077745764045 ], [ -0.262387609755869, 51.377353784523244 ], [ -0.262469009027053, 51.377253402119273 ], [ -0.262873110938679, 51.377053427578325 ], [ -0.26327542070997, 51.376825555435246 ], [ -0.263833745921118, 51.376425583459699 ], [ -0.264234775884452, 51.376080816328766 ], [ -0.264678832815177, 51.375622419431387 ], [ -0.265503963955357, 51.375230886993755 ], [ -0.266432908455328, 51.374794136041231 ], [ -0.26678111644471, 51.374630181738524 ], [ -0.267986279189949, 51.374065257763881 ], [ -0.268851476986182, 51.373640131195067 ], [ -0.26888660879787, 51.373622669845759 ], [ -0.269237402899666, 51.3735027981974 ], [ -0.269735803990426, 51.373316869629441 ], [ -0.270467197614746, 51.373087539110038 ], [ -0.271041926012442, 51.372897247401596 ], [ -0.271180113700842, 51.372851638233662 ], [ -0.27193251612181, 51.372595637836362 ], [ -0.272167532785829, 51.372498413279416 ], [ -0.272423066339252, 51.37235015676918 ], [ -0.272545603876824, 51.3722638594164 ], [ -0.272578128215463, 51.372240065371713 ], [ -0.272747785647106, 51.372122996749205 ], [ -0.272959712182109, 51.371987581546669 ], [ -0.27319881474471, 51.37185715140582 ], [ -0.273212057684445, 51.37184835636527 ], [ -0.273371246504301, 51.371741830868181 ], [ -0.273406915479591, 51.371709991752745 ], [ -0.273588962366386, 51.371531072135696 ], [ -0.273714180277187, 51.3713323457767 ], [ -0.27379601409445, 51.371181617115113 ], [ -0.273923174356783, 51.370972130895836 ], [ -0.273990971265742, 51.370810317196721 ], [ -0.274022739504257, 51.370655254858193 ], [ -0.274239173777266, 51.370591915031127 ], [ -0.27436519222725, 51.370564103177657 ], [ -0.274612936162069, 51.370509224969723 ], [ -0.274961660231181, 51.370405577597026 ], [ -0.274976154429925, 51.370401295863282 ], [ -0.275363924456994, 51.37025147305453 ], [ -0.275397529301706, 51.37023668429029 ], [ -0.27562689732595, 51.370134784486247 ], [ -0.275832580410266, 51.370013746250372 ], [ -0.275963240885379, 51.369903201291407 ], [ -0.275978072013077, 51.369889934196891 ], [ -0.276097699246626, 51.369764033338015 ], [ -0.276108268213666, 51.369750703526655 ], [ -0.276182604409408, 51.369644813748479 ], [ -0.276243928394631, 51.369465822057414 ], [ -0.276288081990187, 51.369286667669677 ], [ -0.276284379163087, 51.369268542917332 ], [ -0.276260824088621, 51.369170203341199 ], [ -0.276270383590582, 51.369066956734585 ], [ -0.276409559351088, 51.368918777673606 ], [ -0.276499728814414, 51.368851778371216 ], [ -0.276560253264218, 51.368807717527247 ], [ -0.276608401175548, 51.36879044522162 ], [ -0.276790372079346, 51.368726593741066 ], [ -0.276979477449168, 51.368624099132774 ], [ -0.2770366543895, 51.368593474109197 ], [ -0.27724361827882, 51.368513807017344 ], [ -0.277448470691696, 51.36845568498633 ], [ -0.277525351452441, 51.368433440519546 ], [ -0.277526890492305, 51.368433463140818 ], [ -0.277893747397425, 51.368379519439145 ], [ -0.27789958206658, 51.368378706160669 ], [ -0.277908173327728, 51.368377034370504 ], [ -0.278042526085364, 51.368357342236621 ], [ -0.278452828883545, 51.368297742015663 ], [ -0.278644420594549, 51.368245716205237 ], [ -0.278994202526281, 51.368151062331208 ], [ -0.279107408234655, 51.368120360069014 ], [ -0.279416461658629, 51.367999844364476 ], [ -0.279480622261049, 51.367975613800809 ], [ -0.279819582017028, 51.367825059304401 ], [ -0.280038184728557, 51.367703214200638 ], [ -0.280140880589807, 51.367646285091894 ], [ -0.28047001957022, 51.367447846574372 ], [ -0.28053184198589, 51.367410095812552 ], [ -0.280533296234141, 51.367409218129829 ], [ -0.280778876336165, 51.367256391623222 ], [ -0.280815705824402, 51.367234456413257 ], [ -0.281033521361345, 51.367095518037019 ], [ -0.281174068452913, 51.366986102827646 ], [ -0.281254971370966, 51.366897388843647 ], [ -0.281347291494612, 51.366731437871849 ], [ -0.281447839217097, 51.366617839677446 ], [ -0.281462701321034, 51.366603673530392 ], [ -0.281617447511253, 51.366462910862488 ], [ -0.281789791659104, 51.366310808807761 ], [ -0.281880300268081, 51.366231225229846 ], [ -0.281966534156017, 51.366155085032403 ], [ -0.282161976381434, 51.365999724967317 ], [ -0.282394139713984, 51.365860095933016 ], [ -0.282613025310284, 51.36573025080807 ], [ -0.282826640547913, 51.365627298209247 ], [ -0.283103540509359, 51.365523384407609 ], [ -0.283215802419225, 51.365476482622277 ], [ -0.283255269042064, 51.365459979633194 ], [ -0.283422255869005, 51.365412980253879 ], [ -0.283433839454163, 51.36541045289831 ], [ -0.283631129414446, 51.365357604010576 ], [ -0.283663139659282, 51.365347284724031 ], [ -0.28377951549298, 51.365307544778304 ], [ -0.283786870914755, 51.365304056464211 ], [ -0.283911068400632, 51.365248338707971 ], [ -0.284011047152489, 51.365187771179357 ], [ -0.284071324723574, 51.36514999645928 ], [ -0.284081621872247, 51.365143854177099 ], [ -0.284357423887055, 51.364951818593582 ], [ -0.284572724617497, 51.364800340991074 ], [ -0.284737953241712, 51.364648040250863 ], [ -0.284905744303908, 51.364538120047357 ], [ -0.285026414155045, 51.364462571941736 ], [ -0.285190192056149, 51.364383968751952 ], [ -0.285438028757902, 51.364249148981187 ], [ -0.285637510837562, 51.36409923696705 ], [ -0.285702570999469, 51.364050653675847 ], [ -0.285745446276946, 51.364018916775635 ], [ -0.285931641894813, 51.363840940567705 ], [ -0.286003117415723, 51.363772762686331 ], [ -0.286304413859987, 51.363512772043549 ], [ -0.28651092006936, 51.363291849600266 ], [ -0.286646368585106, 51.36312472709907 ], [ -0.286757144142228, 51.362968121621925 ], [ -0.286816149840539, 51.362888073721855 ], [ -0.286865981461257, 51.362822185871622 ], [ -0.287021145410626, 51.362666229126937 ], [ -0.287199739729546, 51.362539382934798 ], [ -0.287348949629963, 51.36246685652489 ], [ -0.287474019488132, 51.362425532267132 ], [ -0.287683092876718, 51.36236745540959 ], [ -0.287894687443782, 51.362314809057644 ], [ -0.288130717606209, 51.362264317352235 ], [ -0.28815481983642, 51.362234103204685 ], [ -0.288278393555135, 51.362080290193333 ], [ -0.287942862329854, 51.361946829580795 ], [ -0.287937213986637, 51.36194584803755 ], [ -0.287598914147316, 51.361810458113219 ], [ -0.28757209064361, 51.361799277982485 ], [ -0.287213747491247, 51.361699644292408 ], [ -0.287003348976559, 51.361640829938203 ], [ -0.286997734185398, 51.361638949833385 ], [ -0.286500381374914, 51.361494039333614 ], [ -0.286141808387712, 51.361400692170548 ], [ -0.28582347954409, 51.361349287072471 ], [ -0.28540216589831, 51.361283788041199 ], [ -0.285077426291417, 51.361210621066746 ], [ -0.285336810648383, 51.361070575986545 ], [ -0.286030835991059, 51.360295626660104 ], [ -0.286390039605269, 51.359984339621107 ], [ -0.28658813311378, 51.359794848669814 ], [ -0.28667924096037, 51.359701784987422 ], [ -0.286833748153115, 51.359525051467017 ], [ -0.28697299428214, 51.359373266846006 ], [ -0.288074043269437, 51.359042250522144 ], [ -0.2889727286976, 51.358710070115421 ], [ -0.289212392894658, 51.358443782547319 ], [ -0.289345093050071, 51.358235356214941 ], [ -0.289462920424066, 51.358079663083245 ], [ -0.289586610239787, 51.357922347286376 ], [ -0.289771134402623, 51.357711889849618 ], [ -0.289858087318194, 51.357612471906378 ], [ -0.290199500498845, 51.357278444400023 ], [ -0.29059946785576, 51.356911018260249 ], [ -0.29087490683385, 51.356688489828002 ], [ -0.290916117728392, 51.356663020087218 ], [ -0.291085055190732, 51.356559312777009 ], [ -0.291106896827209, 51.356475126112969 ], [ -0.291179925049931, 51.356094029858305 ], [ -0.291185340079361, 51.356066240089135 ], [ -0.291219348326949, 51.355884150847253 ], [ -0.291227805173879, 51.355656739493497 ], [ -0.2912006838151, 51.355306546612198 ], [ -0.29120024742639, 51.355200459290486 ], [ -0.291322989019131, 51.35495044129398 ], [ -0.291476109706705, 51.354695472002064 ], [ -0.291701332412395, 51.354434451302239 ], [ -0.291979610836206, 51.354173214332022 ], [ -0.292057395925639, 51.354125802244944 ], [ -0.292283755651445, 51.35398696978649 ], [ -0.292396447995752, 51.353892419441046 ], [ -0.29250050361583, 51.353797653255512 ], [ -0.292660999739154, 51.353614798744715 ], [ -0.292758466033731, 51.353426441089098 ], [ -0.29274893765496, 51.352908392724835 ], [ -0.292759926061871, 51.352689108682277 ], [ -0.292776048616817, 51.352605737186089 ], [ -0.292796183095144, 51.352525930185706 ], [ -0.29290674639604, 51.352373812628009 ], [ -0.293153143765328, 51.352195714184944 ], [ -0.293295656350567, 51.352107889886987 ], [ -0.293446959386113, 51.352019294375367 ], [ -0.294148677615635, 51.351645547791861 ], [ -0.294326246973777, 51.351544657435973 ], [ -0.29449557319067, 51.351432948827949 ], [ -0.294816914913381, 51.351210088084571 ], [ -0.294967473708153, 51.351099903706377 ], [ -0.295240801584144, 51.350852969436048 ], [ -0.295614410165073, 51.350539168795926 ], [ -0.296015655555156, 51.350252742767076 ], [ -0.296452920129566, 51.34996234413348 ], [ -0.29724447783247, 51.34956561680351 ], [ -0.297535226506124, 51.349394448373637 ], [ -0.297771285625615, 51.349261231199932 ], [ -0.297797767860373, 51.349246333056101 ], [ -0.298134975366605, 51.349057858121043 ], [ -0.298391743643573, 51.348873698475607 ], [ -0.298650513619457, 51.348670598844521 ], [ -0.298969490165005, 51.348510624332128 ], [ -0.29917581567603, 51.348367983134239 ], [ -0.299429008956216, 51.348123447817478 ], [ -0.299925449187547, 51.347669381458758 ], [ -0.300076995499591, 51.347493491102668 ], [ -0.300160512168445, 51.347370642855381 ], [ -0.300247037936605, 51.347243253380299 ], [ -0.300523966861289, 51.346782405662459 ], [ -0.300649230705724, 51.346542305965393 ], [ -0.300764947979571, 51.346284987133593 ], [ -0.301022087754456, 51.345741055321213 ], [ -0.301152273198607, 51.345518196939842 ], [ -0.301314272716147, 51.345293012581202 ], [ -0.301527316284749, 51.345086547180003 ], [ -0.301767116250131, 51.344889548960765 ], [ -0.301921254465829, 51.344799996100086 ], [ -0.301997478935883, 51.344758848229624 ], [ -0.302287456265243, 51.344603928941957 ], [ -0.302512881181247, 51.344449782209566 ], [ -0.303264001666658, 51.343784444268955 ], [ -0.303407761909773, 51.343661566889466 ], [ -0.303675645374662, 51.343444204899356 ], [ -0.303782708187545, 51.343346866412759 ], [ -0.303879531792267, 51.343251087731197 ], [ -0.304024853498243, 51.343047323982063 ], [ -0.304122423461076, 51.342815809886169 ], [ -0.304191883333782, 51.342608161496386 ], [ -0.304305483281981, 51.342368878233344 ], [ -0.304373151372591, 51.342209748747827 ], [ -0.304438026725303, 51.342046083834028 ], [ -0.304494592494184, 51.341873398761656 ], [ -0.304545481847406, 51.341700541653225 ], [ -0.304594807516164, 51.341377532084493 ], [ -0.304640232058222, 51.341157039785408 ], [ -0.304730190775483, 51.340858890321577 ], [ -0.30478730112787, 51.340713092489096 ], [ -0.304915781654507, 51.340419994886517 ], [ -0.304987203774666, 51.340274493814185 ], [ -0.30506402855764, 51.340139768694456 ], [ -0.305317574482968, 51.339726217594965 ], [ -0.305414307734942, 51.339478508443115 ], [ -0.305415745974018, 51.339205149050002 ], [ -0.30535732431081, 51.338921125327644 ], [ -0.30535605091778, 51.338682786977905 ], [ -0.305298224901411, 51.338421156448476 ], [ -0.305272707353747, 51.338217527821996 ], [ -0.305221446356365, 51.338127787499168 ], [ -0.305056669429646, 51.337887084918862 ], [ -0.304957054789185, 51.337705848129147 ], [ -0.304859606574386, 51.337546128236589 ], [ -0.304932548750024, 51.337359295973037 ], [ -0.304937292645664, 51.337073398553841 ], [ -0.304926273669518, 51.336749515941918 ], [ -0.305029084044094, 51.336452450894434 ], [ -0.305173238492102, 51.336164074396962 ], [ -0.305255635237591, 51.336032126588563 ], [ -0.305686455216412, 51.335407089928147 ], [ -0.305864382886127, 51.335252339933724 ], [ -0.306008290943948, 51.335166319608092 ], [ -0.306192174077856, 51.335084382809406 ], [ -0.306600320293701, 51.334916776618314 ], [ -0.3069910956037, 51.334751525149201 ], [ -0.307468040861478, 51.334589404548765 ], [ -0.307612365160571, 51.334607670151101 ], [ -0.307705811785663, 51.334483970981807 ], [ -0.308328000781652, 51.334080229812557 ], [ -0.308733614950348, 51.333746177908324 ], [ -0.309113496195377, 51.333487267656309 ], [ -0.309620725155992, 51.333083658591526 ], [ -0.309857414565701, 51.332933255799389 ], [ -0.310395554240713, 51.332664037713535 ], [ -0.310929627272275, 51.33238936472511 ], [ -0.311580141254341, 51.33215061803805 ], [ -0.311985475582158, 51.332097033514415 ], [ -0.312398529231158, 51.331987911718819 ], [ -0.312580207575793, 51.331926699670433 ], [ -0.312753401164954, 51.331864466223074 ], [ -0.313070926267983, 51.331739493281056 ], [ -0.313692852716988, 51.331414830419078 ], [ -0.313932389757756, 51.331263651525326 ], [ -0.314244765348276, 51.331043309283913 ], [ -0.315023473276421, 51.330515836585683 ], [ -0.315186445859072, 51.330377039216316 ], [ -0.315939098803113, 51.32970085408359 ], [ -0.315955391034237, 51.329685805485774 ], [ -0.316118990827755, 51.329568501558967 ], [ -0.316741733999424, 51.329145845769546 ], [ -0.316826766551268, 51.329095825007556 ], [ -0.317124707831511, 51.328916621254173 ], [ -0.317807844627678, 51.328528089484948 ], [ -0.31837051799911, 51.328251998272357 ], [ -0.318955548561575, 51.327956453638912 ], [ -0.319283870016629, 51.327810048225928 ], [ -0.31958507359088, 51.327735261129455 ], [ -0.320058911481523, 51.327654859513423 ], [ -0.321212544241659, 51.32750590364784 ], [ -0.321576171519922, 51.3274553799519 ], [ -0.321750907275139, 51.327424622332636 ], [ -0.322078664608981, 51.327332229726082 ], [ -0.322624692343446, 51.327199722305345 ], [ -0.323070838977916, 51.327086548325092 ], [ -0.323072258370173, 51.327086568654011 ], [ -0.323527073055713, 51.326897912622449 ], [ -0.323813210333716, 51.32676536391952 ], [ -0.323947080449243, 51.326716038297725 ], [ -0.324005266168997, 51.326694396628277 ], [ -0.324236567202261, 51.326647364262563 ], [ -0.324425371629427, 51.326626602876182 ], [ -0.324615526500691, 51.326607748371387 ], [ -0.325090068122943, 51.326582174246802 ], [ -0.325581452865095, 51.326568525843541 ], [ -0.325980527327509, 51.326567939348472 ], [ -0.326683016871026, 51.326590566742176 ], [ -0.326958344413035, 51.326637652413837 ], [ -0.327208256015489, 51.32667097948017 ], [ -0.327299703265727, 51.326684871705311 ], [ -0.327574227691154, 51.326318232352875 ], [ -0.328290987936684, 51.326462506570735 ], [ -0.328902668932946, 51.326808447007615 ], [ -0.329227661677325, 51.326990184738371 ], [ -0.329565285307126, 51.327179383550799 ], [ -0.329566704706837, 51.327179403801125 ], [ -0.330115620145737, 51.32751725065269 ], [ -0.330133867670474, 51.327568752961916 ], [ -0.330316234354766, 51.327881592956146 ], [ -0.330375347835684, 51.327993999784169 ], [ -0.330457052428102, 51.328194739203326 ], [ -0.33056710638102, 51.328406760486537 ], [ -0.330650832176467, 51.328630093073407 ], [ -0.330733109921175, 51.328854214038849 ], [ -0.33069600879939, 51.328927491616476 ], [ -0.330655745540803, 51.329009624031158 ], [ -0.330571050687022, 51.329086627991231 ], [ -0.330482684704067, 51.329147397838867 ], [ -0.330385834365076, 51.329207147646194 ], [ -0.330268773517532, 51.329269395995581 ] ] ] } }
]
}
