{
"type": "FeatureCollection",
"name": "borough_Newham",
"crs": { "type": "name", "properties": { "name": "urn:ogc:def:crs:OGC:1.3:CRS84" } },
"features": [
{ "type": "Feature", "properties": { "DISTRICT": "Newham", "NAME": "Royal Docks", "GSS_CODE": "E05000491", "LAGSSCODE": "E09000025", "HECTARES": 473.052, "NONLD_AREA": 142.283 }, "geometry": { "type": "Polygon", "coordinates": [ [ [ 0.024718420922088, 51.49607578402771 ], [ 0.024038798324064, 51.496149640155821 ], [ 0.023163541019741, 51.496296002665275 ], [ 0.021944638278731, 51.496522993512571 ], [ 0.020711830821041, 51.496889558975788 ], [ 0.019828903897207, 51.497155687811492 ], [ 0.019216899011601, 51.497356820567255 ], [ 0.018432602973149, 51.497669787104378 ], [ 0.017576342222902, 51.498082878516463 ], [ 0.017573533141397, 51.498083825869578 ], [ 0.016242464744266, 51.498806426902867 ], [ 0.015631202984556, 51.499189219136682 ], [ 0.015366441614131, 51.499391553832737 ], [ 0.015014881025126, 51.499686270121011 ], [ 0.01415207070386, 51.500442153283672 ], [ 0.013387898938366, 51.501083883048942 ], [ 0.012843261665484, 51.501540145966679 ], [ 0.0124457277215, 51.501870713633657 ], [ 0.011248185528174, 51.502910143578163 ], [ 0.010587092481194, 51.50353930271514 ], [ 0.010266213707321, 51.503811909992997 ], [ 0.009950910651654, 51.504079026691336 ], [ 0.009674582521563, 51.504281642689726 ], [ 0.009166355254885, 51.504651858106534 ], [ 0.008850090809082, 51.504865046302363 ], [ 0.008607387104737, 51.505013950607726 ], [ 0.008223605369282, 51.505231890295306 ], [ 0.007624854432538, 51.505511049283449 ], [ 0.008305587399946, 51.506146878385124 ], [ 0.008795787705246, 51.506578199814832 ], [ 0.009077519440277, 51.506821596500025 ], [ 0.009205344382478, 51.506977636650511 ], [ 0.009372986093704, 51.50728232463414 ], [ 0.009552740253991, 51.507632655655193 ], [ 0.009675032531011, 51.507760110613091 ], [ 0.009842126639321, 51.508084585923108 ], [ 0.009891003857303, 51.508212310466241 ], [ 0.009890296530013, 51.508328388598571 ], [ 0.009841500232522, 51.508431715841425 ], [ 0.009761676106687, 51.508548161656108 ], [ 0.00969198690208, 51.508635754289891 ], [ 0.009616554900852, 51.508722456411846 ], [ 0.009438302237826, 51.50889453278922 ], [ 0.009232426306808, 51.509030313149239 ], [ 0.009077244558573, 51.509105796715794 ], [ 0.008869029301143, 51.509188482473299 ], [ 0.008481691838153, 51.509294106682852 ], [ 0.00808204107756, 51.509381869627504 ], [ 0.007850711632129, 51.509430785592201 ], [ 0.007715595576144, 51.509438494569828 ], [ 0.007676691361432, 51.509440060056846 ], [ 0.0072769214874, 51.509490062052137 ], [ 0.006802981809313, 51.509561111928654 ], [ 0.006509594828152, 51.509639048511417 ], [ 0.006266861160366, 51.5097232198532 ], [ 0.006168190820005, 51.50977345787652 ], [ 0.006023011674124, 51.509882031461785 ], [ 0.005958573866548, 51.509989312881672 ], [ 0.00596248385168, 51.510078252502964 ], [ 0.006026586055187, 51.510225499561564 ], [ 0.006135689013619, 51.510412523703167 ], [ 0.00619572374304, 51.510467237510269 ], [ 0.006204148695022, 51.510526430974494 ], [ 0.006238619617976, 51.510588864703941 ], [ 0.006661526847061, 51.510932346009561 ], [ 0.006940816783432, 51.511122658622668 ], [ 0.007219783882313, 51.511567588427873 ], [ 0.007301423317039, 51.511751395465055 ], [ 0.007433022479146, 51.511828348078438 ], [ 0.007600114036401, 51.51202058068651 ], [ 0.007667279000577, 51.512107627343774 ], [ 0.007717738905822, 51.512174191982382 ], [ 0.007882342197876, 51.512309826296963 ], [ 0.008016817884579, 51.512713984721785 ], [ 0.008056191122323, 51.51298761156491 ], [ 0.008017910047626, 51.513230203060893 ], [ 0.007924019884747, 51.513356780416615 ], [ 0.007914478121964, 51.513499084414107 ], [ 0.007874775062922, 51.513579780543367 ], [ 0.007660955651296, 51.513765142894144 ], [ 0.007570468680508, 51.513869185347147 ], [ 0.007459836567708, 51.514009624936584 ], [ 0.007389693069389, 51.514116914986197 ], [ 0.007319511527034, 51.514193637794904 ], [ 0.007131180495982, 51.514269687161608 ], [ 0.006936993127933, 51.514312571512797 ], [ 0.006674691152598, 51.514344125133093 ], [ 0.006431385739971, 51.514350988517144 ], [ 0.006302392434822, 51.5143334179036 ], [ 0.006133777064096, 51.514333607525415 ], [ 0.005586303267092, 51.514173866543089 ], [ 0.005505087318256, 51.514132101857768 ], [ 0.005280050720108, 51.513897613292677 ], [ 0.005103730546913, 51.513787349348938 ], [ 0.00494518865968, 51.513589482595421 ], [ 0.004904630027043, 51.513488583174066 ], [ 0.004848512508447, 51.513423013109382 ], [ 0.004781831629995, 51.513284710268493 ], [ 0.0047088635763, 51.513097965890211 ], [ 0.004642364901318, 51.512798818638238 ], [ 0.004652208437606, 51.512530641545972 ], [ 0.004691307337841, 51.512208919671451 ], [ 0.004647127270571, 51.511922786498772 ], [ 0.004551272849139, 51.511480112355976 ], [ 0.004457618141984, 51.511252454790565 ], [ 0.004407803769403, 51.511100377237561 ], [ 0.004346669304178, 51.510988141656554 ], [ 0.004285250486467, 51.510904590808849 ], [ 0.004107133086893, 51.510720632980068 ], [ 0.004030002332074, 51.510668907549821 ], [ 0.003965138291731, 51.510636751570303 ], [ 0.003896157735657, 51.5106082621664 ], [ 0.003738678848168, 51.510566810993126 ], [ 0.003566398806631, 51.510548178972407 ], [ 0.003312546652129, 51.510544426928291 ], [ 0.003096411679987, 51.510544524981427 ], [ 0.002616597663128, 51.510612062587811 ], [ 0.002529802875677, 51.510637910130853 ], [ 0.002480287091578, 51.510660333575451 ], [ 0.002410147741221, 51.510702888646534 ], [ 0.002333587951145, 51.510796799676939 ], [ 0.00228548574126, 51.510883931068811 ], [ 0.002249569327912, 51.511018594234265 ], [ 0.002260501673948, 51.511200017163766 ], [ 0.002281428361987, 51.511284260982578 ], [ 0.002331153751092, 51.511431755958895 ], [ 0.002381003161965, 51.511549579874554 ], [ 0.002508765896807, 51.511799222908941 ], [ 0.002789307363843, 51.512313364866323 ], [ 0.003312557578356, 51.513104761987101 ], [ 0.003522325545208, 51.513484353880031 ], [ 0.003637398769962, 51.513674784574405 ], [ 0.003833839231164, 51.513980791049967 ], [ 0.004007728465818, 51.514230542210917 ], [ 0.004051376355476, 51.514307114611476 ], [ 0.004085132799777, 51.514385744177154 ], [ 0.004116942926857, 51.514487692577944 ], [ 0.004139484940695, 51.514638348523313 ], [ 0.004074791093942, 51.514807668423948 ], [ 0.004026728055874, 51.514893001721383 ], [ 0.003925067054254, 51.515040477362255 ], [ 0.003835402390469, 51.515131017318907 ], [ 0.00364158949079, 51.515279978674357 ], [ 0.003204764162565, 51.515572538139082 ], [ 0.003010443495222, 51.515677543352226 ], [ 0.002692772205648, 51.515828620459246 ], [ 0.002572552161511, 51.515881022330902 ], [ 0.00233761837997, 51.515978629080138 ], [ 0.001980441941922, 51.516115095478838 ], [ 0.00173932832175, 51.51620462525878 ], [ 0.000598758783081, 51.516587414110269 ], [ -0.000635289016535, 51.517175064712234 ], [ -0.001426628592785, 51.517568945563625 ], [ -0.002053618131587, 51.517897977109641 ], [ -0.002189761257616, 51.517948034556113 ], [ -0.002266877605918, 51.517964631510914 ], [ -0.002332789287169, 51.517973845338553 ], [ -0.002401826363095, 51.517976819134994 ], [ -0.002504271467219, 51.517974068591698 ], [ -0.003224968324768, 51.517875668648003 ], [ -0.003445789954297, 51.517804807995404 ], [ -0.003621722403402, 51.517735880039673 ], [ -0.003676458010655, 51.517704446527745 ], [ -0.003775080818752, 51.517623324299031 ], [ -0.003971882902116, 51.517343478920637 ], [ -0.004103673615472, 51.517131661062052 ], [ -0.004192866981627, 51.517035181632458 ], [ -0.004451388395427, 51.516759883914943 ], [ -0.004529076242582, 51.516698181834272 ], [ -0.004579417012773, 51.516666672274383 ], [ -0.004652992982943, 51.516633759878836 ], [ -0.004828095817197, 51.51658369440262 ], [ -0.004970392195356, 51.516560941384782 ], [ -0.005041088048726, 51.51655854767921 ], [ -0.00515330958079, 51.516563153618478 ], [ -0.005285326128338, 51.516577086668448 ], [ -0.005348229035062, 51.516589844185447 ], [ -0.005593728938106, 51.516709997234244 ], [ -0.005659528540813, 51.516754360668216 ], [ -0.005699640504912, 51.516793702098603 ], [ -0.005730926477692, 51.516836489662282 ], [ -0.005756118680337, 51.516885466988633 ], [ -0.005769674061189, 51.516936943614049 ], [ -0.005792918161872, 51.517427496464393 ], [ -0.0058726319176, 51.517615849711682 ], [ -0.006002185384009, 51.517819524501505 ], [ -0.006350117743665, 51.518302013668887 ], [ -0.006707272498461, 51.518671470573132 ], [ -0.006786038115893, 51.51874832735605 ], [ -0.006944905124984, 51.518874193560848 ], [ -0.007165210679088, 51.519011082498466 ], [ -0.007526228872122, 51.519194323567064 ], [ -0.007711324743922, 51.519280267768828 ], [ -0.007900739772002, 51.519365296070234 ], [ -0.008571605282258, 51.519649181824242 ], [ -0.008822128669523, 51.519788288443451 ], [ -0.008895487461658, 51.51989112358882 ], [ -0.009010965266999, 51.520281642726793 ], [ -0.009034432469956, 51.520536465436052 ], [ -0.009016392042602, 51.520753813513792 ], [ -0.008870377835222, 51.521093055249437 ], [ -0.008645825696932, 51.521448045284757 ], [ -0.008496742710987, 51.521563377020868 ], [ -0.00847580770101, 51.521580103145808 ], [ -0.008445824390605, 51.521638030886685 ], [ -0.008209591560003, 51.522097109077677 ], [ -0.008148222395348, 51.522280457546387 ], [ -0.008014608365432, 51.522370788771973 ], [ -0.007900866029354, 51.522564036233739 ], [ -0.007785332749107, 51.522833670483415 ], [ -0.007804830860586, 51.5229805429328 ], [ -0.007829546819488, 51.523010630490703 ], [ -0.008085301502538, 51.523327024986706 ], [ -0.008115820057078, 51.523420232739646 ], [ -0.008125707951148, 51.523588518558505 ], [ -0.008083835881554, 51.523823442539843 ], [ -0.008054503576245, 51.524130501518471 ], [ -0.007953479808791, 51.524957958507699 ], [ -0.007869369430854, 51.525201964743232 ], [ -0.007809197426122, 51.525325098701664 ], [ -0.007799703136244, 51.52534381706203 ], [ -0.007762184606837, 51.525378242093019 ], [ -0.007666092635234, 51.52546651321417 ], [ -0.007521414348313, 51.525641252990269 ], [ -0.007477999250328, 51.525778064988934 ], [ -0.007440949770785, 51.526000481330243 ], [ -0.007496971625426, 51.526201103697929 ], [ -0.007609428300472, 51.526334269279992 ], [ -0.007732608037477, 51.526450535535496 ], [ -0.008016918015779, 51.526644245162466 ], [ -0.008201694110104, 51.526836264613522 ], [ -0.008341173585271, 51.527009444764516 ], [ -0.00843109979078, 51.527228622354535 ], [ -0.00855865251347, 51.527476307865058 ], [ -0.008698944231902, 51.527598257539772 ], [ -0.008905477033542, 51.527722230054451 ], [ -0.009406753598164, 51.527964568174767 ], [ -0.010024214923833, 51.528317655137563 ], [ -0.010185004202547, 51.528400393977741 ], [ -0.010326175942411, 51.528535032655803 ], [ -0.010403789451186, 51.528638836184015 ], [ -0.01045973439433, 51.528811586224478 ], [ -0.010541217584851, 51.529058398417064 ], [ -0.010608668891356, 51.529196281918445 ], [ -0.010759028511523, 51.529319298722577 ], [ -0.010901050536397, 51.529401808293777 ], [ -0.01115099907924, 51.529457288614637 ], [ -0.011847556666695, 51.529550902458162 ], [ -0.012648327102221, 51.529637286987658 ], [ -0.013147178779747, 51.529704170247633 ], [ -0.013619775025964, 51.529841718870195 ], [ -0.013651099857975, 51.529851239247925 ], [ -0.013938645993887, 51.529936118415492 ], [ -0.014020725324376, 51.530005832547516 ], [ -0.014039822712037, 51.530028631075673 ], [ -0.014055992509926, 51.530055875119544 ], [ -0.014147831119796, 51.530166299805451 ], [ -0.014252972288641, 51.530266071465753 ], [ -0.014551276774338, 51.530401565774604 ], [ -0.014931418125837, 51.530514080462169 ], [ -0.015484925092313, 51.530650203192224 ], [ -0.016444532081627, 51.530993758103406 ], [ -0.01683139641802, 51.531148723683025 ], [ -0.017156904987064, 51.531323238629561 ], [ -0.017416439185959, 51.531489535844024 ], [ -0.017424759544102, 51.531497767526126 ], [ -0.017519012513759, 51.531582968018725 ], [ -0.017751527070074, 51.531974460068113 ], [ -0.018005814781026, 51.532226073455689 ], [ -0.018169831933169, 51.53236648230439 ], [ -0.018205010450874, 51.53245428057987 ], [ -0.018209781805101, 51.532609890250875 ], [ -0.018150801087669, 51.53277170526129 ], [ -0.018014109836702, 51.532965471216158 ], [ -0.017983369280341, 51.533008104596775 ], [ -0.017945404264853, 51.533085677417844 ], [ -0.017959257511598, 51.533264814796119 ], [ -0.017960370795298, 51.533272025695688 ], [ -0.018098417780717, 51.533479421859951 ], [ -0.018162930990621, 51.533554230371806 ], [ -0.018348537734175, 51.533698598679123 ], [ -0.018640497503799, 51.53387973208185 ], [ -0.018848724612786, 51.534031673011228 ], [ -0.018935782330753, 51.53412124535938 ], [ -0.018975767567328, 51.53422710476822 ], [ -0.019004016219805, 51.534376008791369 ], [ -0.019009552795954, 51.534612633134216 ], [ -0.019055499852302, 51.534750957631765 ], [ -0.019136602998174, 51.534942107968156 ], [ -0.019318768055065, 51.535196096027626 ], [ -0.019527990518775, 51.535456743331373 ], [ -0.019677399412135, 51.535635560041271 ], [ -0.019890254293621, 51.53581535654601 ], [ -0.020114942838827, 51.535988249949327 ], [ -0.020412016819, 51.536087655096324 ], [ -0.020571169636136, 51.536140682884884 ], [ -0.020840268734651, 51.536219027906341 ], [ -0.020947724251787, 51.536301750311196 ], [ -0.0211428318071, 51.536523588896742 ], [ -0.021147457925276, 51.53668279242833 ], [ -0.021193042513827, 51.53686255439802 ], [ -0.021214827579783, 51.536924953507508 ], [ -0.021236676306648, 51.537021516233679 ], [ -0.021218461424992, 51.537142666142252 ], [ -0.021062375575943, 51.537347708132202 ], [ -0.020797783207333, 51.537565395257026 ], [ -0.020572502992, 51.53770454130666 ], [ -0.020556272665129, 51.53771415687644 ], [ -0.020531092531462, 51.537730004580723 ], [ -0.020175254660159, 51.537888525356635 ], [ -0.019977409362448, 51.537959807735511 ], [ -0.019875938436209, 51.538004845485844 ], [ -0.019740262642794, 51.538073669634208 ], [ -0.019644183844878, 51.538128687281606 ], [ -0.019480972494455, 51.538234715479412 ], [ -0.019473296036549, 51.538244475171332 ], [ -0.019468862864462, 51.53824799646079 ], [ -0.019399464055462, 51.538285483599203 ], [ -0.01920676148191, 51.538539441346053 ], [ -0.019120257817871, 51.538770916885468 ], [ -0.01900108121373, 51.539125006202759 ], [ -0.018888830291206, 51.539352451169997 ], [ -0.018782924709267, 51.539466637335352 ], [ -0.01861892035394, 51.539588024168964 ], [ -0.018283397252562, 51.539776549673178 ], [ -0.018079176242765, 51.539931417292564 ], [ -0.017918399387613, 51.540079736064314 ], [ -0.017851928563879, 51.540181100904505 ], [ -0.017784362037734, 51.540310406547547 ], [ -0.017741877899553, 51.540524643247053 ], [ -0.017774292332773, 51.54080748141223 ], [ -0.017724108949196, 51.540933484594063 ], [ -0.017595088981943, 51.541015812263161 ], [ -0.017433661088691, 51.54108051094304 ], [ -0.017206281428466, 51.541136093722194 ], [ -0.016977009007169, 51.541199645293325 ], [ -0.016759575207393, 51.541258901433771 ], [ -0.016607365515591, 51.54137679659592 ], [ -0.016487714792773, 51.541508817056979 ], [ -0.016408967733814, 51.541761097752833 ], [ -0.016314454677735, 51.542143468878116 ], [ -0.016180349493145, 51.542342580755424 ], [ -0.016168277094403, 51.542354962840299 ], [ -0.016086696007243, 51.542439978738813 ], [ -0.016064932956834, 51.542541199343027 ], [ -0.016284713603504, 51.54282729551565 ], [ -0.016427157013808, 51.542999707168654 ], [ -0.016474490945836, 51.543073327477394 ], [ -0.016512701724118, 51.543189946214014 ], [ -0.016540613679028, 51.543310975814954 ], [ -0.016543933953666, 51.543365871790186 ], [ -0.016544539384349, 51.543384761316531 ], [ -0.016505876804771, 51.543644911673987 ], [ -0.016499605767686, 51.543887539401993 ], [ -0.016593212319268, 51.544321727205343 ], [ -0.016720918051692, 51.544537851157202 ], [ -0.016815057347668, 51.544858682141751 ], [ -0.016810600082378, 51.544961184271692 ], [ -0.016847992792684, 51.545096668346979 ], [ -0.016857602720111, 51.545274925389307 ], [ -0.016880223599368, 51.545550495811959 ], [ -0.016957702693501, 51.545956451364951 ], [ -0.017024046637172, 51.546221972542327 ], [ -0.017198076755614, 51.546797765097324 ], [ -0.017314729863368, 51.547131562293764 ], [ -0.017431152778351, 51.547539074587988 ], [ -0.017480935113621, 51.54765498949763 ], [ -0.017593547528671, 51.547917696069717 ], [ -0.017903352133824, 51.548390596969092 ], [ -0.018164617817121, 51.548948892574586 ], [ -0.018313678753646, 51.549401995007322 ], [ -0.01869693760981, 51.550043344915245 ], [ -0.018847819132419, 51.550287814851629 ], [ -0.018914337932949, 51.550484022875061 ], [ -0.018921102759654, 51.550659534271155 ], [ -0.0188944820443, 51.550842483641702 ], [ -0.018875355411723, 51.550981597740055 ], [ -0.018827963527109, 51.551144418420222 ], [ -0.018816653358008, 51.551303442630399 ], [ -0.0188604272622, 51.551426446716206 ], [ -0.018944837051739, 51.551542135073042 ], [ -0.018968090978685, 51.551603660150519 ], [ -0.018054807116844, 51.551576560066451 ], [ -0.017140208519456, 51.551577288563912 ], [ -0.01711862170175, 51.551444679102175 ], [ -0.01710959438744, 51.551386989780099 ], [ -0.01694287273737, 51.551405748206506 ], [ -0.016939883801012, 51.551441658156172 ], [ -0.016923722295893, 51.551580821706786 ], [ -0.015671574680822, 51.551716078644482 ], [ -0.014357593708256, 51.551878234918519 ], [ -0.013608632612451, 51.551986024302387 ], [ -0.013340070512381, 51.552024629554055 ], [ -0.013120742809585, 51.552060561837372 ], [ -0.012909936242427, 51.552097447138152 ], [ -0.012343517220546, 51.55221910804589 ], [ -0.011793173099842, 51.552337532459866 ], [ -0.011680645368074, 51.552370686891656 ], [ -0.011091743638299, 51.552544103285499 ], [ -0.01086181977847, 51.552623813292989 ], [ -0.010803905959762, 51.552629124462165 ], [ -0.010688470225767, 51.552630763253653 ], [ -0.010567681474075, 51.552621523034539 ], [ -0.010446093823775, 51.552597884975107 ], [ -0.010381871299753, 51.552581512700527 ], [ -0.010202943303284, 51.552517345512207 ], [ -0.009936801750539, 51.552402253176481 ], [ -0.009750978533407, 51.552329877255019 ], [ -0.009444279587677, 51.552217601944513 ], [ -0.009201308223302, 51.55180344070132 ], [ -0.009163266314226, 51.551683226796705 ], [ -0.009136781280372, 51.551529855698341 ], [ -0.009150933436034, 51.551271090920316 ], [ -0.009141271424472, 51.551097417937648 ], [ -0.009109655524692, 51.550895413188911 ], [ -0.009010548092233, 51.550621241294934 ], [ -0.008862819582553, 51.550305788446728 ], [ -0.008725257722431, 51.549953648342438 ], [ -0.008657075185276, 51.549930015827485 ], [ -0.008648517760026, 51.549927173549435 ], [ -0.008524295947099, 51.549931358178313 ], [ -0.008357224421621, 51.549960886637599 ], [ -0.007989739984533, 51.550050842164083 ], [ -0.006963271525847, 51.550271737809304 ], [ -0.006275210180192, 51.550403979267692 ], [ -0.005964164612554, 51.550489493365568 ], [ -0.005680649201421, 51.550576373520926 ], [ -0.00503784718705, 51.550793883728488 ], [ -0.003794788261133, 51.551150414532628 ], [ -0.003634643096514, 51.550921049322177 ], [ -0.002606963722677, 51.551198523178648 ], [ -0.001574954888411, 51.551476812895139 ], [ -0.001090157534429, 51.551581013462517 ], [ -0.000924149073387, 51.551615941051885 ], [ -0.000323802155672, 51.551721674088839 ], [ 0.000353126368552, 51.551797329016409 ], [ 0.001301961617719, 51.551890004539764 ], [ 0.002127049931922, 51.551956826722964 ], [ 0.002520003876288, 51.552003156418792 ], [ 0.003108405745852, 51.552099276763549 ], [ 0.003204961442436, 51.551966281559118 ], [ 0.003255360660196, 51.551897994605653 ], [ 0.00358794415387, 51.551948049377394 ], [ 0.003826092664262, 51.551984434293423 ], [ 0.003838340575838, 51.551935678415873 ], [ 0.00387016940401, 51.55180747497986 ], [ 0.005004872509165, 51.551894156302858 ], [ 0.005010695641829, 51.551894056707219 ], [ 0.004973156499182, 51.552124935131893 ], [ 0.005202991461985, 51.552134489154021 ], [ 0.0052586815768, 51.551826884343178 ], [ 0.005281815399004, 51.551828286642611 ], [ 0.005762277598224, 51.551863219440428 ], [ 0.005831736245, 51.551671351015017 ], [ 0.005832885708175, 51.551665038278557 ], [ 0.005818840080211, 51.5515106489187 ], [ 0.005788008058943, 51.551236888562634 ], [ 0.005741159110924, 51.551088364608766 ], [ 0.005621875455849, 51.55083688467915 ], [ 0.005530546361505, 51.550661252321603 ], [ 0.005806880902762, 51.550649332381532 ], [ 0.006846877024445, 51.550878850696293 ], [ 0.007589754136875, 51.55100997246474 ], [ 0.007718612018943, 51.551022149791784 ], [ 0.008179225015178, 51.551065593602438 ], [ 0.009535505825341, 51.551239235100475 ], [ 0.009478661404354, 51.551390434111696 ], [ 0.009536097958545, 51.551449683218088 ], [ 0.009667608459764, 51.551584078310647 ], [ 0.010124739973951, 51.551812770267205 ], [ 0.010357662584583, 51.55195711275222 ], [ 0.010848472573176, 51.552261640199376 ], [ 0.009649640664177, 51.553435088253345 ], [ 0.01113745622385, 51.554399652892968 ], [ 0.011648597520327, 51.553918812780566 ], [ 0.013953491366814, 51.554730870495668 ], [ 0.014601064191535, 51.554956183343066 ], [ 0.015650006730082, 51.553950768875893 ], [ 0.01572692927072, 51.553864040153023 ], [ 0.015997736442832, 51.553559922643871 ], [ 0.016281410860292, 51.553224117763605 ], [ 0.016747572596807, 51.553392304461035 ], [ 0.016972078354706, 51.553184366223171 ], [ 0.017958022875672, 51.553592719031187 ], [ 0.017959488748064, 51.553593592806621 ], [ 0.018609892886679, 51.553882753670933 ], [ 0.019405797888125, 51.554102877660981 ], [ 0.0193660793248, 51.554183573881865 ], [ 0.019570821589939, 51.554246573397336 ], [ 0.020103245510917, 51.554411897185354 ], [ 0.021559295938908, 51.554879543598403 ], [ 0.02125931208438, 51.555141923753851 ], [ 0.021344295092549, 51.555172822758784 ], [ 0.020368685962798, 51.556268814647325 ], [ 0.020524683837398, 51.556208589185836 ], [ 0.020904578000676, 51.556251486101296 ], [ 0.021353364673208, 51.556286900778396 ], [ 0.021809776609176, 51.556234079133688 ], [ 0.022184581068856, 51.556197047699172 ], [ 0.022503527056035, 51.556166372893792 ], [ 0.022534705037979, 51.556609137425774 ], [ 0.022602117190842, 51.556699673450119 ], [ 0.022823212274754, 51.556803829679822 ], [ 0.023084665918559, 51.55687663270276 ], [ 0.023182120977333, 51.556864162619874 ], [ 0.023257784872719, 51.556845775488114 ], [ 0.023318987993887, 51.556825839882094 ], [ 0.023379673545305, 51.556796923063295 ], [ 0.023451244934788, 51.556750647189652 ], [ 0.023513506158139, 51.556690237701019 ], [ 0.023554416262954, 51.556639186863777 ], [ 0.023572946320779, 51.556601108509199 ], [ 0.023597520980723, 51.556503591048013 ], [ 0.023588901425993, 51.555888636167218 ], [ 0.023725735880578, 51.555621874631107 ], [ 0.023789452042988, 51.555529974441583 ], [ 0.024735771611708, 51.555563078456807 ], [ 0.025303584996957, 51.555549673390011 ], [ 0.025320106411881, 51.55472202720604 ], [ 0.025368773577842, 51.554063828686658 ], [ 0.026743478784009, 51.554257718842145 ], [ 0.027573640602496, 51.554340455698323 ], [ 0.028206071541527, 51.554384354517943 ], [ 0.028767072772281, 51.55441600102322 ], [ 0.02900028225089, 51.554404772460835 ], [ 0.029258680053659, 51.554376925156895 ], [ 0.029463315553994, 51.554338320925702 ], [ 0.030931385937296, 51.554459523681217 ], [ 0.031776297524037, 51.554547369259765 ], [ 0.032204632381984, 51.554577701228482 ], [ 0.032323603858453, 51.554591820434148 ], [ 0.033039620737915, 51.554765587504761 ], [ 0.03344782674407, 51.554861892221687 ], [ 0.033844626570281, 51.554961090548559 ], [ 0.034102639254709, 51.555023229717058 ], [ 0.034864296536533, 51.555185315781756 ], [ 0.035036048126071, 51.555217395210406 ], [ 0.035372327954028, 51.555255607338182 ], [ 0.035440070465007, 51.555254430850638 ], [ 0.036130568431952, 51.55524243669943 ], [ 0.037192475921304, 51.555181729338699 ], [ 0.03810634487268, 51.55513527400894 ], [ 0.039254404972582, 51.555064958425149 ], [ 0.040136455232111, 51.555014545699223 ], [ 0.041155775121, 51.554969826793624 ], [ 0.041531598869411, 51.554956088569696 ], [ 0.041775334010205, 51.554986005269662 ], [ 0.042007766449909, 51.555055675233675 ], [ 0.043664432942184, 51.554972857289862 ], [ 0.045316411531434, 51.55488110737182 ], [ 0.04616398962433, 51.55483664473423 ], [ 0.046327505241097, 51.554814910324275 ], [ 0.046309175439955, 51.554984246353449 ], [ 0.046244190585727, 51.555113131894537 ], [ 0.046118395941506, 51.555299627476266 ], [ 0.045891390575505, 51.555544617931666 ], [ 0.045464276256392, 51.55599268304055 ], [ 0.045074971840898, 51.556414104909379 ], [ 0.044861067310842, 51.556662370605473 ], [ 0.044680581750334, 51.556884071161249 ], [ 0.044574928084902, 51.557100869941941 ], [ 0.044483284791441, 51.557407326191459 ], [ 0.044422507495467, 51.557563916756962 ], [ 0.044212240338479, 51.557699829980095 ], [ 0.044087141999527, 51.557774832312674 ], [ 0.043520825384451, 51.558076978474801 ], [ 0.042877677666527, 51.558374167660681 ], [ 0.043055777963347, 51.558451975124122 ], [ 0.04286193979823, 51.559084844899061 ], [ 0.042571249755299, 51.559810199406648 ], [ 0.042275179926288, 51.560670588343136 ], [ 0.042120072468166, 51.561138169650732 ], [ 0.041955229533039, 51.561452189232149 ], [ 0.042321958595154, 51.561555569795026 ], [ 0.042653193131326, 51.561671165008221 ], [ 0.043739163643752, 51.561982264086879 ], [ 0.04391960846649, 51.562048341960633 ], [ 0.044629901842736, 51.56225270716714 ], [ 0.045641258300791, 51.562573181687931 ], [ 0.046309162250286, 51.562765690561434 ], [ 0.046966668939651, 51.562980852641289 ], [ 0.047463325200916, 51.563116021448607 ], [ 0.048112905289695, 51.563316032519033 ], [ 0.048672376961357, 51.563501345982274 ], [ 0.050344957943225, 51.563990136274427 ], [ 0.050438929215478, 51.563833863367876 ], [ 0.050665479434308, 51.563321780500402 ], [ 0.050745982527347, 51.563217885593922 ], [ 0.051007536085272, 51.562907558216644 ], [ 0.051392542202341, 51.562324378300623 ], [ 0.051532893536815, 51.56220496213227 ], [ 0.05173977688902, 51.56208896714395 ], [ 0.052058983728347, 51.561968309961614 ], [ 0.052328961526581, 51.561877191739164 ], [ 0.052524543249467, 51.561798252674706 ], [ 0.05258136485614, 51.56171544817056 ], [ 0.052625785435147, 51.561676912327897 ], [ 0.052675008324836, 51.56164728258117 ], [ 0.052724516728452, 51.561626637960998 ], [ 0.052777279790792, 51.561612229467627 ], [ 0.052833138220336, 51.561603160869836 ], [ 0.052961027887015, 51.561592831694426 ], [ 0.053036644040268, 51.561573438171713 ], [ 0.053094867182392, 51.561550842849648 ], [ 0.053131459642151, 51.561531323119922 ], [ 0.053194174522438, 51.56148167870515 ], [ 0.053375418457978, 51.561245571755094 ], [ 0.053437697990236, 51.561154580168861 ], [ 0.053488642162257, 51.561102444590979 ], [ 0.053547157960995, 51.561054671518924 ], [ 0.053594712998317, 51.561022373538798 ], [ 0.053710471932275, 51.560964608143273 ], [ 0.053806912798744, 51.560929566305319 ], [ 0.053936638803618, 51.560894031516 ], [ 0.054124093356504, 51.560859283784318 ], [ 0.054146736867291, 51.560754601619863 ], [ 0.054130341008206, 51.560678472493933 ], [ 0.054132391582435, 51.560626293752271 ], [ 0.054146212971167, 51.560581910126892 ], [ 0.054173072579632, 51.560536489079489 ], [ 0.05421993861762, 51.560488919664678 ], [ 0.054272992972679, 51.560449332994189 ], [ 0.054370293481302, 51.560399082295376 ], [ 0.054432934196679, 51.560316174979434 ], [ 0.054396619149719, 51.56008837138161 ], [ 0.054359571860769, 51.560002714778662 ], [ 0.054348591263183, 51.559917410795023 ], [ 0.054358015953208, 51.559870496994257 ], [ 0.054377260302039, 51.559817118125672 ], [ 0.054436807349735, 51.559731567935877 ], [ 0.054459346814868, 51.559685323462141 ], [ 0.054490847312617, 51.559650519333914 ], [ 0.054544062385724, 51.559614525781413 ], [ 0.054612223324742, 51.559588159597972 ], [ 0.054672155399652, 51.559574523706281 ], [ 0.054755550709957, 51.559569466959019 ], [ 0.054981701217964, 51.559527746969323 ], [ 0.055254263304218, 51.559462738066095 ], [ 0.055386584606447, 51.559453227626022 ], [ 0.055509581307759, 51.559429496190667 ], [ 0.055631848914199, 51.559389595141042 ], [ 0.055731953704367, 51.559338305255338 ], [ 0.055811651431731, 51.559280270696703 ], [ 0.056083952936639, 51.559114574805662 ], [ 0.056358698866297, 51.558902895788904 ], [ 0.056360498114823, 51.55887948987084 ], [ 0.056351303342778, 51.558836498318634 ], [ 0.056326422271376, 51.558796478578287 ], [ 0.056263250947357, 51.558738250595525 ], [ 0.056263542945377, 51.558713072925762 ], [ 0.056278380215473, 51.558656983726614 ], [ 0.056301000993168, 51.558615232307659 ], [ 0.056330218025883, 51.558593143692221 ], [ 0.056364316137492, 51.558579060685148 ], [ 0.056397193205098, 51.558572191230255 ], [ 0.056447709418064, 51.558574002749658 ], [ 0.056516105204884, 51.558587188064188 ], [ 0.056573215146637, 51.55860596530988 ], [ 0.056617531952123, 51.558628562888927 ], [ 0.056656186947714, 51.558654855790962 ], [ 0.05671064301144, 51.55870973018007 ], [ 0.056760746098384, 51.558734024294417 ], [ 0.056828858562569, 51.558740921252294 ], [ 0.05686466654417, 51.558733101257623 ], [ 0.05690435080868, 51.558718920148941 ], [ 0.056938086840003, 51.55869944920795 ], [ 0.056980989474671, 51.558659050174491 ], [ 0.057017907356905, 51.558612552833722 ], [ 0.057033682511891, 51.55857991151467 ], [ 0.057040778493313, 51.558544725325369 ], [ 0.057018806129179, 51.558250142300146 ], [ 0.057149444937486, 51.558108503474777 ], [ 0.05729138958175, 51.558025012608219 ], [ 0.057590406685401, 51.558000888939276 ], [ 0.057777010070938, 51.557884339398598 ], [ 0.057795505155366, 51.557877721836178 ], [ 0.057901549154595, 51.557863275366309 ], [ 0.057988236617229, 51.557865350721954 ], [ 0.058098995253965, 51.557889479196618 ], [ 0.05815769337003, 51.557911823889768 ], [ 0.058287860491976, 51.557854699937089 ], [ 0.058304648203167, 51.557844516175145 ], [ 0.05835658889083, 51.557619659131106 ], [ 0.058401987865168, 51.55753974885473 ], [ 0.058439227844861, 51.557500437593106 ], [ 0.058487999241182, 51.557463621035815 ], [ 0.058617471232825, 51.557391135704748 ], [ 0.0586466835749, 51.557366349558393 ], [ 0.05866424838645, 51.55734176780301 ], [ 0.05868751925723, 51.557280226122366 ], [ 0.058796992477814, 51.557212676551501 ], [ 0.058903602441088, 51.557210805535227 ], [ 0.05896935383569, 51.557197065274451 ], [ 0.059019135683277, 51.557180009191867 ], [ 0.059047208222167, 51.557164233146594 ], [ 0.059073648879174, 51.557141293584358 ], [ 0.05909691541227, 51.55711391463354 ], [ 0.059099240534325, 51.557102186573552 ], [ 0.059075942484202, 51.557065645815619 ], [ 0.059069061329888, 51.557039695037453 ], [ 0.059072123119515, 51.557012670721974 ], [ 0.059101747136234, 51.556965401762497 ], [ 0.059145137104319, 51.556935871552831 ], [ 0.059207754504376, 51.556918590097034 ], [ 0.059256839927768, 51.556917728486972 ], [ 0.05931488827686, 51.556925699712934 ], [ 0.05943216152474, 51.556967692976869 ], [ 0.059470002431468, 51.556973321807298 ], [ 0.059553473558684, 51.556970058377154 ], [ 0.059614661768432, 51.556950104739343 ], [ 0.059639922113312, 51.556935276947691 ], [ 0.059667345118375, 51.556905127857569 ], [ 0.059667192254855, 51.556835906075804 ], [ 0.059679463372048, 51.556788941641656 ], [ 0.059707453495351, 51.556737116227254 ], [ 0.059754107106773, 51.556685053022903 ], [ 0.060004664395418, 51.556515234064122 ], [ 0.060077467271731, 51.556465408617051 ], [ 0.060136744305641, 51.556437397107743 ], [ 0.060182245153814, 51.556423022879279 ], [ 0.060521278390973, 51.556518747581784 ], [ 0.060880321126709, 51.556546603465144 ], [ 0.061123428055827, 51.556596273621942 ], [ 0.061478142657899, 51.556686235984813 ], [ 0.062439489719285, 51.556955316635957 ], [ 0.063615276658233, 51.557307822018501 ], [ 0.063771558341716, 51.557126168240693 ], [ 0.064059902812444, 51.556929514617956 ], [ 0.064244493004361, 51.556803101271839 ], [ 0.064644218935585, 51.556455249399619 ], [ 0.064758324134979, 51.556329985842943 ], [ 0.064988440160997, 51.556410533089007 ], [ 0.065382658567351, 51.556035805146131 ], [ 0.065706516577518, 51.555764802881306 ], [ 0.065824446310974, 51.555661047389115 ], [ 0.06569951817602, 51.555547273954339 ], [ 0.065997220163447, 51.555239871775683 ], [ 0.066285630236093, 51.555016241169881 ], [ 0.066476679981536, 51.554869932263195 ], [ 0.066614525914039, 51.554728066465998 ], [ 0.066716246894896, 51.554329717923245 ], [ 0.066846565884946, 51.553769851432172 ], [ 0.066973052359469, 51.55302575371136 ], [ 0.067822825022564, 51.553062023034727 ], [ 0.067956662382798, 51.551877096497336 ], [ 0.068103169139212, 51.551131745764245 ], [ 0.068200872162426, 51.550296363933789 ], [ 0.068269782041585, 51.549969614055634 ], [ 0.068401820108336, 51.549351277870173 ], [ 0.068421207651791, 51.549238558575723 ], [ 0.068503434972883, 51.548762336434592 ], [ 0.068561747618791, 51.548393429343449 ], [ 0.068586549884126, 51.548240158644553 ], [ 0.068708689345979, 51.547818072865695 ], [ 0.068743624906618, 51.547536872697172 ], [ 0.068706435934773, 51.547354038391127 ], [ 0.068631413634219, 51.547225902227034 ], [ 0.068694080307431, 51.546698690684593 ], [ 0.068738019131391, 51.546332823829303 ], [ 0.068690158311627, 51.546040497152774 ], [ 0.068652970940919, 51.545857662745597 ], [ 0.068650646960071, 51.545646433921682 ], [ 0.06859211207486, 51.54511866208076 ], [ 0.068481697969929, 51.544750122279609 ], [ 0.06839210065913, 51.544525957695356 ], [ 0.068353900463576, 51.544415152535677 ], [ 0.068312356077074, 51.544293528159734 ], [ 0.068309219385194, 51.544287290307366 ], [ 0.068296228023264, 51.544255154568475 ], [ 0.068185820168391, 51.543983708525076 ], [ 0.067977063332043, 51.543609709342341 ], [ 0.067726650819281, 51.543208574161305 ], [ 0.067389537594319, 51.542738752476531 ], [ 0.067250796037861, 51.542508350466022 ], [ 0.067075359828863, 51.542168734310401 ], [ 0.066953850787878, 51.541906562374336 ], [ 0.066881773010782, 51.54174861525577 ], [ 0.066851069029098, 51.541674537278347 ], [ 0.066823138492495, 51.54160130946164 ], [ 0.066798211679302, 51.541526140783191 ], [ 0.066776062352698, 51.5414519121002 ], [ 0.066758268395826, 51.541376707675191 ], [ 0.066741781412934, 51.541301480226025 ], [ 0.066734410301978, 51.541264750156458 ], [ 0.066723700330941, 51.541188432024384 ], [ 0.066697194506566, 51.541015387632527 ], [ 0.066675819625011, 51.540863739485829 ], [ 0.066693990510663, 51.540532489400391 ], [ 0.066753656649776, 51.540321966296489 ], [ 0.066779515166781, 51.540191961726784 ], [ 0.066806272751443, 51.540081809702066 ], [ 0.066861656739625, 51.539871272050213 ], [ 0.066992620075589, 51.539609956746602 ], [ 0.067201281786032, 51.539315806638356 ], [ 0.067331631495157, 51.539135503645461 ], [ 0.067426998071255, 51.539012365411729 ], [ 0.067653654933197, 51.538732371635092 ], [ 0.067963940474605, 51.538356326340974 ], [ 0.068268726768278, 51.537953496343675 ], [ 0.068495695000975, 51.537680597641007 ], [ 0.068614758717769, 51.537540049096222 ], [ 0.068848318052605, 51.53725264910998 ], [ 0.068914768074148, 51.537189444860992 ], [ 0.068282810207305, 51.536991923159967 ], [ 0.068317295557755, 51.536797935476002 ], [ 0.068310700079142, 51.536652410051431 ], [ 0.068265540100885, 51.536450836079908 ], [ 0.068140456106587, 51.536332571853258 ], [ 0.06808402162412, 51.536296706633458 ], [ 0.068030353620831, 51.536256297512629 ], [ 0.067958408480118, 51.536198230041997 ], [ 0.068020784359734, 51.536142200374471 ], [ 0.068069278270219, 51.536097293528705 ], [ 0.068076404451534, 51.536160099522398 ], [ 0.06808971965552, 51.536167956036905 ], [ 0.0681475836121, 51.536203885959914 ], [ 0.068222340116359, 51.53622953893813 ], [ 0.068327026838977, 51.53624927013027 ], [ 0.068484076291285, 51.536246501580081 ], [ 0.068649105668961, 51.536228308740178 ], [ 0.068732090446676, 51.536215158341697 ], [ 0.068808476755731, 51.536213811525748 ], [ 0.068887469597951, 51.536238490363402 ], [ 0.06919953507735, 51.536348062340579 ], [ 0.06939982690681, 51.536344529964644 ], [ 0.069483948499854, 51.536290902952764 ], [ 0.069505569348616, 51.536259055805935 ], [ 0.069596321630674, 51.536128804907229 ], [ 0.069669692798571, 51.536029517209457 ], [ 0.069816103795934, 51.535792199620985 ], [ 0.070200171913748, 51.535263900508212 ], [ 0.070229934030037, 51.535220222273828 ], [ 0.070448286046352, 51.534917803833316 ], [ 0.071227643365736, 51.533755636188459 ], [ 0.071388900127872, 51.533497376725641 ], [ 0.071485753623685, 51.533344630773982 ], [ 0.071697407658895, 51.533020751332948 ], [ 0.071738112639124, 51.532932737358415 ], [ 0.071751422253032, 51.532906430645987 ], [ 0.071943803798225, 51.532951580820765 ], [ 0.072000880139434, 51.532844488040574 ], [ 0.07223375640457, 51.532257627802586 ], [ 0.072392853027456, 51.53169544484485 ], [ 0.072535588819186, 51.531186682947776 ], [ 0.072593814283779, 51.530788195688714 ], [ 0.07263001598335, 51.530472807689755 ], [ 0.072706423804875, 51.529995694074927 ], [ 0.072743226757908, 51.529567917286101 ], [ 0.072739861477506, 51.529273905754465 ], [ 0.07283716254729, 51.529288369192592 ], [ 0.072953234273533, 51.529305197980712 ], [ 0.073049681286748, 51.52933226267978 ], [ 0.073186883936569, 51.529369395441314 ], [ 0.073192666907655, 51.529371091304064 ], [ 0.073412026616379, 51.529437338876654 ], [ 0.074130538745097, 51.529639595844543 ], [ 0.074281458917749, 51.529630634562857 ], [ 0.074470206077988, 51.529690229185505 ], [ 0.074523946253686, 51.529698269232817 ], [ 0.074579924739468, 51.529692784303556 ], [ 0.074635209125343, 51.529672028196906 ], [ 0.074719037581109, 51.529677738062382 ], [ 0.074810969064628, 51.529702184097935 ], [ 0.075123645002601, 51.529760485068046 ], [ 0.075324989249689, 51.529877483026119 ], [ 0.075413376383816, 51.529886707862133 ], [ 0.075486165829837, 51.529869237801933 ], [ 0.075516613778913, 51.529840829402808 ], [ 0.07551433441365, 51.529824687274122 ], [ 0.075497988911166, 51.529718801567384 ], [ 0.075534502015388, 51.529695680020176 ], [ 0.075598783618343, 51.529681956493086 ], [ 0.07568871394455, 51.529662385016152 ], [ 0.076093431498316, 51.529653426172203 ], [ 0.076170491639876, 51.529604414230853 ], [ 0.076229356597228, 51.529568310577154 ], [ 0.076283378157701, 51.529551172134248 ], [ 0.076525071668917, 51.529475871719733 ], [ 0.076857956560056, 51.529408755977641 ], [ 0.077263197498309, 51.529380005253735 ], [ 0.07773142143813, 51.52937171438154 ], [ 0.077822898203681, 51.529354810945513 ], [ 0.077945884195804, 51.529332854257738 ], [ 0.078270542886128, 51.529244393463266 ], [ 0.078455885938488, 51.529166491087963 ], [ 0.078881746093156, 51.528893643619767 ], [ 0.079318156736928, 51.528502835201159 ], [ 0.079581178925064, 51.528295802721601 ], [ 0.079915550991882, 51.528039856393384 ], [ 0.080162413976229, 51.527856573603003 ], [ 0.080390184725847, 51.527697812618911 ], [ 0.080503995526144, 51.527633761671602 ], [ 0.080580965603009, 51.527582950302772 ], [ 0.080723965295535, 51.527525573715351 ], [ 0.080950007531057, 51.527456744877718 ], [ 0.08105384805301, 51.527424336140214 ], [ 0.081372335348756, 51.527326086767182 ], [ 0.081667628133793, 51.527258814952503 ], [ 0.081977410139835, 51.527191285042306 ], [ 0.082605259610422, 51.527016428494299 ], [ 0.08290232904098, 51.526923049974371 ], [ 0.083190235035819, 51.526819045092672 ], [ 0.08362881928678, 51.526638553367235 ], [ 0.084124800623472, 51.526353652282424 ], [ 0.084592339813906, 51.52611240773092 ], [ 0.084856658021569, 51.525994433406346 ], [ 0.085160472974783, 51.525892837983022 ], [ 0.085619223440476, 51.5258054790648 ], [ 0.085987834838305, 51.525795329288073 ], [ 0.086175912330697, 51.525809066456034 ], [ 0.086352966145557, 51.525833877593286 ], [ 0.08648773302995, 51.52588272534728 ], [ 0.08670787445862, 51.525966015490795 ], [ 0.086841340066751, 51.52601758306686 ], [ 0.087006718172188, 51.526070380839663 ], [ 0.08759048200533, 51.526257870286322 ], [ 0.088114054507669, 51.52638969960379 ], [ 0.088507125647706, 51.526441229321293 ], [ 0.088842179111152, 51.526484710583006 ], [ 0.088843604349267, 51.526484685206327 ], [ 0.08918690848291, 51.526490259446277 ], [ 0.089256233514465, 51.526490822928764 ], [ 0.089428550223531, 51.526476965733174 ], [ 0.089558438537936, 51.526447681511137 ], [ 0.089670410651086, 51.52640612989569 ], [ 0.089877032271966, 51.526289981023481 ], [ 0.089959443685112, 51.526233672260219 ], [ 0.090154121788305, 51.526077369342914 ], [ 0.090215812718946, 51.526038421171073 ], [ 0.090300343087364, 51.525994660788868 ], [ 0.09039936766148, 51.525953339161298 ], [ 0.090485944566473, 51.525925724665989 ], [ 0.090590185972051, 51.525902290458674 ], [ 0.090703184267385, 51.525883195236489 ], [ 0.090803648150194, 51.525873313566088 ], [ 0.090905742917133, 51.525867897878378 ], [ 0.091034259314759, 51.525871001438176 ], [ 0.091186191743199, 51.525884475788956 ], [ 0.091306778834493, 51.525903902882348 ], [ 0.09169260009089, 51.525955461252259 ], [ 0.091904363867775, 51.525951685398894 ], [ 0.092133251035824, 51.525914339786034 ], [ 0.092259750316772, 51.525873425635808 ], [ 0.092380990356291, 51.525813725574814 ], [ 0.092539147801014, 51.525742578574125 ], [ 0.092618906263882, 51.525690720472213 ], [ 0.092763503915869, 51.525541599651909 ], [ 0.092875667073056, 51.525190684055723 ], [ 0.092885670553414, 51.525030387735661 ], [ 0.092854333981846, 51.524818774884423 ], [ 0.09276230359599, 51.524540727363345 ], [ 0.092594083044616, 51.523985248617734 ], [ 0.092542788941609, 51.523903452522262 ], [ 0.092451038039816, 51.523758456766636 ], [ 0.092436178996454, 51.523527670210754 ], [ 0.092419586447024, 51.523259065258998 ], [ 0.092389864295428, 51.523020362596966 ], [ 0.092378378461477, 51.522927967016209 ], [ 0.09245504700649, 51.522744005747953 ], [ 0.092512136091998, 51.522480379681127 ], [ 0.092595652391831, 51.52238359229937 ], [ 0.093078886672372, 51.521981104134355 ], [ 0.093885827342606, 51.521347088398045 ], [ 0.094391353074216, 51.520959479936558 ], [ 0.094637640488571, 51.520799459295155 ], [ 0.094749776817596, 51.520728231119712 ], [ 0.094812189292751, 51.520676770577147 ], [ 0.094846765203336, 51.520642888798953 ], [ 0.094920156506822, 51.520579454763393 ], [ 0.095041690324159, 51.520430741437472 ], [ 0.095076249043912, 51.520303270342644 ], [ 0.095056690056163, 51.520193038377862 ], [ 0.095040548162759, 51.520154668181362 ], [ 0.09496836675227, 51.519995839249496 ], [ 0.094920565493405, 51.519832169580155 ], [ 0.094688925235232, 51.518586288175918 ], [ 0.094636687618776, 51.518421708700366 ], [ 0.094603257874051, 51.518257782272642 ], [ 0.094588942677033, 51.518134870104547 ], [ 0.09460349101271, 51.517887285731881 ], [ 0.094650462729545, 51.517685872136497 ], [ 0.094757028603467, 51.517431250135665 ], [ 0.094905404702333, 51.517051812115639 ], [ 0.095049461066032, 51.5168631353514 ], [ 0.095154882855121, 51.516741588416949 ], [ 0.095278740049957, 51.516612609496534 ], [ 0.095506903009781, 51.516402560320429 ], [ 0.095598599960082, 51.516328997741262 ], [ 0.095848719138262, 51.516157214650001 ], [ 0.096392938934086, 51.51586060006219 ], [ 0.097094416851939, 51.515629588534317 ], [ 0.097643103080799, 51.515464149386496 ], [ 0.098111057077743, 51.515202154938017 ], [ 0.098616894003241, 51.514918890038437 ], [ 0.099106706870232, 51.514661889843595 ], [ 0.099824970710392, 51.514483507959561 ], [ 0.099759006098707, 51.513583566142785 ], [ 0.099733541273806, 51.511899641105089 ], [ 0.098416628015132, 51.511845010248059 ], [ 0.096594155960212, 51.511703107801658 ], [ 0.096240001149109, 51.511678872520108 ], [ 0.095478321774498, 51.511663718560392 ], [ 0.094839862341895, 51.511632872366192 ], [ 0.094026177336143, 51.511551209405326 ], [ 0.093607299915441, 51.511499262733096 ], [ 0.093188226342304, 51.511445609919186 ], [ 0.09245372488596, 51.511331055913658 ], [ 0.09157430232093, 51.511134482490476 ], [ 0.091254277782019, 51.511069166453566 ], [ 0.090972708869045, 51.510995072313754 ], [ 0.090765042235549, 51.510928560224023 ], [ 0.090102670506814, 51.510657979900373 ], [ 0.089885027589144, 51.510562964656437 ], [ 0.088306521424137, 51.509798853915967 ], [ 0.088075118352224, 51.509686010012899 ], [ 0.087745033297899, 51.509465329616638 ], [ 0.08707909038387, 51.509050860798602 ], [ 0.085933813577984, 51.508240344085095 ], [ 0.085447462847798, 51.507846941490087 ], [ 0.084974362301733, 51.5074911512718 ], [ 0.084793831972022, 51.507323542257573 ], [ 0.08461891553292, 51.507153945121033 ], [ 0.084282540412636, 51.506760657570297 ], [ 0.084005939917286, 51.5063518316447 ], [ 0.083648651036818, 51.505786296076508 ], [ 0.083146129761346, 51.505193581733174 ], [ 0.08279670986038, 51.504768964923962 ], [ 0.082775381525345, 51.504744170420949 ], [ 0.082014171419704, 51.503850279517479 ], [ 0.081452687867929, 51.503227137427238 ], [ 0.080297556636635, 51.502163114378327 ], [ 0.079659099689521, 51.501557513658263 ], [ 0.079146009512564, 51.501111515769132 ], [ 0.07873063484569, 51.500724109576723 ], [ 0.078569485282671, 51.500571431608329 ], [ 0.078480724215813, 51.500487506646934 ], [ 0.078015919319073, 51.500120763826068 ], [ 0.077736276465208, 51.499896469227487 ], [ 0.07741338362972, 51.499671951393424 ], [ 0.077122724286476, 51.49949001466446 ], [ 0.076637981497296, 51.49922251181053 ], [ 0.07612924502574, 51.498968018066229 ], [ 0.075808820701351, 51.498797483125017 ], [ 0.075427445576478, 51.498616249048901 ], [ 0.074889270787947, 51.498377644024792 ], [ 0.074329052888927, 51.498192379085545 ], [ 0.073942691724695, 51.498060674574077 ], [ 0.073455031617612, 51.497919162911479 ], [ 0.073214498203018, 51.497856888751045 ], [ 0.073185328271853, 51.497850212371659 ], [ 0.071556616566875, 51.497485048725494 ], [ 0.06818476376521, 51.496967312785586 ], [ 0.066217677739275, 51.496767260001249 ], [ 0.063933030224654, 51.496647383575755 ], [ 0.063005337903979, 51.496585494921796 ], [ 0.062501399897999, 51.496561096847564 ], [ 0.061903565492922, 51.496530256674284 ], [ 0.061558332703544, 51.496511154693003 ], [ 0.060794554816526, 51.496475135358111 ], [ 0.060051118157126, 51.49644234978858 ], [ 0.059288107851933, 51.496423298865516 ], [ 0.058654510619285, 51.496431728611952 ], [ 0.058233637173594, 51.496457997441411 ], [ 0.056656496542759, 51.496563978961618 ], [ 0.054768473336033, 51.496709460944096 ], [ 0.053968421796256, 51.496764834601372 ], [ 0.053467273631816, 51.496802381720727 ], [ 0.053203027691454, 51.496819595836087 ], [ 0.052832717299127, 51.49685035379391 ], [ 0.052390401996922, 51.49688335995841 ], [ 0.05180747410005, 51.496927725584953 ], [ 0.051459987246377, 51.496953584618666 ], [ 0.050845688390547, 51.497005686509368 ], [ 0.050166244638159, 51.497083197953536 ], [ 0.049540698966981, 51.497173248626034 ], [ 0.048891947610132, 51.497196274571344 ], [ 0.047980492040071, 51.497241867544169 ], [ 0.047140277466574, 51.497268230276937 ], [ 0.045870632344653, 51.497323748572512 ], [ 0.044652168935759, 51.497365684165459 ], [ 0.044215951593967, 51.497373291593306 ], [ 0.043784061638302, 51.497347558105048 ], [ 0.042846886965005, 51.497301770586724 ], [ 0.042177120675647, 51.497272084990001 ], [ 0.041360607311245, 51.497249446136401 ], [ 0.040510776811793, 51.497222886421589 ], [ 0.040172785726668, 51.497203596423567 ], [ 0.039840089038012, 51.497172526049006 ], [ 0.039221155058135, 51.497121261609358 ], [ 0.038539775366491, 51.496996371156804 ], [ 0.038020195112982, 51.496943372694908 ], [ 0.037321733282875, 51.49688538967149 ], [ 0.036444747504628, 51.496830413973143 ], [ 0.03554481716474, 51.496841548541475 ], [ 0.034967530888074, 51.496818307253605 ], [ 0.034905209983877, 51.496811297876327 ], [ 0.033814574080993, 51.496682785175132 ], [ 0.032397275584897, 51.496463641244809 ], [ 0.031461182699122, 51.496374680455311 ], [ 0.030965537001496, 51.496277092719076 ], [ 0.029569258247765, 51.496142143841077 ], [ 0.029074116261324, 51.496087782236799 ], [ 0.027797356592639, 51.496017181404014 ], [ 0.026882013484474, 51.496004239731292 ], [ 0.025713749162589, 51.49604151080387 ], [ 0.024718420922088, 51.49607578402771 ] ] ] } }
]
}
