{
"type": "FeatureCollection",
"name": "borough_City_and_County_of_the_City_of_London",
"crs": { "type": "name", "properties": { "name": "urn:ogc:def:crs:OGC:1.3:CRS84" } },
"features": [
{ "type": "Feature", "properties": { "DISTRICT": "City and County of the City of London", "NAME": "Castle Baynard", "GSS_CODE": "E05009297", "LAGSSCODE": "E09000001", "HECTARES": 35.639, "NONLD_AREA": 6.686 }, "geometry": { "type": "Polygon", "coordinates": [ [ [ -0.092150153146915, 51.521016180343999 ], [ -0.091795485429456, 51.520982448598673 ], [ -0.091346061404779, 51.520940969917213 ], [ -0.090900278139392, 51.520880669533369 ], [ -0.090237667849243, 51.520801552276126 ], [ -0.08966752604485, 51.520716746029137 ], [ -0.089678712281984, 51.520690856931822 ], [ -0.08997836761348, 51.519971764119219 ], [ -0.089754485022958, 51.519911478543804 ], [ -0.08968045146471, 51.519891392937751 ], [ -0.089277012205122, 51.519782330849104 ], [ -0.088612637152738, 51.519572729205336 ], [ -0.088103315494499, 51.519412491157404 ], [ -0.087516855771863, 51.51920145705013 ], [ -0.086331066013386, 51.518845787019174 ], [ -0.086201463188556, 51.518810408016222 ], [ -0.085878615363491, 51.519290693769896 ], [ -0.085787733484567, 51.519428646656984 ], [ -0.085530114978466, 51.519832681283383 ], [ -0.085350414407303, 51.520130106408118 ], [ -0.085191778639566, 51.520336176085742 ], [ -0.083299434464265, 51.519815999370316 ], [ -0.082707836309868, 51.520069821736719 ], [ -0.082299587857419, 51.520315853616303 ], [ -0.081991127675108, 51.520557224316903 ], [ -0.081768920276635, 51.520734288407304 ], [ -0.081736151244473, 51.520758924310762 ], [ -0.081523219620414, 51.521023433773323 ], [ -0.081258043873477, 51.521433626257448 ], [ -0.081024199510431, 51.52195499947868 ], [ -0.080732850998336, 51.521890893318229 ], [ -0.079743082670906, 51.521672311022947 ], [ -0.078445192711587, 51.521511688944322 ], [ -0.07870438119203, 51.521041080995786 ], [ -0.078784795028325, 51.520740241677586 ], [ -0.078817017513384, 51.520658060908829 ], [ -0.07881435621011, 51.520653522220734 ], [ -0.078963824143175, 51.520115486921505 ], [ -0.079147405797453, 51.519453047972995 ], [ -0.079403615227384, 51.518846638747391 ], [ -0.078308281059924, 51.518946541935122 ], [ -0.078056434172051, 51.518969381983155 ], [ -0.078021975280458, 51.518486766756084 ], [ -0.078120711722144, 51.51847040589832 ], [ -0.077939658336335, 51.518251583664082 ], [ -0.077777000577864, 51.51810956879762 ], [ -0.077707982866418, 51.51803831372694 ], [ -0.077660120613092, 51.517975496767647 ], [ -0.077626272298571, 51.517890344489082 ], [ -0.077617161657631, 51.51786682072396 ], [ -0.077376822907563, 51.517447444387173 ], [ -0.077344345624386, 51.517397465878148 ], [ -0.076891954189956, 51.516708411602743 ], [ -0.076850736494453, 51.516659997624267 ], [ -0.07683145623366, 51.516638104914655 ], [ -0.076793052386613, 51.516593423044853 ], [ -0.076407850947101, 51.516258871171054 ], [ -0.075119943141097, 51.515355522080974 ], [ -0.074787596053289, 51.515101035988955 ], [ -0.074415848335598, 51.514791870865778 ], [ -0.07428044397397, 51.514688866502361 ], [ -0.073942959266885, 51.514454970845534 ], [ -0.073637973845954, 51.514132516326164 ], [ -0.073461235689355, 51.513677227716009 ], [ -0.073365729793205, 51.513377994460299 ], [ -0.073363107351044, 51.513372557268617 ], [ -0.073241244405041, 51.512946129769176 ], [ -0.073116922438231, 51.512341567259249 ], [ -0.073037067362216, 51.511809656808985 ], [ -0.073017915886258, 51.511683480085516 ], [ -0.072957355758931, 51.511443256890551 ], [ -0.072890440205516, 51.511255071886715 ], [ -0.072800994744222, 51.511085485486454 ], [ -0.072745041008905, 51.510874106330562 ], [ -0.072737830796548, 51.510805662763694 ], [ -0.072734845791664, 51.510775047230197 ], [ -0.072723242265927, 51.510641802472577 ], [ -0.072733537561145, 51.510361389840924 ], [ -0.072754919878204, 51.510299619706124 ], [ -0.072809313388667, 51.510241179412553 ], [ -0.072888065139117, 51.510148977178631 ], [ -0.072964849272859, 51.510106188251463 ], [ -0.073114581724353, 51.510108650450761 ], [ -0.073495018135463, 51.510109511405432 ], [ -0.073806953854967, 51.510094860960081 ], [ -0.074023490144456, 51.510051671385213 ], [ -0.07417080892968, 51.510009951024252 ], [ -0.074395421466625, 51.509947115201989 ], [ -0.074524631573531, 51.509960026522926 ], [ -0.074592048538785, 51.509967427344876 ], [ -0.074808439866177, 51.509995255968882 ], [ -0.075385850570233, 51.509802462830436 ], [ -0.075540477360434, 51.509756455608702 ], [ -0.075558040703516, 51.50975134996564 ], [ -0.075595315873317, 51.509788821647753 ], [ -0.075614782106983, 51.509806222572749 ], [ -0.075667514106132, 51.509854736219793 ], [ -0.075673218770861, 51.509857526938418 ], [ -0.075732445782591, 51.50988726793932 ], [ -0.075750109033023, 51.510082733719933 ], [ -0.075755382845496, 51.510129568998195 ], [ -0.076056103171186, 51.510107536295827 ], [ -0.076124844653875, 51.51045847085269 ], [ -0.076146493594595, 51.510457927262777 ], [ -0.076250344831804, 51.510455137127529 ], [ -0.076259501363508, 51.510545188744167 ], [ -0.076532724188619, 51.510527198468239 ], [ -0.076869425746877, 51.510505754276927 ], [ -0.076867895553341, 51.510471566671242 ], [ -0.076860444941904, 51.510340997611756 ], [ -0.076856689228082, 51.510260923817839 ], [ -0.076893211310706, 51.510214774514807 ], [ -0.077052142469019, 51.510204796461665 ], [ -0.077552047093535, 51.510173442135049 ], [ -0.077763486146749, 51.510115777819969 ], [ -0.077937267547725, 51.51002683911608 ], [ -0.078140818856704, 51.509882739489605 ], [ -0.078372156168973, 51.509657195066865 ], [ -0.078476243532292, 51.509513261775155 ], [ -0.07848921440614, 51.509445059568016 ], [ -0.078518219424303, 51.509441939121665 ], [ -0.078856639546143, 51.509413325293956 ], [ -0.078936575189799, 51.509123265602611 ], [ -0.07902320082728, 51.509117493578493 ], [ -0.079073310344834, 51.509058980141567 ], [ -0.07906333097215, 51.509056119514604 ], [ -0.078722333624212, 51.508939950564368 ], [ -0.078764904494608, 51.508851646222098 ], [ -0.078711007167845, 51.50883359136764 ], [ -0.078695285326806, 51.508828838517694 ], [ -0.07871040890107, 51.508811106163371 ], [ -0.078845376270593, 51.508653294141823 ], [ -0.079021189096707, 51.508414251182231 ], [ -0.079023105424141, 51.508402595389171 ], [ -0.079028866192331, 51.508333465596785 ], [ -0.079076812047307, 51.50822187455838 ], [ -0.07921734710459, 51.507894958507393 ], [ -0.079319083365983, 51.507908403142849 ], [ -0.079353511124775, 51.507844148356881 ], [ -0.079378662543809, 51.507794215682324 ], [ -0.079524174079161, 51.507727376238982 ], [ -0.079731270125398, 51.507600322785855 ], [ -0.079754947150194, 51.507585427494632 ], [ -0.080164020676196, 51.506870939112382 ], [ -0.080269428643166, 51.506898737415462 ], [ -0.080750840262096, 51.507001109489202 ], [ -0.08103399334044, 51.507051596415899 ], [ -0.08110121834101, 51.507063485431487 ], [ -0.081371619027512, 51.507109267648737 ], [ -0.081895432135814, 51.507195158064967 ], [ -0.082643062501722, 51.507304486784371 ], [ -0.083440664763426, 51.507426405196981 ], [ -0.083909606114248, 51.50748082267053 ], [ -0.084181210902689, 51.507532012255822 ], [ -0.084865265228765, 51.507647479657791 ], [ -0.085161628210768, 51.507691966053841 ], [ -0.085650048242691, 51.507729606889036 ], [ -0.085711877294618, 51.507734212148414 ], [ -0.085750628346151, 51.507736642671247 ], [ -0.086075516488792, 51.507755430198003 ], [ -0.086741687700449, 51.507815745453783 ], [ -0.08763388998373, 51.50787794469673 ], [ -0.087724534600134, 51.507883917767678 ], [ -0.087731621107861, 51.507884932329752 ], [ -0.088072868397887, 51.507927355532232 ], [ -0.08859779270048, 51.507987155638723 ], [ -0.088943767438532, 51.508018865147022 ], [ -0.089038305043986, 51.508031193766172 ], [ -0.089477057232217, 51.508086079691481 ], [ -0.090301025490713, 51.508160632430645 ], [ -0.090484521507869, 51.508185196577649 ], [ -0.09107926811206, 51.508263203752186 ], [ -0.091902459970016, 51.508359309088078 ], [ -0.092335436642611, 51.5084473540904 ], [ -0.092625253296527, 51.508512302028443 ], [ -0.09279775240231, 51.508555563121682 ], [ -0.093145200829615, 51.508657407709165 ], [ -0.093988321451198, 51.508896856374008 ], [ -0.09492336788141, 51.509109023731739 ], [ -0.095278587125702, 51.509195705025718 ], [ -0.095704226809849, 51.509286225795307 ], [ -0.095990491172648, 51.509334026531263 ], [ -0.096824482405489, 51.50944825353011 ], [ -0.097707131135452, 51.509535484234277 ], [ -0.098519735058354, 51.509607098502826 ], [ -0.098957804520002, 51.509644767031595 ], [ -0.099290813176101, 51.509674438126758 ], [ -0.09992618808716, 51.509713502587012 ], [ -0.100184989100959, 51.509727584520171 ], [ -0.101562217302236, 51.509808323127736 ], [ -0.103275298942979, 51.509818954277968 ], [ -0.103588020234395, 51.509853678191547 ], [ -0.104154398082249, 51.50985474225071 ], [ -0.104157616091099, 51.509671393781062 ], [ -0.104011815195707, 51.509642965590096 ], [ -0.104032523590452, 51.509630713999073 ], [ -0.104178720675214, 51.509580933656352 ], [ -0.10417100591723, 51.509140108380628 ], [ -0.104063698599544, 51.509088927789868 ], [ -0.104187947501522, 51.509046883901171 ], [ -0.104197950178125, 51.50880601786362 ], [ -0.104209839884834, 51.508622720142988 ], [ -0.10418039855736, 51.508499078630905 ], [ -0.104179064731085, 51.508425337469795 ], [ -0.104662548959976, 51.508410675221342 ], [ -0.104708783419102, 51.508476151677662 ], [ -0.104716384488832, 51.508570671533022 ], [ -0.104676706484418, 51.508624870604976 ], [ -0.10465885493273, 51.509017633924259 ], [ -0.10465698992216, 51.509062554884821 ], [ -0.104717629316602, 51.509095899475973 ], [ -0.104738755088138, 51.509107928100171 ], [ -0.104663345316072, 51.509118396933928 ], [ -0.104631726143904, 51.509464998375556 ], [ -0.104634378150506, 51.509607176581937 ], [ -0.104717860043893, 51.50961122252972 ], [ -0.104724767559799, 51.509619425333511 ], [ -0.104746758977007, 51.509644953265344 ], [ -0.104636085872458, 51.509671933747782 ], [ -0.104631655141091, 51.509672761177299 ], [ -0.104614675522362, 51.509875665749377 ], [ -0.105153624414773, 51.50987628176896 ], [ -0.10556234793196, 51.509888277548605 ], [ -0.106486768456396, 51.509908597533489 ], [ -0.106960773021168, 51.509910853935999 ], [ -0.107334189085314, 51.509906091343346 ], [ -0.107896323635129, 51.509903472758928 ], [ -0.108469109678784, 51.509887537927874 ], [ -0.109162930883636, 51.50987265235819 ], [ -0.109913623568327, 51.509841597685408 ], [ -0.110356667602042, 51.509825361087174 ], [ -0.110591718308821, 51.509821955172335 ], [ -0.11104804667004, 51.509800535819707 ], [ -0.111438413911257, 51.509770860582783 ], [ -0.111548901380004, 51.510756436689526 ], [ -0.111561270264129, 51.510911267195013 ], [ -0.111558491560488, 51.511012901584287 ], [ -0.11154870065242, 51.511318500538941 ], [ -0.111531941514636, 51.511444992503648 ], [ -0.111504924284549, 51.511644229809647 ], [ -0.111541692866443, 51.511732026631556 ], [ -0.111685292298381, 51.511954687953356 ], [ -0.111745190117244, 51.512003300155129 ], [ -0.111861899240435, 51.511968318926691 ], [ -0.112132127230732, 51.512266737335864 ], [ -0.112141700650277, 51.51227947767326 ], [ -0.112163548843621, 51.512308597895434 ], [ -0.112032834799966, 51.51233166678508 ], [ -0.112175034036792, 51.512516456178048 ], [ -0.112389338092704, 51.512770820990426 ], [ -0.112322005438913, 51.512798506141642 ], [ -0.112349405370758, 51.512831311733635 ], [ -0.112188462366954, 51.51288994506114 ], [ -0.112312118421803, 51.513037576044319 ], [ -0.111713155727464, 51.513197041850887 ], [ -0.111832724611313, 51.513475055245301 ], [ -0.111955167469201, 51.513686497419549 ], [ -0.11130657512273, 51.513793019391464 ], [ -0.111075940025408, 51.513827064796629 ], [ -0.111112201085135, 51.513961602545756 ], [ -0.111384616055827, 51.514796052954367 ], [ -0.111526955271917, 51.515224569319592 ], [ -0.111550353508073, 51.51528518024702 ], [ -0.111581256162212, 51.515339618833565 ], [ -0.111843189436744, 51.515801615314828 ], [ -0.112107733068649, 51.516200631890804 ], [ -0.112128343755074, 51.516225237066863 ], [ -0.112835314990757, 51.517044199842047 ], [ -0.113423083618108, 51.517645386882627 ], [ -0.113693570191781, 51.517935713887574 ], [ -0.113716847180196, 51.517964856725499 ], [ -0.11376133593339, 51.518107616896735 ], [ -0.11378693832767, 51.518221394721927 ], [ -0.113795473723731, 51.518259290715122 ], [ -0.11300423513443, 51.518293315821673 ], [ -0.112313532943903, 51.518264223970888 ], [ -0.111600832441968, 51.518209601457251 ], [ -0.110450343877861, 51.518076812060734 ], [ -0.109506694180961, 51.517928555116868 ], [ -0.109008197844485, 51.517887257569313 ], [ -0.108166080376677, 51.517792679479264 ], [ -0.107800992250558, 51.517767013275368 ], [ -0.107565692353689, 51.517844219484864 ], [ -0.107380524981832, 51.517896072558877 ], [ -0.107023664941434, 51.518021571672165 ], [ -0.106505445622093, 51.518177819068953 ], [ -0.106174202125856, 51.518275859467714 ], [ -0.105811661829591, 51.518397757002468 ], [ -0.105324207718467, 51.51854271873259 ], [ -0.105315388715252, 51.518546172377697 ], [ -0.104730416017246, 51.518749880752814 ], [ -0.103231024982594, 51.519208510960638 ], [ -0.102058255126195, 51.519577110480768 ], [ -0.101795059311189, 51.51966733899377 ], [ -0.101549348956974, 51.519751466446174 ], [ -0.101046892232271, 51.519910635956805 ], [ -0.100776936415098, 51.519988972526342 ], [ -0.100404275188666, 51.520110595176185 ], [ -0.100275226165682, 51.520130080484016 ], [ -0.100231695136265, 51.520136567214152 ], [ -0.100084404197572, 51.520143170466369 ], [ -0.099628768773303, 51.520285112172459 ], [ -0.099322521856466, 51.520370049150685 ], [ -0.098876113438394, 51.520498652194043 ], [ -0.098425496452448, 51.520588437631559 ], [ -0.09764434379909, 51.520724102040653 ], [ -0.097598280572419, 51.52103360490117 ], [ -0.097542269070733, 51.521305187616662 ], [ -0.097490796657982, 51.521604713430818 ], [ -0.09737734988167, 51.521594781135953 ], [ -0.097367218457968, 51.52162967831336 ], [ -0.097348684847386, 51.521729258145015 ], [ -0.097357774059498, 51.521856166856793 ], [ -0.09748622091081, 51.52223323087177 ], [ -0.097614131581061, 51.522483524868626 ], [ -0.097675161890598, 51.522576214843426 ], [ -0.097761295117261, 51.522688281362463 ], [ -0.097875808071692, 51.522812405616122 ], [ -0.097907635591857, 51.522844387589572 ], [ -0.097946596120547, 51.522879182337711 ], [ -0.096760316824458, 51.523323101152855 ], [ -0.096687962446891, 51.523194176361066 ], [ -0.096671820391475, 51.52316514578991 ], [ -0.09665876132256, 51.52316763080313 ], [ -0.096597698093832, 51.523178326533532 ], [ -0.096443851408422, 51.522823324616361 ], [ -0.095991521837634, 51.522956314980703 ], [ -0.095961687060957, 51.522910789751407 ], [ -0.095062757133141, 51.52313900946605 ], [ -0.094902952279471, 51.522855830083685 ], [ -0.094596903404374, 51.522314953456892 ], [ -0.09438423375297, 51.521746735693796 ], [ -0.094318748599767, 51.521484867082208 ], [ -0.093849310524107, 51.521541065096073 ], [ -0.09358935450044, 51.521587182781495 ], [ -0.093567216030249, 51.521496921336443 ], [ -0.093388656972421, 51.521526381955994 ], [ -0.093275668999762, 51.521334852307 ], [ -0.092490805791539, 51.521487502768835 ], [ -0.092348561733584, 51.521029298242048 ], [ -0.092150153146915, 51.521016180343999 ] ] ] } }
]
}
