{
"type": "FeatureCollection",
"name": "borough_Southwark",
"crs": { "type": "name", "properties": { "name": "urn:ogc:def:crs:OGC:1.3:CRS84" } },
"features": [
{ "type": "Feature", "properties": { "DISTRICT": "Southwark", "NAME": "Dulwich Wood", "GSS_CODE": "E05011101", "LAGSSCODE": "E09000028", "HECTARES": 301.593, "NONLD_AREA": 0.0 }, "geometry": { "type": "Polygon", "coordinates": [ [ [ -0.079229630829062, 51.42089490517057 ], [ -0.079243297956029, 51.420914008858929 ], [ -0.079235862711688, 51.420986708100727 ], [ -0.079124044015918, 51.421184458309902 ], [ -0.078922081660092, 51.421540936580755 ], [ -0.078905076864007, 51.421570325567032 ], [ -0.079439314480806, 51.421692363917245 ], [ -0.079490115525148, 51.421750734577763 ], [ -0.079603948555165, 51.421881251651826 ], [ -0.079803033764969, 51.422108373099597 ], [ -0.079830514230343, 51.422140289517266 ], [ -0.080051536424385, 51.422047716745844 ], [ -0.080317523647932, 51.421980154227434 ], [ -0.080394554193485, 51.42196163808574 ], [ -0.080826021191453, 51.421859027185391 ], [ -0.080871074121952, 51.421847988119488 ], [ -0.08102997103897, 51.4221428647378 ], [ -0.081132755652511, 51.422333433910225 ], [ -0.081668706701294, 51.42330713656056 ], [ -0.081700711761874, 51.423366996369097 ], [ -0.081753623858517, 51.42337505507539 ], [ -0.082005946106579, 51.423325245336393 ], [ -0.082817936492666, 51.423136167502022 ], [ -0.083413131929642, 51.423006558794718 ], [ -0.083450839556669, 51.422998185517812 ], [ -0.083469471840464, 51.423102777220251 ], [ -0.08348533922303, 51.423412391167368 ], [ -0.083511130372691, 51.423688903550342 ], [ -0.083559698737788, 51.424143885280074 ], [ -0.083592633260154, 51.424527498350727 ], [ -0.083605854878658, 51.424724600966471 ], [ -0.083657339821853, 51.425007826728454 ], [ -0.083836993545269, 51.425391232525115 ], [ -0.084053015926687, 51.42572749670758 ], [ -0.084346592666993, 51.426137851707516 ], [ -0.084626428483065, 51.426530899649123 ], [ -0.084929447515746, 51.426956780986153 ], [ -0.085146958996551, 51.427260613604219 ], [ -0.085224987756791, 51.427354579308584 ], [ -0.085235958923639, 51.427367345092748 ], [ -0.085412333780464, 51.427483505952438 ], [ -0.085768988547621, 51.427659341484961 ], [ -0.08587844687764, 51.427688101012173 ], [ -0.085965738889223, 51.427733579878876 ], [ -0.086014310570215, 51.427777527023196 ], [ -0.086048234450411, 51.427825729990658 ], [ -0.086066582083566, 51.427869183303123 ], [ -0.086074776169651, 51.427914358693243 ], [ -0.086072899263071, 51.427959279641499 ], [ -0.086040681263683, 51.428040565201606 ], [ -0.085919515932743, 51.428186925863834 ], [ -0.08586160063372, 51.428298448511867 ], [ -0.085830543101556, 51.428422906534045 ], [ -0.085842895166713, 51.428470757072752 ], [ -0.085864650665609, 51.428500780610165 ], [ -0.085891092072508, 51.428523688448372 ], [ -0.085971339414212, 51.428564646910424 ], [ -0.086019647465031, 51.42857802262693 ], [ -0.086095523265525, 51.428587353548437 ], [ -0.086587619812635, 51.428723953619681 ], [ -0.08723195415089, 51.428864835381745 ], [ -0.087654950821884, 51.429000392490856 ], [ -0.087848083803127, 51.429096145228705 ], [ -0.08808918306232, 51.429247611259754 ], [ -0.088200332499288, 51.429341126346593 ], [ -0.088293845498651, 51.429445141898306 ], [ -0.088471389039141, 51.429707049791695 ], [ -0.088865226011935, 51.43054175226748 ], [ -0.089282995258881, 51.431803972692855 ], [ -0.089567271337439, 51.432783426986035 ], [ -0.089997504145843, 51.434367790147562 ], [ -0.090199637445578, 51.435144431528933 ], [ -0.090439004782465, 51.436097979200447 ], [ -0.090552123754926, 51.436457726851302 ], [ -0.090639616391142, 51.436669615733344 ], [ -0.090955567424547, 51.437408552746604 ], [ -0.091168890289576, 51.437849136841116 ], [ -0.09146324287052, 51.438312527199535 ], [ -0.09170058302018, 51.438623951147008 ], [ -0.091812214015079, 51.438743632033884 ], [ -0.091872296471995, 51.43881923000054 ], [ -0.091963740326464, 51.438973554262155 ], [ -0.092014347784601, 51.439105726663612 ], [ -0.092232634382196, 51.43959844327042 ], [ -0.092514724357158, 51.440322529580186 ], [ -0.092742201225421, 51.440836971406618 ], [ -0.092848788206822, 51.441077938143231 ], [ -0.092976994273253, 51.441420846988763 ], [ -0.09318094538441, 51.441773978613227 ], [ -0.093331285106389, 51.44196441215432 ], [ -0.093608368207947, 51.442256699979097 ], [ -0.093773248259234, 51.442442784599173 ], [ -0.093978858830215, 51.442690755484968 ], [ -0.094079972122628, 51.442818354335436 ], [ -0.094481650393967, 51.443401255412994 ], [ -0.094927424376705, 51.444344663721459 ], [ -0.094990523642313, 51.444521989349916 ], [ -0.095011811027846, 51.444632017077964 ], [ -0.095017588060116, 51.444701336299133 ], [ -0.094991335727981, 51.444881704412929 ], [ -0.094987494301179, 51.445079518432102 ], [ -0.094999303669249, 51.445209170718435 ], [ -0.095014374271388, 51.445297520648253 ], [ -0.095070802941665, 51.445461252305755 ], [ -0.095114873884057, 51.445545578516843 ], [ -0.095225890734571, 51.445711995540982 ], [ -0.095672040452342, 51.446265047928549 ], [ -0.09587774654856, 51.446508521580725 ], [ -0.096082374689775, 51.446746583158337 ], [ -0.097404148316409, 51.4477671430379 ], [ -0.097932858901717, 51.448136326848072 ], [ -0.098425743990374, 51.448431206463987 ], [ -0.098866330321852, 51.448736922851822 ], [ -0.09922765363228, 51.449082707176494 ], [ -0.099278472230695, 51.449141968355192 ], [ -0.099319058476704, 51.449204749560302 ], [ -0.099377754665617, 51.449348647170915 ], [ -0.099391331935483, 51.449404607168731 ], [ -0.099401616061585, 51.449537021096965 ], [ -0.099539221938176, 51.449863892138694 ], [ -0.099619800474544, 51.450000952261611 ], [ -0.099697795576146, 51.450100211227124 ], [ -0.09978301429979, 51.450196980092095 ], [ -0.099833039164432, 51.450238247566055 ], [ -0.09989794181074, 51.450269866946478 ], [ -0.099967530569865, 51.450294370044034 ], [ -0.10004306585923, 51.450309979229473 ], [ -0.100121864173643, 51.450318449041035 ], [ -0.100179496823138, 51.450319383424727 ], [ -0.100296544591247, 51.450306896547232 ], [ -0.100735267659664, 51.450312210029537 ], [ -0.100740637445185, 51.450357248484714 ], [ -0.100766848272134, 51.45066073574656 ], [ -0.1007635099994, 51.451018584748233 ], [ -0.100776600991609, 51.451086313930972 ], [ -0.100805281541046, 51.451158701011458 ], [ -0.100852133164567, 51.451242170915179 ], [ -0.100932270766922, 51.45135854524618 ], [ -0.101106357476357, 51.451567333689013 ], [ -0.101297007633314, 51.451760207734104 ], [ -0.101314582610721, 51.451785665281179 ], [ -0.101354804901427, 51.451857340194323 ], [ -0.10139972014926, 51.451956061966584 ], [ -0.101431512390005, 51.452056459064217 ], [ -0.101448884497778, 51.452158330677101 ], [ -0.101453211686773, 51.452259990939332 ], [ -0.101443155156848, 51.452365104176394 ], [ -0.101361764573184, 51.452522014403513 ], [ -0.101309513153599, 51.452602979338991 ], [ -0.101080446205833, 51.452921209495557 ], [ -0.101034970152657, 51.453010465251808 ], [ -0.101013101133266, 51.453085629200324 ], [ -0.101009118883668, 51.453215923701045 ], [ -0.101137050766594, 51.453776472841383 ], [ -0.101092926240736, 51.453867458663616 ], [ -0.100980137178535, 51.454054516646849 ], [ -0.100912706246734, 51.454152316928813 ], [ -0.100601920213348, 51.454391905362719 ], [ -0.100019224757966, 51.454769131039157 ], [ -0.099091802423993, 51.455402469308986 ], [ -0.098565611327047, 51.455698792826055 ], [ -0.097823198190673, 51.456037454830536 ], [ -0.097576525998865, 51.456155808192847 ], [ -0.097181435578744, 51.456415595580694 ], [ -0.096550310771755, 51.456880122360104 ], [ -0.096175822170983, 51.457163615713917 ], [ -0.095811475998696, 51.457408614495769 ], [ -0.095639180160802, 51.457604589670986 ], [ -0.095477990960283, 51.457881567670725 ], [ -0.095182419207429, 51.458375903688655 ], [ -0.09512287757005, 51.458457646372558 ], [ -0.095096948579848, 51.458493185988672 ], [ -0.094999709020253, 51.458650823045375 ], [ -0.094841201685923, 51.458863203669367 ], [ -0.094703936673192, 51.459012907578895 ], [ -0.094546322914691, 51.459169562583838 ], [ -0.094116904493456, 51.459594202391905 ], [ -0.093624664198724, 51.460005232343732 ], [ -0.09306848001233, 51.460432391201806 ], [ -0.092912619855785, 51.460580891456736 ], [ -0.09281439742171, 51.46065930639957 ], [ -0.092732763997937, 51.460715605475031 ], [ -0.092526154345997, 51.460837207476104 ], [ -0.092302041061686, 51.461034132371964 ], [ -0.092186124471881, 51.461121249033269 ], [ -0.091513427052568, 51.46199341026545 ], [ -0.091098454513892, 51.462554117579934 ], [ -0.090914132959931, 51.46283251059225 ], [ -0.090641417213171, 51.463294842600433 ], [ -0.09008031934903, 51.465734469632224 ], [ -0.090046161685935, 51.466001013868805 ], [ -0.090045526263808, 51.466087310096398 ], [ -0.090054069595815, 51.466158472451411 ], [ -0.090068907180568, 51.466215352950911 ], [ -0.090110654214232, 51.466318612250717 ], [ -0.091120577340788, 51.467613841165246 ], [ -0.09223975756649, 51.469088845522023 ], [ -0.092692052987868, 51.469775150846459 ], [ -0.092714540219932, 51.469822356007974 ], [ -0.092756337908967, 51.469924626042385 ], [ -0.092823439708532, 51.47014606904991 ], [ -0.092903216616793, 51.470752590913222 ], [ -0.092920876441069, 51.470949764760029 ], [ -0.092998828956261, 51.472015838325333 ], [ -0.093005466762217, 51.47203033072293 ], [ -0.093054691469586, 51.47212822629939 ], [ -0.093461301564012, 51.471906398844794 ], [ -0.093598123121659, 51.471768376484206 ], [ -0.093637591936813, 51.471718673057538 ], [ -0.093701390395613, 51.471603646613403 ], [ -0.093973624303678, 51.470876987046132 ], [ -0.094039596726372, 51.470780965205002 ], [ -0.09408004234935, 51.470741975917861 ], [ -0.094175025412194, 51.470673396498974 ], [ -0.094297563264622, 51.47060166893862 ], [ -0.094427256418554, 51.470529158563593 ], [ -0.094771475643825, 51.470353960665399 ], [ -0.095044245386744, 51.470201065058895 ], [ -0.095971902393667, 51.469881611847853 ], [ -0.097110107966024, 51.470693216135693 ], [ -0.098891537320472, 51.471934368508329 ], [ -0.099151620180422, 51.47218950421609 ], [ -0.099221767780129, 51.472267058821103 ], [ -0.099349507723117, 51.472624334462246 ], [ -0.099517334147428, 51.473056968739137 ], [ -0.099749706695754, 51.473424930572577 ], [ -0.100342458484967, 51.473992023078743 ], [ -0.100547858550564, 51.474212106247876 ], [ -0.100594055162734, 51.474277584512052 ], [ -0.100628708712912, 51.474346561700159 ], [ -0.100657147979248, 51.474459400394025 ], [ -0.100565848392645, 51.474785255122562 ], [ -0.100312367747638, 51.476277563515886 ], [ -0.100144331406518, 51.476647122038408 ], [ -0.100086087576332, 51.476731584417735 ], [ -0.099972138636563, 51.4768736697254 ], [ -0.101485942439211, 51.477527685754104 ], [ -0.103596457707089, 51.478342359665881 ], [ -0.105528957027812, 51.479147915354005 ], [ -0.107177655722169, 51.479848977740616 ], [ -0.107828905262736, 51.480120291121153 ], [ -0.107990418366972, 51.480185827920792 ], [ -0.108042844572461, 51.480207351027019 ], [ -0.108194041610077, 51.4802754181392 ], [ -0.108220636060989, 51.480295625423764 ], [ -0.108212406699699, 51.480353928428748 ], [ -0.108189583564904, 51.480383227627556 ], [ -0.108153033395587, 51.480397022170521 ], [ -0.108060090443415, 51.480416289890918 ], [ -0.107915331260661, 51.480433732600147 ], [ -0.105531770603603, 51.48071448964469 ], [ -0.104981301374676, 51.480791001713818 ], [ -0.104060619924124, 51.480903779982889 ], [ -0.104021592442099, 51.480908543075181 ], [ -0.104595785639384, 51.481440331019414 ], [ -0.104615177587191, 51.481459523701936 ], [ -0.104598455549027, 51.481585115135488 ], [ -0.104873252285268, 51.481834177477815 ], [ -0.105130323868343, 51.482095538904375 ], [ -0.105255446408564, 51.482099358603669 ], [ -0.105301453205317, 51.482101000939714 ], [ -0.105396575603609, 51.482204126110922 ], [ -0.105608798409664, 51.482435993473175 ], [ -0.106018445136946, 51.482698019419075 ], [ -0.105879625445299, 51.482781183464837 ], [ -0.105610495081676, 51.482951334475288 ], [ -0.105638618525322, 51.482966172962179 ], [ -0.10630338756208, 51.48329614852284 ], [ -0.106798120678237, 51.48352259615698 ], [ -0.106952996242753, 51.483573732822215 ], [ -0.107197353406394, 51.483654992024775 ], [ -0.106901074812904, 51.484062047861073 ], [ -0.106718288128752, 51.484337881841611 ], [ -0.106590665684505, 51.48453189674099 ], [ -0.106524947998372, 51.484693557537689 ], [ -0.106332339759446, 51.484891017960074 ], [ -0.106524994400537, 51.484970545025277 ], [ -0.107819257882719, 51.485505851564049 ], [ -0.107966651058986, 51.485565766618748 ], [ -0.108111497857056, 51.485649913826087 ], [ -0.10825589902843, 51.485744841849062 ], [ -0.108427340397365, 51.485849285896364 ], [ -0.108096252877795, 51.486155993399478 ], [ -0.105494647098181, 51.488770405207632 ], [ -0.105302656877536, 51.488955287649901 ], [ -0.104685806260094, 51.489553234263994 ], [ -0.104163229633832, 51.49003124472015 ], [ -0.10377799704688, 51.490462117700083 ], [ -0.10336770604408, 51.490872715922215 ], [ -0.103234949772611, 51.491052259803226 ], [ -0.10323333902468, 51.491056728826969 ], [ -0.103134469781215, 51.491180991826504 ], [ -0.103266729840727, 51.491259547251062 ], [ -0.103370700135941, 51.491321462745823 ], [ -0.103130937448381, 51.491475002504153 ], [ -0.103502157248003, 51.491694162610521 ], [ -0.103380483433522, 51.491781197416053 ], [ -0.103557674145725, 51.491884752521038 ], [ -0.103686936330607, 51.491998410459125 ], [ -0.103706443595997, 51.492014908150033 ], [ -0.103858098221863, 51.491969622530156 ], [ -0.10391783542249, 51.491952608056479 ], [ -0.104079888039744, 51.492249296054595 ], [ -0.104221327843653, 51.492484518430189 ], [ -0.104232058454335, 51.492503571295785 ], [ -0.104375341124916, 51.492731631103076 ], [ -0.104493785997439, 51.49293141968117 ], [ -0.104673845135086, 51.493071879713554 ], [ -0.104768638755871, 51.493320731809639 ], [ -0.104861661297017, 51.493509231014031 ], [ -0.104870968007266, 51.493528260805689 ], [ -0.10531257143545, 51.493614599586792 ], [ -0.105716820061005, 51.493696647361105 ], [ -0.107133748127707, 51.494163730378226 ], [ -0.109374255531106, 51.494957113912058 ], [ -0.110482149048761, 51.49537332372045 ], [ -0.110559120252783, 51.495393443178664 ], [ -0.110639163427684, 51.495408217966109 ], [ -0.110788411667434, 51.495424107517444 ], [ -0.110932202790975, 51.495500143191776 ], [ -0.110947758912991, 51.495577799217777 ], [ -0.111417417397413, 51.496448600246836 ], [ -0.110269926416489, 51.496779025336224 ], [ -0.110278723809658, 51.496844885303275 ], [ -0.110270181527774, 51.4968762132929 ], [ -0.109491020260017, 51.498366364745841 ], [ -0.109494847628457, 51.498377214654894 ], [ -0.109445153706874, 51.498498680045259 ], [ -0.109095772462892, 51.499107256613605 ], [ -0.108328352089264, 51.50034937077185 ], [ -0.108202699724248, 51.500494782970407 ], [ -0.10816358768554, 51.500535596853013 ], [ -0.107821195612681, 51.500799779362737 ], [ -0.106800442117093, 51.501580108210291 ], [ -0.10667862705073, 51.501667144807861 ], [ -0.106501924833214, 51.501585178454896 ], [ -0.105961275795228, 51.502011664407917 ], [ -0.105922269011989, 51.502046995289263 ], [ -0.106090196623435, 51.50213430483425 ], [ -0.106061504804624, 51.50216440820369 ], [ -0.106039570538804, 51.502206307947873 ], [ -0.106025222228948, 51.502274401767082 ], [ -0.106055496596524, 51.502415227653898 ], [ -0.106111454650314, 51.502524013636069 ], [ -0.106726236590543, 51.502223687418699 ], [ -0.107432670184043, 51.503013819465828 ], [ -0.106370176691378, 51.503372640329715 ], [ -0.106493029090138, 51.503641722462248 ], [ -0.106494453801188, 51.503641745462552 ], [ -0.106574170969038, 51.504048580128249 ], [ -0.106541106391176, 51.504255719885975 ], [ -0.106520219921767, 51.504306716726042 ], [ -0.106441759064089, 51.504496941242316 ], [ -0.106409167259187, 51.504689794181324 ], [ -0.106409134768606, 51.504830939724201 ], [ -0.106440233400322, 51.504983465983194 ], [ -0.106567268589441, 51.50529217229677 ], [ -0.10657139383595, 51.505295834967328 ], [ -0.107338138980895, 51.507065342702589 ], [ -0.108150123511704, 51.506910325327915 ], [ -0.108219480565618, 51.507008537987723 ], [ -0.108265512538858, 51.507116263628163 ], [ -0.108380892180033, 51.507425678699086 ], [ -0.108398988820833, 51.507476405486607 ], [ -0.108480978876502, 51.507760109437228 ], [ -0.108567601954, 51.507754224219802 ], [ -0.108774188054363, 51.507706311189942 ], [ -0.108836845818262, 51.508072412852577 ], [ -0.108896082228888, 51.508417871767556 ], [ -0.108899351905003, 51.508442197979676 ], [ -0.109115206337305, 51.509633552717105 ], [ -0.109153310766532, 51.509826647241908 ], [ -0.109162930883636, 51.50987265235819 ], [ -0.108469109678784, 51.509887537927874 ], [ -0.107896323635129, 51.509903472758928 ], [ -0.107334189085314, 51.509906091343346 ], [ -0.106960773021168, 51.509910853935999 ], [ -0.106486768456396, 51.509908597533489 ], [ -0.10556234793196, 51.509888277548605 ], [ -0.105153624414773, 51.50987628176896 ], [ -0.104614675522362, 51.509875665749377 ], [ -0.104631655141091, 51.509672761177299 ], [ -0.104636085872458, 51.509671933747782 ], [ -0.104746758977007, 51.509644953265344 ], [ -0.104724767559799, 51.509619425333511 ], [ -0.104717860043893, 51.50961122252972 ], [ -0.104634378150506, 51.509607176581937 ], [ -0.104631726143904, 51.509464998375556 ], [ -0.104663345316072, 51.509118396933928 ], [ -0.104738755088138, 51.509107928100171 ], [ -0.104717629316602, 51.509095899475973 ], [ -0.10465698992216, 51.509062554884821 ], [ -0.10465885493273, 51.509017633924259 ], [ -0.104676706484418, 51.508624870604976 ], [ -0.104716384488832, 51.508570671533022 ], [ -0.104708783419102, 51.508476151677662 ], [ -0.104662548959976, 51.508410675221342 ], [ -0.104179064731085, 51.508425337469795 ], [ -0.10418039855736, 51.508499078630905 ], [ -0.104209839884834, 51.508622720142988 ], [ -0.104197950178125, 51.50880601786362 ], [ -0.104187947501522, 51.509046883901171 ], [ -0.104063698599544, 51.509088927789868 ], [ -0.10417100591723, 51.509140108380628 ], [ -0.104178720675214, 51.509580933656352 ], [ -0.104032523590452, 51.509630713999073 ], [ -0.104011815195707, 51.509642965590096 ], [ -0.104157616091099, 51.509671393781062 ], [ -0.104154398082249, 51.50985474225071 ], [ -0.103588020234395, 51.509853678191547 ], [ -0.103275298942979, 51.509818954277968 ], [ -0.101562217302236, 51.509808323127736 ], [ -0.100184989100959, 51.509727584520171 ], [ -0.09992618808716, 51.509713502587012 ], [ -0.099290813176101, 51.509674438126758 ], [ -0.098957804520002, 51.509644767031595 ], [ -0.098519735058354, 51.509607098502826 ], [ -0.097707131135452, 51.509535484234277 ], [ -0.096824482405489, 51.50944825353011 ], [ -0.095990491172648, 51.509334026531263 ], [ -0.095704226809849, 51.509286225795307 ], [ -0.095278587125702, 51.509195705025718 ], [ -0.09492336788141, 51.509109023731739 ], [ -0.093988321451198, 51.508896856374008 ], [ -0.093145200829615, 51.508657407709165 ], [ -0.09279775240231, 51.508555563121682 ], [ -0.092625253296527, 51.508512302028443 ], [ -0.092335436642611, 51.5084473540904 ], [ -0.091902459970016, 51.508359309088078 ], [ -0.09107926811206, 51.508263203752186 ], [ -0.090484521507869, 51.508185196577649 ], [ -0.090301025490713, 51.508160632430645 ], [ -0.089477057232217, 51.508086079691481 ], [ -0.089038305043986, 51.508031193766172 ], [ -0.088943767438532, 51.508018865147022 ], [ -0.08859779270048, 51.507987155638723 ], [ -0.088072868397887, 51.507927355532232 ], [ -0.087731621107861, 51.507884932329752 ], [ -0.087724534600134, 51.507883917767678 ], [ -0.08763388998373, 51.50787794469673 ], [ -0.086741687700449, 51.507815745453783 ], [ -0.086075516488792, 51.507755430198003 ], [ -0.085750628346151, 51.507736642671247 ], [ -0.085711877294618, 51.507734212148414 ], [ -0.085650048242691, 51.507729606889036 ], [ -0.085161628210768, 51.507691966053841 ], [ -0.084865265228765, 51.507647479657791 ], [ -0.084181210902689, 51.507532012255822 ], [ -0.083909606114248, 51.50748082267053 ], [ -0.083440664763426, 51.507426405196981 ], [ -0.082643062501722, 51.507304486784371 ], [ -0.081895432135814, 51.507195158064967 ], [ -0.081371619027512, 51.507109267648737 ], [ -0.08110121834101, 51.507063485431487 ], [ -0.08103399334044, 51.507051596415899 ], [ -0.080750840262096, 51.507001109489202 ], [ -0.080269428643166, 51.506898737415462 ], [ -0.080164020676196, 51.506870939112382 ], [ -0.079959163440314, 51.50680644969259 ], [ -0.079795722822012, 51.506751628739032 ], [ -0.079230832620418, 51.506580458336352 ], [ -0.078924019715416, 51.506510699907921 ], [ -0.078480813728637, 51.506392854506515 ], [ -0.078224689610195, 51.506315744359448 ], [ -0.078193290864674, 51.506308037313794 ], [ -0.078079445132477, 51.506274704693055 ], [ -0.077218927956096, 51.506039430822618 ], [ -0.076312143061207, 51.505774532834003 ], [ -0.075385530949783, 51.505503908223893 ], [ -0.075214630971444, 51.505454352575285 ], [ -0.074029932082917, 51.505187569280146 ], [ -0.07373326173253, 51.505114368077273 ], [ -0.073175122085894, 51.504953169068692 ], [ -0.072692359548772, 51.504785205883984 ], [ -0.071820721140687, 51.504406676815577 ], [ -0.071250905850395, 51.504148183110942 ], [ -0.070894951425342, 51.503976815639042 ], [ -0.070519558840736, 51.503824096288007 ], [ -0.070454411759996, 51.503796952248656 ], [ -0.070191948631302, 51.503701830082946 ], [ -0.070074106295982, 51.503659343957061 ], [ -0.06983946434041, 51.503586255521448 ], [ -0.069112392072858, 51.503366606082309 ], [ -0.068180644643346, 51.503115619662559 ], [ -0.067881605371104, 51.503031578667034 ], [ -0.067692368278611, 51.503008681599916 ], [ -0.067690943617651, 51.503008658119377 ], [ -0.066929006927364, 51.502796426744524 ], [ -0.066501018379166, 51.502696770837474 ], [ -0.066155223678807, 51.502594783194191 ], [ -0.065891593098251, 51.502524806390973 ], [ -0.0646362787954, 51.502259469237579 ], [ -0.064206223936873, 51.502172357055983 ], [ -0.063583519066977, 51.502075768457281 ], [ -0.063080800351483, 51.502004533246556 ], [ -0.062365597335334, 51.501915310248137 ], [ -0.060877143598645, 51.501713595558748 ], [ -0.060419706880048, 51.501695240696129 ], [ -0.06017859982347, 51.501671473395369 ], [ -0.060039178677894, 51.501664671447514 ], [ -0.059866134863104, 51.501666303084079 ], [ -0.059500966274208, 51.501715998501666 ], [ -0.058795040361909, 51.501813992075867 ], [ -0.058272896853444, 51.501895246993897 ], [ -0.057678078193186, 51.501992466765671 ], [ -0.057532811420328, 51.50201972751448 ], [ -0.05719868150006, 51.502082516181751 ], [ -0.056940619160315, 51.502152857695258 ], [ -0.056353628901258, 51.502303242272887 ], [ -0.056352047305034, 51.502304115066558 ], [ -0.055953526949303, 51.502391904071366 ], [ -0.055553355895648, 51.502518411825598 ], [ -0.055140331088718, 51.502676080554096 ], [ -0.054848416556359, 51.502796290532181 ], [ -0.054846991912983, 51.502796266895828 ], [ -0.053626451698447, 51.503441460211924 ], [ -0.052763123328187, 51.503953137154099 ], [ -0.05238936755019, 51.504167277024649 ], [ -0.052225962201291, 51.504249069643755 ], [ -0.051801747256787, 51.504465066341574 ], [ -0.051408109990137, 51.50467437789235 ], [ -0.049426059048925, 51.505835582268979 ], [ -0.048619519292041, 51.506297921198659 ], [ -0.048120283374225, 51.506583679794531 ], [ -0.046928471880403, 51.507224791369026 ], [ -0.046541487360443, 51.507410824574016 ], [ -0.046369161833241, 51.507497855311144 ], [ -0.04595378737775, 51.507708586174935 ], [ -0.045468579413643, 51.507935143151784 ], [ -0.045124719441628, 51.508054464548195 ], [ -0.044299760661691, 51.508273644558543 ], [ -0.043904977986995, 51.508372244999912 ], [ -0.043585191981165, 51.508437033697497 ], [ -0.043322372021899, 51.508481195649047 ], [ -0.04268853513641, 51.508543438498108 ], [ -0.042076996131826, 51.508589957833131 ], [ -0.041860321286786, 51.508599825291547 ], [ -0.041311689379711, 51.508625724729342 ], [ -0.04090334123822, 51.508635984910391 ], [ -0.040555971802356, 51.508637373374135 ], [ -0.040207601890124, 51.508628854876612 ], [ -0.039590942933548, 51.508625739800323 ], [ -0.038823946017371, 51.508601227924075 ], [ -0.038167192373252, 51.508557877894951 ], [ -0.03784548437094, 51.508498554200862 ], [ -0.037457798067379, 51.508431742379805 ], [ -0.037219834882959, 51.508370222324103 ], [ -0.036679852241529, 51.508225430772534 ], [ -0.035934110420214, 51.508074403603977 ], [ -0.035559341705157, 51.507942262947765 ], [ -0.034940423953092, 51.507724128988215 ], [ -0.034312068717717, 51.507523902606131 ], [ -0.033515910201356, 51.507272220951776 ], [ -0.033022171084782, 51.507160550964528 ], [ -0.032743168162112, 51.507081160918517 ], [ -0.032403610418663, 51.507000843828415 ], [ -0.03217680854403, 51.506881962056212 ], [ -0.031781169271629, 51.506663959730375 ], [ -0.031715004996372, 51.506627786909071 ], [ -0.031627705947915, 51.506547206887191 ], [ -0.031524542794486, 51.506468068568047 ], [ -0.031398224243174, 51.506388631224247 ], [ -0.031257578873376, 51.506308054099868 ], [ -0.03102541261788, 51.506244819303554 ], [ -0.030813327554541, 51.506151264449869 ], [ -0.030731839266221, 51.506104045236356 ], [ -0.030631679320747, 51.506021450195192 ], [ -0.030586356951207, 51.50596764615932 ], [ -0.030565756574468, 51.505943925351581 ], [ -0.030475314817896, 51.505837129718188 ], [ -0.030290826693448, 51.505671305920885 ], [ -0.030054529306898, 51.505403829968664 ], [ -0.029971500724055, 51.505224426896781 ], [ -0.029881796133094, 51.505097864350844 ], [ -0.029810556403939, 51.504912365999246 ], [ -0.029688312530521, 51.504639613511515 ], [ -0.029574726603995, 51.504400270436228 ], [ -0.029560177534932, 51.504371256908307 ], [ -0.029566535469927, 51.504356080277532 ], [ -0.029609939875587, 51.504253331565806 ], [ -0.029635453269847, 51.504061368052895 ], [ -0.029579642444687, 51.503818500902078 ], [ -0.029524434363177, 51.503495630133123 ], [ -0.02942786694074, 51.503030017122299 ], [ -0.029356974946806, 51.502734752340359 ], [ -0.029345935062719, 51.502690514221939 ], [ -0.02936155515649, 51.502628653862494 ], [ -0.029395106405532, 51.502487171201139 ], [ -0.029405317630882, 51.502349701343654 ], [ -0.029429271433681, 51.502094779482597 ], [ -0.02953625358913, 51.501119062620674 ], [ -0.029669075186128, 51.500144588712452 ], [ -0.029826116368375, 51.499544697881447 ], [ -0.029863858458885, 51.499270228599407 ], [ -0.029912440609445, 51.498945505840574 ], [ -0.029996171399587, 51.498409112454645 ], [ -0.030004207598867, 51.498054938911359 ], [ -0.030015949656995, 51.497548801268806 ], [ -0.030083807125897, 51.497146186608148 ], [ -0.030097383023509, 51.497062804819976 ], [ -0.030177854326722, 51.496067669961306 ], [ -0.030191927400958, 51.495741467791113 ], [ -0.030188375732039, 51.495487880866989 ], [ -0.030180644577054, 51.495333926400505 ], [ -0.030115605344175, 51.494671864099644 ], [ -0.030008224924564, 51.494088204713826 ], [ -0.029989616596852, 51.493985402100662 ], [ -0.029921315483352, 51.493564225532367 ], [ -0.030408761881109, 51.493451949851206 ], [ -0.031034677553597, 51.49333750393356 ], [ -0.031911662169077, 51.493176836348049 ], [ -0.032038169385035, 51.493116028888629 ], [ -0.032386510654834, 51.493056249591 ], [ -0.032554866296849, 51.493027610464189 ], [ -0.032523988195265, 51.493008212291109 ], [ -0.032884580425414, 51.492931465707748 ], [ -0.033221483474822, 51.492869693846366 ], [ -0.033277711691054, 51.493000997391007 ], [ -0.033300931556551, 51.492996891972403 ], [ -0.035212481700772, 51.492634195415107 ], [ -0.037288811377295, 51.492220280986245 ], [ -0.037350652409264, 51.492224013771114 ], [ -0.037449765395726, 51.49223106779791 ], [ -0.037474177205451, 51.492232375639368 ], [ -0.037504247593183, 51.492234677265735 ], [ -0.03753443667556, 51.492236980871944 ], [ -0.037564625761226, 51.492239284470315 ], [ -0.037594657551476, 51.492242484457854 ], [ -0.037624769430877, 51.492246584809607 ], [ -0.037627579418017, 51.49224753089382 ], [ -0.037667664257444, 51.492254495323834 ], [ -0.037706286207019, 51.49226233427563 ], [ -0.037744712270091, 51.492271967996103 ], [ -0.03778309974622, 51.492282500088258 ], [ -0.037820181633531, 51.492293010307392 ], [ -0.037857067642415, 51.492305315296313 ], [ -0.0378911436744, 51.492316674195656 ], [ -0.037928148414004, 51.492328981148873 ], [ -0.037963532981906, 51.492343059026275 ], [ -0.037997493271324, 51.492357113047376 ], [ -0.038031414983209, 51.492372065442837 ], [ -0.038065336717678, 51.49238701782815 ], [ -0.038097795574999, 51.492402844743772 ], [ -0.038208758246583, 51.492468623377768 ], [ -0.038360539948246, 51.492557471013598 ], [ -0.038384141532218, 51.492577644737167 ], [ -0.038417639032796, 51.492602479245875 ], [ -0.03845256087969, 51.492627337584111 ], [ -0.038487601457452, 51.492652197897968 ], [ -0.038525410592975, 51.492676205507223 ], [ -0.038563415638713, 51.492698418321211 ], [ -0.038601263441162, 51.492721527520324 ], [ -0.038640731463028, 51.492742865761429 ], [ -0.038681543729963, 51.492763327454604 ], [ -0.038691439690266, 51.492767988220763 ], [ -0.03872528091228, 51.492784827014937 ], [ -0.038762093341773, 51.492801625618512 ], [ -0.038797401374079, 51.492817500003959 ], [ -0.038834133747755, 51.492833398213371 ], [ -0.038872447740237, 51.492848423847079 ], [ -0.0389092573299, 51.492862525263227 ], [ -0.038947648535076, 51.492875754102677 ], [ -0.038987345388085, 51.492889004776202 ], [ -0.039025775218896, 51.492901335204934 ], [ -0.039066973594959, 51.492912812914447 ], [ -0.039106904944241, 51.49292337037906 ], [ -0.039148299209744, 51.492933053276403 ], [ -0.03916539401006, 51.492936036387484 ], [ -0.039196815094232, 51.492942855311512 ], [ -0.039229660508519, 51.492949698057089 ], [ -0.03926112018749, 51.492955618579124 ], [ -0.03929400419577, 51.492961562921884 ], [ -0.039326926786824, 51.492966608870823 ], [ -0.039359849385468, 51.492971654810397 ], [ -0.039394234885691, 51.492975826184171 ], [ -0.039427234642887, 51.49297907533564 ], [ -0.039460234405079, 51.492982324477722 ], [ -0.039493272742874, 51.492984675225934 ], [ -0.039527773976144, 51.49298615140674 ], [ -0.039560850890034, 51.492987603751317 ], [ -0.039593966374921, 51.492988157701994 ], [ -0.039628583318728, 51.49298693869946 ], [ -0.039661775939008, 51.492985695861947 ], [ -0.03967760074085, 51.492985061534668 ], [ -0.039710831925066, 51.492982920298779 ], [ -0.039745564559419, 51.492979006108214 ], [ -0.039777448544629, 51.492975044260632 ], [ -0.039810756846074, 51.492971106227472 ], [ -0.039844142269188, 51.492965371415842 ], [ -0.039876103362771, 51.492959612772573 ], [ -0.039908103010747, 51.492952955736165 ], [ -0.039939983956096, 51.492946296705988 ], [ -0.040344037187518, 51.49283078572639 ], [ -0.040526830515731, 51.49280048816113 ], [ -0.040537150724392, 51.492795266538089 ], [ -0.040528871628906, 51.492786137821533 ], [ -0.040044241895173, 51.492163816891903 ], [ -0.041029498056525, 51.491828679407902 ], [ -0.040317622847198, 51.491063209285265 ], [ -0.042481984216905, 51.490241436368883 ], [ -0.042199790634409, 51.490036238292397 ], [ -0.042331124904026, 51.490028542966193 ], [ -0.042714667522918, 51.490022273098205 ], [ -0.044472749457202, 51.490107452877552 ], [ -0.044526656049457, 51.490127232052551 ], [ -0.044550451512074, 51.490142912642995 ], [ -0.044710983608175, 51.490363156787673 ], [ -0.044732044498853, 51.490442712845073 ], [ -0.045109422117478, 51.490377985133087 ], [ -0.045089747737062, 51.490332615465704 ], [ -0.045495687389385, 51.490235997839058 ], [ -0.045805718451963, 51.490162952413058 ], [ -0.04590125158694, 51.490220285369332 ], [ -0.046138329454973, 51.490367184278881 ], [ -0.046541311759017, 51.490342436231444 ], [ -0.046540008599116, 51.490472863943907 ], [ -0.046541416648157, 51.490745383779633 ], [ -0.047569685856798, 51.49044686972173 ], [ -0.047524016803834, 51.490370500328808 ], [ -0.049194080423051, 51.489986466727188 ], [ -0.049234903042113, 51.490042886203391 ], [ -0.049332354491705, 51.490022032574942 ], [ -0.049687039053421, 51.489946124040671 ], [ -0.049631466593996, 51.489865185405293 ], [ -0.0503192813585, 51.489747979177018 ], [ -0.050791464592661, 51.489618282137968 ], [ -0.051125702505917, 51.48955101948485 ], [ -0.051440220770738, 51.489439285571969 ], [ -0.051932733352361, 51.489136318449724 ], [ -0.050143646188811, 51.488361987421648 ], [ -0.050082768034249, 51.488335801607811 ], [ -0.05031821532651, 51.488117568351015 ], [ -0.050282983481443, 51.488099900597177 ], [ -0.05035858970036, 51.48801754854609 ], [ -0.050438391665798, 51.48793427731227 ], [ -0.050518936083865, 51.487905949189532 ], [ -0.050618263046383, 51.487871640231951 ], [ -0.050712143385154, 51.487934335975851 ], [ -0.050744137984154, 51.48792767590912 ], [ -0.051089789457066, 51.487826440038873 ], [ -0.051282524997008, 51.487799078099215 ], [ -0.051724415464515, 51.487808223272957 ], [ -0.05209395967868, 51.487823356214257 ], [ -0.052149092899489, 51.487814383206839 ], [ -0.052386987479344, 51.487775183318369 ], [ -0.052474602167956, 51.487711909050724 ], [ -0.052596279802347, 51.487562803862239 ], [ -0.052605246106723, 51.487553063510092 ], [ -0.052863997732214, 51.487634679379113 ], [ -0.05395162765275, 51.48793602876696 ], [ -0.053702921198038, 51.487518254922136 ], [ -0.053538737487298, 51.487282589401303 ], [ -0.053489554661995, 51.487218840398484 ], [ -0.053380332297648, 51.487078575562627 ], [ -0.053296082231836, 51.487026740522104 ], [ -0.053228734386531, 51.486985165426418 ], [ -0.053160276192417, 51.486969643735577 ], [ -0.053130242950525, 51.486963750638488 ], [ -0.053004628849661, 51.486868164647589 ], [ -0.052968355816676, 51.486841490134516 ], [ -0.052908042182897, 51.486735211579081 ], [ -0.052875843103081, 51.486679835730165 ], [ -0.052854689136154, 51.486602167608723 ], [ -0.052818467976648, 51.486471206314931 ], [ -0.052830898809776, 51.486449836110403 ], [ -0.05286811847136, 51.486387432438598 ], [ -0.0528945611238, 51.486343819255559 ], [ -0.052914679771388, 51.486275827163546 ], [ -0.052920612326652, 51.486103221884932 ], [ -0.052923362454397, 51.486005273201989 ], [ -0.053053833431041, 51.485984066016755 ], [ -0.053155393300704, 51.485966873563989 ], [ -0.053114325033538, 51.485849317297777 ], [ -0.053534275461671, 51.485795968132756 ], [ -0.053526087115352, 51.485517132594097 ], [ -0.053397253261116, 51.485293741173635 ], [ -0.053288977011559, 51.485231707514657 ], [ -0.053223603180793, 51.485213539945008 ], [ -0.053170050635423, 51.485218943526128 ], [ -0.053143284405689, 51.485169861289812 ], [ -0.053071559639519, 51.485164174558847 ], [ -0.053015163006747, 51.484832304266362 ], [ -0.052975379767726, 51.484614976796905 ], [ -0.052974185458215, 51.484609562767197 ], [ -0.052938605800554, 51.484396710363555 ], [ -0.052987843117779, 51.484389437149467 ], [ -0.053092251281777, 51.484374989238027 ], [ -0.052958986858691, 51.48358135810988 ], [ -0.052956556089973, 51.483568731291406 ], [ -0.052864430380073, 51.483568099606074 ], [ -0.052806875742735, 51.483567143269347 ], [ -0.052775168788501, 51.483466823987875 ], [ -0.052896551996508, 51.483458052542446 ], [ -0.052895690911085, 51.483408591540069 ], [ -0.052952854959084, 51.483385267513377 ], [ -0.05292376365936, 51.482919805396975 ], [ -0.052930164446344, 51.482803037733866 ], [ -0.05293388541359, 51.482749157705634 ], [ -0.052831751307327, 51.482746561622847 ], [ -0.052792985447877, 51.48274501843828 ], [ -0.052787462168958, 51.482671206122966 ], [ -0.05278572827281, 51.482645015510833 ], [ -0.052916885776209, 51.48264090163461 ], [ -0.052948666173345, 51.482402287454654 ], [ -0.052991842197586, 51.481965895977694 ], [ -0.053027013087763, 51.481748015807177 ], [ -0.05309312030067, 51.481447848854287 ], [ -0.053224995931807, 51.481056084404877 ], [ -0.053234729967572, 51.481031073249049 ], [ -0.053142452691791, 51.481031338248535 ], [ -0.053130904158109, 51.481032045411162 ], [ -0.053162035660794, 51.480978620764468 ], [ -0.05319324363474, 51.480923399317966 ], [ -0.053242920546409, 51.480838816667003 ], [ -0.053280363723102, 51.480771022446035 ], [ -0.053402139039475, 51.480515922530813 ], [ -0.053463685575982, 51.480489973988313 ], [ -0.053488588956449, 51.480479599292707 ], [ -0.053481215618885, 51.480382291548473 ], [ -0.053362608367483, 51.480362340646394 ], [ -0.053331117332474, 51.480357322347743 ], [ -0.053333183963888, 51.480308808997222 ], [ -0.05338754202352, 51.480317803291769 ], [ -0.05354772635922, 51.480342939958305 ], [ -0.05354782502441, 51.480273716200678 ], [ -0.053547587358072, 51.480245842287808 ], [ -0.053494615009185, 51.480237770116396 ], [ -0.053444512815449, 51.480162318261989 ], [ -0.053452385616823, 51.480077850209128 ], [ -0.053496089450967, 51.479966197294843 ], [ -0.053595634768844, 51.479792449842115 ], [ -0.053628396281531, 51.479801085300913 ], [ -0.053669743399073, 51.479811661418196 ], [ -0.053682324700491, 51.479786697517589 ], [ -0.053974133642612, 51.479258328632625 ], [ -0.053992754467953, 51.479225373718876 ], [ -0.053927354651317, 51.479208015131071 ], [ -0.053921616946835, 51.479206121778354 ], [ -0.05430289868623, 51.478606416477206 ], [ -0.054241882119776, 51.478583736651139 ], [ -0.052673589664244, 51.478009185254528 ], [ -0.052721863271415, 51.476302186869013 ], [ -0.052737444561372, 51.473840178551796 ], [ -0.052731408033267, 51.472933674785729 ], [ -0.052148133751953, 51.471210785038515 ], [ -0.051954945741618, 51.470609537227361 ], [ -0.051775898732151, 51.47008053659733 ], [ -0.051661443362446, 51.469757589041556 ], [ -0.051660973094068, 51.469701751329509 ], [ -0.05175682060922, 51.469614340961257 ], [ -0.052125684416135, 51.469338087951606 ], [ -0.05225619703737, 51.469214393177111 ], [ -0.052015334377865, 51.468954973810924 ], [ -0.051658796400428, 51.468571362001171 ], [ -0.05142083247182, 51.468344354818527 ], [ -0.050968927544597, 51.467730710853886 ], [ -0.050855787696442, 51.4675804884074 ], [ -0.051102682995355, 51.467464035125339 ], [ -0.051300970500901, 51.467371136688612 ], [ -0.051294082604987, 51.467365627935742 ], [ -0.050974650085388, 51.467122880309681 ], [ -0.050549565782456, 51.466793865111363 ], [ -0.050608400535483, 51.466764276921296 ], [ -0.050796720933578, 51.466671213593969 ], [ -0.050862825948054, 51.46663815010028 ], [ -0.050494376075357, 51.466601453032588 ], [ -0.050253004069041, 51.466557789332178 ], [ -0.049879425995775, 51.466471558217435 ], [ -0.049644511574141, 51.466410109991848 ], [ -0.049597560155315, 51.466397641006814 ], [ -0.049381155454674, 51.46633919746295 ], [ -0.049030170510081, 51.466229875000593 ], [ -0.048603597264897, 51.466072632788126 ], [ -0.048180487590684, 51.465898275170602 ], [ -0.048514589229694, 51.465626938407283 ], [ -0.04769519910025, 51.465225624994559 ], [ -0.047536106894166, 51.465176224237247 ], [ -0.047457673060491, 51.465125470364107 ], [ -0.047304961181899, 51.465026728814514 ], [ -0.047011944132002, 51.464908476886499 ], [ -0.046747434363117, 51.464731453196315 ], [ -0.046561208780555, 51.464608687167789 ], [ -0.046338026865374, 51.46440627960154 ], [ -0.046188201824149, 51.464240067297652 ], [ -0.04597352595474, 51.463974778620312 ], [ -0.045694759564519, 51.463523219637793 ], [ -0.045431731202852, 51.462942371760434 ], [ -0.045320721151944, 51.462606888458957 ], [ -0.045211248898844, 51.46220490220005 ], [ -0.045162922187031, 51.461819219614711 ], [ -0.045103470349642, 51.461324478375516 ], [ -0.045080081233375, 51.460930221456564 ], [ -0.045088554833888, 51.460595832404024 ], [ -0.045097725541968, 51.460281233710262 ], [ -0.045151480786713, 51.459831534927488 ], [ -0.045217084048752, 51.459407296639554 ], [ -0.045277887836923, 51.459095357459226 ], [ -0.04531019850067, 51.458980820213533 ], [ -0.04558995609193, 51.458158107307561 ], [ -0.045691855804297, 51.457898098647235 ], [ -0.045717201368941, 51.457810416198605 ], [ -0.045754316426387, 51.457680585608607 ], [ -0.045755739628114, 51.457680609348785 ], [ -0.045976032717837, 51.457174442104979 ], [ -0.046077601683709, 51.457122194132452 ], [ -0.046134838175996, 51.456963030897938 ], [ -0.044970162184602, 51.456661214767394 ], [ -0.044606798715239, 51.456576934664987 ], [ -0.043426696357711, 51.455931325035863 ], [ -0.04271997793756, 51.455492389412093 ], [ -0.042074758632999, 51.455164159384353 ], [ -0.041936525760716, 51.455099725900986 ], [ -0.041799517070819, 51.455037200685865 ], [ -0.041623036848894, 51.454990198108398 ], [ -0.042420055498076, 51.453889256228372 ], [ -0.042963755088208, 51.453191519523735 ], [ -0.043164114252633, 51.453118448424469 ], [ -0.043637172121674, 51.452656963409837 ], [ -0.043860561140117, 51.452414268386384 ], [ -0.044482358895778, 51.451706950168379 ], [ -0.044848411527974, 51.4513245870804 ], [ -0.044974975755015, 51.451292535905338 ], [ -0.045098613842042, 51.451228969576078 ], [ -0.045170846730991, 51.451054773330625 ], [ -0.045153293584376, 51.450960081864949 ], [ -0.045457560441237, 51.450643214381152 ], [ -0.04584959198022, 51.450191157511753 ], [ -0.046125189813851, 51.449872911617952 ], [ -0.046485845748882, 51.449919382401688 ], [ -0.046915903214656, 51.44996071585738 ], [ -0.047732355408163, 51.450051640794022 ], [ -0.048214193237606, 51.450092034289767 ], [ -0.048696108554998, 51.450130629035421 ], [ -0.049061067821249, 51.450112433233386 ], [ -0.049340761740703, 51.450031682395597 ], [ -0.049909844084395, 51.449848673358517 ], [ -0.050928975916407, 51.44950772752572 ], [ -0.053044321329187, 51.448836981666446 ], [ -0.053438909766448, 51.448763525110728 ], [ -0.053554000861376, 51.448730285281329 ], [ -0.053619317225559, 51.448717885039962 ], [ -0.053762187224292, 51.448709470359354 ], [ -0.053882750344871, 51.448717766559099 ], [ -0.053928300089979, 51.448729311664565 ], [ -0.053981967485325, 51.448753667974032 ], [ -0.054055730379385, 51.448813330473349 ], [ -0.05430567795381, 51.448993692725878 ], [ -0.054723161503244, 51.449194008140829 ], [ -0.055409848008504, 51.449493189564883 ], [ -0.056517838083017, 51.4499396064015 ], [ -0.057535655949679, 51.450338666813408 ], [ -0.057563844842485, 51.450317557436357 ], [ -0.058075043130139, 51.44994025765056 ], [ -0.058593229269008, 51.449563071446484 ], [ -0.05866179750962, 51.449507568704455 ], [ -0.05903587027723, 51.44930779880282 ], [ -0.059652014934414, 51.448998759391351 ], [ -0.060946963200835, 51.448427558749998 ], [ -0.06135790536493, 51.448138488440314 ], [ -0.061801243111986, 51.447796010712885 ], [ -0.062054086876158, 51.447535788219959 ], [ -0.062194289500108, 51.447352007699401 ], [ -0.062317541015907, 51.447193029645121 ], [ -0.062543346188054, 51.446957531769932 ], [ -0.062875759742449, 51.44644869227804 ], [ -0.063058191838486, 51.446183707105497 ], [ -0.063218970974497, 51.445852734227365 ], [ -0.063339417026598, 51.445557954686379 ], [ -0.063458476667546, 51.445262253060804 ], [ -0.063614343296509, 51.444808839970122 ], [ -0.063687631400895, 51.444537644309214 ], [ -0.063718169800403, 51.444225195576045 ], [ -0.0637240591044, 51.444153280347301 ], [ -0.063639879700778, 51.443355165453021 ], [ -0.063707945904642, 51.442867935549835 ], [ -0.063844740309068, 51.442525776838316 ], [ -0.06405706559316, 51.442097660033262 ], [ -0.064140082907136, 51.441972178417288 ], [ -0.064193049603331, 51.441909222368515 ], [ -0.064251787643283, 51.441847260697877 ], [ -0.064585979496343, 51.441533535982202 ], [ -0.065000518651933, 51.441157306136652 ], [ -0.064645548367905, 51.441008405892582 ], [ -0.064254333659196, 51.440903048195487 ], [ -0.06402788058759, 51.440848960056833 ], [ -0.063775242494169, 51.439539927592762 ], [ -0.063726579445049, 51.438990533051303 ], [ -0.063707795417321, 51.438208692730214 ], [ -0.063681143575114, 51.437988888004192 ], [ -0.063674996605485, 51.43792945018172 ], [ -0.063517925974106, 51.43776673593495 ], [ -0.063431663400706, 51.437626858758762 ], [ -0.063431046700107, 51.437540451432241 ], [ -0.063525016683053, 51.43749525508774 ], [ -0.063957073567274, 51.437282043226716 ], [ -0.064132448658672, 51.437216614909715 ], [ -0.064219190454133, 51.437173995651847 ], [ -0.064339174857962, 51.437091469095591 ], [ -0.064394567598883, 51.437041139435244 ], [ -0.064441458086565, 51.436987073133501 ], [ -0.064504822946396, 51.436882843204629 ], [ -0.064534619938825, 51.436792533088116 ], [ -0.064585476499941, 51.436678296980894 ], [ -0.064774561413598, 51.436288363124447 ], [ -0.065060642142708, 51.435919000674588 ], [ -0.065390064655386, 51.435410913051733 ], [ -0.065581091020902, 51.435078637903821 ], [ -0.065762280757462, 51.434703945388179 ], [ -0.065808541501334, 51.43463098837907 ], [ -0.065883361488176, 51.434530632801845 ], [ -0.065948274664346, 51.434456994745062 ], [ -0.066017228436559, 51.434391604568418 ], [ -0.066118591317856, 51.434308768673695 ], [ -0.066683062375257, 51.433922420493758 ], [ -0.067125786586362, 51.433691392355691 ], [ -0.06772755235095, 51.433444106424517 ], [ -0.068576416480966, 51.432999508596716 ], [ -0.068995831895524, 51.432845406341308 ], [ -0.069503412909845, 51.432682057070572 ], [ -0.069596537732051, 51.432656530832048 ], [ -0.069958420163008, 51.432569893375188 ], [ -0.070161475519268, 51.432530984182954 ], [ -0.070367186184001, 51.432496613538184 ], [ -0.070669532039756, 51.432457540899549 ], [ -0.070917405652505, 51.432447238527295 ], [ -0.07108414936287, 51.432450883306906 ], [ -0.071309162876975, 51.432470770777925 ], [ -0.07158205042215, 51.432483354635089 ], [ -0.07205116228368, 51.432481186819025 ], [ -0.072190198328276, 51.432458302078565 ], [ -0.072357637190982, 51.432411610685186 ], [ -0.072435145775782, 51.432382229089484 ], [ -0.072514294656857, 51.432344873045579 ], [ -0.072604318076362, 51.432291513290437 ], [ -0.072682956654031, 51.432235269060534 ], [ -0.072738296549396, 51.432185833726258 ], [ -0.072835940782071, 51.432086658625025 ], [ -0.073560312012392, 51.431351297572732 ], [ -0.074867803357431, 51.429748689990753 ], [ -0.074901993166862, 51.429654853443502 ], [ -0.074944506616835, 51.42953229472532 ], [ -0.075022680822493, 51.42917927062387 ], [ -0.075067527203801, 51.428795131698536 ], [ -0.075002744822077, 51.428555733611525 ], [ -0.074918432085775, 51.428371844460656 ], [ -0.074769924251258, 51.428106796418476 ], [ -0.074464953350242, 51.427627813843344 ], [ -0.074301324211076, 51.427448913675718 ], [ -0.074140394285627, 51.427067595451511 ], [ -0.073959039725957, 51.426523306114071 ], [ -0.07390466865619, 51.426208559744531 ], [ -0.073909855049902, 51.426152904974437 ], [ -0.073928613945526, 51.426149617275954 ], [ -0.073976480831156, 51.426142312992006 ], [ -0.074022848475825, 51.426133995103051 ], [ -0.074069212327359, 51.426125767036673 ], [ -0.074115651699312, 51.426115742127514 ], [ -0.074162166586202, 51.426103920375375 ], [ -0.074213180023207, 51.426089475459641 ], [ -0.074264112673231, 51.4260741301606 ], [ -0.074315239339336, 51.426056989962731 ], [ -0.074363402947709, 51.426039801035223 ], [ -0.07441164204537, 51.426020815262696 ], [ -0.074459918865154, 51.426000931057331 ], [ -0.0745067733957, 51.425981023453865 ], [ -0.074528759518192, 51.42597149547386 ], [ -0.07455670418014, 51.425958469295587 ], [ -0.07458595255286, 51.425945464538792 ], [ -0.07461389718315, 51.425932438346301 ], [ -0.074641723277262, 51.425919410198873 ], [ -0.074668283387608, 51.425905462204625 ], [ -0.074696147206983, 51.425891535631223 ], [ -0.074721204275714, 51.42587666388885 ], [ -0.074747802093312, 51.425861817463158 ], [ -0.074771436885239, 51.425846922334948 ], [ -0.074795113192071, 51.425831038947912 ], [ -0.074818823461386, 51.425814346984453 ], [ -0.074841111470872, 51.425797631642588 ], [ -0.074860474212968, 51.425779969189726 ], [ -0.074867968216179, 51.425773799114282 ], [ -0.074887487210806, 51.425755240191684 ], [ -0.074906887669584, 51.425736679317836 ], [ -0.074923562152085, 51.425718073643644 ], [ -0.074940155852724, 51.425698567606489 ], [ -0.074955327300072, 51.425679038194843 ], [ -0.074970617254318, 51.425659510728593 ], [ -0.074982981950495, 51.425639036156781 ], [ -0.074995346635519, 51.42561856158342 ], [ -0.075007711309389, 51.42559808700851 ], [ -0.075017231499962, 51.425577565689977 ], [ -0.075429211387724, 51.424980007892465 ], [ -0.075430671344704, 51.424979132850488 ], [ -0.075639022193809, 51.424677695338694 ], [ -0.076572979231845, 51.423194804765906 ], [ -0.07757738357143, 51.42171036701172 ], [ -0.077873177419926, 51.421240445038258 ], [ -0.078016543862795, 51.421011657711347 ], [ -0.078213025222335, 51.420718112745874 ], [ -0.078280824115504, 51.420608644794243 ], [ -0.079135147568492, 51.420817747549052 ], [ -0.079171724315199, 51.420836327930758 ], [ -0.079197031785592, 51.42084932933237 ], [ -0.079229630829062, 51.42089490517057 ] ] ] } }
]
}
