{
"type": "FeatureCollection",
"name": "borough_Bexley",
"crs": { "type": "name", "properties": { "name": "urn:ogc:def:crs:OGC:1.3:CRS84" } },
"features": [
{ "type": "Feature", "properties": { "DISTRICT": "Bexley", "NAME": "Longlands", "GSS_CODE": "E05011227", "LAGSSCODE": "E09000004", "HECTARES": 188.689, "NONLD_AREA": 0.0 }, "geometry": { "type": "Polygon", "coordinates": [ [ [ 0.126275979152744, 51.414769121070037 ], [ 0.12618984851346, 51.414803949194578 ], [ 0.125925527034495, 51.414808745484699 ], [ 0.125705217589336, 51.414803752126389 ], [ 0.125533505756834, 51.414790684296733 ], [ 0.125428285445842, 51.414787198734601 ], [ 0.125364892712281, 51.414752386435346 ], [ 0.125106185920402, 51.41469414511451 ], [ 0.124835446163119, 51.414624433738595 ], [ 0.124600849543138, 51.414590028597388 ], [ 0.124085696626104, 51.414427559427239 ], [ 0.123098745521973, 51.414109111342896 ], [ 0.122475042884076, 51.413932419398165 ], [ 0.122041551923904, 51.413825192608897 ], [ 0.12181181663859, 51.413772712936208 ], [ 0.120755328657956, 51.413565189828923 ], [ 0.120187667014058, 51.413448697287393 ], [ 0.119909623324736, 51.413407876838193 ], [ 0.119515701465639, 51.413348383998127 ], [ 0.119096372933904, 51.413298429831379 ], [ 0.118881046111804, 51.413275352709341 ], [ 0.118609930847927, 51.413258678347951 ], [ 0.11819908235469, 51.413238236392814 ], [ 0.11801142012269, 51.413223648046589 ], [ 0.117317996455166, 51.413218200614693 ], [ 0.116941369573334, 51.413189044355988 ], [ 0.116406818987773, 51.413198701813826 ], [ 0.116049041866118, 51.413174596503616 ], [ 0.11505610422951, 51.413097136715294 ], [ 0.114372740111081, 51.413091494238529 ], [ 0.113586325767618, 51.413098496042288 ], [ 0.113504017150564, 51.413059524178145 ], [ 0.113124846268865, 51.412913527680068 ], [ 0.112584854603362, 51.413023962323827 ], [ 0.112548128059767, 51.413099245667311 ], [ 0.112519848839128, 51.413172578535907 ], [ 0.112359575930597, 51.413222309544409 ], [ 0.112100666816413, 51.413282719610024 ], [ 0.111790080296697, 51.413315291350955 ], [ 0.111332592839933, 51.413373885582587 ], [ 0.110374804921166, 51.413529599719737 ], [ 0.109618783486347, 51.413663780785633 ], [ 0.109562801038148, 51.413635120654007 ], [ 0.108896569232752, 51.413782873420026 ], [ 0.108368303238901, 51.413898560341657 ], [ 0.107649429453073, 51.414090407007762 ], [ 0.107528683483126, 51.414123146984913 ], [ 0.107236360828523, 51.414207521790331 ], [ 0.107031490208262, 51.414257148162157 ], [ 0.107036075526123, 51.414356859112225 ], [ 0.107037149568038, 51.414380214830146 ], [ 0.106430101478801, 51.414564737288281 ], [ 0.105714531784968, 51.414797867218674 ], [ 0.104742095809326, 51.41513638985932 ], [ 0.104501424392958, 51.41521991895285 ], [ 0.104158491775136, 51.41536183373848 ], [ 0.10384344591603, 51.415486164884499 ], [ 0.103754411217744, 51.415520129118512 ], [ 0.103539683852143, 51.415603190077249 ], [ 0.103377247870478, 51.415668140148107 ], [ 0.103257279018632, 51.415717942967078 ], [ 0.103141761982999, 51.415802728084074 ], [ 0.103013127901986, 51.415883343259502 ], [ 0.102875773914345, 51.415990995919834 ], [ 0.102734571557623, 51.41611040489606 ], [ 0.102647451646041, 51.416155122198425 ], [ 0.102630359291574, 51.41615992414058 ], [ 0.102550692710697, 51.416178435599342 ], [ 0.102476362085448, 51.41615819277704 ], [ 0.102417275299738, 51.41621688123498 ], [ 0.102464401281218, 51.416241208459468 ], [ 0.102475544393392, 51.416264383365345 ], [ 0.102478635386178, 51.416269722097276 ], [ 0.102301159742091, 51.416381690082453 ], [ 0.101114886875406, 51.416950661726943 ], [ 0.100467726639304, 51.417233864273229 ], [ 0.099536716949524, 51.417696571368907 ], [ 0.098698224326674, 51.418134238004185 ], [ 0.098459668966177, 51.418264467915144 ], [ 0.098071876301671, 51.418497168140576 ], [ 0.097428328164128, 51.418860315983814 ], [ 0.097033763649957, 51.419069668916379 ], [ 0.096747281002792, 51.419220534863562 ], [ 0.09667017950881, 51.419264170695435 ], [ 0.095685949288009, 51.419789031850293 ], [ 0.095144683213293, 51.420094503396342 ], [ 0.094883897892181, 51.420242207036864 ], [ 0.094823846988008, 51.420280142128163 ], [ 0.094290090567267, 51.420591857825947 ], [ 0.094277519576765, 51.420630741572708 ], [ 0.094268844592343, 51.420661464239451 ], [ 0.094107573035443, 51.420752544403292 ], [ 0.09391088527361, 51.420854956157072 ], [ 0.093619106917084, 51.421017505340352 ], [ 0.093337110825422, 51.421170978273828 ], [ 0.092998812394367, 51.421387400671996 ], [ 0.0928993103462, 51.42147557686166 ], [ 0.092411589474815, 51.421788257599701 ], [ 0.092115113454979, 51.422003929674275 ], [ 0.091831227144201, 51.42221227353037 ], [ 0.091575918889857, 51.422386841672392 ], [ 0.091481147645863, 51.422451466863585 ], [ 0.091248274047192, 51.422582389645235 ], [ 0.091075264548977, 51.422699746506751 ], [ 0.090957999858375, 51.422778258346881 ], [ 0.090955237896568, 51.422780105732421 ], [ 0.090837193130862, 51.422841549581889 ], [ 0.090677075652918, 51.422924422163888 ], [ 0.09055437661819, 51.423011211772369 ], [ 0.090332879128991, 51.423168001474849 ], [ 0.090089980936253, 51.423328858570848 ], [ 0.089836708065072, 51.42354824776568 ], [ 0.089422548873071, 51.423864994966799 ], [ 0.08914676351301, 51.424064195808562 ], [ 0.088962299233507, 51.424214028528908 ], [ 0.088755831969846, 51.424385919995089 ], [ 0.088650887885215, 51.42451365632909 ], [ 0.087907541295138, 51.425120450820266 ], [ 0.087618219070553, 51.425335171940908 ], [ 0.087424369226876, 51.425500452381755 ], [ 0.087276080079469, 51.42562455471618 ], [ 0.086960583981707, 51.425928746686317 ], [ 0.086490621703497, 51.426380434225067 ], [ 0.086000979863967, 51.42690538218956 ], [ 0.085633140518203, 51.427295011798719 ], [ 0.085171937376293, 51.427780700885201 ], [ 0.084446452419929, 51.42865426047662 ], [ 0.084058258345157, 51.429102773926175 ], [ 0.084022766267313, 51.429143861966296 ], [ 0.083689696785039, 51.429505894888372 ], [ 0.083490456948919, 51.429681154254745 ], [ 0.083220374400112, 51.42987664248124 ], [ 0.083170176319779, 51.429912597446162 ], [ 0.082932213020854, 51.430058066778813 ], [ 0.082632536079092, 51.430205441613076 ], [ 0.082193154219849, 51.430350803047595 ], [ 0.08143201223184, 51.430570295399356 ], [ 0.081021455640365, 51.43068457287535 ], [ 0.080737765323273, 51.430774210167137 ], [ 0.080542322244929, 51.430777680480027 ], [ 0.08041187492993, 51.430757520591222 ], [ 0.080397793251257, 51.430826097477052 ], [ 0.079465318408182, 51.431044932474066 ], [ 0.077035922647071, 51.431594357437071 ], [ 0.075602851577986, 51.431938998409251 ], [ 0.075369263769386, 51.431990784695593 ], [ 0.07533367644438, 51.431998607275922 ], [ 0.074678820312892, 51.432151442155607 ], [ 0.074713236999085, 51.432183198140592 ], [ 0.074810827766964, 51.432271373941973 ], [ 0.074858852869346, 51.432315475451347 ], [ 0.074930113155065, 51.432333093433201 ], [ 0.075073330476318, 51.432412459657343 ], [ 0.075450132426505, 51.432696175507431 ], [ 0.075655887057416, 51.432854447682118 ], [ 0.075918848228565, 51.433036879104826 ], [ 0.076106217257583, 51.433299674615107 ], [ 0.075680868573591, 51.433627356947966 ], [ 0.075722110188436, 51.433647394164133 ], [ 0.075938544023044, 51.43375593972489 ], [ 0.076414446835076, 51.434003823424703 ], [ 0.076316344338037, 51.434092768414729 ], [ 0.075915770673, 51.434459570507137 ], [ 0.076529344565029, 51.434855154165312 ], [ 0.076444360630103, 51.434885519220629 ], [ 0.076433025921844, 51.434889316221678 ], [ 0.07603234625257, 51.435128367260496 ], [ 0.075674609305678, 51.435362250967884 ], [ 0.075477051094249, 51.435510495277548 ], [ 0.074986549815295, 51.435861894953327 ], [ 0.075028114476388, 51.435889029108488 ], [ 0.075927017942266, 51.436452178215873 ], [ 0.076026330221712, 51.436517936540312 ], [ 0.076538108198535, 51.436857785134691 ], [ 0.076570776849874, 51.43687968216225 ], [ 0.076955878936562, 51.436741507803383 ], [ 0.077103190807445, 51.436688550627409 ], [ 0.077330707758216, 51.436630575317508 ], [ 0.077846180250187, 51.436447921942786 ], [ 0.077992961928725, 51.436608044978541 ], [ 0.078165387370182, 51.43679207697658 ], [ 0.078340660335133, 51.437007434633003 ], [ 0.078444817290679, 51.437114460728132 ], [ 0.078461317259713, 51.437130350748099 ], [ 0.078527472736992, 51.437192109969459 ], [ 0.078711818321416, 51.437419083538003 ], [ 0.078858984755936, 51.43765022263856 ], [ 0.078930403787533, 51.437796487696424 ], [ 0.079062370438755, 51.437977639992305 ], [ 0.079028813581803, 51.437998913218834 ], [ 0.078876549996963, 51.43809960963619 ], [ 0.078816299694933, 51.438133942876604 ], [ 0.078841494501403, 51.438150577634289 ], [ 0.079089502739912, 51.438321579907658 ], [ 0.079172896116435, 51.438415398276341 ], [ 0.079279440460538, 51.43847823852429 ], [ 0.079485847555457, 51.438652675231985 ], [ 0.079608206091781, 51.438747599901575 ], [ 0.079514741001712, 51.438876022845221 ], [ 0.079632660869756, 51.438907194591998 ], [ 0.079729496020628, 51.438946921667728 ], [ 0.079790045072071, 51.438981808551418 ], [ 0.079804874802161, 51.438989636688099 ], [ 0.079837836259906, 51.43902051798834 ], [ 0.080055626824942, 51.439220823744037 ], [ 0.079963969624802, 51.439261109272209 ], [ 0.079970149683545, 51.439271788028577 ], [ 0.079985555074814, 51.439294889562419 ], [ 0.080130518852159, 51.439443354698398 ], [ 0.080222574334995, 51.439537108463284 ], [ 0.080159237075451, 51.439568800070219 ], [ 0.080059088802454, 51.43961283254496 ], [ 0.080072581850923, 51.439625179561986 ], [ 0.080319060377151, 51.43982488569327 ], [ 0.080513117066708, 51.43997796294795 ], [ 0.080430075779616, 51.440019893937631 ], [ 0.080442064819784, 51.440030469538762 ], [ 0.080877937788461, 51.44040581026583 ], [ 0.081352961171193, 51.440188797471137 ], [ 0.081668550887435, 51.440040154865038 ], [ 0.08181175973326, 51.439962091873547 ], [ 0.081859431041074, 51.439998105644342 ], [ 0.08260019825213, 51.440560509131643 ], [ 0.082816291349419, 51.440725688279002 ], [ 0.082967936333758, 51.440864232171819 ], [ 0.083264953415391, 51.441097288141258 ], [ 0.084196130788901, 51.4417965473815 ], [ 0.084441876271401, 51.442010733398881 ], [ 0.083250557642548, 51.442647034472557 ], [ 0.082939982753539, 51.442778419118895 ], [ 0.082852188392121, 51.442841113695124 ], [ 0.082958311304754, 51.442928232296353 ], [ 0.0831241866833, 51.443063825704222 ], [ 0.082999301353295, 51.443164040031483 ], [ 0.082970133159893, 51.443187933310291 ], [ 0.082836596715222, 51.443288391100367 ], [ 0.083058750093053, 51.443427389794223 ], [ 0.083242455627203, 51.443542797486678 ], [ 0.083692896962428, 51.443259685832935 ], [ 0.084374704300561, 51.442872485380519 ], [ 0.08473834371878, 51.442611590970017 ], [ 0.085017420515869, 51.442734289895277 ], [ 0.085018884087205, 51.442735162895637 ], [ 0.085331073808455, 51.442829401929288 ], [ 0.085309589214991, 51.4428630484962 ], [ 0.085565458691657, 51.442950287499997 ], [ 0.085774582784524, 51.442993316115931 ], [ 0.086346897196927, 51.443236748230973 ], [ 0.086476891135633, 51.443246121711915 ], [ 0.086939652603182, 51.44326485413206 ], [ 0.087406543272612, 51.443246650707941 ], [ 0.087245511831077, 51.44356606904811 ], [ 0.0869505943528, 51.443915741186359 ], [ 0.086830964086353, 51.444131032581012 ], [ 0.086697900102005, 51.444400415243123 ], [ 0.086530952677587, 51.444683976346369 ], [ 0.086415009566093, 51.444982811937365 ], [ 0.086320731451578, 51.445311828973459 ], [ 0.086382635176519, 51.445344890457555 ], [ 0.086582021391749, 51.44539267614914 ], [ 0.086721008803715, 51.445411778711126 ], [ 0.086837979028783, 51.445452849960432 ], [ 0.086923837979554, 51.4455376287384 ], [ 0.087094054049924, 51.445609217955855 ], [ 0.087307618359053, 51.445746653552291 ], [ 0.087381334355078, 51.445848729924116 ], [ 0.087381492689244, 51.445945822968937 ], [ 0.087379399649388, 51.446089795868758 ], [ 0.087558506863662, 51.44623135088667 ], [ 0.087793190775559, 51.446423250673064 ], [ 0.08793617880074, 51.44658972244072 ], [ 0.088032054674653, 51.446800276917145 ], [ 0.088067004066575, 51.447092829898111 ], [ 0.088065713310541, 51.44750649923094 ], [ 0.087934926503117, 51.448171598050394 ], [ 0.087914507314217, 51.448418387417448 ], [ 0.087859420367746, 51.448662198131203 ], [ 0.087435556371672, 51.449497129433333 ], [ 0.087063914698531, 51.449963243966025 ], [ 0.086822739857641, 51.450451398479601 ], [ 0.086857094339445, 51.450699819557109 ], [ 0.086836182060972, 51.450964598012213 ], [ 0.086743419387306, 51.451550801826109 ], [ 0.086680484429397, 51.451812732136382 ], [ 0.086670960463021, 51.451887521554326 ], [ 0.086634291354642, 51.452186743713256 ], [ 0.086602617039181, 51.452470593345389 ], [ 0.086534883067037, 51.452942173898663 ], [ 0.086462059635917, 51.453398471463238 ], [ 0.086415576669772, 51.453766194750614 ], [ 0.086325117126349, 51.454340669440057 ], [ 0.086293417704307, 51.454561586911353 ], [ 0.086271316642916, 51.454706724762339 ], [ 0.086214305775221, 51.454846280544672 ], [ 0.08611191545729, 51.455062971855803 ], [ 0.086084796251911, 51.455256836700073 ], [ 0.086085581527586, 51.455401567221074 ], [ 0.086057508896343, 51.455543305035071 ], [ 0.08604806521381, 51.455619890982412 ], [ 0.08603093266546, 51.455780313820696 ], [ 0.085849800399027, 51.45619628338028 ], [ 0.085748925183171, 51.456446301482927 ], [ 0.085706241003703, 51.456551348849992 ], [ 0.085710542168183, 51.456645670882963 ], [ 0.085012725221989, 51.456811009828883 ], [ 0.08392881786304, 51.457065020567256 ], [ 0.083022479406688, 51.457298694584537 ], [ 0.082232426008466, 51.45752409277889 ], [ 0.081446357780543, 51.457774588706059 ], [ 0.080893963302097, 51.458003761110902 ], [ 0.080806661050516, 51.458046666527274 ], [ 0.080447741743482, 51.458226641077331 ], [ 0.079779162660512, 51.458623382182793 ], [ 0.079638058639288, 51.458561155527647 ], [ 0.079527957286066, 51.458640425781134 ], [ 0.078853248526815, 51.459124566181202 ], [ 0.078694135110694, 51.459266738088274 ], [ 0.078663653813293, 51.459293350589469 ], [ 0.079415329952056, 51.459392486553654 ], [ 0.080851651822887, 51.459575571726688 ], [ 0.082904880293612, 51.459834978387043 ], [ 0.082682514797029, 51.460073666404625 ], [ 0.082506213292128, 51.460343900891594 ], [ 0.082436424791545, 51.46051865385671 ], [ 0.082338106106829, 51.460700296659567 ], [ 0.082300771887663, 51.460795358202539 ], [ 0.082271130345108, 51.460902959456462 ], [ 0.082257495699661, 51.460984114552026 ], [ 0.082253950551348, 51.461096556579939 ], [ 0.082253693405935, 51.461184756233337 ], [ 0.082290303086447, 51.461545606945634 ], [ 0.08229308455274, 51.461606691747861 ], [ 0.08230594101188, 51.46192031561057 ], [ 0.082334318324572, 51.46219680345726 ], [ 0.082401942964233, 51.462542718698195 ], [ 0.082438397019153, 51.462647257970367 ], [ 0.082557531356532, 51.462987763004229 ], [ 0.082629084283251, 51.463263483805683 ], [ 0.082656549656935, 51.463613708389708 ], [ 0.082611711631316, 51.463893294774806 ], [ 0.082495919131534, 51.464131886975331 ], [ 0.082215597969944, 51.464646796855007 ], [ 0.082202371369504, 51.46473693495993 ], [ 0.082172070534555, 51.465114257392408 ], [ 0.082227373176173, 51.465697825767982 ], [ 0.082231016414376, 51.466061958863371 ], [ 0.082216687299542, 51.466412026617071 ], [ 0.082249532745231, 51.466531104413725 ], [ 0.08230057947043, 51.466609312607716 ], [ 0.082322217105808, 51.466641293455538 ], [ 0.083244942933055, 51.466479168572626 ], [ 0.0835695718919, 51.466936581230399 ], [ 0.084004763717682, 51.467545762529376 ], [ 0.084360512884853, 51.468021409939155 ], [ 0.084558741945857, 51.468325444701009 ], [ 0.084823490621413, 51.46873177494313 ], [ 0.085133423592802, 51.468710080810361 ], [ 0.085203588889295, 51.468796039092467 ], [ 0.085471920062374, 51.469090734237376 ], [ 0.085789917295015, 51.46943309297545 ], [ 0.086045459717892, 51.469543622773223 ], [ 0.086371272217937, 51.469677265371757 ], [ 0.086635968989492, 51.46979841937744 ], [ 0.087028884228467, 51.46995334171568 ], [ 0.087295225374334, 51.470014229795751 ], [ 0.0876237810913, 51.470082999852529 ], [ 0.088129068731865, 51.470205350514298 ], [ 0.088618089692547, 51.470319807584666 ], [ 0.088923718177928, 51.470390780497041 ], [ 0.089074701009729, 51.470418657510592 ], [ 0.089570560353901, 51.470713784221992 ], [ 0.089858261881362, 51.470865178003216 ], [ 0.090130115629472, 51.471046431769537 ], [ 0.090559985129658, 51.471315759712944 ], [ 0.090902657008817, 51.471534497260002 ], [ 0.091211129723537, 51.471732267010424 ], [ 0.09113488066292, 51.47179655923901 ], [ 0.091123552709414, 51.47183182354452 ], [ 0.09122316268147, 51.471899272441298 ], [ 0.091247506665851, 51.471959073416777 ], [ 0.09130602837292, 51.471979606374077 ], [ 0.091325124268899, 51.472020711162585 ], [ 0.091291069889148, 51.472062674078224 ], [ 0.091425310342747, 51.472100736067787 ], [ 0.091568847247321, 51.472186280788563 ], [ 0.091771421529277, 51.472269873048425 ], [ 0.091887827861815, 51.472328121301551 ], [ 0.091963053733407, 51.472334870413022 ], [ 0.091999466338345, 51.472375576217466 ], [ 0.092165644813235, 51.472449927833722 ], [ 0.092508224889748, 51.47254180886209 ], [ 0.092718212288542, 51.472631650323066 ], [ 0.092866759537571, 51.472730589523294 ], [ 0.093198069057376, 51.472952220314355 ], [ 0.093616792108839, 51.473073305833822 ], [ 0.09387319945227, 51.473137053519814 ], [ 0.094024688002524, 51.473175703551476 ], [ 0.094237424389583, 51.473229531905034 ], [ 0.094498663422235, 51.473274312240939 ], [ 0.094674116459326, 51.47326848073628 ], [ 0.095034922601399, 51.473286308116677 ], [ 0.095381439120671, 51.473274721685556 ], [ 0.095691391963258, 51.473250302286054 ], [ 0.096576025285105, 51.47322909273646 ], [ 0.09658750992127, 51.473259454486239 ], [ 0.096830814617857, 51.473886404323629 ], [ 0.096936788714883, 51.474094882714517 ], [ 0.097112492378966, 51.474156560443909 ], [ 0.097361090055808, 51.474520807037266 ], [ 0.097508707350666, 51.474663809626399 ], [ 0.098048163271572, 51.475122733635537 ], [ 0.098124423313336, 51.475213969373733 ], [ 0.098194217838974, 51.475355756495269 ], [ 0.098251011130986, 51.47546262406599 ], [ 0.098740068797476, 51.475449375724452 ], [ 0.099269530446926, 51.475408430892848 ], [ 0.099809358787715, 51.475308860865525 ], [ 0.100226396281553, 51.475234772897402 ], [ 0.100973454380656, 51.474975952470295 ], [ 0.101455687091944, 51.474814384628033 ], [ 0.101467396403054, 51.474694603345206 ], [ 0.101724689472672, 51.474495710354816 ], [ 0.101771730595233, 51.474485876759765 ], [ 0.101848734571279, 51.474469212774608 ], [ 0.102028916278685, 51.474473174796003 ], [ 0.102497527666664, 51.474924268296284 ], [ 0.102576222346752, 51.474882400586658 ], [ 0.102577728628495, 51.47488417164098 ], [ 0.102700074600543, 51.474818146169241 ], [ 0.10310341256453, 51.474601347265661 ], [ 0.103114878887795, 51.474600242553016 ], [ 0.103168211263003, 51.474572314876568 ], [ 0.103299308907847, 51.474572660249258 ], [ 0.103318301342549, 51.474577713737247 ], [ 0.103404159215726, 51.474598649297462 ], [ 0.103739030700247, 51.474769840658247 ], [ 0.103883691609667, 51.474848157928029 ], [ 0.10415428736547, 51.475031289884164 ], [ 0.104511378521398, 51.475218173001636 ], [ 0.104715967378922, 51.475378214552663 ], [ 0.10484139234604, 51.475505423777648 ], [ 0.10491862798042, 51.475524714970327 ], [ 0.105218304739119, 51.475246028272835 ], [ 0.105663306789854, 51.475467290740497 ], [ 0.10618969612423, 51.475014522397544 ], [ 0.106405762639657, 51.475140101666 ], [ 0.106925012438504, 51.475346629836686 ], [ 0.107085836511421, 51.475396782692691 ], [ 0.107187486662587, 51.475479465026261 ], [ 0.107227242556468, 51.47555885446684 ], [ 0.107300125949389, 51.475671721936891 ], [ 0.107363494798462, 51.475735313468554 ], [ 0.107427044919581, 51.475771930668024 ], [ 0.107575736193987, 51.47584216965393 ], [ 0.10769023131523, 51.475920125563533 ], [ 0.107693752384889, 51.475996480215478 ], [ 0.108193053635507, 51.476112559134798 ], [ 0.108252840347576, 51.476126767693373 ], [ 0.108257623443896, 51.476106902922098 ], [ 0.108325158070275, 51.476008502875658 ], [ 0.108504542193533, 51.475745366084709 ], [ 0.108749382108984, 51.475464959066088 ], [ 0.109000958261215, 51.4752688498452 ], [ 0.109408181352565, 51.475013300703381 ], [ 0.10978099556537, 51.474758369283464 ], [ 0.110060580090607, 51.474513295747634 ], [ 0.110398274536303, 51.474187071577809 ], [ 0.110594884361648, 51.474017121144684 ], [ 0.110715728621478, 51.473921446085015 ], [ 0.110843929292766, 51.473828245652513 ], [ 0.110912400180552, 51.473781162126869 ], [ 0.111261473043011, 51.473544723861899 ], [ 0.111693147645097, 51.473289625231253 ], [ 0.111799670638161, 51.473195016086429 ], [ 0.112002947286828, 51.473074479934468 ], [ 0.112265325345227, 51.473269428846422 ], [ 0.112492396927834, 51.473414577480682 ], [ 0.112554690313642, 51.473454810667633 ], [ 0.112587361465452, 51.473475798814853 ], [ 0.112869805269699, 51.473729721138518 ], [ 0.113033025240342, 51.473895888078751 ], [ 0.11309467359358, 51.473983781459246 ], [ 0.113251762553994, 51.474202202624582 ], [ 0.113540124398818, 51.474553112464449 ], [ 0.113777452618532, 51.474858191876891 ], [ 0.113829280100311, 51.474921088958595 ], [ 0.11405210198471, 51.47519226603589 ], [ 0.114373166750099, 51.475377161772712 ], [ 0.114659883288422, 51.475535615223016 ], [ 0.115052836747549, 51.475749779888474 ], [ 0.115076600640059, 51.475765533844381 ], [ 0.11510668264596, 51.475794659357014 ], [ 0.115367305882684, 51.476040878385604 ], [ 0.115517076231051, 51.476164940196583 ], [ 0.11569145368795, 51.476325508171108 ], [ 0.116137148916829, 51.476806630346402 ], [ 0.116480785811584, 51.477134959033634 ], [ 0.116845934485048, 51.477494364628242 ], [ 0.117118332719426, 51.477779025852698 ], [ 0.118192651710826, 51.478679606135287 ], [ 0.118481771407547, 51.478919909452927 ], [ 0.118876393562983, 51.478797702190029 ], [ 0.119117744602664, 51.478722226664416 ], [ 0.119173530330724, 51.478714026127882 ], [ 0.119401146203026, 51.478682940934455 ], [ 0.11973092810603, 51.478622138197103 ], [ 0.119900291605971, 51.478610085858563 ], [ 0.120259973329718, 51.478599986102459 ], [ 0.120617702084948, 51.478550362955048 ], [ 0.120758407610867, 51.478511856583545 ], [ 0.121038387490624, 51.47839890774992 ], [ 0.121411775309367, 51.478251813011013 ], [ 0.121792617052466, 51.478111864363818 ], [ 0.121884265981301, 51.478067951088846 ], [ 0.122250583218447, 51.477894010461647 ], [ 0.122637947075459, 51.477738657319151 ], [ 0.122963450117192, 51.477583434018925 ], [ 0.123467191803919, 51.477328784897544 ], [ 0.123704356617611, 51.477163561733171 ], [ 0.123841913200214, 51.477054893796115 ], [ 0.123913483476268, 51.476985270503938 ], [ 0.124081220966829, 51.476813212831836 ], [ 0.124188224977377, 51.476823860806554 ], [ 0.124067764486485, 51.477113825019067 ], [ 0.124001204342281, 51.477291242130867 ], [ 0.123935952914693, 51.477468725391468 ], [ 0.123734731850242, 51.478065015654956 ], [ 0.123486008277778, 51.478694531112019 ], [ 0.12333020795122, 51.479093018849696 ], [ 0.123013893846798, 51.479970183073746 ], [ 0.122665723636074, 51.480846933963896 ], [ 0.122534307052886, 51.481241472701228 ], [ 0.122260106207806, 51.481849869217093 ], [ 0.122162504683977, 51.482231118964641 ], [ 0.122125520371331, 51.482426879204226 ], [ 0.122087101127019, 51.482747721338356 ], [ 0.122092883071661, 51.482994941571206 ], [ 0.122105028399146, 51.483599053900562 ], [ 0.1220973397218, 51.484456241955563 ], [ 0.122101292781231, 51.485564048402537 ], [ 0.122050234610739, 51.485860844045135 ], [ 0.121992447516518, 51.486074151395599 ], [ 0.121973187214841, 51.486124845761758 ], [ 0.121542365147156, 51.487330512131663 ], [ 0.121494916711031, 51.487518459224695 ], [ 0.121476102853351, 51.487640168973797 ], [ 0.12147207060631, 51.487740034513131 ], [ 0.121482443139972, 51.487840628373839 ], [ 0.121524145550156, 51.48802507453189 ], [ 0.121560195496601, 51.488553233058454 ], [ 0.121554655924308, 51.488651327794649 ], [ 0.121547654734824, 51.488748639844751 ], [ 0.121456826260898, 51.488994819888184 ], [ 0.121362320738602, 51.489780755328162 ], [ 0.121320516013856, 51.490555757960543 ], [ 0.121306253854318, 51.49108752363167 ], [ 0.121302732406544, 51.491103769910076 ], [ 0.121269169147668, 51.491342710424256 ], [ 0.121260707342791, 51.492587476157532 ], [ 0.121215572213521, 51.493290604152492 ], [ 0.121224268190493, 51.49369509404395 ], [ 0.12119208894719, 51.495203775615181 ], [ 0.121113126921532, 51.49620158325569 ], [ 0.121110147950849, 51.496293426656393 ], [ 0.12107295888293, 51.497354308609978 ], [ 0.121051245814333, 51.498840324599719 ], [ 0.121027054970605, 51.499746340381414 ], [ 0.121009953534161, 51.500771800133322 ], [ 0.120954730857131, 51.50135285102931 ], [ 0.120947441955458, 51.501661438936715 ], [ 0.120942870308782, 51.501964583524341 ], [ 0.120973278571797, 51.50243251629054 ], [ 0.120957110294414, 51.503079388644309 ], [ 0.120885274228435, 51.503796492915782 ], [ 0.120851318068649, 51.504927542916917 ], [ 0.12087564161505, 51.506070124907396 ], [ 0.120807890912037, 51.506629735606424 ], [ 0.120774164344542, 51.507018904775975 ], [ 0.120751538183208, 51.507401490048878 ], [ 0.120725508130322, 51.507833583311097 ], [ 0.120733959747938, 51.508450342050871 ], [ 0.120722824436791, 51.508706855773568 ], [ 0.120707241519847, 51.508959858297516 ], [ 0.120653369245003, 51.509445516993225 ], [ 0.12062796849183, 51.50976882952537 ], [ 0.120607127097136, 51.510095655815313 ], [ 0.12056316661029, 51.51104343258914 ], [ 0.120238854022862, 51.511445066189843 ], [ 0.119102075521293, 51.512728266460087 ], [ 0.118324556173287, 51.513584922943288 ], [ 0.119332581763073, 51.513967861191588 ], [ 0.120007528009802, 51.514225462723488 ], [ 0.120465971712384, 51.514383495484658 ], [ 0.120795222072223, 51.514489920591387 ], [ 0.12113126894499, 51.514589119128921 ], [ 0.12161012137154, 51.514720705007122 ], [ 0.121849340056928, 51.514782005630231 ], [ 0.122264793332299, 51.514881561194983 ], [ 0.122963647102927, 51.51506220168136 ], [ 0.12340017998805, 51.515152380592532 ], [ 0.123890025193205, 51.515241501761039 ], [ 0.124424303687543, 51.515322622901621 ], [ 0.125239121616961, 51.515425716137152 ], [ 0.1252970455154, 51.515431858176647 ], [ 0.125308563452245, 51.515431649301327 ], [ 0.12632346180567, 51.51546718330885 ], [ 0.127036003392775, 51.515507297458669 ], [ 0.127742142197539, 51.515534936697001 ], [ 0.128256969749823, 51.515542670590975 ], [ 0.128834570942749, 51.515533078964694 ], [ 0.129030208430069, 51.515525928836773 ], [ 0.130555193333996, 51.515431685163868 ], [ 0.13182117557045, 51.515288193364931 ], [ 0.132724014374253, 51.515206973983702 ], [ 0.133622616569127, 51.515004542427178 ], [ 0.135954360267589, 51.51459523901044 ], [ 0.136874838191607, 51.514370717356464 ], [ 0.138018464535621, 51.514074695896326 ], [ 0.139070612449918, 51.513766844292448 ], [ 0.139953289203816, 51.513410826453452 ], [ 0.140900569069248, 51.513049128621972 ], [ 0.142360173401012, 51.512488285111708 ], [ 0.143479164397862, 51.512008354095968 ], [ 0.14456787251254, 51.511590101178108 ], [ 0.146887766940686, 51.510722099993075 ], [ 0.148122038927639, 51.510365883863855 ], [ 0.149227222360735, 51.510087539003194 ], [ 0.149967852796766, 51.509900461294066 ], [ 0.150349347862255, 51.509828652819017 ], [ 0.151133501052358, 51.509680328955824 ], [ 0.152640418102133, 51.509362224974566 ], [ 0.153288184075593, 51.509255046661444 ], [ 0.154698171628316, 51.509084340589681 ], [ 0.156433494220767, 51.508873568388381 ], [ 0.157902788015793, 51.508769163994685 ], [ 0.157974680503298, 51.508764246402869 ], [ 0.160086330148146, 51.508712827190671 ], [ 0.160087754771748, 51.50871280097941 ], [ 0.160542356426038, 51.508664877912409 ], [ 0.160801582259995, 51.50863133765943 ], [ 0.161154794863818, 51.508572691514807 ], [ 0.161501721266246, 51.508504270485808 ], [ 0.161755777864837, 51.508451943233759 ], [ 0.162554228812154, 51.508270824605404 ], [ 0.163617346079998, 51.508018293393569 ], [ 0.163929779140957, 51.507921731048718 ], [ 0.164866204297079, 51.507611286844451 ], [ 0.165185701912408, 51.507510993767276 ], [ 0.165689760901323, 51.507351462002731 ], [ 0.166939142478627, 51.506926433940727 ], [ 0.167535042201407, 51.50669956692245 ], [ 0.167961944465278, 51.506524457475045 ], [ 0.168526579848297, 51.506277484229102 ], [ 0.168970645639733, 51.506068698642821 ], [ 0.169211340666048, 51.505948271676189 ], [ 0.169692176452975, 51.505698345860132 ], [ 0.169925317594792, 51.505569066346951 ], [ 0.170375138500685, 51.505301729729695 ], [ 0.170746502830577, 51.505051126466903 ], [ 0.172610943475143, 51.503655087975154 ], [ 0.172826455611477, 51.503460407008255 ], [ 0.173209429140252, 51.503090004693334 ], [ 0.173492747916797, 51.502837425553466 ], [ 0.174155456115543, 51.50216955279658 ], [ 0.174392488948304, 51.501910726079302 ], [ 0.174661410674639, 51.501598173188505 ], [ 0.174854027122629, 51.501347271124274 ], [ 0.174978876785152, 51.501155164889489 ], [ 0.175485709102745, 51.500301277537744 ], [ 0.175749957505193, 51.499799101963227 ], [ 0.175915053831991, 51.499213263384398 ], [ 0.175935594244106, 51.499160736387729 ], [ 0.176094085979789, 51.498737841297917 ], [ 0.176095510248277, 51.498737814876733 ], [ 0.176290352951073, 51.498292577513901 ], [ 0.176339057786078, 51.498195473505419 ], [ 0.176599384591385, 51.497763405633286 ], [ 0.176646535409201, 51.497663633089594 ], [ 0.176917654354234, 51.497037165062359 ], [ 0.177042064929077, 51.496624790454739 ], [ 0.177218920982648, 51.495770718156685 ], [ 0.177366348873843, 51.495208580217117 ], [ 0.177713742957416, 51.493883734332321 ], [ 0.177848309592652, 51.493323632295095 ], [ 0.177917311357883, 51.493079601990985 ], [ 0.178074430536318, 51.492596400805887 ], [ 0.178271190621265, 51.492102663551627 ], [ 0.178378209223743, 51.49183895746787 ], [ 0.17855453779072, 51.491459692303316 ], [ 0.17903962807764, 51.490455142523032 ], [ 0.179596803744751, 51.489575209168301 ], [ 0.180045775859741, 51.488961610007429 ], [ 0.180576573614522, 51.4882835519075 ], [ 0.180852728485535, 51.488003210661788 ], [ 0.181055494102392, 51.487815039849828 ], [ 0.181680330257713, 51.487325918788862 ], [ 0.182170443739522, 51.486972275477299 ], [ 0.182465037411518, 51.486777089172882 ], [ 0.182685687762232, 51.486632637424684 ], [ 0.183362110155114, 51.486228859297377 ], [ 0.184023631323431, 51.485903573861357 ], [ 0.184843841449058, 51.485526778138599 ], [ 0.185175987793303, 51.485392021935041 ], [ 0.185477273832774, 51.485277529593859 ], [ 0.186156910668393, 51.485031012434597 ], [ 0.186379435248256, 51.484955836978713 ], [ 0.186898881368833, 51.484794207536936 ], [ 0.18729693164627, 51.484654529865601 ], [ 0.187484360716996, 51.484597988339559 ], [ 0.187628164868172, 51.484562939045148 ], [ 0.188204671341705, 51.484449688197529 ], [ 0.188402493828266, 51.484431611377751 ], [ 0.188772551707059, 51.484396833399863 ], [ 0.18946078699822, 51.484332648062853 ], [ 0.189997933002488, 51.484270471320791 ], [ 0.190281951987889, 51.484244487956445 ], [ 0.192000189187927, 51.484150345333788 ], [ 0.19558699180927, 51.484186635612858 ], [ 0.196333064591705, 51.484214021455159 ], [ 0.197160498549001, 51.484258848607759 ], [ 0.198374675915923, 51.484346678457406 ], [ 0.198779105892633, 51.484369664325719 ], [ 0.199042442044653, 51.484392597603822 ], [ 0.199304625442432, 51.484423643593708 ], [ 0.200473639037427, 51.484591507427361 ], [ 0.202620934682527, 51.484971151357712 ], [ 0.203396938038556, 51.48508163403924 ], [ 0.205148334202582, 51.485316726171412 ], [ 0.20772500787499, 51.485698090906915 ], [ 0.208155274922953, 51.485746631132976 ], [ 0.208304219308572, 51.485759110562419 ], [ 0.208718881023137, 51.485784566632695 ], [ 0.209624896042578, 51.485815148669708 ], [ 0.210335170824849, 51.48587737472532 ], [ 0.211083948605102, 51.485871349894566 ], [ 0.211545368219432, 51.48585185958202 ], [ 0.212589134811043, 51.485779034264809 ], [ 0.213609141129314, 51.485664481544411 ], [ 0.213845302630847, 51.485631252754423 ], [ 0.214203843028736, 51.485569639535314 ], [ 0.216124155426013, 51.485188025378996 ], [ 0.216332252622419, 51.485144532513807 ], [ 0.216730527338405, 51.485040712228823 ], [ 0.2169694194139, 51.484975957365492 ], [ 0.217205082977729, 51.48490586866199 ], [ 0.217462923621338, 51.484815580481957 ], [ 0.218652029923683, 51.484328085112224 ], [ 0.219012050853489, 51.484207090007388 ], [ 0.219970552822685, 51.483835521349022 ], [ 0.220295652248242, 51.483709698693808 ], [ 0.222132270108656, 51.482943777951789 ], [ 0.223704120492599, 51.482272758297427 ], [ 0.222140024832887, 51.481238533682323 ], [ 0.220865304866451, 51.480437061880302 ], [ 0.220155960154355, 51.480006260690786 ], [ 0.219668108702464, 51.480015496390855 ], [ 0.218741258652861, 51.480235329705053 ], [ 0.218377617180319, 51.480310539640406 ], [ 0.218195285335055, 51.48029241106893 ], [ 0.218077526022829, 51.48027126263225 ], [ 0.217968328104796, 51.480245456751199 ], [ 0.217619107037709, 51.480143273330725 ], [ 0.21732821347076, 51.480056169319113 ], [ 0.216919300138297, 51.479908270539866 ], [ 0.216833160029877, 51.479855954391724 ], [ 0.216666864186357, 51.479693577880234 ], [ 0.216639763949033, 51.479639246420405 ], [ 0.216601429998893, 51.479532081710033 ], [ 0.216390392367679, 51.47913049669009 ], [ 0.216381712002122, 51.479100901276112 ], [ 0.216381347810756, 51.479064045961799 ], [ 0.216409099835544, 51.47898260439959 ], [ 0.216437416177605, 51.478824730534306 ], [ 0.216434474793933, 51.478734788420482 ], [ 0.216454656853619, 51.478614829574326 ], [ 0.216446818643408, 51.478482723346566 ], [ 0.216480498321482, 51.478435334693671 ], [ 0.216504152749192, 51.47841870418074 ], [ 0.216543660993334, 51.478400874915927 ], [ 0.216637524439168, 51.478377522790488 ], [ 0.216745792517694, 51.478085883138718 ], [ 0.216816957849206, 51.477949676127928 ], [ 0.216851081103666, 51.477852739793157 ], [ 0.216900028144726, 51.477613558788512 ], [ 0.216900127789231, 51.477556914988696 ], [ 0.216888148458827, 51.477488721616311 ], [ 0.216858927776512, 51.477420045010724 ], [ 0.216711175768565, 51.477106272677389 ], [ 0.21662541804632, 51.476971233846612 ], [ 0.216567191086561, 51.476899419212209 ], [ 0.216470203546857, 51.476799656566058 ], [ 0.216302209393096, 51.476660777314187 ], [ 0.216254796431392, 51.476635600110846 ], [ 0.216054805308426, 51.476549381828171 ], [ 0.215688817432025, 51.476485270232324 ], [ 0.215015351735617, 51.476378415605971 ], [ 0.214427850468986, 51.476261755742414 ], [ 0.213498080464609, 51.476006804669176 ], [ 0.213100494191129, 51.475915412668634 ], [ 0.212878121330645, 51.475871959446941 ], [ 0.212731389149699, 51.475816289153222 ], [ 0.212520610692529, 51.475747442263319 ], [ 0.212393999098791, 51.475690402833138 ], [ 0.212284407917246, 51.475626838437826 ], [ 0.212238104516129, 51.475592648252416 ], [ 0.212142899526998, 51.475500042721436 ], [ 0.211568650140363, 51.475092647111012 ], [ 0.211534670239734, 51.475045639404996 ], [ 0.211529343843975, 51.474994495004786 ], [ 0.211461210845463, 51.474717889248105 ], [ 0.211506813103972, 51.474440935877197 ], [ 0.211558943308853, 51.474325775153439 ], [ 0.211740559622949, 51.473765666945887 ], [ 0.211811755653131, 51.473571031268456 ], [ 0.211886719362524, 51.473451753332164 ], [ 0.211896604676401, 51.47338863441788 ], [ 0.211877185174214, 51.473316179148654 ], [ 0.211507767216538, 51.472942768943383 ], [ 0.211102415038246, 51.472660838251301 ], [ 0.210552801287198, 51.47222420709415 ], [ 0.210262096068938, 51.472048984575913 ], [ 0.209754148102378, 51.471849898045079 ], [ 0.209656599278955, 51.471796896459388 ], [ 0.209311027373781, 51.471589352514151 ], [ 0.209201627403702, 51.471502410906197 ], [ 0.209033921884805, 51.471339161833683 ], [ 0.208870156878877, 51.471107601986645 ], [ 0.208824923338481, 51.471036442323459 ], [ 0.208813146704007, 51.471001602146984 ], [ 0.208803739225064, 51.470956827990086 ], [ 0.208805652535485, 51.470905547243085 ], [ 0.208819204146138, 51.470829773326223 ], [ 0.208844810451332, 51.47076267257259 ], [ 0.208885121483376, 51.470702576765383 ], [ 0.208928713620887, 51.470651409383194 ], [ 0.209459677324884, 51.470138661407375 ], [ 0.209825453497674, 51.469750484713771 ], [ 0.209977474657512, 51.469619056066485 ], [ 0.210151687140939, 51.46949970510601 ], [ 0.211003374513946, 51.469128428858646 ], [ 0.211178606788551, 51.468998358276117 ], [ 0.211250377549814, 51.468935869493635 ], [ 0.211302667494142, 51.468885435763752 ], [ 0.211342067474905, 51.468836054418382 ], [ 0.211383828606361, 51.468747160909572 ], [ 0.211471827458303, 51.468365118724549 ], [ 0.211514953956698, 51.467975832097558 ], [ 0.211398393329386, 51.467591268004853 ], [ 0.211056014526157, 51.466941269347835 ], [ 0.210781517893882, 51.466447422358392 ], [ 0.210585383100875, 51.466142680922566 ], [ 0.210447383258914, 51.465849428000787 ], [ 0.210381463519233, 51.465647410666584 ], [ 0.210363444748337, 51.465512902539921 ], [ 0.210359789194206, 51.465081277929784 ], [ 0.210378467917961, 51.464929895756221 ], [ 0.210377536355766, 51.464851701455316 ], [ 0.210384925248259, 51.464795824877996 ], [ 0.210424478278589, 51.464690706375471 ], [ 0.210513526770634, 51.464001121787902 ], [ 0.210523256020854, 51.463637657632958 ], [ 0.210588018073054, 51.46310135902511 ], [ 0.210612761615444, 51.462481310498461 ], [ 0.210306997619148, 51.462290198939158 ], [ 0.210105240683329, 51.462197721969275 ], [ 0.209892711523178, 51.46211812342321 ], [ 0.209431467827255, 51.462047708018154 ], [ 0.209296129521116, 51.462017895520276 ], [ 0.207872468149453, 51.461574369567536 ], [ 0.207631250128853, 51.46146833699185 ], [ 0.207148480078734, 51.461131226481463 ], [ 0.20708931503046, 51.461098178784624 ], [ 0.207046005325681, 51.461066540607021 ], [ 0.206985236602038, 51.461000260299642 ], [ 0.206863588394589, 51.460897368405412 ], [ 0.20676891657814, 51.460844312121829 ], [ 0.206242847173782, 51.460623083164258 ], [ 0.205964568004661, 51.460464613353793 ], [ 0.205572702947994, 51.460190601360125 ], [ 0.205506507308384, 51.460159393035191 ], [ 0.205376220429081, 51.460115995369229 ], [ 0.204785958416312, 51.459995844728219 ], [ 0.204657814900529, 51.45993532491886 ], [ 0.204561303279982, 51.45987600809547 ], [ 0.204501358422826, 51.459826701619804 ], [ 0.203856805698473, 51.459266967705929 ], [ 0.20373425084013, 51.459172089720674 ], [ 0.2034426175203, 51.45891587260121 ], [ 0.203271817005465, 51.458748266366385 ], [ 0.203196053849715, 51.458639016832251 ], [ 0.203178649952426, 51.458607877053552 ], [ 0.202966121183002, 51.458347549041079 ], [ 0.202880034959871, 51.458265464605269 ], [ 0.20285590535308, 51.45824254255588 ], [ 0.202862231263932, 51.458223543583095 ], [ 0.202942830207409, 51.458164489888176 ], [ 0.203051495441571, 51.458057259045574 ], [ 0.203107743762971, 51.45797070229797 ], [ 0.203165332743266, 51.457882412171188 ], [ 0.203247028559208, 51.457725341140495 ], [ 0.203235538555733, 51.457604994114234 ], [ 0.203154003287929, 51.457407835377616 ], [ 0.202874694323149, 51.456837508269238 ], [ 0.202607968800007, 51.456230081671421 ], [ 0.202573927374229, 51.456151604062669 ], [ 0.202593567367056, 51.456140446622889 ], [ 0.203150347677028, 51.456103828119495 ], [ 0.203436909866144, 51.456077767443283 ], [ 0.20380483707189, 51.456035792732642 ], [ 0.203835412617206, 51.455983073382633 ], [ 0.203859777324718, 51.455919682116843 ], [ 0.203900733222774, 51.455663492512073 ], [ 0.203894655040702, 51.455598875082615 ], [ 0.20388306225366, 51.455567626105505 ], [ 0.203847167902538, 51.455509862130008 ], [ 0.203337759355941, 51.455033762434738 ], [ 0.203284888628221, 51.454980812143731 ], [ 0.203262785062997, 51.454940769849472 ], [ 0.203261488095561, 51.454913822627752 ], [ 0.203271606622006, 51.45488486294073 ], [ 0.203325138383119, 51.454830723715503 ], [ 0.203337800055987, 51.454795422911246 ], [ 0.203398459705234, 51.454561429321849 ], [ 0.203400103639965, 51.454385993384086 ], [ 0.203380017332105, 51.454355802771254 ], [ 0.203352709076858, 51.45432844491031 ], [ 0.20305947599033, 51.454277310089495 ], [ 0.202990591300249, 51.454251631692813 ], [ 0.2029580085645, 51.454230576175235 ], [ 0.202939745645218, 51.45421113983717 ], [ 0.202803195074815, 51.453975453784508 ], [ 0.202720560876807, 51.453932861261478 ], [ 0.202500566743232, 51.453879450725189 ], [ 0.202454430275936, 51.453877619418776 ], [ 0.202363669795931, 51.453905395320454 ], [ 0.202039208749209, 51.454103072917782 ], [ 0.202027793395605, 51.454105085234964 ], [ 0.201965497400514, 51.454095465481792 ], [ 0.201934612733998, 51.454082559134108 ], [ 0.201897042807688, 51.454049099890696 ], [ 0.201884791016533, 51.45391528029721 ], [ 0.201852912838402, 51.453881714216934 ], [ 0.201386556515306, 51.453850904515399 ], [ 0.201076678819807, 51.453633659924343 ], [ 0.201020848068927, 51.453580763356108 ], [ 0.201004686883914, 51.453543305892119 ], [ 0.201003261776185, 51.453513663615951 ], [ 0.20101092437813, 51.4534928415206 ], [ 0.20104646118854, 51.453454414535784 ], [ 0.201158097611549, 51.453379497028216 ], [ 0.201169080942469, 51.453368502322363 ], [ 0.201189013411387, 51.453304205332437 ], [ 0.201129475764341, 51.453263066067223 ], [ 0.201012184577301, 51.453249981604031 ], [ 0.200862705382389, 51.45322401466111 ], [ 0.200719435987699, 51.453208719804955 ], [ 0.20069880367094, 51.453199216976728 ], [ 0.200642058209528, 51.453154428759774 ], [ 0.200615009445159, 51.453102790292974 ], [ 0.200619953993218, 51.453055047299735 ], [ 0.200672366248113, 51.453007223516302 ], [ 0.200726115155183, 51.452898328377024 ], [ 0.200650894782582, 51.4528592808485 ], [ 0.200416262538077, 51.452859184169768 ], [ 0.200327915035975, 51.45284825340952 ], [ 0.200281475763809, 51.452810464189433 ], [ 0.20027087568453, 51.452740535942588 ], [ 0.200282874692591, 51.452659305425549 ], [ 0.200233685519172, 51.452596393910483 ], [ 0.200132718124999, 51.452621661996005 ], [ 0.19991971468954, 51.452711065180765 ], [ 0.199868373750366, 51.45272191707037 ], [ 0.199818272093621, 51.452726452262617 ], [ 0.199769086279337, 51.45272287868638 ], [ 0.199721226109839, 51.452714784919763 ], [ 0.199675736940514, 51.45269675698038 ], [ 0.199631109630256, 51.452667025013973 ], [ 0.199603448535441, 51.452629782579578 ], [ 0.199591773225583, 51.452596735920025 ], [ 0.199586424506144, 51.452544690328878 ], [ 0.199558634061962, 51.452504753089535 ], [ 0.199514998333723, 51.452466011791124 ], [ 0.199458826846773, 51.452435596931565 ], [ 0.199393047278024, 51.452415161868728 ], [ 0.199326323884323, 51.452404724081333 ], [ 0.19916940086731, 51.452404067650704 ], [ 0.199114006308471, 51.452389821230483 ], [ 0.199066879136029, 51.452367328299708 ], [ 0.199042840981284, 51.452346200968982 ], [ 0.199026509330241, 51.452305149779633 ], [ 0.199028276425073, 51.45228263998407 ], [ 0.199045586786677, 51.452252646491708 ], [ 0.199072986456724, 51.452225161210357 ], [ 0.199108039458826, 51.452203826036857 ], [ 0.199136472621333, 51.452138560561572 ], [ 0.198802412479781, 51.452104269808949 ], [ 0.198619986078148, 51.452051944099232 ], [ 0.198418568286195, 51.452053917855295 ], [ 0.198341076391107, 51.452029296578267 ], [ 0.198204222262638, 51.451967128169535 ], [ 0.1981451193451, 51.451934970123709 ], [ 0.198102389963934, 51.451885422917258 ], [ 0.198060900496669, 51.451859228277058 ], [ 0.198015455179619, 51.45184209844534 ], [ 0.197964501765745, 51.451831365292676 ], [ 0.197914098171197, 51.451829612510913 ], [ 0.197865386960512, 51.45183591962121 ], [ 0.197817182398036, 51.451850308839745 ], [ 0.197776393933166, 51.451870852572867 ], [ 0.197745856487347, 51.451894800507098 ], [ 0.197698169407429, 51.451979307349426 ], [ 0.197638862054448, 51.452004693312126 ], [ 0.197574887222431, 51.451930370050661 ], [ 0.197539779316607, 51.451859102261906 ], [ 0.197457023138385, 51.451784141837024 ], [ 0.197276363645062, 51.451798314851651 ], [ 0.197199992991431, 51.451797048171009 ], [ 0.197098722467013, 51.451786358074095 ], [ 0.197001537371372, 51.451769297901741 ], [ 0.196893637960291, 51.451741649506552 ], [ 0.196718625750309, 51.451814155271151 ], [ 0.19661998604879, 51.451769250947578 ], [ 0.196554287250911, 51.451748004533854 ], [ 0.196488556130778, 51.451728556827511 ], [ 0.196449535499888, 51.451726590282846 ], [ 0.196410805827508, 51.451728214544723 ], [ 0.196260348699088, 51.451773287789919 ], [ 0.196178933049092, 51.451785600903001 ], [ 0.196098724760361, 51.451793396020619 ], [ 0.195985996115172, 51.45178381856369 ], [ 0.195960890762709, 51.451802269869908 ], [ 0.195922849455566, 51.451847935310532 ], [ 0.195903772829051, 51.451900528154447 ], [ 0.195904719786033, 51.451949959054758 ], [ 0.195923980907138, 51.451992753659091 ], [ 0.195962138083781, 51.452036093597414 ], [ 0.196026068541096, 51.452079850111623 ], [ 0.196135045525091, 51.452129955811998 ], [ 0.1961620146482, 51.452152826638063 ], [ 0.196172955134811, 51.452170603143095 ], [ 0.196178434640648, 51.452195764323328 ], [ 0.196171373294245, 51.452229161977215 ], [ 0.196134539281356, 51.452270309537965 ], [ 0.195987226774322, 51.452351286025582 ], [ 0.195923380278231, 51.452368664374063 ], [ 0.195890384675084, 51.452371080145724 ], [ 0.19584567208067, 51.452369219901861 ], [ 0.195800614797827, 51.452360173567371 ], [ 0.195763997905573, 51.452346473904669 ], [ 0.195734193793299, 51.452326353255458 ], [ 0.195702363649747, 51.452293683604672 ], [ 0.195689785006225, 51.452271442402953 ], [ 0.195658935291681, 51.452137969152218 ], [ 0.195631924439481, 51.452084530787403 ], [ 0.195576531487309, 51.452040614296436 ], [ 0.19550911899474, 51.45201580311879 ], [ 0.195438170331872, 51.452006342197578 ], [ 0.195373645475668, 51.452012045120526 ], [ 0.19526587159717, 51.452076097528696 ], [ 0.195247006635752, 51.452103422509126 ], [ 0.195206680089188, 51.452131149103437 ], [ 0.195171269616383, 51.452142600521 ], [ 0.195128367774856, 51.452148797721655 ], [ 0.195090769727857, 51.452146804078716 ], [ 0.195054368538644, 51.452137595512418 ], [ 0.195021719092757, 51.452117527961136 ], [ 0.194998631439925, 51.452086492714344 ], [ 0.194994493554753, 51.452059598208365 ], [ 0.195028262527792, 51.451892639402821 ], [ 0.195019862406318, 51.451868431939943 ], [ 0.195003058664688, 51.451847168826475 ], [ 0.194976187002105, 51.451828791295299 ], [ 0.194948269496564, 51.451815827715421 ], [ 0.194890331633906, 51.451807921172033 ], [ 0.194851741676798, 51.451814936678765 ], [ 0.194814951548026, 51.451827312880944 ], [ 0.19479259469353, 51.451841217148299 ], [ 0.194758519410982, 51.451880514455425 ], [ 0.194660956198966, 51.451887734197278 ], [ 0.194632089595613, 51.45188467800557 ], [ 0.194565194520753, 51.451870645431285 ], [ 0.194483144745726, 51.451842511313863 ], [ 0.194422836707523, 51.451814869486725 ], [ 0.194348226524381, 51.451758725151592 ], [ 0.194280127959218, 51.45168987209113 ], [ 0.194252124585792, 51.451675111848736 ], [ 0.19418097192226, 51.451663855922007 ], [ 0.194149873150202, 51.451676125451534 ], [ 0.194095252852256, 51.451707715256354 ], [ 0.194073197234911, 51.451727907178991 ], [ 0.194049370206833, 51.451800277875208 ], [ 0.194055576253543, 51.45184061962685 ], [ 0.194048298282793, 51.451869525765169 ], [ 0.194033690726912, 51.451894073678332 ], [ 0.194008836644179, 51.451915306888907 ], [ 0.193977996001031, 51.451932965902458 ], [ 0.193938198219039, 51.45194449899067 ], [ 0.193892407602612, 51.451949850705731 ], [ 0.193846272564238, 51.451948016343238 ], [ 0.193782180281602, 51.451933031854139 ], [ 0.193716482401772, 51.451911783923514 ], [ 0.193667811553586, 51.45188922857912 ], [ 0.193627747167837, 51.451863005933397 ], [ 0.193594538839311, 51.45183126069692 ], [ 0.193569684949959, 51.451793065793581 ], [ 0.193546686756779, 51.451734157760228 ], [ 0.193483232314958, 51.451700280912483 ], [ 0.193019748359176, 51.451701754332021 ], [ 0.192908050843455, 51.451622027951359 ], [ 0.192900690034515, 51.451560040443788 ], [ 0.192885915328319, 51.451521657028152 ], [ 0.192861191222811, 51.451486156793678 ], [ 0.192832456801786, 51.451456125892115 ], [ 0.192758203648224, 51.451409863750172 ], [ 0.192676058997477, 51.45137723499937 ], [ 0.192642074172837, 51.451358990000294 ], [ 0.192481278009327, 51.451247725042244 ], [ 0.192412017938806, 51.451184287264795 ], [ 0.192155081579496, 51.450896805054832 ], [ 0.19200566441565, 51.450782719731706 ], [ 0.191942441026132, 51.45072636144738 ], [ 0.191913707580314, 51.450696330390407 ], [ 0.191773797157911, 51.450689055261925 ], [ 0.191747310070344, 51.450678671594702 ], [ 0.19101200219008, 51.448787687048387 ], [ 0.188850663858975, 51.44913021490909 ], [ 0.18882425796303, 51.449119020161049 ], [ 0.188434593496758, 51.448616444345632 ], [ 0.188404134464371, 51.448609820379431 ], [ 0.187673094898376, 51.448703474382697 ], [ 0.187643983066353, 51.44869772413405 ], [ 0.187400888439533, 51.448309287132439 ], [ 0.187377374249124, 51.448207144997426 ], [ 0.187307510857804, 51.447289357170867 ], [ 0.187357622779465, 51.447101421608352 ], [ 0.187361203926055, 51.447086970128375 ], [ 0.187438020727089, 51.446948792822745 ], [ 0.187467185728429, 51.446896104291802 ], [ 0.187464732405986, 51.446874573036105 ], [ 0.187082252579342, 51.446611005913979 ], [ 0.186527519269912, 51.446206803404493 ], [ 0.185776998644582, 51.445708163542911 ], [ 0.185114800094427, 51.445254713831325 ], [ 0.184277379762256, 51.444655195416729 ], [ 0.184246805176486, 51.444648572725526 ], [ 0.18406508011401, 51.444699607233545 ], [ 0.183688759209733, 51.444805511200855 ], [ 0.183655596486372, 51.444804330787868 ], [ 0.183228362260077, 51.44453709188501 ], [ 0.183199253400158, 51.444531340678019 ], [ 0.183076410897566, 51.44458046797881 ], [ 0.183044756710727, 51.444581057389293 ], [ 0.182776467874638, 51.444416943803105 ], [ 0.182662772576951, 51.444386695210383 ], [ 0.182557988984738, 51.444361674834497 ], [ 0.18218968070518, 51.444304699214285 ], [ 0.181444611139623, 51.444222278427489 ], [ 0.181084361483431, 51.444182231343667 ], [ 0.181066400910376, 51.444166382843747 ], [ 0.1810564717584, 51.444109928313772 ], [ 0.18100279678258, 51.44367840074981 ], [ 0.181002668332207, 51.443675706031925 ], [ 0.180887420077449, 51.443523125940501 ], [ 0.180859597244295, 51.443511956048944 ], [ 0.180557929840308, 51.443463625243766 ], [ 0.18046921918001, 51.443444597386389 ], [ 0.180235938827255, 51.443379710182164 ], [ 0.179882783696526, 51.443246836817494 ], [ 0.179575845398386, 51.443117688233691 ], [ 0.179547038233833, 51.44311822379575 ], [ 0.179225833561221, 51.443444341654633 ], [ 0.179197187519067, 51.443445773172478 ], [ 0.178914398834902, 51.44334035802612 ], [ 0.178887432081642, 51.443347152473436 ], [ 0.178750833791916, 51.443471150919216 ], [ 0.178725128204827, 51.443477022855404 ], [ 0.178077312250773, 51.443198581615647 ], [ 0.176287890568466, 51.442125638007525 ], [ 0.176017359198513, 51.442005692452184 ], [ 0.175984114162445, 51.442002713329799 ], [ 0.175184466448761, 51.442345792532869 ], [ 0.17470002713157, 51.442538273095828 ], [ 0.174422965672635, 51.442672873440983 ], [ 0.174212104377738, 51.44280984157907 ], [ 0.174075855101327, 51.442878986928164 ], [ 0.173933280142852, 51.442937371076503 ], [ 0.173805703535869, 51.44297929429446 ], [ 0.173701983371247, 51.443006390463957 ], [ 0.173606414496252, 51.443025244085028 ], [ 0.173507777558153, 51.443036962216723 ], [ 0.173391500619939, 51.443044512104962 ], [ 0.173164234061995, 51.443046027977879 ], [ 0.172796540252962, 51.44303126633627 ], [ 0.172787103513191, 51.443044926780907 ], [ 0.172854159370362, 51.443245158084579 ], [ 0.172779285787938, 51.443182624268786 ], [ 0.172524972960191, 51.442919424356049 ], [ 0.172518216343534, 51.442897073647927 ], [ 0.172585631183247, 51.442772566431273 ], [ 0.172576242684809, 51.442754759682515 ], [ 0.172459490315736, 51.442659827273019 ], [ 0.172422561963885, 51.442609266480765 ], [ 0.172377406243795, 51.442567848495734 ], [ 0.172325100265002, 51.442528271152966 ], [ 0.172185990573092, 51.442447238280451 ], [ 0.172050594690375, 51.442354448955825 ], [ 0.171902791276278, 51.442240222544982 ], [ 0.171770342926448, 51.442119507359159 ], [ 0.171381431464644, 51.441807459632216 ], [ 0.171136808244961, 51.441565561292009 ], [ 0.17101753798386, 51.441357392946529 ], [ 0.170902575459131, 51.441207492855852 ], [ 0.17079666440821, 51.44106830350799 ], [ 0.170550114487663, 51.440815650842438 ], [ 0.169758043179313, 51.439619834025862 ], [ 0.16977471116598, 51.439606039839255 ], [ 0.169830269405314, 51.439594223062485 ], [ 0.169816496789833, 51.439576496987655 ], [ 0.169846392153107, 51.439478846518405 ], [ 0.169849948305333, 51.439433738392935 ], [ 0.169834191065046, 51.439344125195703 ], [ 0.169804158816676, 51.439286242861613 ], [ 0.169750543117659, 51.439218907425783 ], [ 0.169680075906626, 51.439158986287211 ], [ 0.169592808314414, 51.4391075573267 ], [ 0.169513462286604, 51.439073063634837 ], [ 0.169428606063342, 51.439044965181161 ], [ 0.169172152486452, 51.438733155118825 ], [ 0.169063953592099, 51.438545457577781 ], [ 0.168774486186714, 51.437995020330995 ], [ 0.168763951002697, 51.437952959903448 ], [ 0.168705347076281, 51.437720201258706 ], [ 0.168714128975084, 51.437479902853177 ], [ 0.168526624286551, 51.437348513477879 ], [ 0.168389143933432, 51.43724128213811 ], [ 0.168286927739368, 51.437149671295671 ], [ 0.168203738100921, 51.43706400186619 ], [ 0.16805716569871, 51.436885014269556 ], [ 0.167957908307297, 51.436733112077839 ], [ 0.167815945462285, 51.436561231288486 ], [ 0.16767070837852, 51.436412876020967 ], [ 0.167563127505949, 51.436265532642949 ], [ 0.167398985064879, 51.436111233116364 ], [ 0.16725796201457, 51.435959113259734 ], [ 0.167133875852923, 51.435801375787669 ], [ 0.167078109547887, 51.435716007734896 ], [ 0.167023396361443, 51.435625315791562 ], [ 0.166941526685079, 51.435414563054962 ], [ 0.166689798717026, 51.435051413260084 ], [ 0.166687583363652, 51.434944467210734 ], [ 0.166675520668814, 51.434812439799423 ], [ 0.166585968723948, 51.434712501761418 ], [ 0.166578825592844, 51.434561593277024 ], [ 0.166530335690709, 51.434053446821274 ], [ 0.166773724685589, 51.433724300642602 ], [ 0.166690006722961, 51.432534227711699 ], [ 0.166823980897233, 51.432414873876439 ], [ 0.16686338197628, 51.432335028165419 ], [ 0.166845009976282, 51.431946792020412 ], [ 0.166371236020241, 51.431633590273762 ], [ 0.166231236753666, 51.431532784025521 ], [ 0.166095419803607, 51.43143010221349 ], [ 0.16667524008256, 51.431309615107303 ], [ 0.166693328484052, 51.431295794937377 ], [ 0.166378535246054, 51.430541721148956 ], [ 0.166209443852898, 51.43028222780967 ], [ 0.166184477134647, 51.430271001135416 ], [ 0.16562152958068, 51.430354222411893 ], [ 0.165589588351475, 51.430348518794055 ], [ 0.165244429614638, 51.42998528630843 ], [ 0.164587896672892, 51.429062114250073 ], [ 0.16444047736282, 51.428743780734195 ], [ 0.164432666110051, 51.428698971723144 ], [ 0.164415121157219, 51.428661535006199 ], [ 0.164378520877235, 51.428619954884084 ], [ 0.164327996650149, 51.428584925359061 ], [ 0.164275057383445, 51.42856153835811 ], [ 0.16421681600221, 51.428546430744959 ], [ 0.164148883373319, 51.428539593657334 ], [ 0.164087097327728, 51.428539835551774 ], [ 0.164032803892826, 51.428548030648251 ], [ 0.163831450597755, 51.428609378678821 ], [ 0.163902354425895, 51.428679095674653 ], [ 0.163922860998075, 51.428932343404036 ], [ 0.16354702778706, 51.428893340166063 ], [ 0.163324513536123, 51.42905667236159 ], [ 0.162903017336946, 51.42911569892641 ], [ 0.162633878678495, 51.42920607701037 ], [ 0.162363057830067, 51.429288483827136 ], [ 0.162157140256562, 51.429346226995833 ], [ 0.161265183182007, 51.429560474070975 ], [ 0.161072962744111, 51.429601869452121 ], [ 0.160695156888611, 51.429674467403942 ], [ 0.160667983683612, 51.429676766521972 ], [ 0.160300479484931, 51.429389457332313 ], [ 0.159997895457508, 51.429288944978509 ], [ 0.159837023946344, 51.429202812548098 ], [ 0.159738713462283, 51.42928374206145 ], [ 0.159732592169383, 51.429641862563798 ], [ 0.159705479572187, 51.429675627616426 ], [ 0.159637929840632, 51.429739806986049 ], [ 0.159549056098457, 51.429807076452761 ], [ 0.15940359260211, 51.429894268944658 ], [ 0.159375810433493, 51.429916358411212 ], [ 0.159180840703097, 51.430113339555326 ], [ 0.159085389423475, 51.430224784023039 ], [ 0.158852345997402, 51.430165243578919 ], [ 0.158631933840668, 51.430127047571219 ], [ 0.158547451457326, 51.430196932572564 ], [ 0.158455692810372, 51.430263445171036 ], [ 0.158360585732072, 51.430321837874011 ], [ 0.158221170839931, 51.430386440856594 ], [ 0.158134909235848, 51.430418597598432 ], [ 0.158007218047463, 51.430455113422987 ], [ 0.157795008398443, 51.430500377817253 ], [ 0.157588994981404, 51.43055631652657 ], [ 0.157298712192898, 51.430623785735996 ], [ 0.15698346839755, 51.430682633082057 ], [ 0.156714817861651, 51.430720842715075 ], [ 0.156406844415068, 51.430780453770723 ], [ 0.156405422222308, 51.430780479939365 ], [ 0.155874856308419, 51.430876551445159 ], [ 0.155635501670153, 51.430438524640593 ], [ 0.155493676399406, 51.43008411470727 ], [ 0.155456939183478, 51.429946244538492 ], [ 0.155413371995493, 51.429693509608747 ], [ 0.155411042195235, 51.429644013997518 ], [ 0.155428151019903, 51.429364899388339 ], [ 0.155410524325555, 51.429234859200164 ], [ 0.155365259472902, 51.429097235734929 ], [ 0.155300443958312, 51.428975166000747 ], [ 0.155212718066954, 51.428852708400463 ], [ 0.154796297224722, 51.428409754494005 ], [ 0.154490108985363, 51.428171737342034 ], [ 0.154061193141276, 51.427798238531153 ], [ 0.153763353707438, 51.427523204382425 ], [ 0.153628649928273, 51.426830433082067 ], [ 0.153524425541579, 51.426296415789409 ], [ 0.153361204817718, 51.425640220621304 ], [ 0.153331101427878, 51.425459072764227 ], [ 0.153318694136183, 51.42531625958317 ], [ 0.153313401282723, 51.425173405581816 ], [ 0.153318585356926, 51.425008691615453 ], [ 0.153345961084259, 51.424735772041679 ], [ 0.153458679844893, 51.424224650429011 ], [ 0.153514135298311, 51.424029343505339 ], [ 0.153529958267462, 51.423906779939266 ], [ 0.153533681254133, 51.423832089153557 ], [ 0.153517261738257, 51.42360393853901 ], [ 0.153478467311388, 51.423422051383319 ], [ 0.153470098693795, 51.423397930416755 ], [ 0.153410156540463, 51.423222815204532 ], [ 0.153321867458689, 51.422936646892026 ], [ 0.153134776622563, 51.422322247160594 ], [ 0.153003543318299, 51.421980226529769 ], [ 0.152851060655944, 51.421703328795246 ], [ 0.151997022283443, 51.42100587698615 ], [ 0.15146494822866, 51.420671214947049 ], [ 0.151368164429544, 51.420602774827643 ], [ 0.151158700051714, 51.420430403387378 ], [ 0.151401972087828, 51.420312565378232 ], [ 0.151652812457228, 51.420201870316369 ], [ 0.152296212391744, 51.419995767140236 ], [ 0.153107505540861, 51.419539332787657 ], [ 0.153166020580822, 51.41946723149271 ], [ 0.153786185771262, 51.419107806717903 ], [ 0.153981669398847, 51.418982749948313 ], [ 0.15416248151008, 51.418850859927211 ], [ 0.15463016649482, 51.418489738101968 ], [ 0.154636464606107, 51.418469842857611 ], [ 0.154378458628196, 51.418183199319522 ], [ 0.154117842781565, 51.417777926543032 ], [ 0.154094092648345, 51.417762090038863 ], [ 0.153529173033169, 51.417709538577753 ], [ 0.153166893862527, 51.417651463060707 ], [ 0.152500711980084, 51.417705058821618 ], [ 0.152324188933034, 51.417713695568139 ], [ 0.15213566661134, 51.417711763637691 ], [ 0.15194697552221, 51.417706238241877 ], [ 0.151782312208957, 51.417692179747341 ], [ 0.151300757342351, 51.417634490482726 ], [ 0.151055349527837, 51.417615619824467 ], [ 0.151079882343667, 51.417433468415759 ], [ 0.151136905877098, 51.416718384379642 ], [ 0.151136399767286, 51.416707604894903 ], [ 0.151120923823156, 51.415733932215751 ], [ 0.1511697110133, 51.415487502016823 ], [ 0.15118302109999, 51.415250713721775 ], [ 0.15117570718433, 51.415155547117664 ], [ 0.151154065757691, 51.415063340727485 ], [ 0.151097164468862, 51.414922243138328 ], [ 0.150775069104466, 51.41437325266741 ], [ 0.150624130310215, 51.414189017505933 ], [ 0.15056151634151, 51.414143415294134 ], [ 0.150526408114094, 51.414130573651839 ], [ 0.150477175398106, 51.414122486538503 ], [ 0.150328822470667, 51.414117117451937 ], [ 0.150260786668497, 51.41410757716973 ], [ 0.150202407597311, 51.414091566196355 ], [ 0.150158432195612, 51.414071694637279 ], [ 0.150124193625865, 51.414047059169796 ], [ 0.149996809612985, 51.413907344254348 ], [ 0.149959847194817, 51.413854977616694 ], [ 0.149959720749854, 51.413852282742404 ], [ 0.149881807314683, 51.413695386950138 ], [ 0.149792763163388, 51.413420018766736 ], [ 0.149691632686745, 51.412983040581679 ], [ 0.149658580109978, 51.412890144207346 ], [ 0.149613039554321, 51.412809074853222 ], [ 0.149550704469515, 51.412736495060798 ], [ 0.149489170193556, 51.412680982778035 ], [ 0.149277715338296, 51.412528424243526 ], [ 0.149159751458337, 51.412435197132304 ], [ 0.149505935914946, 51.411966637906708 ], [ 0.149751725321426, 51.411658154937953 ], [ 0.15162979021753, 51.41144198284973 ], [ 0.152501492488045, 51.411355845776974 ], [ 0.153769941871761, 51.411265107473575 ], [ 0.153623093427058, 51.41107711472106 ], [ 0.153565680937031, 51.41098826334472 ], [ 0.153510140918826, 51.410878699012535 ], [ 0.153445589522681, 51.410728752397532 ], [ 0.153387973623673, 51.410572474734337 ], [ 0.153359640234687, 51.410489292401984 ], [ 0.153282531867798, 51.410195725920104 ], [ 0.153058939597756, 51.409232169990972 ], [ 0.152932256508144, 51.408708455935965 ], [ 0.152061888648793, 51.408670411800223 ], [ 0.151594837540222, 51.40867719099316 ], [ 0.151179200893877, 51.408736158528129 ], [ 0.150723703929893, 51.408804756838052 ], [ 0.150067462671195, 51.408946265340198 ], [ 0.149311629244957, 51.409140934318785 ], [ 0.148989655825821, 51.40862340735405 ], [ 0.148902569969624, 51.408482954148134 ], [ 0.148829001058867, 51.408509476856466 ], [ 0.148627002542868, 51.408586004466002 ], [ 0.14799034511982, 51.408809044687324 ], [ 0.147373894088511, 51.409002853423729 ], [ 0.146618881318539, 51.409184903011436 ], [ 0.14591253808461, 51.409363269207894 ], [ 0.145706637412839, 51.409389516560829 ], [ 0.14556407138161, 51.409413704761484 ], [ 0.145570527058449, 51.409460427799061 ], [ 0.145570779388232, 51.409465817564296 ], [ 0.145235652423171, 51.409555566679622 ], [ 0.144711940185208, 51.409735076972133 ], [ 0.144438035939342, 51.409843572435101 ], [ 0.144206490214611, 51.409935019048405 ], [ 0.143725600232044, 51.410107537634786 ], [ 0.142623411498673, 51.410492807060912 ], [ 0.14216949279376, 51.410656644414864 ], [ 0.142001192802543, 51.410716362123509 ], [ 0.141508291082775, 51.410878302186333 ], [ 0.140615439413082, 51.411189599225828 ], [ 0.140382704234672, 51.411255886041275 ], [ 0.139991942634258, 51.411386194803143 ], [ 0.139721023491444, 51.411467652533211 ], [ 0.139294239778449, 51.411568048576889 ], [ 0.139165582631981, 51.411613552403395 ], [ 0.138878904030135, 51.411725774058105 ], [ 0.138632937672216, 51.411879597772156 ], [ 0.138381987989584, 51.412018137924093 ], [ 0.138202354009873, 51.412081653111514 ], [ 0.138024030175999, 51.412175802124509 ], [ 0.137738392767707, 51.412310478443182 ], [ 0.137553363463017, 51.412380384467738 ], [ 0.137074304205494, 51.412562731283415 ], [ 0.136900475905107, 51.412598267622755 ], [ 0.136376580018151, 51.412866839996283 ], [ 0.135997370235624, 51.413029290660454 ], [ 0.135316216975986, 51.413317806743351 ], [ 0.134343138000648, 51.413761869351568 ], [ 0.134345690208239, 51.413816665574522 ], [ 0.134161826421336, 51.413853279598278 ], [ 0.133958944166993, 51.413911817129076 ], [ 0.133729070248331, 51.413978937336132 ], [ 0.133230583378654, 51.41414453956164 ], [ 0.132840612272023, 51.414262222569789 ], [ 0.132462096772631, 51.414350925855544 ], [ 0.132165897204346, 51.414412147322118 ], [ 0.13189071884401, 51.414463905085285 ], [ 0.131559501412328, 51.414516682034218 ], [ 0.130323421207861, 51.41471717712173 ], [ 0.129803943706522, 51.4148040301842 ], [ 0.129056412516261, 51.414903026744341 ], [ 0.12825555978003, 51.41496972185174 ], [ 0.128031401367062, 51.414973793330219 ], [ 0.127770718734856, 51.414965041807854 ], [ 0.127546685386054, 51.414971807258773 ], [ 0.12739637506583, 51.414957454451439 ], [ 0.127281623145258, 51.414932566229496 ], [ 0.127160392232734, 51.414890713438481 ], [ 0.127044604872045, 51.414846064534551 ], [ 0.126936242506813, 51.414802988944174 ], [ 0.126871058248601, 51.414762815603986 ], [ 0.12673499664059, 51.414679874992267 ], [ 0.126652056683498, 51.414630134206632 ], [ 0.126511719313837, 51.414672239869077 ], [ 0.126344311938248, 51.414723827196923 ], [ 0.126275979152744, 51.414769121070037 ] ] ] } }
]
}
