{
"type": "FeatureCollection",
"name": "borough_Sutton",
"crs": { "type": "name", "properties": { "name": "urn:ogc:def:crs:OGC:1.3:CRS84" } },
"features": [
{ "type": "Feature", "properties": { "DISTRICT": "Sutton", "NAME": "Carshalton South and Clockhouse", "GSS_CODE": "E05000559", "LAGSSCODE": "E09000029", "HECTARES": 705.342, "NONLD_AREA": 0.0 }, "geometry": { "type": "Polygon", "coordinates": [ [ [ -0.18132418369382, 51.388808793898804 ], [ -0.180463504234481, 51.389309844538374 ], [ -0.18002908144991, 51.3895719909493 ], [ -0.17999072889126, 51.389594769431909 ], [ -0.179828026806424, 51.389495958563366 ], [ -0.179426350602533, 51.3897271460269 ], [ -0.1792396044072, 51.389834013055939 ], [ -0.179088818487955, 51.389939550682364 ], [ -0.178847855748193, 51.390107516012264 ], [ -0.177660877004353, 51.391115186423676 ], [ -0.176483911313538, 51.392084251957009 ], [ -0.175578674874835, 51.392835394849975 ], [ -0.174842508929712, 51.393417454230196 ], [ -0.174300604903615, 51.393165290160589 ], [ -0.174015878820076, 51.393059265159067 ], [ -0.173425092215181, 51.392841396561614 ], [ -0.173046402821858, 51.392714126141065 ], [ -0.172846334285157, 51.392648974729539 ], [ -0.17246320831127, 51.392594452871172 ], [ -0.172175446450718, 51.392564791742188 ], [ -0.171780414277049, 51.392523567029528 ], [ -0.17155569051952, 51.392500192158963 ], [ -0.17152994161035, 51.392497992305834 ], [ -0.171379726047758, 51.392478566784241 ], [ -0.171354048812806, 51.39247456999658 ], [ -0.17129220987696, 51.392509565113237 ], [ -0.171118872105603, 51.392425049834621 ], [ -0.170951854298713, 51.392321753812851 ], [ -0.170661628137891, 51.392140028705271 ], [ -0.170194574557499, 51.391848561205506 ], [ -0.170145981076732, 51.391839711291375 ], [ -0.170108923127458, 51.391832839521335 ], [ -0.16994650781389, 51.391724220689113 ], [ -0.169900033453475, 51.391555381575252 ], [ -0.169911157380598, 51.391493434345399 ], [ -0.169901246448019, 51.391453723491537 ], [ -0.169854708288744, 51.391396359510608 ], [ -0.169201678741862, 51.391082205324366 ], [ -0.168858854353301, 51.390992342065893 ], [ -0.168737820510426, 51.390963480461288 ], [ -0.168318292925468, 51.390743769890335 ], [ -0.168127369079114, 51.390631107891288 ], [ -0.168022553666524, 51.390519701973012 ], [ -0.167744308209172, 51.39021679528468 ], [ -0.167583845391211, 51.39005965906199 ], [ -0.167356080146776, 51.389931946590053 ], [ -0.167120904018153, 51.389847359724733 ], [ -0.166894071679741, 51.389806054883941 ], [ -0.16668569019477, 51.389768634161008 ], [ -0.166540301200847, 51.389738491308933 ], [ -0.166441367610227, 51.389696488894309 ], [ -0.166430059177643, 51.389691817014509 ], [ -0.166332886231927, 51.389605791022333 ], [ -0.166288775291111, 51.389520505080071 ], [ -0.166231670560787, 51.389404539742124 ], [ -0.166124397244426, 51.389138465563754 ], [ -0.166031861253409, 51.388865429833061 ], [ -0.165827434490034, 51.388658158333932 ], [ -0.16566380216972, 51.388473909937716 ], [ -0.1655231465677, 51.388290020872638 ], [ -0.165369206988151, 51.388041285586176 ], [ -0.165265305564652, 51.387978437504763 ], [ -0.165086803503361, 51.387988229612041 ], [ -0.1645999652513, 51.388048123220862 ], [ -0.164388680821979, 51.388083472010237 ], [ -0.16426711282716, 51.388106740374425 ], [ -0.164141763778967, 51.388111969384489 ], [ -0.164056115641075, 51.388134901055821 ], [ -0.163978562183607, 51.388097726399273 ], [ -0.163858530361759, 51.388079664367467 ], [ -0.163736933581401, 51.388065173701449 ], [ -0.163699736343785, 51.388061894027544 ], [ -0.163576538616237, 51.38805187312029 ], [ -0.163453161032658, 51.388046344269156 ], [ -0.163329675526796, 51.388043510599168 ], [ -0.163323872504179, 51.388043419678986 ], [ -0.163197364781686, 51.388045033521507 ], [ -0.163070749082003, 51.388049342537393 ], [ -0.162945256115601, 51.388058164014083 ], [ -0.162903507551741, 51.38806200476882 ], [ -0.162854380384477, 51.388066628873837 ], [ -0.162789079222877, 51.388155505538364 ], [ -0.161893130834361, 51.388133369512779 ], [ -0.161825626207458, 51.388132311022531 ], [ -0.161745094377331, 51.38813104821142 ], [ -0.16152697694947, 51.388053010602 ], [ -0.161212482880513, 51.387937410954862 ], [ -0.160961371679132, 51.387819298722114 ], [ -0.160609312828113, 51.388070080210632 ], [ -0.160339527781792, 51.388272706766628 ], [ -0.16000719757175, 51.388459877086561 ], [ -0.159678445704888, 51.388593252498431 ], [ -0.159032330322323, 51.388791675549093 ], [ -0.158819086497742, 51.38887561943794 ], [ -0.158675706609912, 51.388904832410503 ], [ -0.158622084103045, 51.388879717110797 ], [ -0.158585463910004, 51.388862060868163 ], [ -0.158513493874792, 51.388827577404641 ], [ -0.158293181152276, 51.388836702346815 ], [ -0.158257224448484, 51.388837935436484 ], [ -0.1582780225809, 51.388963313166933 ], [ -0.158275338336061, 51.388994736012918 ], [ -0.15827175188926, 51.389048619696766 ], [ -0.158220684571383, 51.389104454402762 ], [ -0.158111744541644, 51.389202621711242 ], [ -0.15803047671606, 51.389257981810147 ], [ -0.157871116941102, 51.389289639703705 ], [ -0.157707227395579, 51.38929245817689 ], [ -0.157610000010095, 51.38920822209419 ], [ -0.155935582768101, 51.389385967140193 ], [ -0.155656959962249, 51.389415745847479 ], [ -0.154192656234385, 51.389584275429591 ], [ -0.152809011615781, 51.389715400693966 ], [ -0.152805708113296, 51.389762096657108 ], [ -0.152647320475282, 51.389769489745241 ], [ -0.152455926223974, 51.389775463419909 ], [ -0.152451172970592, 51.389749317495713 ], [ -0.151614494755328, 51.389826027968795 ], [ -0.15029628848859, 51.389935603123455 ], [ -0.148055248973251, 51.390156548418709 ], [ -0.147139949843809, 51.39025455956412 ], [ -0.147095319169682, 51.390259248610015 ], [ -0.146973731723361, 51.390314864258464 ], [ -0.146713019681492, 51.390434808203317 ], [ -0.144353077415721, 51.390678978444065 ], [ -0.143208266427099, 51.390412646563263 ], [ -0.143158368613558, 51.390401068601101 ], [ -0.142170695848299, 51.389661546979504 ], [ -0.142039470543011, 51.389565971363851 ], [ -0.141878447586118, 51.38935476028891 ], [ -0.141795773852908, 51.389374127799243 ], [ -0.14100291880561, 51.389608882312039 ], [ -0.140641646133346, 51.389727219548064 ], [ -0.140512937470351, 51.389744957449906 ], [ -0.140205167780683, 51.389785927570891 ], [ -0.139953298390862, 51.389792721894644 ], [ -0.139681450333283, 51.389798299805562 ], [ -0.139580500126703, 51.389806587820345 ], [ -0.139352995316072, 51.389852514768599 ], [ -0.139059335351494, 51.389899099869474 ], [ -0.138007584113148, 51.390207941862471 ], [ -0.137810900410701, 51.390238982099213 ], [ -0.137633723179531, 51.390247856358378 ], [ -0.137512710939625, 51.390254026103136 ], [ -0.137385977351671, 51.390261003889073 ], [ -0.137382906978383, 51.39026365217893 ], [ -0.137354790973633, 51.39028478207554 ], [ -0.137335530779043, 51.39029796145828 ], [ -0.136853057111098, 51.390321764506737 ], [ -0.136678073168295, 51.390349551514603 ], [ -0.136441369034457, 51.3904088122055 ], [ -0.136117750019803, 51.390518744462113 ], [ -0.13579665172583, 51.390639504164469 ], [ -0.135502426777131, 51.390734708633886 ], [ -0.135153020843504, 51.390843329565023 ], [ -0.13494921284752, 51.390906616607808 ], [ -0.134843223357345, 51.390968761655273 ], [ -0.134695920345164, 51.390951136143904 ], [ -0.134602877848481, 51.390939767417635 ], [ -0.134353608260069, 51.390885458246331 ], [ -0.134377389127209, 51.390866058068212 ], [ -0.134366083881547, 51.390861383179057 ], [ -0.134156859753475, 51.390775345801792 ], [ -0.133966239202637, 51.390692301020181 ], [ -0.133461987485869, 51.390473818222844 ], [ -0.132991143094109, 51.390281936364048 ], [ -0.1328115754617, 51.390209853710999 ], [ -0.132687029837258, 51.390160223130017 ], [ -0.132609316817029, 51.390127520321876 ], [ -0.13263926725949, 51.390099228510593 ], [ -0.133040894857684, 51.389729741747416 ], [ -0.133235166385847, 51.389548444925374 ], [ -0.132881841053288, 51.389366523678419 ], [ -0.132419409255859, 51.389111032483619 ], [ -0.132054315333762, 51.38886329270138 ], [ -0.131848386538001, 51.388766514980375 ], [ -0.131845701481464, 51.388727724464047 ], [ -0.131127922923147, 51.388282872383037 ], [ -0.131115344069358, 51.388274580772517 ], [ -0.130783040600431, 51.388068713972494 ], [ -0.13013253726197, 51.387633917440141 ], [ -0.129888589735766, 51.387481689525721 ], [ -0.12969702206001, 51.387352681969233 ], [ -0.129468185257102, 51.387184511655832 ], [ -0.12954124611583, 51.387119059367663 ], [ -0.129750432181159, 51.386923711585759 ], [ -0.129955906706608, 51.386714729081767 ], [ -0.130193775702392, 51.386554000758288 ], [ -0.130560035143609, 51.386313417796501 ], [ -0.130638305755031, 51.386262522189206 ], [ -0.129761111876231, 51.385994024076204 ], [ -0.128822489165996, 51.385680486872531 ], [ -0.12873599518684, 51.385651237122289 ], [ -0.128825914079458, 51.385524021772071 ], [ -0.128914571694196, 51.385500263681656 ], [ -0.129109277534489, 51.385447630609249 ], [ -0.129148522570164, 51.385438367435746 ], [ -0.129235457057395, 51.385419076733641 ], [ -0.129437230249692, 51.385405213810351 ], [ -0.129509724016143, 51.385286800191203 ], [ -0.129412620736119, 51.384916472651938 ], [ -0.129321368992983, 51.384652502693108 ], [ -0.129081389463133, 51.383738596136823 ], [ -0.129028069524655, 51.383424800727774 ], [ -0.128970235097485, 51.38339600873055 ], [ -0.128870120665442, 51.382997768915381 ], [ -0.128770667271287, 51.382722793550293 ], [ -0.128632005786225, 51.382494030712579 ], [ -0.129109485469372, 51.382413456853378 ], [ -0.130277106932793, 51.382220812847613 ], [ -0.13027145124179, 51.382217126638977 ], [ -0.130258947190793, 51.382207038180525 ], [ -0.129628797670534, 51.381731122967487 ], [ -0.128623735869102, 51.380971427829962 ], [ -0.128216397901136, 51.380669062593547 ], [ -0.128053815942035, 51.380498262679069 ], [ -0.127938428588024, 51.380262678241621 ], [ -0.12786333222187, 51.380024051014892 ], [ -0.127773121032804, 51.379734837875219 ], [ -0.127555726458367, 51.379145032778943 ], [ -0.127291894095758, 51.37839266376713 ], [ -0.127037853828104, 51.37761249114245 ], [ -0.126934078197247, 51.377336545541503 ], [ -0.126751848266105, 51.377188893719421 ], [ -0.126693767317158, 51.377064801430038 ], [ -0.126620925531532, 51.376913413063441 ], [ -0.126536254206506, 51.376662944531084 ], [ -0.126203432022414, 51.376051513439606 ], [ -0.126200810671606, 51.376046077485327 ], [ -0.126115415905213, 51.376059995874726 ], [ -0.12603889242166, 51.376071358962761 ], [ -0.125807899202724, 51.375603687550495 ], [ -0.125924217579869, 51.375572283485972 ], [ -0.125944409641984, 51.375568111187391 ], [ -0.126206055550484, 51.375494079184286 ], [ -0.126303877222675, 51.375492046474029 ], [ -0.12684026131701, 51.375481737994569 ], [ -0.126822228249458, 51.375430116434728 ], [ -0.126648161422525, 51.374908516766965 ], [ -0.127165414748055, 51.374838476636619 ], [ -0.127824192358825, 51.374749207869442 ], [ -0.127746287745245, 51.374721892570896 ], [ -0.127739257528681, 51.374719982287097 ], [ -0.126513385313813, 51.374303846790852 ], [ -0.125745407835099, 51.374003799298336 ], [ -0.125026203512663, 51.373777346500937 ], [ -0.124719154550474, 51.373660958417936 ], [ -0.124576711873069, 51.37341855431012 ], [ -0.124541122511115, 51.373199435585093 ], [ -0.124505493074792, 51.372981305109384 ], [ -0.12465005138109, 51.372960243225961 ], [ -0.124748344937785, 51.372946532273517 ], [ -0.124699109543549, 51.372884522144339 ], [ -0.124206153463973, 51.372256139086879 ], [ -0.123646555075178, 51.371534089112117 ], [ -0.123556941673208, 51.371442753782581 ], [ -0.123314408740736, 51.371188856808047 ], [ -0.123280828284307, 51.371097519167272 ], [ -0.123267123314892, 51.370974944395449 ], [ -0.12326123644473, 51.370907424339229 ], [ -0.123268359566228, 51.370875173971164 ], [ -0.123260507977122, 51.370678973994153 ], [ -0.123330454598043, 51.370622556971661 ], [ -0.123334813716977, 51.370550705871729 ], [ -0.123277438743659, 51.370406844690166 ], [ -0.123260770595827, 51.370321980931621 ], [ -0.123245490842833, 51.370240825339941 ], [ -0.12317667744438, 51.369953748325585 ], [ -0.123062407464113, 51.369692014831571 ], [ -0.122999278689288, 51.369549859382978 ], [ -0.122890419084986, 51.369013923979267 ], [ -0.122668803911309, 51.368179419201667 ], [ -0.122652403518966, 51.368053294973897 ], [ -0.122577293879509, 51.367888472087081 ], [ -0.122492738771154, 51.367743186225987 ], [ -0.122465211633937, 51.36764295509618 ], [ -0.122344828170715, 51.367391910953856 ], [ -0.122305856139214, 51.367290597458506 ], [ -0.122195527586602, 51.366932729087779 ], [ -0.122102269726048, 51.36654267836272 ], [ -0.122073601827753, 51.366258937590771 ], [ -0.122079620894975, 51.365937993562895 ], [ -0.122069050514846, 51.365808365188563 ], [ -0.123044371915701, 51.365601836689713 ], [ -0.124082845016824, 51.365394602500487 ], [ -0.124066055217416, 51.365347494830573 ], [ -0.124038954687368, 51.365271543389113 ], [ -0.123446073627921, 51.36519193082384 ], [ -0.123039251100928, 51.365057756978814 ], [ -0.122651381169199, 51.364848277532325 ], [ -0.122470986358975, 51.364726717722696 ], [ -0.122380305391593, 51.364589423252518 ], [ -0.122345518210436, 51.364527732630464 ], [ -0.122326706194936, 51.364530128386029 ], [ -0.121502833154963, 51.364619418040512 ], [ -0.121436454131483, 51.364626445561754 ], [ -0.121439731054771, 51.364653468713691 ], [ -0.121447362740682, 51.36471301631893 ], [ -0.121276943357496, 51.364732760862275 ], [ -0.120902827936396, 51.363310356410189 ], [ -0.121251165962258, 51.363116266754169 ], [ -0.121221096518687, 51.363008801283044 ], [ -0.121167120882478, 51.362782191905758 ], [ -0.121087205578862, 51.362523790890542 ], [ -0.121412325986698, 51.362338318840521 ], [ -0.121404200204067, 51.362325602322407 ], [ -0.121328591409913, 51.362173265127154 ], [ -0.121370540027196, 51.36216404813058 ], [ -0.121451759795489, 51.362147369230797 ], [ -0.121556043453145, 51.362125665713613 ], [ -0.121318467702874, 51.361505848941235 ], [ -0.121454857340448, 51.36129856251641 ], [ -0.12135521695533, 51.361064928246151 ], [ -0.121434638960374, 51.361054513703543 ], [ -0.122028103105943, 51.360979514237535 ], [ -0.121881764375496, 51.360552651721903 ], [ -0.121983424236798, 51.360525511661351 ], [ -0.12197701277567, 51.360505630467316 ], [ -0.12181445820926, 51.35998590878674 ], [ -0.121875068084755, 51.359977889613965 ], [ -0.122332786081151, 51.359920492241869 ], [ -0.12236611306896, 51.359983058554363 ], [ -0.122409414522295, 51.359978357965936 ], [ -0.122903140225321, 51.359917938987536 ], [ -0.122695850285196, 51.359649318246461 ], [ -0.121834999760427, 51.359063661466024 ], [ -0.121894114755028, 51.359057416379478 ], [ -0.123313180176181, 51.358917329588671 ], [ -0.123431525699081, 51.359151261684275 ], [ -0.124689901164241, 51.358865641316612 ], [ -0.124678174636166, 51.358836684804047 ], [ -0.124492575783639, 51.358387616847494 ], [ -0.124510176861454, 51.358377110071622 ], [ -0.124548529479921, 51.358354348850632 ], [ -0.124253527686707, 51.35759156705641 ], [ -0.124171063793627, 51.35743013042535 ], [ -0.121403970722021, 51.357730241836855 ], [ -0.120965260931928, 51.356130585540704 ], [ -0.120706514006642, 51.355186686227945 ], [ -0.120496898506145, 51.354168056019049 ], [ -0.120285231816819, 51.353477627438458 ], [ -0.120152202217507, 51.353044681723865 ], [ -0.119089673963763, 51.353142810736692 ], [ -0.119074184447753, 51.353067044199079 ], [ -0.118984502984159, 51.352764342526335 ], [ -0.118707668476886, 51.35202063400186 ], [ -0.118493336119624, 51.351257340174428 ], [ -0.118349078362858, 51.350607548458662 ], [ -0.118264363348673, 51.350045011393007 ], [ -0.118135887413998, 51.349501547244081 ], [ -0.117997424197739, 51.349129728083732 ], [ -0.117877210890259, 51.348699764708634 ], [ -0.117530775026944, 51.347621286513061 ], [ -0.117348941750914, 51.346695682579089 ], [ -0.117339636178866, 51.346642489845642 ], [ -0.116965759298075, 51.346656259362945 ], [ -0.116893567125266, 51.345753994578061 ], [ -0.117221949449041, 51.345694541882239 ], [ -0.117287214051158, 51.345679408074467 ], [ -0.118384858281522, 51.345630510974487 ], [ -0.118637983359422, 51.345795498839983 ], [ -0.118809230940654, 51.345612144385349 ], [ -0.118905311764295, 51.345509396773743 ], [ -0.119219168471777, 51.345593544809141 ], [ -0.120692282583836, 51.345529049104606 ], [ -0.124810097152511, 51.34529368030924 ], [ -0.125578681023252, 51.345251032933795 ], [ -0.125899463430355, 51.345238177570167 ], [ -0.126005062812948, 51.345183225166366 ], [ -0.126310675441684, 51.345048756037741 ], [ -0.126831158949462, 51.34485649288483 ], [ -0.126858619888815, 51.344885700647609 ], [ -0.12712300980839, 51.345164219077205 ], [ -0.12687045854212, 51.345266273190823 ], [ -0.126895198207492, 51.345397118824849 ], [ -0.126898880264071, 51.345414259364624 ], [ -0.126805518815119, 51.345447831061612 ], [ -0.126756039246657, 51.345465021706111 ], [ -0.126977481652583, 51.345705094964735 ], [ -0.127012079902551, 51.345948477876675 ], [ -0.127101379969867, 51.346645040734678 ], [ -0.127145214541177, 51.346839034001462 ], [ -0.127322005902909, 51.3471871774208 ], [ -0.127417699253745, 51.347305670062859 ], [ -0.12753124991863, 51.347445035675541 ], [ -0.128175251344266, 51.347357318744585 ], [ -0.128221526771189, 51.34734906677722 ], [ -0.128262049473692, 51.347342521075895 ], [ -0.128328930594648, 51.347427198887985 ], [ -0.128346674363024, 51.347450857023297 ], [ -0.128843551808496, 51.347271783943519 ], [ -0.1288395116574, 51.347266325261437 ], [ -0.128710304151068, 51.347089760613088 ], [ -0.128722074125374, 51.347082756062257 ], [ -0.128861710763339, 51.347003170982632 ], [ -0.129126852128215, 51.346839189820329 ], [ -0.129110719519064, 51.346813759418332 ], [ -0.128995100556076, 51.346620419957439 ], [ -0.12896770544333, 51.346586628638228 ], [ -0.129067259185283, 51.346540567441572 ], [ -0.12927211862689, 51.346446738442282 ], [ -0.129436814950848, 51.346385533083264 ], [ -0.129643972812971, 51.346307922782763 ], [ -0.129831041047854, 51.346261368298649 ], [ -0.130103371123286, 51.346202776990495 ], [ -0.130534535416639, 51.346125139547404 ], [ -0.131405981448635, 51.346022149404043 ], [ -0.131396548878683, 51.346006625568656 ], [ -0.131274991938941, 51.345784424428764 ], [ -0.131122465992844, 51.345508596524645 ], [ -0.131101010038786, 51.345471394060503 ], [ -0.131303773466865, 51.345463835854517 ], [ -0.132867262085511, 51.34543568900223 ], [ -0.13285859561906, 51.345401297636542 ], [ -0.13265387067933, 51.344818967207985 ], [ -0.132488437500953, 51.344298306755277 ], [ -0.132569719169193, 51.344311288258851 ], [ -0.133053277950615, 51.344391807471141 ], [ -0.133445599961448, 51.344453791214868 ], [ -0.134101238498284, 51.344503869528403 ], [ -0.13475425462698, 51.344510658642044 ], [ -0.135000484718114, 51.344493805770277 ], [ -0.135467687751597, 51.344481453712056 ], [ -0.13585914146435, 51.344459804712443 ], [ -0.13615611538626, 51.344429460973565 ], [ -0.136237480939432, 51.344408277706087 ], [ -0.136247528758854, 51.34440574022149 ], [ -0.136325283564886, 51.344791854800803 ], [ -0.13651258849847, 51.344774152451613 ], [ -0.13670584555816, 51.344755645303501 ], [ -0.137061006055917, 51.34467138201363 ], [ -0.137914926141794, 51.344435815614268 ], [ -0.138993699426997, 51.344140877347982 ], [ -0.141128845169111, 51.343538928056518 ], [ -0.141531721128892, 51.343413152141387 ], [ -0.141767507758702, 51.343332287494597 ], [ -0.142034014073055, 51.343241210310183 ], [ -0.142227759038945, 51.343172355343036 ], [ -0.142201672979834, 51.343144071934809 ], [ -0.142073522737105, 51.343010692392227 ], [ -0.142115631657116, 51.342996974621627 ], [ -0.14291579169852, 51.342739841748596 ], [ -0.142975550138286, 51.34279032494954 ], [ -0.143384819697726, 51.342611510351809 ], [ -0.143871493762657, 51.342397957331642 ], [ -0.144188808099536, 51.342291496256742 ], [ -0.144172668932105, 51.342266067758068 ], [ -0.144159105798311, 51.342244276178576 ], [ -0.144156520321788, 51.342237941980891 ], [ -0.14416093411095, 51.342237112763328 ], [ -0.144570307689073, 51.342090661548276 ], [ -0.144524238184703, 51.342020706939444 ], [ -0.14408883504588, 51.341354644539734 ], [ -0.143938377933106, 51.341383730523198 ], [ -0.143828647500993, 51.341219268384904 ], [ -0.143546478682253, 51.340704868716891 ], [ -0.143438874194338, 51.340561117721627 ], [ -0.143550133790471, 51.3405088462208 ], [ -0.143779380540024, 51.340413579547295 ], [ -0.144083821656978, 51.340306016470805 ], [ -0.144298972588771, 51.340205041643955 ], [ -0.144246314979963, 51.33990833502051 ], [ -0.144238290315291, 51.339857861907937 ], [ -0.144501367407501, 51.339493327444892 ], [ -0.145131555967749, 51.339318900481594 ], [ -0.145686253312479, 51.339164044683486 ], [ -0.147358659567692, 51.338812781830768 ], [ -0.147368787703488, 51.33881114370098 ], [ -0.147522264441097, 51.338780302927873 ], [ -0.147282283549243, 51.338073195069555 ], [ -0.147183816401177, 51.338093216854496 ], [ -0.146991775515947, 51.337371671701945 ], [ -0.14683503654937, 51.33659674146655 ], [ -0.14646232599383, 51.335371396394748 ], [ -0.146137581640401, 51.334524494347278 ], [ -0.145919695316888, 51.334089422023041 ], [ -0.145865257896069, 51.333836740628406 ], [ -0.145757443309158, 51.333340384176786 ], [ -0.145725309325079, 51.332928025521937 ], [ -0.145591780938793, 51.33242955396782 ], [ -0.145419905661767, 51.332101293631254 ], [ -0.145146720651748, 51.331541186170192 ], [ -0.1450019497326, 51.331394959964392 ], [ -0.144042157043459, 51.330668453038818 ], [ -0.144613796122825, 51.330449051108886 ], [ -0.14621893430113, 51.329906060307856 ], [ -0.1480318408055, 51.329266537589127 ], [ -0.14914475295424, 51.328827306871979 ], [ -0.149305172840049, 51.328764209006081 ], [ -0.14855479279834, 51.32843581240116 ], [ -0.146908090770131, 51.327624668781318 ], [ -0.146493175052474, 51.327448191887925 ], [ -0.14601339378569, 51.327242727493456 ], [ -0.144429472438221, 51.326479376861656 ], [ -0.144364321767476, 51.326313730856178 ], [ -0.144447509931587, 51.325923873703267 ], [ -0.144247198867347, 51.325908116527678 ], [ -0.145068636084004, 51.324402197469986 ], [ -0.145556965804944, 51.32350522756721 ], [ -0.145560057581848, 51.323498983253067 ], [ -0.145627061465508, 51.323474870255438 ], [ -0.145911203311819, 51.323368783589537 ], [ -0.146529595124684, 51.32312584446175 ], [ -0.147133669178506, 51.322915040966578 ], [ -0.147581013714187, 51.322781861640216 ], [ -0.147930885955545, 51.322683012097542 ], [ -0.148358719646108, 51.322681679184463 ], [ -0.148743569357278, 51.322675170774197 ], [ -0.149011852844614, 51.322786481687068 ], [ -0.149428131715593, 51.322534042874693 ], [ -0.149567700548792, 51.322488597355282 ], [ -0.150302670949174, 51.322270853506019 ], [ -0.15047180557237, 51.322205195714169 ], [ -0.150476253364858, 51.322203467825112 ], [ -0.150569394218595, 51.322170774093685 ], [ -0.150696525564417, 51.322184467062925 ], [ -0.151354648002291, 51.322380047406071 ], [ -0.151483054922623, 51.322397355748265 ], [ -0.151488849614562, 51.322397447120267 ], [ -0.151735117585578, 51.322341096339159 ], [ -0.151968232069484, 51.322288134358352 ], [ -0.152063895403824, 51.322266268338254 ], [ -0.152081786429699, 51.322286329174602 ], [ -0.152705834415418, 51.323006583460803 ], [ -0.153514276299305, 51.322674008815476 ], [ -0.154755931017621, 51.322170153638304 ], [ -0.155519626224802, 51.321843153428972 ], [ -0.155622761356657, 51.321953649573757 ], [ -0.155902040644449, 51.321861759102163 ], [ -0.155780057983901, 51.321719590363323 ], [ -0.155801904911231, 51.321711842940275 ], [ -0.156178571618732, 51.321587411277946 ], [ -0.156452176195414, 51.321527795293775 ], [ -0.156489751090008, 51.321520295198958 ], [ -0.156543352368866, 51.321508552078754 ], [ -0.157982364869141, 51.323205718881958 ], [ -0.158634699052031, 51.323975833541539 ], [ -0.158931596891885, 51.323872615287854 ], [ -0.159024922185091, 51.323980167346015 ], [ -0.1606002999392, 51.323241451657424 ], [ -0.162195385632326, 51.324484938894727 ], [ -0.162881643263529, 51.325018218067676 ], [ -0.163450823188289, 51.325466857392016 ], [ -0.164152300820848, 51.326013855899085 ], [ -0.164187214951104, 51.326040475008789 ], [ -0.163567414809372, 51.326213356444086 ], [ -0.163747391583097, 51.326557900941637 ], [ -0.164267902617325, 51.327541781470593 ], [ -0.164342824973154, 51.32771655922032 ], [ -0.164359201124618, 51.327988324739678 ], [ -0.164362346433065, 51.328126016465731 ], [ -0.164197338276996, 51.328159392618367 ], [ -0.16398236060475, 51.328187490333022 ], [ -0.163973885074357, 51.328506605264678 ], [ -0.163970837048711, 51.328582975573546 ], [ -0.163535329351429, 51.328742561782619 ], [ -0.163103327459315, 51.32881130877572 ], [ -0.162333923424394, 51.328885551147266 ], [ -0.162290691258535, 51.328889368249932 ], [ -0.163076910690909, 51.330264186224838 ], [ -0.165434397977733, 51.329964794089349 ], [ -0.168386225896159, 51.329590949547701 ], [ -0.169582328308096, 51.329509871236134 ], [ -0.170066030150191, 51.329474282253173 ], [ -0.1699913883595, 51.329943400508441 ], [ -0.169894615175148, 51.330245851066948 ], [ -0.16996122344015, 51.330231609082318 ], [ -0.170162574576849, 51.330186209666351 ], [ -0.171471752408963, 51.330113173004619 ], [ -0.171861477642473, 51.330059925461143 ], [ -0.172478425467686, 51.330030903020294 ], [ -0.172645452665045, 51.330018227658826 ], [ -0.17278342004593, 51.330013099738757 ], [ -0.172863768076795, 51.330013455203876 ], [ -0.172947394391605, 51.330148806814648 ], [ -0.173060025180839, 51.330385302958831 ], [ -0.173198481648237, 51.330659961520375 ], [ -0.173482409736031, 51.331244359900296 ], [ -0.173719819431085, 51.331772381299409 ], [ -0.173883213424251, 51.332286660729871 ], [ -0.174139322701429, 51.333211536256734 ], [ -0.174666441621524, 51.333168423582244 ], [ -0.174775950659745, 51.333483983792163 ], [ -0.174869023940494, 51.333706687181575 ], [ -0.175019991018308, 51.333809732917182 ], [ -0.175594654071851, 51.334122653167725 ], [ -0.175911469500425, 51.33431467852283 ], [ -0.176093950695938, 51.334420011326159 ], [ -0.176265418284668, 51.334513574785369 ], [ -0.178503632454745, 51.335739907705523 ], [ -0.178842748640253, 51.335913392394659 ], [ -0.179370515564406, 51.336183309341635 ], [ -0.179715985016199, 51.336411730819748 ], [ -0.180821441551606, 51.337138428343735 ], [ -0.181615784304798, 51.337636335047222 ], [ -0.181764810814359, 51.337714258152523 ], [ -0.18199623450491, 51.337851807621348 ], [ -0.18230568983438, 51.338015741132871 ], [ -0.182367603790311, 51.338045561307517 ], [ -0.18352959147276, 51.338613892983972 ], [ -0.184607974935707, 51.339192693422298 ], [ -0.184893062420874, 51.339353634801213 ], [ -0.185910045342914, 51.339887328050686 ], [ -0.187228919525286, 51.340592097220636 ], [ -0.187448110425657, 51.340677392565141 ], [ -0.187436032032066, 51.34069248894312 ], [ -0.187357918127003, 51.340782080769536 ], [ -0.187874389379844, 51.340935809078204 ], [ -0.188338112937466, 51.341082335662179 ], [ -0.188348062979341, 51.341085186728201 ], [ -0.18872932599551, 51.341212455020397 ], [ -0.189474002979894, 51.341478488976428 ], [ -0.190170628861306, 51.341729390850318 ], [ -0.190896735440016, 51.341992431457008 ], [ -0.19127957431243, 51.342116119610289 ], [ -0.193229455269678, 51.342625590889114 ], [ -0.193326286908162, 51.34264686392558 ], [ -0.194415035162804, 51.342892014319411 ], [ -0.194986250760372, 51.343045656258667 ], [ -0.196047669267309, 51.343330016865551 ], [ -0.19609459005394, 51.343268707412342 ], [ -0.196267324431689, 51.343039331562309 ], [ -0.196690507202016, 51.343158229348489 ], [ -0.196564690185023, 51.343401813981501 ], [ -0.196541393304393, 51.343446406165619 ], [ -0.19710834526437, 51.343561224165988 ], [ -0.197319521272443, 51.343595133095199 ], [ -0.197331459781328, 51.343583539757169 ], [ -0.197445094854213, 51.343469315810204 ], [ -0.197465231299825, 51.343466029797582 ], [ -0.197557797487888, 51.343451272757441 ], [ -0.197652601432484, 51.343485097290881 ], [ -0.197699344019316, 51.343428279566687 ], [ -0.197834998056076, 51.343265757162548 ], [ -0.198030731222898, 51.343032327595964 ], [ -0.198360321448256, 51.342648843425643 ], [ -0.198445426656045, 51.342455964464669 ], [ -0.198557757400482, 51.3422993754102 ], [ -0.198751639361668, 51.342152222247115 ], [ -0.199120932147165, 51.34188810757589 ], [ -0.199326296929419, 51.341885872715466 ], [ -0.199557572094829, 51.341884036021909 ], [ -0.200067412880022, 51.341220127085684 ], [ -0.200623577682783, 51.34054883683072 ], [ -0.201199473888038, 51.339884140320692 ], [ -0.201358658133007, 51.339924345356877 ], [ -0.201358728469848, 51.339922548392423 ], [ -0.201361932333405, 51.339916304463749 ], [ -0.201366472745415, 51.339909182049297 ], [ -0.201369558299607, 51.339902936302479 ], [ -0.201374146680249, 51.339897612670022 ], [ -0.201380071608387, 51.339891410551516 ], [ -0.201384695154521, 51.339885188436362 ], [ -0.20139058842865, 51.339879794951287 ], [ -0.201398016179308, 51.339874514946004 ], [ -0.201403905933762, 51.339869211308454 ], [ -0.201411333681192, 51.33986393130229 ], [ -0.201418607952499, 51.339859547960074 ], [ -0.201427420216486, 51.339855188248862 ], [ -0.201436232478817, 51.339850828536981 ], [ -0.201443625052927, 51.339846447010942 ], [ -0.201453821832042, 51.339843007593402 ], [ -0.20146248061609, 51.339839544543977 ], [ -0.201472642226214, 51.339837003607073 ], [ -0.201481419314936, 51.339833542373981 ], [ -0.201490126070853, 51.339831878104796 ], [ -0.201500287677821, 51.339829337165455 ], [ -0.201510414118338, 51.339827694707516 ], [ -0.20152042225099, 51.339826050430993 ], [ -0.201530548690114, 51.339824407971307 ], [ -0.201539220277838, 51.339823642180775 ], [ -0.201550731237139, 51.339822920013951 ], [ -0.201560787345828, 51.339823074516289 ], [ -0.201570843458899, 51.339823229018997 ], [ -0.201582284100674, 51.339824303816819 ], [ -0.201593724743011, 51.339825378613533 ], [ -0.201605165385913, 51.339826453409152 ], [ -0.201615151178564, 51.33982840487424 ], [ -0.201626556659652, 51.339830378150126 ], [ -0.201636507291181, 51.339833228095756 ], [ -0.201646457923965, 51.33983607804057 ], [ -0.201657828245861, 51.339838949795769 ], [ -0.201662016984562, 51.339840812194183 ], [ -0.201671932458372, 51.339844560619206 ], [ -0.201681847933818, 51.339848309043397 ], [ -0.20169034372261, 51.339852035655923 ], [ -0.201700224039494, 51.339856682560956 ], [ -0.201708566362417, 51.339861305837005 ], [ -0.201878217545602, 51.340187650071066 ], [ -0.202046540478564, 51.340142587445349 ], [ -0.202082809697563, 51.340132356266437 ], [ -0.202298420283288, 51.340088918619934 ], [ -0.202585380940147, 51.339982745621597 ], [ -0.202931457566237, 51.33983603459054 ], [ -0.203478983454364, 51.339638563103883 ], [ -0.204247268170854, 51.339305037683395 ], [ -0.20672440607038, 51.338262030168444 ], [ -0.20687330686094, 51.338198682685338 ], [ -0.206874726502048, 51.33819870443299 ], [ -0.209610568000413, 51.337035534473813 ], [ -0.210428924061081, 51.336702734921367 ], [ -0.211004481821315, 51.336446231936627 ], [ -0.211481562148435, 51.336250253947341 ], [ -0.211876541284819, 51.336062099947547 ], [ -0.213031008392431, 51.335541037131492 ], [ -0.212247522867465, 51.334053329044309 ], [ -0.211906144478271, 51.333308038126077 ], [ -0.212452223405552, 51.332553826865237 ], [ -0.212645846280499, 51.332301370955534 ], [ -0.212702786451827, 51.332240207774547 ], [ -0.213291538423883, 51.331422723507899 ], [ -0.214007195746158, 51.33047591516781 ], [ -0.214095386547291, 51.330350498384519 ], [ -0.214264884898896, 51.33027388046559 ], [ -0.214344756693464, 51.330249926348287 ], [ -0.215898561406798, 51.329860879091754 ], [ -0.216083683027555, 51.329826840744666 ], [ -0.216816345742941, 51.329849692580474 ], [ -0.217305653590509, 51.329851752086419 ], [ -0.218748480338372, 51.329845849392001 ], [ -0.219335524145328, 51.329848489112628 ], [ -0.220039556192889, 51.329831328547556 ], [ -0.220641086046619, 51.329829686905903 ], [ -0.22069443267034, 51.329861064745657 ], [ -0.220938401340547, 51.329862975403927 ], [ -0.220942659522229, 51.329863040130441 ], [ -0.221491621365567, 51.330403695403113 ], [ -0.222144020543253, 51.331015233945777 ], [ -0.223094771467727, 51.331747362482893 ], [ -0.224129684923234, 51.332455497436186 ], [ -0.225704432433758, 51.333462281903323 ], [ -0.226977360907937, 51.334326022080731 ], [ -0.226894404662035, 51.334393090934164 ], [ -0.2273451508861, 51.33465353184652 ], [ -0.228271633595338, 51.335235830071781 ], [ -0.228701260952333, 51.335525613617584 ], [ -0.229205491618621, 51.335888445797792 ], [ -0.229785466306217, 51.336485357235368 ], [ -0.229822849970568, 51.336522782409133 ], [ -0.228452212366551, 51.337070405538341 ], [ -0.228313642734749, 51.337127643455325 ], [ -0.228249426922377, 51.337153731925781 ], [ -0.228459839140381, 51.337244121614852 ], [ -0.227858909596058, 51.337488638298375 ], [ -0.226960613065116, 51.337813155641179 ], [ -0.226827024591932, 51.337888447654699 ], [ -0.226653079002994, 51.338080090523221 ], [ -0.226157468143148, 51.338536564668189 ], [ -0.225654896586172, 51.338946182205639 ], [ -0.224427032124703, 51.339845731250122 ], [ -0.224090742350122, 51.340041200716364 ], [ -0.223676628779663, 51.339983672875654 ], [ -0.223261298986956, 51.339881084225254 ], [ -0.222276940724373, 51.340460569986107 ], [ -0.222489217113616, 51.340689537560699 ], [ -0.22270056193155, 51.340829397761091 ], [ -0.221786117584293, 51.341345211589704 ], [ -0.221065193680888, 51.341684065788293 ], [ -0.220381910858608, 51.342013598654695 ], [ -0.219790952431009, 51.342331046346096 ], [ -0.21918070746609, 51.34262662134136 ], [ -0.21836740357612, 51.342977629355381 ], [ -0.21726461204437, 51.3433870651319 ], [ -0.217402242617006, 51.34365086591761 ], [ -0.217455992045841, 51.343782042362477 ], [ -0.21771713761388, 51.344417310755752 ], [ -0.217684221596754, 51.344450972355027 ], [ -0.217770543052609, 51.344853429427324 ], [ -0.217990230947524, 51.345593251196874 ], [ -0.217777657409136, 51.345631369906776 ], [ -0.21803548172285, 51.345983305590991 ], [ -0.218144023555358, 51.346109112482957 ], [ -0.218157643831112, 51.346127300203825 ], [ -0.218360537651915, 51.346448730871927 ], [ -0.218593238775959, 51.346929740729955 ], [ -0.218720159160587, 51.34724731727367 ], [ -0.218747136013247, 51.347293577633231 ], [ -0.218839840977214, 51.34742183943137 ], [ -0.218930054467194, 51.347647966403102 ], [ -0.219290849275624, 51.348380130319896 ], [ -0.219434725999682, 51.348633144189236 ], [ -0.219734227961889, 51.349092780594958 ], [ -0.219862282769809, 51.349421160565065 ], [ -0.219889053157455, 51.349472811494145 ], [ -0.220112893650933, 51.349920508127468 ], [ -0.220185695866418, 51.350079841592837 ], [ -0.220227502063849, 51.350186560957169 ], [ -0.220241475671303, 51.350235410143355 ], [ -0.220241252204771, 51.35031452027637 ], [ -0.220189677857442, 51.350386556951143 ], [ -0.220258189686642, 51.350693351808374 ], [ -0.220342999349749, 51.350986008395218 ], [ -0.220421044267472, 51.351419706024153 ], [ -0.221287269636082, 51.351338467853132 ], [ -0.221262146883155, 51.351170781474352 ], [ -0.222092035231714, 51.351324614886245 ], [ -0.222054817029902, 51.351395970301567 ], [ -0.222002192718362, 51.351531910073376 ], [ -0.221965090913463, 51.351747107949144 ], [ -0.221937499054926, 51.351903205788972 ], [ -0.221943730105469, 51.35211546541197 ], [ -0.221964605135305, 51.352353209325081 ], [ -0.221970816030974, 51.352676136044195 ], [ -0.222049431914985, 51.352722279485036 ], [ -0.222044501889051, 51.352776234811152 ], [ -0.221967949892039, 51.352823619142448 ], [ -0.22195632030037, 51.352900756993122 ], [ -0.221951390743756, 51.353067896963452 ], [ -0.221955981247935, 51.353246059376261 ], [ -0.221975048454155, 51.353530523993776 ], [ -0.222007243779262, 51.353775631645711 ], [ -0.222089537500978, 51.354097015887099 ], [ -0.222135740809265, 51.354350427040096 ], [ -0.222182897861376, 51.354505771295656 ], [ -0.222247771973205, 51.354647000286491 ], [ -0.222415253129372, 51.355071353926476 ], [ -0.222419166010533, 51.355080403326639 ], [ -0.222476970247516, 51.355257484972022 ], [ -0.222584642963878, 51.355740264972617 ], [ -0.222678452724391, 51.356211057503828 ], [ -0.22272296802908, 51.356434775357833 ], [ -0.22278180447359, 51.356658710371399 ], [ -0.222782185878704, 51.356762101488108 ], [ -0.222726631818052, 51.357010372612415 ], [ -0.222736612259148, 51.357086040226747 ], [ -0.222764802050389, 51.357098154806934 ], [ -0.222850268692842, 51.357117431057254 ], [ -0.222863998620123, 51.357132922327146 ], [ -0.222956339388306, 51.357381638315111 ], [ -0.223131746009024, 51.357748484011857 ], [ -0.223178846306301, 51.357831996278598 ], [ -0.223202319356938, 51.357892585330156 ], [ -0.223221874509008, 51.357980984041824 ], [ -0.22327495985779, 51.35813021414728 ], [ -0.223460236303, 51.358428794608294 ], [ -0.223622510005633, 51.358651599733001 ], [ -0.223827527047981, 51.358960456505812 ], [ -0.224058058845511, 51.359274192432373 ], [ -0.224238249515524, 51.359444225262905 ], [ -0.224312587735031, 51.359454341493489 ], [ -0.224404668235532, 51.359560019685404 ], [ -0.224496659172335, 51.359671090391814 ], [ -0.22469547503192, 51.359953778636324 ], [ -0.22492390612748, 51.360248601905127 ], [ -0.225424882495765, 51.360815540996583 ], [ -0.226145019558909, 51.361657379964804 ], [ -0.226282806457823, 51.361772738070755 ], [ -0.226344798188314, 51.361841999506304 ], [ -0.226406958203858, 51.361943717038208 ], [ -0.226438523841837, 51.362018810953245 ], [ -0.226675443903917, 51.362318253626235 ], [ -0.226873141692315, 51.362593728648157 ], [ -0.226942308396424, 51.362624441637188 ], [ -0.228516812074072, 51.363328064513468 ], [ -0.229905259351995, 51.364017168750387 ], [ -0.229982656070198, 51.364058791993635 ], [ -0.230456614459016, 51.364358209201264 ], [ -0.231583558891022, 51.365088293693724 ], [ -0.231744037811016, 51.365171713402816 ], [ -0.231890177294912, 51.365258422650413 ], [ -0.23203703157525, 51.365360425284614 ], [ -0.232808252281322, 51.365815435004727 ], [ -0.233191522828556, 51.366009999600898 ], [ -0.233819749998679, 51.365323470148404 ], [ -0.233949578250874, 51.365384759318374 ], [ -0.234164134505225, 51.36548508214311 ], [ -0.23522619073264, 51.365957941644737 ], [ -0.235888962925933, 51.366357270499229 ], [ -0.236779991254962, 51.366796888473807 ], [ -0.237051903390185, 51.366899957385435 ], [ -0.23740959373089, 51.366937700706515 ], [ -0.237824948240354, 51.367006875558353 ], [ -0.238566671679579, 51.367071964513315 ], [ -0.238917625701444, 51.366834421570147 ], [ -0.239475479160064, 51.366900427646726 ], [ -0.240527460612055, 51.367001628847525 ], [ -0.240891058836599, 51.367036753343235 ], [ -0.241077627734756, 51.366476605942374 ], [ -0.241150520207868, 51.36626194223139 ], [ -0.241231942164484, 51.366273052948188 ], [ -0.242959787509063, 51.366510230712166 ], [ -0.244590929629686, 51.366718156252041 ], [ -0.245129403258896, 51.366801735235612 ], [ -0.245405023990293, 51.366845417370897 ], [ -0.245328851901111, 51.36699449857025 ], [ -0.245293111899671, 51.36706498385611 ], [ -0.245017301841611, 51.367742482265001 ], [ -0.244879420553638, 51.368154951895221 ], [ -0.244745472319438, 51.368690734723145 ], [ -0.244707220044914, 51.368978834489326 ], [ -0.244679555479609, 51.369061129218778 ], [ -0.244632209038288, 51.369249302422737 ], [ -0.244621026128064, 51.369315661786239 ], [ -0.244603555563401, 51.369434968655725 ], [ -0.244581734061409, 51.369705334201683 ], [ -0.244538026966216, 51.370470907054269 ], [ -0.244584900841485, 51.370899628559314 ], [ -0.244683316852356, 51.371371465508098 ], [ -0.244688455136636, 51.371497404069558 ], [ -0.244680532233679, 51.371630339080923 ], [ -0.244708904709523, 51.372316979416745 ], [ -0.244709024401858, 51.372878054133061 ], [ -0.244699505340383, 51.373015550162719 ], [ -0.24467232587018, 51.373162580870222 ], [ -0.244599771652373, 51.373179474258883 ], [ -0.244600839281349, 51.373790098588465 ], [ -0.244637042177505, 51.374423724467853 ], [ -0.244718067560184, 51.374445615456395 ], [ -0.244739913846493, 51.374512559412878 ], [ -0.244767106052, 51.374817821351591 ], [ -0.244764625524903, 51.374957130893158 ], [ -0.244770131240745, 51.375002163910956 ], [ -0.244800359607438, 51.375113284947552 ], [ -0.244830372463243, 51.375192847465172 ], [ -0.244841574697141, 51.375274825253456 ], [ -0.244916245850735, 51.375614961974776 ], [ -0.244944750646653, 51.375845628740606 ], [ -0.245058863444216, 51.376319414864632 ], [ -0.245113443374546, 51.376658354837197 ], [ -0.245173622440135, 51.377114341494263 ], [ -0.245183610913574, 51.377190908025348 ], [ -0.245178410597209, 51.37744174742798 ], [ -0.245206873661751, 51.378349557374733 ], [ -0.245161119941444, 51.379060178921691 ], [ -0.245121244775595, 51.379424674832073 ], [ -0.245030428134152, 51.380033930830976 ], [ -0.245012481326868, 51.380091199483999 ], [ -0.244968611468405, 51.380600467980535 ], [ -0.244960989110649, 51.380648002006808 ], [ -0.244898922437822, 51.380880009105013 ], [ -0.244811945762081, 51.380861624926283 ], [ -0.244768943360653, 51.381010218522469 ], [ -0.2447549238523, 51.38100191732309 ], [ -0.2446486082512, 51.381601051510302 ], [ -0.24467157558992, 51.381641851560047 ], [ -0.244460239648362, 51.382430993955701 ], [ -0.244316303939953, 51.382926086687114 ], [ -0.244150970619194, 51.383491072226519 ], [ -0.242936023347374, 51.382944146251717 ], [ -0.242907693513544, 51.382932034170636 ], [ -0.242797834802445, 51.383062543108586 ], [ -0.242529557960539, 51.383350791995007 ], [ -0.242531643573786, 51.38337060176454 ], [ -0.242534787253059, 51.383403013714322 ], [ -0.242070514248979, 51.384003967586281 ], [ -0.241927477864234, 51.384174522715703 ], [ -0.241802692682586, 51.384354251763206 ], [ -0.241596532555469, 51.384523859360364 ], [ -0.24137956010856, 51.384672537054527 ], [ -0.241041260372137, 51.384873424095652 ], [ -0.240696337463867, 51.385061534590328 ], [ -0.240035825039156, 51.385420392553712 ], [ -0.239889000830546, 51.385500896770679 ], [ -0.239727157017211, 51.385599155500643 ], [ -0.239353820250048, 51.385777035911318 ], [ -0.239167267434576, 51.385883013752533 ], [ -0.239012131523213, 51.385917542162936 ], [ -0.238890474012146, 51.38598134201451 ], [ -0.238831239102524, 51.386027290492294 ], [ -0.238720846986179, 51.386093956523204 ], [ -0.238932433881993, 51.386685272585936 ], [ -0.238947228056318, 51.386747526996871 ], [ -0.238972111952508, 51.386849489722266 ], [ -0.238989964092802, 51.387057520510503 ], [ -0.2390735533612, 51.387238579769964 ], [ -0.239200120147444, 51.38746083036034 ], [ -0.23929997318318, 51.38770605383182 ], [ -0.239435747793638, 51.387950917890649 ], [ -0.239447085518908, 51.388143477538421 ], [ -0.239471151836661, 51.388226638431682 ], [ -0.239467265744157, 51.388365028423408 ], [ -0.239556688794308, 51.388508416304838 ], [ -0.239588548240789, 51.388651029261851 ], [ -0.239560979588887, 51.388733324513403 ], [ -0.239550190721923, 51.388866306605493 ], [ -0.23954765161621, 51.388892339905112 ], [ -0.239558175191056, 51.388917670432058 ], [ -0.239576586622314, 51.388962897794599 ], [ -0.239614813100587, 51.389127991867653 ], [ -0.239622356383847, 51.389156873677393 ], [ -0.239683238435602, 51.389293629478466 ], [ -0.239667298639383, 51.389295188059563 ], [ -0.239594869605645, 51.389311181285173 ], [ -0.239214505231621, 51.389408853283911 ], [ -0.238904718712672, 51.389541837239769 ], [ -0.238734100939914, 51.389605800078897 ], [ -0.238611238103078, 51.389660591325217 ], [ -0.238515347933641, 51.389688817442618 ], [ -0.238219946812417, 51.389746408640136 ], [ -0.237569575560482, 51.389912925667709 ], [ -0.236732570730824, 51.390075731883066 ], [ -0.236633821075316, 51.390101216383009 ], [ -0.236393850813923, 51.390174920338467 ], [ -0.235337606077369, 51.390392852745016 ], [ -0.234633529929993, 51.390537777060651 ], [ -0.234465972117605, 51.390072169784723 ], [ -0.234439532445222, 51.389899969611278 ], [ -0.234415920457655, 51.389805217236272 ], [ -0.234365695380092, 51.389317913434056 ], [ -0.23427009098711, 51.389036789140363 ], [ -0.234189974202324, 51.388728927706488 ], [ -0.234103575373276, 51.388507366897308 ], [ -0.234015159634464, 51.388378284292664 ], [ -0.233926771775285, 51.388211533300968 ], [ -0.233647127708389, 51.387819752578004 ], [ -0.233904415704333, 51.387708466979952 ], [ -0.233665216679565, 51.387574504177877 ], [ -0.232061788466937, 51.38658900517877 ], [ -0.231073132650005, 51.385989544238043 ], [ -0.230438311935867, 51.385605878625171 ], [ -0.228864772393304, 51.384632474665622 ], [ -0.227718246109151, 51.383953283868308 ], [ -0.22456583392492, 51.382635698300817 ], [ -0.221978985933051, 51.381520981598023 ], [ -0.220975793178382, 51.381079532295921 ], [ -0.220552232330433, 51.380922875753825 ], [ -0.220303550737346, 51.380848976070752 ], [ -0.220177904146975, 51.380792227848815 ], [ -0.219980205318198, 51.380738880167932 ], [ -0.219850379903914, 51.380713533700245 ], [ -0.219678921062832, 51.380689352636452 ], [ -0.219344978740783, 51.38066620869062 ], [ -0.219126593290473, 51.380626929525747 ], [ -0.218742919607767, 51.380404435575173 ], [ -0.218469905301391, 51.380255454090815 ], [ -0.218338808980769, 51.380189630984333 ], [ -0.218111935768868, 51.38014932184511 ], [ -0.21798462043066, 51.380282238129652 ], [ -0.217864149321499, 51.380388377794972 ], [ -0.217629305860177, 51.380626641127357 ], [ -0.21744053667497, 51.380822542008694 ], [ -0.217106840260091, 51.381089057834757 ], [ -0.216721839468481, 51.381419520973665 ], [ -0.216534263251422, 51.381587568975398 ], [ -0.216270700492625, 51.381823594235513 ], [ -0.215891095269944, 51.382200885336459 ], [ -0.215435835206973, 51.382597790181237 ], [ -0.214719959718456, 51.383193899963189 ], [ -0.21457257726237, 51.383327405515729 ], [ -0.213777126600737, 51.384046360612658 ], [ -0.213883652676436, 51.384116399413841 ], [ -0.21393271071277, 51.384146814662358 ], [ -0.213475772502733, 51.384515726560394 ], [ -0.213468688459735, 51.384512022496786 ], [ -0.213374192524939, 51.384464732000019 ], [ -0.212961298291242, 51.384810040000055 ], [ -0.213131775961421, 51.384896248126303 ], [ -0.213347444246064, 51.385005710320279 ], [ -0.213109252132945, 51.385216043465206 ], [ -0.213017191023064, 51.385182275015616 ], [ -0.212906448451268, 51.385257002240621 ], [ -0.212741036931902, 51.385372340037719 ], [ -0.212611511699467, 51.385488135111629 ], [ -0.212402823171939, 51.385680127427655 ], [ -0.212229369191326, 51.385852788748423 ], [ -0.212061993452699, 51.386018440339249 ], [ -0.211925331252206, 51.3861682882293 ], [ -0.211754992468554, 51.386333894141536 ], [ -0.211525851533979, 51.386533573900351 ], [ -0.211270802330384, 51.38677160515946 ], [ -0.211022869680651, 51.387012441531326 ], [ -0.210854013882886, 51.387215827265408 ], [ -0.210513392816353, 51.387545148489259 ], [ -0.210394113104825, 51.387619742862135 ], [ -0.210328257124244, 51.387649303445926 ], [ -0.210265431979643, 51.387677112260249 ], [ -0.210151501743686, 51.387796828643474 ], [ -0.210140979282953, 51.387808355077027 ], [ -0.210129000565567, 51.387820758277364 ], [ -0.210114039244765, 51.387836711966955 ], [ -0.210050974381043, 51.387904073573736 ], [ -0.210042096655317, 51.387912928084369 ], [ -0.210115362609093, 51.387985069331286 ], [ -0.209995080452024, 51.388048859811462 ], [ -0.209881550008448, 51.388121833347768 ], [ -0.209768621697182, 51.388252262897069 ], [ -0.209470561348058, 51.388046239720559 ], [ -0.209372009123854, 51.38799348993539 ], [ -0.209304132322562, 51.387965482224992 ], [ -0.209031525626553, 51.38787860654935 ], [ -0.20886427465563, 51.387855372696038 ], [ -0.208807114857209, 51.387847306807899 ], [ -0.208693356517007, 51.387816799323197 ], [ -0.207842559229813, 51.387444993319818 ], [ -0.207710286847144, 51.387372757224171 ], [ -0.207566190248435, 51.387272560606469 ], [ -0.207290104183383, 51.38709293947678 ], [ -0.206623846443718, 51.386781574721653 ], [ -0.205993811964377, 51.386538096882617 ], [ -0.205003796470904, 51.386091228951791 ], [ -0.205002375324013, 51.386091207180996 ], [ -0.203493463308118, 51.387224571615498 ], [ -0.202171736657258, 51.386182751647283 ], [ -0.200480704403895, 51.384884331780313 ], [ -0.200292315707148, 51.384962349547877 ], [ -0.199503509861221, 51.385360270928537 ], [ -0.197836913685108, 51.386112565186885 ], [ -0.196500837299651, 51.386757456687121 ], [ -0.196413172212027, 51.386792966804471 ], [ -0.19628952913793, 51.386833317100461 ], [ -0.195420331249447, 51.387043877546255 ], [ -0.195324089996533, 51.387077456733323 ], [ -0.195221633796741, 51.387124425281023 ], [ -0.193926056268117, 51.387870689770466 ], [ -0.193578982289886, 51.387668366225711 ], [ -0.193209584164271, 51.38785245189279 ], [ -0.193176010688989, 51.387865419347911 ], [ -0.193047989175139, 51.387794131420705 ], [ -0.191835928176375, 51.38693108269225 ], [ -0.191637848495124, 51.38707096854872 ], [ -0.191079874092041, 51.386823129108123 ], [ -0.190918171678956, 51.386731630577813 ], [ -0.19076358782622, 51.386642938774813 ], [ -0.190510265187935, 51.386470822135884 ], [ -0.190326298797282, 51.386360998765831 ], [ -0.190302434080596, 51.386347145028132 ], [ -0.190444678786652, 51.386201814201399 ], [ -0.190100033778444, 51.38612187333969 ], [ -0.189711756848775, 51.386126663390471 ], [ -0.189632404739939, 51.386062506664913 ], [ -0.18951683515676, 51.385967223927302 ], [ -0.189543571667242, 51.38587225201195 ], [ -0.189436063098503, 51.385866994806193 ], [ -0.188969184939676, 51.385824718306075 ], [ -0.188418872141483, 51.38545561833206 ], [ -0.188386647193875, 51.385434442870896 ], [ -0.187002874952874, 51.386227813478911 ], [ -0.186051044866118, 51.38671122367559 ], [ -0.185441116544685, 51.387013826177558 ], [ -0.184505939045531, 51.387512855177917 ], [ -0.184264360814804, 51.387622387464859 ], [ -0.184029410688018, 51.38771413164924 ], [ -0.183143072820008, 51.387918852134455 ], [ -0.182866184161143, 51.387980276352785 ], [ -0.182725010630599, 51.388023037548884 ], [ -0.182703242514267, 51.388028094018004 ], [ -0.182687241951891, 51.388034138936725 ], [ -0.182445276466991, 51.38815624737844 ], [ -0.182210693910923, 51.388307327974417 ], [ -0.18132418369382, 51.388808793898804 ] ] ] } }
]
}
