{
"type": "FeatureCollection",
"name": "borough_City_of_Westminster",
"crs": { "type": "name", "properties": { "name": "urn:ogc:def:crs:OGC:1.3:CRS84" } },
"features": [
{ "type": "Feature", "properties": { "DISTRICT": "City of Westminster", "NAME": "St. James's", "GSS_CODE": "E05000644", "LAGSSCODE": "E09000033", "HECTARES": 346.379, "NONLD_AREA": 27.146 }, "geometry": { "type": "Polygon", "coordinates": [ [ [ -0.127502650294527, 51.48734876373473 ], [ -0.127718770621028, 51.487207383319387 ], [ -0.127879391284587, 51.487081388677517 ], [ -0.128173684044469, 51.486826181676705 ], [ -0.12839310014531, 51.486639002987296 ], [ -0.128821998873034, 51.486330203759884 ], [ -0.129111435444369, 51.486120856541042 ], [ -0.129283719731625, 51.485994057181259 ], [ -0.129466445341184, 51.485893585395402 ], [ -0.1295016802322, 51.485877066158039 ], [ -0.129558919544242, 51.485851008734116 ], [ -0.129752240787715, 51.485773090929101 ], [ -0.129942149615194, 51.485705996450015 ], [ -0.129962830744557, 51.485728801561002 ], [ -0.130346311583738, 51.485615347321726 ], [ -0.130683926106629, 51.485496665670397 ], [ -0.132268539492113, 51.484891526355355 ], [ -0.13236773832506, 51.48486155088785 ], [ -0.132602409776583, 51.484791568982544 ], [ -0.132766300245284, 51.484730348758724 ], [ -0.13285529695039, 51.484702997378143 ], [ -0.133037122166202, 51.484659143569921 ], [ -0.134169105258738, 51.484449619529002 ], [ -0.135122544815719, 51.484273205918342 ], [ -0.136640630392632, 51.483992482081817 ], [ -0.137118835285036, 51.483920067383998 ], [ -0.137351929522643, 51.483891405477856 ], [ -0.137768261815094, 51.483853965863709 ], [ -0.138085733361764, 51.483838329569082 ], [ -0.138278620058308, 51.483840492849765 ], [ -0.138541499760107, 51.483823988688101 ], [ -0.138914775947659, 51.483817327023409 ], [ -0.138965058446019, 51.483819023994613 ], [ -0.140052660445171, 51.483849763667905 ], [ -0.140331432569883, 51.483865871880958 ], [ -0.140506453516075, 51.483883930409 ], [ -0.140721267713319, 51.483913407728295 ], [ -0.141037578356468, 51.483964271862334 ], [ -0.141670922911247, 51.484080393213539 ], [ -0.142513962406398, 51.484208912737458 ], [ -0.142905264259544, 51.484290626982393 ], [ -0.143340250162226, 51.48436404141809 ], [ -0.143430409823636, 51.48437805496792 ], [ -0.144135792158387, 51.48442248344265 ], [ -0.144251897141078, 51.484435108926583 ], [ -0.144565099069032, 51.484489600268645 ], [ -0.144764902413231, 51.484535014869927 ], [ -0.144896509831066, 51.484557774088884 ], [ -0.145145975283407, 51.484585094380108 ], [ -0.146163945886972, 51.48462906026176 ], [ -0.147230565253925, 51.484647714568013 ], [ -0.147733582164696, 51.484636781367563 ], [ -0.14883205736772, 51.484613670702807 ], [ -0.14936011322956, 51.484591438617002 ], [ -0.149819387999931, 51.484560926934741 ], [ -0.149979353435921, 51.485485206884853 ], [ -0.15006210666541, 51.485896551343174 ], [ -0.150094795293611, 51.485977977998488 ], [ -0.150170763787018, 51.486093350749805 ], [ -0.150342273818518, 51.486233694584676 ], [ -0.15138940668449, 51.486876097043343 ], [ -0.151700363931809, 51.487057204362138 ], [ -0.153461205171821, 51.48818119487526 ], [ -0.154893102161644, 51.489035584812093 ], [ -0.155849508213872, 51.489607204373115 ], [ -0.155171883707238, 51.490049828480998 ], [ -0.155436709590234, 51.49044785010576 ], [ -0.155544463618121, 51.490670791104698 ], [ -0.155630355828721, 51.49089689434269 ], [ -0.155677446924791, 51.491051455473368 ], [ -0.155796696681463, 51.491451681927586 ], [ -0.154793528470465, 51.491963802395695 ], [ -0.155965117587869, 51.493202548135201 ], [ -0.155984498981678, 51.493222631143027 ], [ -0.154990828680937, 51.493857170089058 ], [ -0.155989304688245, 51.494495169408189 ], [ -0.155914377614693, 51.494638732394485 ], [ -0.155822903761786, 51.49472728528054 ], [ -0.155813911703719, 51.494735235004676 ], [ -0.155757420306206, 51.494781095384639 ], [ -0.155612178546429, 51.494880399887727 ], [ -0.155294931177431, 51.495065192113103 ], [ -0.155523082161335, 51.49533947302087 ], [ -0.155608632264024, 51.495503539659829 ], [ -0.155653917733558, 51.495629304441401 ], [ -0.156023112744251, 51.497511797977616 ], [ -0.156071988610338, 51.497763480725538 ], [ -0.157215206505176, 51.498567454863242 ], [ -0.157849635648367, 51.499018926125153 ], [ -0.158412001179299, 51.501080831539248 ], [ -0.158476061161988, 51.501206800084134 ], [ -0.158492645298245, 51.501261001211077 ], [ -0.158501295227704, 51.501332248896425 ], [ -0.158500810897146, 51.501414950423531 ], [ -0.158477957810848, 51.501516179997523 ], [ -0.158444106805307, 51.502249422286518 ], [ -0.158452701329546, 51.5022513552546 ], [ -0.158575868824612, 51.502234409798064 ], [ -0.159148756557847, 51.502104055885006 ], [ -0.160564321591587, 51.501766570220369 ], [ -0.160757006044444, 51.501704863107555 ], [ -0.160864154079435, 51.501657906761324 ], [ -0.160999437230253, 51.501590804094434 ], [ -0.161163184468978, 51.501495379161426 ], [ -0.161319833584549, 51.501396246681296 ], [ -0.16154571014338, 51.501227087313922 ], [ -0.16234260298995, 51.500471639981058 ], [ -0.162574530725832, 51.500293583333864 ], [ -0.162833266656829, 51.500131229353165 ], [ -0.165481422934436, 51.498697940810807 ], [ -0.16577931478947, 51.49924308598866 ], [ -0.167619548030783, 51.498301456987662 ], [ -0.167904598296131, 51.498521762870936 ], [ -0.168026867921493, 51.49888516555535 ], [ -0.168177952015304, 51.498998193744974 ], [ -0.168390222332287, 51.499022186083941 ], [ -0.169619720969242, 51.498903740868911 ], [ -0.171475302315304, 51.49868896161091 ], [ -0.17177678313123, 51.498609154163226 ], [ -0.171781229056074, 51.498533706486135 ], [ -0.172447925230424, 51.498470377596938 ], [ -0.172458262663054, 51.49839313377668 ], [ -0.173535300620439, 51.498302029314132 ], [ -0.173542772473236, 51.498222133655297 ], [ -0.179546739801672, 51.497779485107458 ], [ -0.17972522181378, 51.498686929326482 ], [ -0.180311936393634, 51.50146219746037 ], [ -0.180907139920588, 51.501422883397296 ], [ -0.181350661797201, 51.501430660117016 ], [ -0.181633372822972, 51.50142245711082 ], [ -0.182037165977161, 51.501449393541527 ], [ -0.182384659421062, 51.501479052194931 ], [ -0.182591274701297, 51.501499334977773 ], [ -0.183056859835158, 51.501567680761028 ], [ -0.184235113145433, 51.501794586844653 ], [ -0.18438530776511, 51.502113453188848 ], [ -0.185597492317753, 51.504892080290652 ], [ -0.186859221274673, 51.507773047102617 ], [ -0.187909272185273, 51.510180367954085 ], [ -0.188538462086612, 51.510158621178213 ], [ -0.1896960233286, 51.510077601217915 ], [ -0.190913252064813, 51.510019965347531 ], [ -0.191698807926242, 51.509941188742516 ], [ -0.192119659658196, 51.509869462324779 ], [ -0.192960527210179, 51.511814927102989 ], [ -0.193631246429593, 51.511693103724802 ], [ -0.194040770282279, 51.511757845043107 ], [ -0.194343143241407, 51.512713919752194 ], [ -0.195048400299683, 51.515033154806723 ], [ -0.195743240171986, 51.514957539553698 ], [ -0.199183641288065, 51.514552721830668 ], [ -0.199869851942064, 51.51677723691742 ], [ -0.199871241696896, 51.516778157249938 ], [ -0.199920413662789, 51.516848135271331 ], [ -0.200723293015867, 51.517978187270117 ], [ -0.201463894540667, 51.51780075301366 ], [ -0.202355278062241, 51.518848543545623 ], [ -0.202945996785646, 51.519474492579612 ], [ -0.203185401885258, 51.51976593170702 ], [ -0.203254770976306, 51.519869480913563 ], [ -0.203279444711359, 51.519940071190774 ], [ -0.203329105251072, 51.520070288649841 ], [ -0.203394969176476, 51.520262875547225 ], [ -0.203429366160371, 51.520303857612113 ], [ -0.203556082837588, 51.520454134193258 ], [ -0.203691280197702, 51.520573165194769 ], [ -0.203742511165345, 51.520624294001969 ], [ -0.203701680008325, 51.520638052854451 ], [ -0.20347398335943, 51.52071008240592 ], [ -0.203084855537171, 51.520819195052269 ], [ -0.202644878541039, 51.520900647052066 ], [ -0.20220133997735, 51.520888456319305 ], [ -0.20174389002955, 51.520864363573892 ], [ -0.201522333436361, 51.520852875954652 ], [ -0.20122019783374, 51.520838354419517 ], [ -0.20074374929712, 51.520822866773869 ], [ -0.200748107281486, 51.520712355875162 ], [ -0.200609780360534, 51.520712032182942 ], [ -0.200612150905957, 51.520796575111156 ], [ -0.201107798459251, 51.521461529902133 ], [ -0.201463954218851, 51.521932855713217 ], [ -0.201503781377067, 51.52198381064504 ], [ -0.201507216109832, 51.522041399675572 ], [ -0.201531125771306, 51.522348417109896 ], [ -0.201601303870421, 51.522618385608439 ], [ -0.201615026199135, 51.522743647671895 ], [ -0.20255981482831, 51.523020637428168 ], [ -0.202669660483901, 51.52305018962938 ], [ -0.202779431957436, 51.523081628501316 ], [ -0.20299370553585, 51.523133457347669 ], [ -0.203534087582475, 51.523318838006404 ], [ -0.203857262342573, 51.523460525318633 ], [ -0.204051647900895, 51.523610039260568 ], [ -0.204340999906619, 51.523841107903657 ], [ -0.204512764460078, 51.524055093051267 ], [ -0.205020060202446, 51.524719309708416 ], [ -0.205165926244535, 51.524930110628304 ], [ -0.205465683491159, 51.525298883253221 ], [ -0.205666901796186, 51.525534893215607 ], [ -0.205877995289101, 51.525740487546166 ], [ -0.206153937429184, 51.525944376098472 ], [ -0.206483586223809, 51.526067185831657 ], [ -0.206700327751102, 51.526126237473271 ], [ -0.206951721526509, 51.526186717355628 ], [ -0.207295615776649, 51.526240519229738 ], [ -0.20731716516804, 51.526242646538826 ], [ -0.207583238538307, 51.526259298197168 ], [ -0.207807176335675, 51.526283486489135 ], [ -0.208045491677411, 51.526307804069219 ], [ -0.208212313675893, 51.526318443179214 ], [ -0.208813451274858, 51.526429210538076 ], [ -0.209199589368414, 51.526506126894141 ], [ -0.209554235833507, 51.526579864340832 ], [ -0.209969816676432, 51.526645630358175 ], [ -0.210253733150048, 51.526683225286675 ], [ -0.21123691159146, 51.52675755484038 ], [ -0.211938215313286, 51.526814994180938 ], [ -0.212674146954181, 51.526868461879744 ], [ -0.213291418864576, 51.526898541726688 ], [ -0.213729145534662, 51.526875540438063 ], [ -0.214575373689601, 51.526804815088532 ], [ -0.215046932051546, 51.526761646691277 ], [ -0.215474981068063, 51.526727703600308 ], [ -0.215548795142541, 51.526721634375043 ], [ -0.215650766057882, 51.526916471116834 ], [ -0.215808722021839, 51.527263281683823 ], [ -0.215863597321448, 51.527407147667915 ], [ -0.21589897760457, 51.527499384062175 ], [ -0.215899669795439, 51.527591092917682 ], [ -0.215882621262416, 51.527659247789266 ], [ -0.215865767193172, 51.527685961567585 ], [ -0.215790851226365, 51.52782956172598 ], [ -0.216004690266863, 51.527929906102926 ], [ -0.216064211136989, 51.528875933173659 ], [ -0.216052164876202, 51.52907451956019 ], [ -0.216016089219134, 51.529258356484803 ], [ -0.215923472039151, 51.529562698947373 ], [ -0.215859387178172, 51.529727140895957 ], [ -0.215823003920008, 51.529736476602693 ], [ -0.21566290672742, 51.529775395806297 ], [ -0.215537977946963, 51.529799566687743 ], [ -0.215446776469431, 51.529845826557683 ], [ -0.215351632664712, 51.529880429246838 ], [ -0.21528982690797, 51.529913651127089 ], [ -0.215240759466607, 51.52995246078553 ], [ -0.21520450067075, 51.52999506130211 ], [ -0.215153732099797, 51.530074300174526 ], [ -0.215105121193035, 51.530174338819073 ], [ -0.215080242592377, 51.530260264578438 ], [ -0.215072717568353, 51.53034016134341 ], [ -0.215079174990888, 51.530396896772153 ], [ -0.215143200423517, 51.530565175313413 ], [ -0.215268034952804, 51.53098699870818 ], [ -0.215300481667822, 51.531078291597119 ], [ -0.215336195732392, 51.531198492168102 ], [ -0.215338468742758, 51.531249769902281 ], [ -0.215326682782443, 51.531292742739517 ], [ -0.215303794611765, 51.531324758648111 ], [ -0.215281363468201, 51.531345094469444 ], [ -0.215244521734308, 51.531366110058258 ], [ -0.215183030313436, 51.531391245637039 ], [ -0.214670383162146, 51.53152018353714 ], [ -0.214161427189018, 51.531594246321255 ], [ -0.214022257924033, 51.53161460280689 ], [ -0.213795753511125, 51.531655205496868 ], [ -0.213608203778479, 51.531693703918343 ], [ -0.213243422777703, 51.531768249908353 ], [ -0.213038346082352, 51.531777712389037 ], [ -0.212792734444818, 51.53179015301432 ], [ -0.212638172168041, 51.53179678831701 ], [ -0.212233826593597, 51.5318131022998 ], [ -0.211710753452572, 51.531843787191512 ], [ -0.211378032354527, 51.531907039144684 ], [ -0.211027010188687, 51.531961021051629 ], [ -0.210817385547426, 51.532013652333887 ], [ -0.210160654125431, 51.532214900367656 ], [ -0.210077394912429, 51.532243297181779 ], [ -0.209662705099386, 51.532374606746117 ], [ -0.209311304012117, 51.532474426887525 ], [ -0.20893424830955, 51.532567561291181 ], [ -0.208657617968965, 51.532637145779809 ], [ -0.207922492246365, 51.532778749056256 ], [ -0.207623719040443, 51.532821831877634 ], [ -0.207311558335781, 51.532839537286399 ], [ -0.207080822894925, 51.532842304247524 ], [ -0.206773186268373, 51.532853784343651 ], [ -0.206584161765062, 51.532859974798896 ], [ -0.206235118082107, 51.532899588578367 ], [ -0.205844642020511, 51.53292867865477 ], [ -0.205506332295098, 51.532952272371205 ], [ -0.205285434756201, 51.532958782294443 ], [ -0.204579497323352, 51.532944384639862 ], [ -0.204032652294109, 51.532917135305127 ], [ -0.203573867640391, 51.532887635883206 ], [ -0.203241085806297, 51.532882539613425 ], [ -0.203048704781413, 51.532898472095823 ], [ -0.202967750778166, 51.532904424103315 ], [ -0.20282526499841, 51.532860887292152 ], [ -0.202577368191444, 51.532783281315155 ], [ -0.202267206656202, 51.53267784049612 ], [ -0.202010683292445, 51.532601989027917 ], [ -0.201853434049074, 51.532568113797112 ], [ -0.201664790972132, 51.532561626220591 ], [ -0.201525668313023, 51.53239668407528 ], [ -0.201451499117263, 51.532302949737854 ], [ -0.201410016625905, 51.532221403502362 ], [ -0.201375108253728, 51.532157039099459 ], [ -0.201272711208941, 51.532046599918154 ], [ -0.201083505884818, 51.531909747413238 ], [ -0.200983092461426, 51.531860560510758 ], [ -0.20087861845001, 51.531805827329528 ], [ -0.200650667732005, 51.53169894604563 ], [ -0.200424470444247, 51.531619960312746 ], [ -0.199819160633506, 51.531360660939669 ], [ -0.199538403649421, 51.531239482102507 ], [ -0.199387533923022, 51.53115257039812 ], [ -0.199306391533577, 51.531091091742631 ], [ -0.199305001362956, 51.531090171401509 ], [ -0.199150171370117, 51.53099519746268 ], [ -0.19899385198032, 51.53093795860967 ], [ -0.198834059758579, 51.53085729212598 ], [ -0.198742823948734, 51.530795568203786 ], [ -0.198661386830256, 51.530738579580351 ], [ -0.198570680213565, 51.530663468485699 ], [ -0.19827361881716, 51.530446651859101 ], [ -0.198191396132409, 51.530373468758633 ], [ -0.197969177238596, 51.530121840593573 ], [ -0.197950768218326, 51.530079304629709 ], [ -0.197915948982274, 51.52993762613324 ], [ -0.197901217588433, 51.529615466448867 ], [ -0.197978276430082, 51.529163372194859 ], [ -0.197977377475142, 51.529113913152379 ], [ -0.197947959744364, 51.529019065830994 ], [ -0.197929974240386, 51.528851484860724 ], [ -0.197949087655627, 51.528770868070531 ], [ -0.197970986942262, 51.528728052250727 ], [ -0.198050233887226, 51.528617703066544 ], [ -0.197925920974035, 51.528370365377278 ], [ -0.197774318195353, 51.527902172411906 ], [ -0.19747630219151, 51.527854441577638 ], [ -0.197225300123371, 51.527931495086001 ], [ -0.19715847976878, 51.527943953302184 ], [ -0.197105010938213, 51.52794942463224 ], [ -0.196996978303918, 51.527945966317581 ], [ -0.196906893526751, 51.527927500681095 ], [ -0.196821719813562, 51.527856968192388 ], [ -0.196822202278473, 51.52773650898731 ], [ -0.19654427574765, 51.527655731475413 ], [ -0.196538029715197, 51.527702473600087 ], [ -0.196503465168503, 51.527737902422807 ], [ -0.196388695765392, 51.527907847883817 ], [ -0.195671864391074, 51.528753846198931 ], [ -0.194258964629648, 51.530465837802204 ], [ -0.193492147721123, 51.531371287060452 ], [ -0.193221444125588, 51.531689950967106 ], [ -0.193114024410137, 51.531817843173137 ], [ -0.19286786069606, 51.532135086221636 ], [ -0.192640037745864, 51.532463399370037 ], [ -0.192533902861277, 51.532630777156612 ], [ -0.192386457965855, 51.532895599783373 ], [ -0.192360344660713, 51.533008561928348 ], [ -0.192349326722613, 51.533211567215027 ], [ -0.192357644969762, 51.533256645610628 ], [ -0.192383270138273, 51.533302979566066 ], [ -0.192745126659214, 51.533666447971015 ], [ -0.193010583670896, 51.533990672278129 ], [ -0.192958465267015, 51.534069880917784 ], [ -0.191458748175725, 51.536291315743924 ], [ -0.191402975180607, 51.53624370778099 ], [ -0.19125977660029, 51.536110245629793 ], [ -0.191057412082112, 51.535939821003133 ], [ -0.190800556932099, 51.535761453616743 ], [ -0.190381359644388, 51.535533743646617 ], [ -0.189810953073344, 51.535266840054078 ], [ -0.189644924541359, 51.535199549954072 ], [ -0.189531768162374, 51.535142065569971 ], [ -0.189400782419762, 51.535063538924163 ], [ -0.18929998382637, 51.534988264941163 ], [ -0.189191404127123, 51.534890395665919 ], [ -0.189034412935635, 51.534778204062228 ], [ -0.188748775490131, 51.53452566947383 ], [ -0.188558601937873, 51.534596451729357 ], [ -0.187953329107541, 51.534878472145905 ], [ -0.187876999445851, 51.534947415546746 ], [ -0.187816271508789, 51.534988730751472 ], [ -0.187726421993684, 51.535035889119257 ], [ -0.185465872023568, 51.537164582379489 ], [ -0.185368521271193, 51.537256663033951 ], [ -0.184676508787209, 51.537903309636228 ], [ -0.184618196324537, 51.537955448642009 ], [ -0.184443227424969, 51.53807680384211 ], [ -0.184199422078309, 51.5381890923436 ], [ -0.184053676493726, 51.538263252019604 ], [ -0.18384854852578, 51.538380543551241 ], [ -0.182724301521675, 51.538767777650627 ], [ -0.18157572218916, 51.539147521916753 ], [ -0.180394979415407, 51.539501494290533 ], [ -0.180156020093443, 51.539563415536627 ], [ -0.18001198498984, 51.53959444459008 ], [ -0.179727207634796, 51.539648462212789 ], [ -0.179287904434142, 51.539707363298206 ], [ -0.179063930376382, 51.539754231795072 ], [ -0.17901310684974, 51.539761534066294 ], [ -0.178739575854901, 51.53978695569139 ], [ -0.178546054585701, 51.539794739675365 ], [ -0.17835424631987, 51.539795357893908 ], [ -0.178328342475749, 51.539794955715507 ], [ -0.178273564165167, 51.539794105218419 ], [ -0.175765717029162, 51.539616693630073 ], [ -0.173896572797279, 51.539478747885546 ], [ -0.174127714245175, 51.538279114989834 ], [ -0.174116430937066, 51.53820162484174 ], [ -0.174098030297352, 51.538156388161212 ], [ -0.174069637900129, 51.538108298959344 ], [ -0.174010394948681, 51.538040850483192 ], [ -0.173485832624557, 51.537634245681339 ], [ -0.1719561464656, 51.538384736546327 ], [ -0.170865166575451, 51.537794885880963 ], [ -0.169517668354633, 51.538599429044027 ], [ -0.1694108862038, 51.538567196788236 ], [ -0.169235989467484, 51.538505043462749 ], [ -0.16901892114771, 51.538415351433684 ], [ -0.16842505613408, 51.538121905891316 ], [ -0.168180897296572, 51.537990435067961 ], [ -0.168018974095572, 51.537892522297618 ], [ -0.166557764416311, 51.536902096202475 ], [ -0.164935887010033, 51.535781478770907 ], [ -0.163767593181497, 51.536220886182697 ], [ -0.163593901477655, 51.536306360581477 ], [ -0.163364978910894, 51.536405264438876 ], [ -0.161894623052483, 51.536860602149616 ], [ -0.160461577513915, 51.537283333294212 ], [ -0.15942008804995, 51.536364123984029 ], [ -0.159412876619231, 51.536363111846399 ], [ -0.158606239324739, 51.536521357119746 ], [ -0.15755429669551, 51.536753869210543 ], [ -0.155824094426483, 51.537106249790483 ], [ -0.155456667471129, 51.537207456516875 ], [ -0.155196136328906, 51.537267190317152 ], [ -0.154969372353249, 51.537312171337113 ], [ -0.154721237754708, 51.537350522749577 ], [ -0.154397907474301, 51.537393174833902 ], [ -0.154156030412538, 51.537420835348904 ], [ -0.153902727223571, 51.537442921520096 ], [ -0.153391117838572, 51.537472629298463 ], [ -0.152707062499271, 51.537521196271214 ], [ -0.151455826997116, 51.53462923396166 ], [ -0.150859942863428, 51.5333222105156 ], [ -0.149897553382483, 51.531207219801594 ], [ -0.147170562066718, 51.525042906168977 ], [ -0.145790316376802, 51.525271924301819 ], [ -0.145173359583858, 51.523996003818354 ], [ -0.144827730372846, 51.524057155631304 ], [ -0.144683209836257, 51.524065658365885 ], [ -0.144621434214901, 51.524061984372516 ], [ -0.144129608865103, 51.523997477516971 ], [ -0.144153724518134, 51.524643529487832 ], [ -0.143964389615791, 51.52469006987323 ], [ -0.143471169677039, 51.524624639271316 ], [ -0.143389493856892, 51.524543334670113 ], [ -0.143488322246653, 51.524027876643245 ], [ -0.143495746133815, 51.523950589161274 ], [ -0.14349600248138, 51.52390923865039 ], [ -0.143286701414295, 51.52387985501236 ], [ -0.143067851995105, 51.523871896162902 ], [ -0.142875819359927, 51.523879644625076 ], [ -0.141390740173365, 51.522650190562487 ], [ -0.140448670404696, 51.521889799700546 ], [ -0.139778740724362, 51.521349479710921 ], [ -0.139154659402042, 51.520818962940147 ], [ -0.138711659586473, 51.520441361338939 ], [ -0.138318839063852, 51.520141959424606 ], [ -0.138230407479697, 51.520083918081461 ], [ -0.13818157952315, 51.520042687488818 ], [ -0.13814563312482, 51.520006156396299 ], [ -0.138010618983818, 51.519816928535811 ], [ -0.137007865437063, 51.518886440067469 ], [ -0.136296690453298, 51.519148533841808 ], [ -0.135826487533301, 51.518695960095592 ], [ -0.135232966854745, 51.518934744704424 ], [ -0.134317477739284, 51.518022700915203 ], [ -0.13444875600982, 51.51795106941308 ], [ -0.134045099367575, 51.517563286875692 ], [ -0.133988086621403, 51.517547995735931 ], [ -0.133952101134586, 51.517547423310155 ], [ -0.133917283642093, 51.517553162564262 ], [ -0.13388502255841, 51.517566134601978 ], [ -0.133841854541848, 51.517598801372131 ], [ -0.133597270593649, 51.517729762607146 ], [ -0.132979455132777, 51.517365629151335 ], [ -0.132543626479973, 51.517166212526192 ], [ -0.132449479764562, 51.516719611687527 ], [ -0.131561055906622, 51.516945591200425 ], [ -0.131137456674413, 51.517010764613438 ], [ -0.131089510196423, 51.51702078892604 ], [ -0.131051621713197, 51.517031872479393 ], [ -0.130806492775779, 51.517103484037392 ], [ -0.130402064967378, 51.516596197965413 ], [ -0.130344205969923, 51.516497193289254 ], [ -0.130347618664525, 51.516448700878982 ], [ -0.130440801170124, 51.516178593614356 ], [ -0.130446237966177, 51.516080687639793 ], [ -0.130413148698857, 51.515939824048047 ], [ -0.129827244715598, 51.514479114559677 ], [ -0.129664349947609, 51.514127609576562 ], [ -0.129336219358889, 51.513484795509939 ], [ -0.129094900171737, 51.513463865543933 ], [ -0.128983443665291, 51.51344051144271 ], [ -0.1289721087709, 51.513435835567805 ], [ -0.128844284044087, 51.513391452990462 ], [ -0.128339195943777, 51.513126276433255 ], [ -0.128247604252879, 51.513073481162834 ], [ -0.127963748915093, 51.512861278753149 ], [ -0.127688912662174, 51.512710262761615 ], [ -0.127577397389491, 51.512653642773117 ], [ -0.127427173368737, 51.512662931915429 ], [ -0.127327557706132, 51.512666735714667 ], [ -0.127253424241148, 51.512680835440101 ], [ -0.127152665735075, 51.51271249033919 ], [ -0.127017709316648, 51.512876743367812 ], [ -0.126919160597786, 51.512958778247537 ], [ -0.126842061085327, 51.513013286072677 ], [ -0.126643398954929, 51.513145954817503 ], [ -0.126172895398118, 51.513373082883405 ], [ -0.125236746747142, 51.513778145015472 ], [ -0.124467577134576, 51.514153415229671 ], [ -0.123951849561345, 51.514462610840347 ], [ -0.123559454556254, 51.514717139156865 ], [ -0.123354593055623, 51.514792076328675 ], [ -0.122868748272952, 51.515145797140462 ], [ -0.122072761744394, 51.514629517657539 ], [ -0.121818024123953, 51.514868173707931 ], [ -0.121290781042491, 51.514789607354238 ], [ -0.120321429145396, 51.514599669076055 ], [ -0.119467751515667, 51.514506783094731 ], [ -0.119296291382884, 51.51454098381187 ], [ -0.11882811905459, 51.514672824356566 ], [ -0.118675017568095, 51.514717117874525 ], [ -0.1186324210855, 51.514842386995383 ], [ -0.118598489621104, 51.514965008124193 ], [ -0.118380064452397, 51.515019940757178 ], [ -0.118353760484983, 51.515026710958537 ], [ -0.117591704562389, 51.515227642512528 ], [ -0.117250926499624, 51.515382199095825 ], [ -0.114692840152872, 51.51604172237014 ], [ -0.114660474825679, 51.515988070281757 ], [ -0.113833786784119, 51.514821970823277 ], [ -0.112282442628777, 51.515148624467663 ], [ -0.112299614032448, 51.515219024243152 ], [ -0.111682365222288, 51.515299891464402 ], [ -0.111662152030308, 51.515334627850677 ], [ -0.111581256162212, 51.515339618833565 ], [ -0.111550353508073, 51.51528518024702 ], [ -0.111526955271917, 51.515224569319592 ], [ -0.111384616055827, 51.514796052954367 ], [ -0.111112201085135, 51.513961602545756 ], [ -0.111075940025408, 51.513827064796629 ], [ -0.11130657512273, 51.513793019391464 ], [ -0.111955167469201, 51.513686497419549 ], [ -0.111832724611313, 51.513475055245301 ], [ -0.111713155727464, 51.513197041850887 ], [ -0.112312118421803, 51.513037576044319 ], [ -0.112188462366954, 51.51288994506114 ], [ -0.112349405370758, 51.512831311733635 ], [ -0.112322005438913, 51.512798506141642 ], [ -0.112389338092704, 51.512770820990426 ], [ -0.112175034036792, 51.512516456178048 ], [ -0.112032834799966, 51.51233166678508 ], [ -0.112163548843621, 51.512308597895434 ], [ -0.112141700650277, 51.51227947767326 ], [ -0.112132127230732, 51.512266737335864 ], [ -0.111861899240435, 51.511968318926691 ], [ -0.111745190117244, 51.512003300155129 ], [ -0.111685292298381, 51.511954687953356 ], [ -0.111541692866443, 51.511732026631556 ], [ -0.111504924284549, 51.511644229809647 ], [ -0.111531941514636, 51.511444992503648 ], [ -0.11154870065242, 51.511318500538941 ], [ -0.111558491560488, 51.511012901584287 ], [ -0.111561270264129, 51.510911267195013 ], [ -0.111548901380004, 51.510756436689526 ], [ -0.111438413911257, 51.509770860582783 ], [ -0.112023718733295, 51.509730836441548 ], [ -0.112698046811726, 51.509664282238369 ], [ -0.113886582189639, 51.509498200928789 ], [ -0.114555442310821, 51.509388395294287 ], [ -0.114933320998221, 51.509309960743728 ], [ -0.115272036303067, 51.509238986913452 ], [ -0.115539921856602, 51.509174066398188 ], [ -0.115787921119832, 51.509101543796525 ], [ -0.11629118261522, 51.508953197415636 ], [ -0.11686846781623, 51.508724136988853 ], [ -0.117432925585718, 51.508523636665238 ], [ -0.117614288093846, 51.508459121011349 ], [ -0.117779598501551, 51.508400640622156 ], [ -0.118037192742358, 51.508268123275556 ], [ -0.118315187156045, 51.508098983115858 ], [ -0.118702199481195, 51.507798536687709 ], [ -0.119215066990218, 51.507416498653271 ], [ -0.119636915701342, 51.5070401914288 ], [ -0.119961830428302, 51.506674825359909 ], [ -0.120285866297181, 51.506296048989164 ], [ -0.120440249206479, 51.506116022748877 ], [ -0.120523738792861, 51.506012984839927 ], [ -0.120647492413556, 51.505875620302163 ], [ -0.120778341852737, 51.505672651241888 ], [ -0.120881038877861, 51.505382925451428 ], [ -0.121027061222253, 51.505021972347386 ], [ -0.121083558358642, 51.504838579083348 ], [ -0.121189856223384, 51.504357330327736 ], [ -0.121249640689908, 51.503955438762304 ], [ -0.121309429538896, 51.503691995746635 ], [ -0.121406406652573, 51.503191718109889 ], [ -0.121734110567682, 51.501250056342336 ], [ -0.122048687257912, 51.499418762603106 ], [ -0.122115187552242, 51.498991805622417 ], [ -0.122235314752116, 51.498242870315359 ], [ -0.122312766357776, 51.497691035265916 ], [ -0.122363865016985, 51.497112706738001 ], [ -0.122370647097783, 51.496494111913158 ], [ -0.122408348423886, 51.496206940175306 ], [ -0.122476409309536, 51.495883394741107 ], [ -0.122679557368734, 51.495007138356186 ], [ -0.122766736524327, 51.494741435827542 ], [ -0.122801114671761, 51.49453790920257 ], [ -0.122857898735732, 51.494242951530865 ], [ -0.122899460187851, 51.494072713571896 ], [ -0.122984276746927, 51.493690999813587 ], [ -0.123059360847466, 51.493511409107818 ], [ -0.123159794255801, 51.493275675833154 ], [ -0.123228441067804, 51.493113962341084 ], [ -0.123347622907908, 51.492875741963552 ], [ -0.123436812646363, 51.492705456787967 ], [ -0.123499755207603, 51.492610269043098 ], [ -0.12356994179639, 51.492515107264218 ], [ -0.123701944124208, 51.492386861661387 ], [ -0.12378125253919, 51.492245995802904 ], [ -0.123850494785211, 51.492101463071357 ], [ -0.123915266586521, 51.491929798813743 ], [ -0.123928805639404, 51.491773587117414 ], [ -0.123921888008142, 51.491522561900034 ], [ -0.123923899442498, 51.491401227303385 ], [ -0.123947953738663, 51.49130712580962 ], [ -0.12400541520229, 51.491206456494737 ], [ -0.124164422796903, 51.490981459657789 ], [ -0.124535026011665, 51.490445191962309 ], [ -0.124674384852661, 51.490279215103136 ], [ -0.124821277791927, 51.490106166443013 ], [ -0.125001212242754, 51.489897775245332 ], [ -0.125462946077483, 51.489386246085331 ], [ -0.126243569408688, 51.488547085870771 ], [ -0.126590613445489, 51.488161469648311 ], [ -0.126739895192448, 51.48799933486977 ], [ -0.127119488830022, 51.487665480793268 ], [ -0.127141936388459, 51.487645161981327 ], [ -0.127215126792462, 51.487580612951533 ], [ -0.127368371364525, 51.487460794293192 ], [ -0.127502650294527, 51.48734876373473 ] ] ] } }
]
}
