{
"type": "FeatureCollection",
"name": "borough_Lewisham",
"crs": { "type": "name", "properties": { "name": "urn:ogc:def:crs:OGC:1.3:CRS84" } },
"features": [
{ "type": "Feature", "properties": { "DISTRICT": "Lewisham", "NAME": "Bellingham", "GSS_CODE": "E05000437", "LAGSSCODE": "E09000023", "HECTARES": 308.471, "NONLD_AREA": 0.0 }, "geometry": { "type": "Polygon", "coordinates": [ [ [ 0.019521067458607, 51.427028266408882 ], [ 0.018801397125309, 51.427050552145495 ], [ 0.018613939459975, 51.427008828160943 ], [ 0.018367025405362, 51.426955541015126 ], [ 0.018166652650928, 51.426943707149555 ], [ 0.017920058461337, 51.426929971493806 ], [ 0.017672910476859, 51.426903658245543 ], [ 0.017461908484743, 51.426849751096974 ], [ 0.017241420517568, 51.426774339877248 ], [ 0.016912412341607, 51.426620870555894 ], [ 0.016153619713465, 51.426247245482529 ], [ 0.016074332239136, 51.426208152242701 ], [ 0.015699821576099, 51.426165954628033 ], [ 0.015007736569122, 51.4261625695923 ], [ 0.014593011999577, 51.426184980327399 ], [ 0.014519888007452, 51.426188933931947 ], [ 0.014133686081148, 51.426174891260118 ], [ 0.014286730036048, 51.425630948843519 ], [ 0.01442170579184, 51.425231971656181 ], [ 0.013539259897683, 51.42508530278954 ], [ 0.013371011394618, 51.424695220082221 ], [ 0.012252431876677, 51.424183808831089 ], [ 0.012250970284081, 51.424182934873897 ], [ 0.011839584435616, 51.424051452511335 ], [ 0.011644412467086, 51.42370138744478 ], [ 0.011287904034676, 51.423609508434389 ], [ 0.011012260989126, 51.423490168980351 ], [ 0.010716397412141, 51.423269493851834 ], [ 0.010173951146139, 51.422678055193806 ], [ 0.009992847838911, 51.422483280860853 ], [ 0.008954347856104, 51.422843706958119 ], [ 0.008690822047811, 51.422935519598745 ], [ 0.008102896021126, 51.423042688263571 ], [ 0.007866505387032, 51.422473866851732 ], [ 0.007528187038642, 51.421776429211405 ], [ 0.00737557048143, 51.42137887845373 ], [ 0.006996704115451, 51.421466279091852 ], [ 0.006874246727851, 51.421494447729238 ], [ 0.006812330881297, 51.42136155022429 ], [ 0.006748792694562, 51.421224095339781 ], [ 0.006897043996496, 51.421191889086778 ], [ 0.006762108404542, 51.42093518467037 ], [ 0.00632395571279, 51.421014607585718 ], [ 0.006150356798372, 51.420760452183806 ], [ 0.006079581419924, 51.42068785190159 ], [ 0.006049892611699, 51.420602950858132 ], [ 0.006032261425719, 51.420463001857684 ], [ 0.005983189514746, 51.42029563061844 ], [ 0.005927596025253, 51.420174312047742 ], [ 0.005869980434558, 51.420074515179195 ], [ 0.005751154499659, 51.419922811954144 ], [ 0.005645672185059, 51.419813135342643 ], [ 0.005533155225852, 51.419705287170004 ], [ 0.005254245488451, 51.419315288632539 ], [ 0.005541039475035, 51.41913228208476 ], [ 0.005399537254633, 51.419020524364704 ], [ 0.005354871008438, 51.418986225778809 ], [ 0.005493490171033, 51.418669099426758 ], [ 0.005698156744653, 51.41851446870227 ], [ 0.005583307626595, 51.418453500645406 ], [ 0.005164988211735, 51.418229602694751 ], [ 0.003519609866874, 51.417404274217937 ], [ 0.003239766984915, 51.417583471035343 ], [ 0.001754994055376, 51.418557593927225 ], [ 0.001102600689902, 51.418276453719258 ], [ 0.000874495572619, 51.41815807762034 ], [ 0.000625934743063, 51.418030160734148 ], [ 0.000544199062737, 51.417937066324939 ], [ 0.000161518613391, 51.417770980361048 ], [ -0.000051020778894, 51.417645054681444 ], [ -0.000106448427897, 51.417562389408339 ], [ -0.000122835273971, 51.417548284300736 ], [ -0.000137918687847, 51.417534156954403 ], [ -0.000150039771227, 51.417519979069262 ], [ -0.000162200051036, 51.41750490280976 ], [ -0.000172977613565, 51.417488903918468 ], [ -0.000174517138946, 51.417486233056664 ], [ -0.000180753646562, 51.417473752863167 ], [ -0.000185647527284, 51.417462148806571 ], [ -0.000189001001029, 51.417450518471114 ], [ -0.000192354472894, 51.41743888813555 ], [ -0.000194325235662, 51.417426335169665 ], [ -0.000194874086753, 51.417413757946598 ], [ -0.00019538373382, 51.417402079096597 ], [ -0.000197354493757, 51.41738952613057 ], [ -0.0001978641397, 51.417377847280498 ], [ -0.000199834897633, 51.417365294314386 ], [ -0.000200387666226, 51.417352627253834 ], [ -0.000253889604427, 51.417050562809592 ], [ -0.00029126862142, 51.416555648410615 ], [ -0.000290435074208, 51.416542148558584 ], [ -0.000276901705271, 51.416458306774928 ], [ -0.000320946720274, 51.416337597503329 ], [ -0.000485229119617, 51.416265779217625 ], [ -0.000848862943496, 51.416103770172981 ], [ -0.000831514911504, 51.416074704967457 ], [ -0.000727865347757, 51.415912008721428 ], [ -0.000826128027541, 51.415901996937549 ], [ -0.003377889403523, 51.41566039940448 ], [ -0.003400864057414, 51.415628425192637 ], [ -0.003572171296282, 51.415558520323131 ], [ -0.003466468516443, 51.415309393692688 ], [ -0.0032578375077, 51.415049523350646 ], [ -0.00496769329019, 51.414589376972906 ], [ -0.00499422472139, 51.414671731161988 ], [ -0.005000630820618, 51.414690720050473 ], [ -0.005023030370102, 51.41470458687423 ], [ -0.005121239119643, 51.41476109969372 ], [ -0.005127384962054, 51.414818742913489 ], [ -0.005136231547914, 51.414912393736358 ], [ -0.005199370416382, 51.414981885195886 ], [ -0.005389867852792, 51.415296284747939 ], [ -0.005485328877557, 51.41548131330233 ], [ -0.005507928495203, 51.415787461593652 ], [ -0.005973297526629, 51.416033713894514 ], [ -0.006038174539321, 51.415997956737108 ], [ -0.006085321776639, 51.41597178743578 ], [ -0.006263218068885, 51.415982005373458 ], [ -0.006538867619524, 51.415991188215379 ], [ -0.006655676571194, 51.415489532128468 ], [ -0.00667738591717, 51.415189531925364 ], [ -0.006666926255109, 51.414933936724601 ], [ -0.006601200402165, 51.414659510825352 ], [ -0.007558808074803, 51.414498590142259 ], [ -0.007665871521849, 51.414482429031054 ], [ -0.00782087752347, 51.414457193159322 ], [ -0.008152959877498, 51.414392711196797 ], [ -0.008459896476818, 51.414347490077589 ], [ -0.008678780192227, 51.414273891144433 ], [ -0.008897334512134, 51.414175113127527 ], [ -0.009026045291745, 51.414091890558431 ], [ -0.009138164708049, 51.413994810589521 ], [ -0.009216775163015, 51.413872078257505 ], [ -0.010519252803038, 51.413550668374683 ], [ -0.011819442136858, 51.413549353019889 ], [ -0.012764437654115, 51.41357706467609 ], [ -0.013486958592062, 51.413597402544006 ], [ -0.01423647950837, 51.413656851891503 ], [ -0.014239483936875, 51.413787263068961 ], [ -0.014239971416699, 51.413808848200887 ], [ -0.014362694639435, 51.413830705876087 ], [ -0.01435160925037, 51.413919612601987 ], [ -0.014532654498657, 51.413922679196148 ], [ -0.014283548813861, 51.414926549115805 ], [ -0.014281815508033, 51.414933712045205 ], [ -0.014248679533187, 51.414934948821347 ], [ -0.014126246020224, 51.414939168070369 ], [ -0.014125939169763, 51.415080311573377 ], [ -0.014126500567219, 51.415100189785875 ], [ -0.014400003716878, 51.41509313521324 ], [ -0.015197705215818, 51.415037328252374 ], [ -0.015820217391512, 51.415010106953474 ], [ -0.01643645631524, 51.414993564639104 ], [ -0.016542934639307, 51.414990871090907 ], [ -0.016859294414937, 51.414990829158128 ], [ -0.017338551726699, 51.415016017414281 ], [ -0.017961030971354, 51.415055312755257 ], [ -0.01795575513422, 51.415078598444708 ], [ -0.017820550256234, 51.415742676599592 ], [ -0.020235222708031, 51.415976854629271 ], [ -0.020280266027525, 51.41599919193817 ], [ -0.020331037871474, 51.416023424012167 ], [ -0.020442083326616, 51.4160495726642 ], [ -0.020514587911116, 51.416034614074924 ], [ -0.020556815383024, 51.4159903752562 ], [ -0.020570274245419, 51.415978015987868 ], [ -0.020669153090265, 51.415950916058826 ], [ -0.021014367688133, 51.416018776180756 ], [ -0.021014315354917, 51.416052938569457 ], [ -0.021015459989911, 51.416158234706316 ], [ -0.021434278801089, 51.416350503354607 ], [ -0.021468773396421, 51.416317821165926 ], [ -0.02169256249395, 51.416465442358451 ], [ -0.021935146561616, 51.416608974904051 ], [ -0.022159442721756, 51.41674491629341 ], [ -0.02171019173924, 51.41729042277796 ], [ -0.0225292247236, 51.417540773059848 ], [ -0.021946205076076, 51.417852882658309 ], [ -0.021608773095274, 51.418107099990124 ], [ -0.021452895266534, 51.418284276202847 ], [ -0.021358314822027, 51.418412230704895 ], [ -0.021282507672257, 51.418599748088383 ], [ -0.021239709676502, 51.418827469733834 ], [ -0.021209667057534, 51.419355772945458 ], [ -0.021192652159993, 51.419417518968075 ], [ -0.021166831496741, 51.4194827125106 ], [ -0.021062211749528, 51.419606901217229 ], [ -0.021015430935502, 51.419690620645582 ], [ -0.020985884760363, 51.419740467741853 ], [ -0.020878243145783, 51.4198357463818 ], [ -0.020782829025991, 51.419914239620148 ], [ -0.020751485911727, 51.419939782485137 ], [ -0.02101373161047, 51.420095245891524 ], [ -0.021072887782938, 51.420125912272766 ], [ -0.021313460914456, 51.420250532087287 ], [ -0.02158051935931, 51.420393488981397 ], [ -0.021648622304624, 51.420447680824395 ], [ -0.021607247438036, 51.420474852728077 ], [ -0.020933550460742, 51.420919472902924 ], [ -0.020921706360915, 51.420927364283273 ], [ -0.021298185900209, 51.42117016288249 ], [ -0.022076244742521, 51.421670744059462 ], [ -0.022213427156307, 51.421759364883044 ], [ -0.022237219247581, 51.421774150662301 ], [ -0.022329903136491, 51.421693003020287 ], [ -0.022368744682116, 51.421658595892559 ], [ -0.02252605507682, 51.421580336075046 ], [ -0.022580078491195, 51.421562367455593 ], [ -0.022692175967081, 51.421696415270347 ], [ -0.022907150751102, 51.421947363425467 ], [ -0.023087382543596, 51.422170754521417 ], [ -0.023131156956692, 51.422225434347212 ], [ -0.023435127385598, 51.422513843028312 ], [ -0.023680577648035, 51.422726555176759 ], [ -0.023900637415317, 51.422859814132764 ], [ -0.024162290678486, 51.423029644832894 ], [ -0.024401465282591, 51.423154234605136 ], [ -0.02474422131228, 51.423277781735209 ], [ -0.025089407975687, 51.423377993998905 ], [ -0.025462355559575, 51.423469772295697 ], [ -0.02557221241132, 51.423557029963526 ], [ -0.025639705440701, 51.423625593644225 ], [ -0.025722973104409, 51.423663855841383 ], [ -0.025745499990949, 51.423675023473727 ], [ -0.025751720523001, 51.423695805901126 ], [ -0.025770773991041, 51.423754563657049 ], [ -0.025793001181784, 51.423739654354854 ], [ -0.0259738172714, 51.423616834143274 ], [ -0.025989269764812, 51.42362428651537 ], [ -0.026164029133022, 51.42370814102528 ], [ -0.026810291444131, 51.42399960483997 ], [ -0.027014965192176, 51.424091153673366 ], [ -0.02715335707631, 51.424149311848275 ], [ -0.027397815364185, 51.424286480845225 ], [ -0.027766132735506, 51.424483360385103 ], [ -0.027768474425914, 51.424495087160828 ], [ -0.027784793995822, 51.424584365614109 ], [ -0.027798819020084, 51.42462775493923 ], [ -0.027817798146743, 51.424688309153609 ], [ -0.027869238633451, 51.424694568468219 ], [ -0.028387622225901, 51.424915546449654 ], [ -0.02944374751084, 51.425379307573955 ], [ -0.029618745242713, 51.425455159502782 ], [ -0.029767340921702, 51.425513396102161 ], [ -0.030080943008152, 51.425645427958663 ], [ -0.030216087403961, 51.425682760343832 ], [ -0.030273298082304, 51.425690014556537 ], [ -0.030399138469709, 51.425706512756292 ], [ -0.030573740225868, 51.425695060805985 ], [ -0.030995689024666, 51.425649103813477 ], [ -0.031971549185087, 51.425536025257969 ], [ -0.031916687449338, 51.42527249792554 ], [ -0.031794130203788, 51.424710165593659 ], [ -0.032341292629624, 51.424697771403061 ], [ -0.03296908090301, 51.424683131014753 ], [ -0.033103117685655, 51.42464402395531 ], [ -0.033347647229065, 51.42464183204536 ], [ -0.033561225771529, 51.424658899254766 ], [ -0.033560840248077, 51.424667883086741 ], [ -0.03356199116774, 51.424710156782325 ], [ -0.033636501607343, 51.424715002366675 ], [ -0.034213110662289, 51.424754337898939 ], [ -0.034212339868028, 51.424772305570286 ], [ -0.034201113271128, 51.425100353082286 ], [ -0.034235794230144, 51.425096439314942 ], [ -0.034467144685559, 51.425069750332298 ], [ -0.034858213717808, 51.425007978360469 ], [ -0.035584816989515, 51.425003976991725 ], [ -0.035848073354593, 51.425002096276046 ], [ -0.036131323411876, 51.425004146136565 ], [ -0.036471327518151, 51.424993660778846 ], [ -0.037459572275388, 51.424992233809164 ], [ -0.037731721787362, 51.424716203715391 ], [ -0.038059542777674, 51.424383567033232 ], [ -0.03828454791046, 51.424133717219398 ], [ -0.038450301995983, 51.423957494749224 ], [ -0.038591402265636, 51.42398871522699 ], [ -0.038937470554571, 51.424069126198042 ], [ -0.039511423316279, 51.424203694281367 ], [ -0.039784598645133, 51.424241527947089 ], [ -0.039894983520763, 51.424250566473113 ], [ -0.040289768240491, 51.424301221234494 ], [ -0.040685090741464, 51.424306033101253 ], [ -0.041043002161092, 51.424245488081574 ], [ -0.041166610115741, 51.424181025922877 ], [ -0.041327855472205, 51.42407673629063 ], [ -0.041640581342038, 51.42386071101204 ], [ -0.041686562903053, 51.423828215232284 ], [ -0.041581824920654, 51.423653761184177 ], [ -0.042810769036689, 51.423236373428466 ], [ -0.042845793157921, 51.423224371901071 ], [ -0.04291674241078, 51.423381988151675 ], [ -0.042989257427951, 51.423402977774217 ], [ -0.043293477632855, 51.423283092160979 ], [ -0.043528690508087, 51.42319891402348 ], [ -0.043753218563312, 51.423162205711115 ], [ -0.043799546273412, 51.423154887734057 ], [ -0.043664920342556, 51.422905316987531 ], [ -0.044403666046353, 51.422752134820257 ], [ -0.046262626266738, 51.422365899187142 ], [ -0.046239942821694, 51.422628128229604 ], [ -0.045992806476437, 51.422622209913335 ], [ -0.045991096950618, 51.422762430362788 ], [ -0.045989488045144, 51.422800162870189 ], [ -0.046865043785377, 51.422812060730294 ], [ -0.047216024331838, 51.422810717259765 ], [ -0.04721583291469, 51.422815209229945 ], [ -0.047205305706212, 51.422859086383163 ], [ -0.048527762722948, 51.422845153380024 ], [ -0.048721227132062, 51.422830394037391 ], [ -0.049078118947788, 51.422790485020968 ], [ -0.049306528627346, 51.42276551803937 ], [ -0.049743123793369, 51.422744914251524 ], [ -0.049982026882912, 51.422710231211305 ], [ -0.050355064797419, 51.42266429371125 ], [ -0.050461819747735, 51.422622017024324 ], [ -0.050711826870265, 51.42256045631796 ], [ -0.051227699342408, 51.422538468446326 ], [ -0.051747955919557, 51.422516552383506 ], [ -0.051736195600213, 51.422689960007482 ], [ -0.051738809615848, 51.422968793512595 ], [ -0.051783225421862, 51.423581054177397 ], [ -0.051839205734797, 51.423583783234484 ], [ -0.052505281425358, 51.423616435267867 ], [ -0.054754538967568, 51.423726628679589 ], [ -0.0547624506818, 51.423707880378117 ], [ -0.054865610088207, 51.423482048251252 ], [ -0.055128866116366, 51.422937829646067 ], [ -0.055766248964695, 51.423070768314652 ], [ -0.055781896720199, 51.423073725115977 ], [ -0.055804906333974, 51.423006589667608 ], [ -0.055814243798636, 51.422990562054579 ], [ -0.056284833619972, 51.422984885794143 ], [ -0.056389170929688, 51.422965939224099 ], [ -0.056404933006544, 51.422966200741868 ], [ -0.056554609286438, 51.422965986905261 ], [ -0.056709783645551, 51.422970359246349 ], [ -0.056762876973101, 51.42297123999478 ], [ -0.0569885024646, 51.423011842881508 ], [ -0.057721996571006, 51.42311579789876 ], [ -0.058099222571012, 51.423172397599934 ], [ -0.058095997547836, 51.423181334460942 ], [ -0.05805482071547, 51.423271454118364 ], [ -0.058104308678499, 51.423290255134191 ], [ -0.058404551869333, 51.423403205640511 ], [ -0.059249289507167, 51.423697791540611 ], [ -0.059578146351779, 51.423812921218655 ], [ -0.059849092135184, 51.423903716022764 ], [ -0.059959685370492, 51.423941508900391 ], [ -0.061084365041024, 51.424353096269833 ], [ -0.061397346252631, 51.424468047936649 ], [ -0.06146738057578, 51.424511461394907 ], [ -0.061458841134748, 51.424578747470939 ], [ -0.061548279261442, 51.424673726790658 ], [ -0.061419493325283, 51.424793953869582 ], [ -0.061612309754643, 51.42486187483474 ], [ -0.061951760525261, 51.424996052746152 ], [ -0.062140308159607, 51.425063992115042 ], [ -0.062301515993006, 51.425127792923313 ], [ -0.062577653284871, 51.425197090468075 ], [ -0.062593019632336, 51.425173070749942 ], [ -0.062787434731091, 51.425203256875442 ], [ -0.062895758812881, 51.425227523956167 ], [ -0.063436522531538, 51.42526253665207 ], [ -0.063434889756196, 51.425301168020134 ], [ -0.063463689709769, 51.42530164411766 ], [ -0.064403360032619, 51.425327063448044 ], [ -0.064506222222102, 51.425070740937414 ], [ -0.064578461457185, 51.425062045117379 ], [ -0.064636838205279, 51.425078293114922 ], [ -0.064844376109415, 51.425134764540516 ], [ -0.064848797857999, 51.425201365919818 ], [ -0.064850807527196, 51.425221177812162 ], [ -0.065032571488893, 51.425244857996667 ], [ -0.065051065040683, 51.425247860560248 ], [ -0.065262003833561, 51.425260334870195 ], [ -0.065509820870406, 51.425284206176094 ], [ -0.065815863961389, 51.425327918001415 ], [ -0.066036795371075, 51.425069947425534 ], [ -0.06671707947459, 51.425342794482717 ], [ -0.066906085758498, 51.425397248247236 ], [ -0.067443623207607, 51.425612894670685 ], [ -0.067941546694839, 51.425811792817477 ], [ -0.067981199396604, 51.425827730357923 ], [ -0.067908886595712, 51.425905652627542 ], [ -0.067889288965621, 51.425926007160655 ], [ -0.06821833149553, 51.425970092103519 ], [ -0.068637254183178, 51.425994980321789 ], [ -0.068664594498742, 51.425996330113847 ], [ -0.068761624211353, 51.425911622617519 ], [ -0.068816674381205, 51.425835213321598 ], [ -0.0688560224743, 51.425616408019934 ], [ -0.069203264117564, 51.425740804225683 ], [ -0.06958085665606, 51.425893659484053 ], [ -0.070248702694817, 51.426090852774422 ], [ -0.070291233742376, 51.4261032408237 ], [ -0.070318271445086, 51.42611177750873 ], [ -0.070333845492131, 51.426116529219847 ], [ -0.070375035017494, 51.426129794173271 ], [ -0.070417646816385, 51.426143082539696 ], [ -0.070458836389998, 51.426156347464371 ], [ -0.070501329717146, 51.426169633848872 ], [ -0.070545439516103, 51.426181148776529 ], [ -0.070588164922893, 51.426191741853039 ], [ -0.070633772688773, 51.426201483353545 ], [ -0.070639542380327, 51.426202477413433 ], [ -0.070709489824881, 51.426214417822152 ], [ -0.070779669326996, 51.426223664911795 ], [ -0.070851190421669, 51.42623203502 ], [ -0.070922787204086, 51.426238608264903 ], [ -0.070957163350247, 51.426241871450458 ], [ -0.071028916514077, 51.426247548172654 ], [ -0.071100589002473, 51.426252324489496 ], [ -0.071172455679066, 51.42625530589391 ], [ -0.071320261659054, 51.426263133688899 ], [ -0.071524983197715, 51.426285383774164 ], [ -0.071901227848651, 51.426301466433245 ], [ -0.072193178577658, 51.426302675217499 ], [ -0.072354659798047, 51.42629274609623 ], [ -0.072762979764497, 51.426265301176834 ], [ -0.07304617865622, 51.426234897696041 ], [ -0.073369523257689, 51.426208749932705 ], [ -0.073625939394358, 51.426200380383989 ], [ -0.07378690434158, 51.426168864006165 ], [ -0.073833154946363, 51.426163331270111 ], [ -0.07388086556635, 51.42615692348884 ], [ -0.073909855049902, 51.426152904974437 ], [ -0.07390466865619, 51.426208559744531 ], [ -0.073959039725957, 51.426523306114071 ], [ -0.074140394285627, 51.427067595451511 ], [ -0.074301324211076, 51.427448913675718 ], [ -0.074464953350242, 51.427627813843344 ], [ -0.074769924251258, 51.428106796418476 ], [ -0.074918432085775, 51.428371844460656 ], [ -0.075002744822077, 51.428555733611525 ], [ -0.075067527203801, 51.428795131698536 ], [ -0.075022680822493, 51.42917927062387 ], [ -0.074944506616835, 51.42953229472532 ], [ -0.074901993166862, 51.429654853443502 ], [ -0.074867803357431, 51.429748689990753 ], [ -0.073560312012392, 51.431351297572732 ], [ -0.072835940782071, 51.432086658625025 ], [ -0.072738296549396, 51.432185833726258 ], [ -0.072682956654031, 51.432235269060534 ], [ -0.072604318076362, 51.432291513290437 ], [ -0.072514294656857, 51.432344873045579 ], [ -0.072435145775782, 51.432382229089484 ], [ -0.072357637190982, 51.432411610685186 ], [ -0.072190198328276, 51.432458302078565 ], [ -0.07205116228368, 51.432481186819025 ], [ -0.07158205042215, 51.432483354635089 ], [ -0.071309162876975, 51.432470770777925 ], [ -0.07108414936287, 51.432450883306906 ], [ -0.070917405652505, 51.432447238527295 ], [ -0.070669532039756, 51.432457540899549 ], [ -0.070367186184001, 51.432496613538184 ], [ -0.070161475519268, 51.432530984182954 ], [ -0.069958420163008, 51.432569893375188 ], [ -0.069596537732051, 51.432656530832048 ], [ -0.069503412909845, 51.432682057070572 ], [ -0.068995831895524, 51.432845406341308 ], [ -0.068576416480966, 51.432999508596716 ], [ -0.06772755235095, 51.433444106424517 ], [ -0.067125786586362, 51.433691392355691 ], [ -0.066683062375257, 51.433922420493758 ], [ -0.066118591317856, 51.434308768673695 ], [ -0.066017228436559, 51.434391604568418 ], [ -0.065948274664346, 51.434456994745062 ], [ -0.065883361488176, 51.434530632801845 ], [ -0.065808541501334, 51.43463098837907 ], [ -0.065762280757462, 51.434703945388179 ], [ -0.065581091020902, 51.435078637903821 ], [ -0.065390064655386, 51.435410913051733 ], [ -0.065060642142708, 51.435919000674588 ], [ -0.064774561413598, 51.436288363124447 ], [ -0.064585476499941, 51.436678296980894 ], [ -0.064534619938825, 51.436792533088116 ], [ -0.064504822946396, 51.436882843204629 ], [ -0.064441458086565, 51.436987073133501 ], [ -0.064394567598883, 51.437041139435244 ], [ -0.064339174857962, 51.437091469095591 ], [ -0.064219190454133, 51.437173995651847 ], [ -0.064132448658672, 51.437216614909715 ], [ -0.063957073567274, 51.437282043226716 ], [ -0.063525016683053, 51.43749525508774 ], [ -0.063431046700107, 51.437540451432241 ], [ -0.063431663400706, 51.437626858758762 ], [ -0.063517925974106, 51.43776673593495 ], [ -0.063674996605485, 51.43792945018172 ], [ -0.063681143575114, 51.437988888004192 ], [ -0.063707795417321, 51.438208692730214 ], [ -0.063726579445049, 51.438990533051303 ], [ -0.063775242494169, 51.439539927592762 ], [ -0.06402788058759, 51.440848960056833 ], [ -0.064254333659196, 51.440903048195487 ], [ -0.064645548367905, 51.441008405892582 ], [ -0.065000518651933, 51.441157306136652 ], [ -0.064585979496343, 51.441533535982202 ], [ -0.064251787643283, 51.441847260697877 ], [ -0.064193049603331, 51.441909222368515 ], [ -0.064140082907136, 51.441972178417288 ], [ -0.06405706559316, 51.442097660033262 ], [ -0.063844740309068, 51.442525776838316 ], [ -0.063707945904642, 51.442867935549835 ], [ -0.063639879700778, 51.443355165453021 ], [ -0.0637240591044, 51.444153280347301 ], [ -0.063718169800403, 51.444225195576045 ], [ -0.063687631400895, 51.444537644309214 ], [ -0.063614343296509, 51.444808839970122 ], [ -0.063458476667546, 51.445262253060804 ], [ -0.063339417026598, 51.445557954686379 ], [ -0.063218970974497, 51.445852734227365 ], [ -0.063058191838486, 51.446183707105497 ], [ -0.062875759742449, 51.44644869227804 ], [ -0.062543346188054, 51.446957531769932 ], [ -0.062317541015907, 51.447193029645121 ], [ -0.062194289500108, 51.447352007699401 ], [ -0.062054086876158, 51.447535788219959 ], [ -0.061801243111986, 51.447796010712885 ], [ -0.06135790536493, 51.448138488440314 ], [ -0.060946963200835, 51.448427558749998 ], [ -0.059652014934414, 51.448998759391351 ], [ -0.05903587027723, 51.44930779880282 ], [ -0.05866179750962, 51.449507568704455 ], [ -0.058593229269008, 51.449563071446484 ], [ -0.058075043130139, 51.44994025765056 ], [ -0.057563844842485, 51.450317557436357 ], [ -0.057535655949679, 51.450338666813408 ], [ -0.056517838083017, 51.4499396064015 ], [ -0.055409848008504, 51.449493189564883 ], [ -0.054723161503244, 51.449194008140829 ], [ -0.05430567795381, 51.448993692725878 ], [ -0.054055730379385, 51.448813330473349 ], [ -0.053981967485325, 51.448753667974032 ], [ -0.053928300089979, 51.448729311664565 ], [ -0.053882750344871, 51.448717766559099 ], [ -0.053762187224292, 51.448709470359354 ], [ -0.053619317225559, 51.448717885039962 ], [ -0.053554000861376, 51.448730285281329 ], [ -0.053438909766448, 51.448763525110728 ], [ -0.053044321329187, 51.448836981666446 ], [ -0.050928975916407, 51.44950772752572 ], [ -0.049909844084395, 51.449848673358517 ], [ -0.049340761740703, 51.450031682395597 ], [ -0.049061067821249, 51.450112433233386 ], [ -0.048696108554998, 51.450130629035421 ], [ -0.048214193237606, 51.450092034289767 ], [ -0.047732355408163, 51.450051640794022 ], [ -0.046915903214656, 51.44996071585738 ], [ -0.046485845748882, 51.449919382401688 ], [ -0.046125189813851, 51.449872911617952 ], [ -0.04584959198022, 51.450191157511753 ], [ -0.045457560441237, 51.450643214381152 ], [ -0.045153293584376, 51.450960081864949 ], [ -0.045170846730991, 51.451054773330625 ], [ -0.045098613842042, 51.451228969576078 ], [ -0.044974975755015, 51.451292535905338 ], [ -0.044848411527974, 51.4513245870804 ], [ -0.044482358895778, 51.451706950168379 ], [ -0.043860561140117, 51.452414268386384 ], [ -0.043637172121674, 51.452656963409837 ], [ -0.043164114252633, 51.453118448424469 ], [ -0.042963755088208, 51.453191519523735 ], [ -0.042420055498076, 51.453889256228372 ], [ -0.041623036848894, 51.454990198108398 ], [ -0.041799517070819, 51.455037200685865 ], [ -0.041936525760716, 51.455099725900986 ], [ -0.042074758632999, 51.455164159384353 ], [ -0.04271997793756, 51.455492389412093 ], [ -0.043426696357711, 51.455931325035863 ], [ -0.044606798715239, 51.456576934664987 ], [ -0.044970162184602, 51.456661214767394 ], [ -0.046134838175996, 51.456963030897938 ], [ -0.046077601683709, 51.457122194132452 ], [ -0.045976032717837, 51.457174442104979 ], [ -0.045755739628114, 51.457680609348785 ], [ -0.045754316426387, 51.457680585608607 ], [ -0.045717201368941, 51.457810416198605 ], [ -0.045691855804297, 51.457898098647235 ], [ -0.04558995609193, 51.458158107307561 ], [ -0.04531019850067, 51.458980820213533 ], [ -0.045277887836923, 51.459095357459226 ], [ -0.045217084048752, 51.459407296639554 ], [ -0.045151480786713, 51.459831534927488 ], [ -0.045097725541968, 51.460281233710262 ], [ -0.045088554833888, 51.460595832404024 ], [ -0.045080081233375, 51.460930221456564 ], [ -0.045103470349642, 51.461324478375516 ], [ -0.045162922187031, 51.461819219614711 ], [ -0.045211248898844, 51.46220490220005 ], [ -0.045320721151944, 51.462606888458957 ], [ -0.045431731202852, 51.462942371760434 ], [ -0.045694759564519, 51.463523219637793 ], [ -0.04597352595474, 51.463974778620312 ], [ -0.046188201824149, 51.464240067297652 ], [ -0.046338026865374, 51.46440627960154 ], [ -0.046561208780555, 51.464608687167789 ], [ -0.046747434363117, 51.464731453196315 ], [ -0.047011944132002, 51.464908476886499 ], [ -0.047304961181899, 51.465026728814514 ], [ -0.047457673060491, 51.465125470364107 ], [ -0.047536106894166, 51.465176224237247 ], [ -0.04769519910025, 51.465225624994559 ], [ -0.048514589229694, 51.465626938407283 ], [ -0.048180487590684, 51.465898275170602 ], [ -0.048603597264897, 51.466072632788126 ], [ -0.049030170510081, 51.466229875000593 ], [ -0.049381155454674, 51.46633919746295 ], [ -0.049597560155315, 51.466397641006814 ], [ -0.049644511574141, 51.466410109991848 ], [ -0.049879425995775, 51.466471558217435 ], [ -0.050253004069041, 51.466557789332178 ], [ -0.050494376075357, 51.466601453032588 ], [ -0.050862825948054, 51.46663815010028 ], [ -0.050796720933578, 51.466671213593969 ], [ -0.050608400535483, 51.466764276921296 ], [ -0.050549565782456, 51.466793865111363 ], [ -0.050974650085388, 51.467122880309681 ], [ -0.051294082604987, 51.467365627935742 ], [ -0.051300970500901, 51.467371136688612 ], [ -0.051102682995355, 51.467464035125339 ], [ -0.050855787696442, 51.4675804884074 ], [ -0.050968927544597, 51.467730710853886 ], [ -0.05142083247182, 51.468344354818527 ], [ -0.051658796400428, 51.468571362001171 ], [ -0.052015334377865, 51.468954973810924 ], [ -0.05225619703737, 51.469214393177111 ], [ -0.052125684416135, 51.469338087951606 ], [ -0.05175682060922, 51.469614340961257 ], [ -0.051660973094068, 51.469701751329509 ], [ -0.051661443362446, 51.469757589041556 ], [ -0.051775898732151, 51.47008053659733 ], [ -0.051954945741618, 51.470609537227361 ], [ -0.052148133751953, 51.471210785038515 ], [ -0.052731408033267, 51.472933674785729 ], [ -0.052737444561372, 51.473840178551796 ], [ -0.052721863271415, 51.476302186869013 ], [ -0.052673589664244, 51.478009185254528 ], [ -0.054241882119776, 51.478583736651139 ], [ -0.05430289868623, 51.478606416477206 ], [ -0.053921616946835, 51.479206121778354 ], [ -0.053927354651317, 51.479208015131071 ], [ -0.053992754467953, 51.479225373718876 ], [ -0.053974133642612, 51.479258328632625 ], [ -0.053682324700491, 51.479786697517589 ], [ -0.053669743399073, 51.479811661418196 ], [ -0.053628396281531, 51.479801085300913 ], [ -0.053595634768844, 51.479792449842115 ], [ -0.053496089450967, 51.479966197294843 ], [ -0.053452385616823, 51.480077850209128 ], [ -0.053444512815449, 51.480162318261989 ], [ -0.053494615009185, 51.480237770116396 ], [ -0.053547587358072, 51.480245842287808 ], [ -0.05354782502441, 51.480273716200678 ], [ -0.05354772635922, 51.480342939958305 ], [ -0.05338754202352, 51.480317803291769 ], [ -0.053333183963888, 51.480308808997222 ], [ -0.053331117332474, 51.480357322347743 ], [ -0.053362608367483, 51.480362340646394 ], [ -0.053481215618885, 51.480382291548473 ], [ -0.053488588956449, 51.480479599292707 ], [ -0.053463685575982, 51.480489973988313 ], [ -0.053402139039475, 51.480515922530813 ], [ -0.053280363723102, 51.480771022446035 ], [ -0.053242920546409, 51.480838816667003 ], [ -0.05319324363474, 51.480923399317966 ], [ -0.053162035660794, 51.480978620764468 ], [ -0.053130904158109, 51.481032045411162 ], [ -0.053142452691791, 51.481031338248535 ], [ -0.053234729967572, 51.481031073249049 ], [ -0.053224995931807, 51.481056084404877 ], [ -0.05309312030067, 51.481447848854287 ], [ -0.053027013087763, 51.481748015807177 ], [ -0.052991842197586, 51.481965895977694 ], [ -0.052948666173345, 51.482402287454654 ], [ -0.052916885776209, 51.48264090163461 ], [ -0.05278572827281, 51.482645015510833 ], [ -0.052787462168958, 51.482671206122966 ], [ -0.052792985447877, 51.48274501843828 ], [ -0.052831751307327, 51.482746561622847 ], [ -0.05293388541359, 51.482749157705634 ], [ -0.052930164446344, 51.482803037733866 ], [ -0.05292376365936, 51.482919805396975 ], [ -0.052952854959084, 51.483385267513377 ], [ -0.052895690911085, 51.483408591540069 ], [ -0.052896551996508, 51.483458052542446 ], [ -0.052775168788501, 51.483466823987875 ], [ -0.052806875742735, 51.483567143269347 ], [ -0.052864430380073, 51.483568099606074 ], [ -0.052956556089973, 51.483568731291406 ], [ -0.052958986858691, 51.48358135810988 ], [ -0.053092251281777, 51.484374989238027 ], [ -0.052987843117779, 51.484389437149467 ], [ -0.052938605800554, 51.484396710363555 ], [ -0.052974185458215, 51.484609562767197 ], [ -0.052975379767726, 51.484614976796905 ], [ -0.053015163006747, 51.484832304266362 ], [ -0.053071559639519, 51.485164174558847 ], [ -0.053143284405689, 51.485169861289812 ], [ -0.053170050635423, 51.485218943526128 ], [ -0.053223603180793, 51.485213539945008 ], [ -0.053288977011559, 51.485231707514657 ], [ -0.053397253261116, 51.485293741173635 ], [ -0.053526087115352, 51.485517132594097 ], [ -0.053534275461671, 51.485795968132756 ], [ -0.053114325033538, 51.485849317297777 ], [ -0.053155393300704, 51.485966873563989 ], [ -0.053053833431041, 51.485984066016755 ], [ -0.052923362454397, 51.486005273201989 ], [ -0.052920612326652, 51.486103221884932 ], [ -0.052914679771388, 51.486275827163546 ], [ -0.0528945611238, 51.486343819255559 ], [ -0.05286811847136, 51.486387432438598 ], [ -0.052830898809776, 51.486449836110403 ], [ -0.052818467976648, 51.486471206314931 ], [ -0.052854689136154, 51.486602167608723 ], [ -0.052875843103081, 51.486679835730165 ], [ -0.052908042182897, 51.486735211579081 ], [ -0.052968355816676, 51.486841490134516 ], [ -0.053004628849661, 51.486868164647589 ], [ -0.053130242950525, 51.486963750638488 ], [ -0.053160276192417, 51.486969643735577 ], [ -0.053228734386531, 51.486985165426418 ], [ -0.053296082231836, 51.487026740522104 ], [ -0.053380332297648, 51.487078575562627 ], [ -0.053489554661995, 51.487218840398484 ], [ -0.053538737487298, 51.487282589401303 ], [ -0.053702921198038, 51.487518254922136 ], [ -0.05395162765275, 51.48793602876696 ], [ -0.052863997732214, 51.487634679379113 ], [ -0.052605246106723, 51.487553063510092 ], [ -0.052596279802347, 51.487562803862239 ], [ -0.052474602167956, 51.487711909050724 ], [ -0.052386987479344, 51.487775183318369 ], [ -0.052149092899489, 51.487814383206839 ], [ -0.05209395967868, 51.487823356214257 ], [ -0.051724415464515, 51.487808223272957 ], [ -0.051282524997008, 51.487799078099215 ], [ -0.051089789457066, 51.487826440038873 ], [ -0.050744137984154, 51.48792767590912 ], [ -0.050712143385154, 51.487934335975851 ], [ -0.050618263046383, 51.487871640231951 ], [ -0.050518936083865, 51.487905949189532 ], [ -0.050438391665798, 51.48793427731227 ], [ -0.05035858970036, 51.48801754854609 ], [ -0.050282983481443, 51.488099900597177 ], [ -0.05031821532651, 51.488117568351015 ], [ -0.050082768034249, 51.488335801607811 ], [ -0.050143646188811, 51.488361987421648 ], [ -0.051932733352361, 51.489136318449724 ], [ -0.051440220770738, 51.489439285571969 ], [ -0.051125702505917, 51.48955101948485 ], [ -0.050791464592661, 51.489618282137968 ], [ -0.0503192813585, 51.489747979177018 ], [ -0.049631466593996, 51.489865185405293 ], [ -0.049687039053421, 51.489946124040671 ], [ -0.049332354491705, 51.490022032574942 ], [ -0.049234903042113, 51.490042886203391 ], [ -0.049194080423051, 51.489986466727188 ], [ -0.047524016803834, 51.490370500328808 ], [ -0.047569685856798, 51.49044686972173 ], [ -0.046541416648157, 51.490745383779633 ], [ -0.046540008599116, 51.490472863943907 ], [ -0.046541311759017, 51.490342436231444 ], [ -0.046138329454973, 51.490367184278881 ], [ -0.04590125158694, 51.490220285369332 ], [ -0.045805718451963, 51.490162952413058 ], [ -0.045495687389385, 51.490235997839058 ], [ -0.045089747737062, 51.490332615465704 ], [ -0.045109422117478, 51.490377985133087 ], [ -0.044732044498853, 51.490442712845073 ], [ -0.044710983608175, 51.490363156787673 ], [ -0.044550451512074, 51.490142912642995 ], [ -0.044526656049457, 51.490127232052551 ], [ -0.044472749457202, 51.490107452877552 ], [ -0.042714667522918, 51.490022273098205 ], [ -0.042331124904026, 51.490028542966193 ], [ -0.042199790634409, 51.490036238292397 ], [ -0.042481984216905, 51.490241436368883 ], [ -0.040317622847198, 51.491063209285265 ], [ -0.041029498056525, 51.491828679407902 ], [ -0.040044241895173, 51.492163816891903 ], [ -0.040528871628906, 51.492786137821533 ], [ -0.040537150724392, 51.492795266538089 ], [ -0.040526830515731, 51.49280048816113 ], [ -0.040344037187518, 51.49283078572639 ], [ -0.039939983956096, 51.492946296705988 ], [ -0.039908103010747, 51.492952955736165 ], [ -0.039876103362771, 51.492959612772573 ], [ -0.039844142269188, 51.492965371415842 ], [ -0.039810756846074, 51.492971106227472 ], [ -0.039777448544629, 51.492975044260632 ], [ -0.039745564559419, 51.492979006108214 ], [ -0.039710831925066, 51.492982920298779 ], [ -0.03967760074085, 51.492985061534668 ], [ -0.039661775939008, 51.492985695861947 ], [ -0.039628583318728, 51.49298693869946 ], [ -0.039593966374921, 51.492988157701994 ], [ -0.039560850890034, 51.492987603751317 ], [ -0.039527773976144, 51.49298615140674 ], [ -0.039493272742874, 51.492984675225934 ], [ -0.039460234405079, 51.492982324477722 ], [ -0.039427234642887, 51.49297907533564 ], [ -0.039394234885691, 51.492975826184171 ], [ -0.039359849385468, 51.492971654810397 ], [ -0.039326926786824, 51.492966608870823 ], [ -0.03929400419577, 51.492961562921884 ], [ -0.03926112018749, 51.492955618579124 ], [ -0.039229660508519, 51.492949698057089 ], [ -0.039196815094232, 51.492942855311512 ], [ -0.03916539401006, 51.492936036387484 ], [ -0.039148299209744, 51.492933053276403 ], [ -0.039106904944241, 51.49292337037906 ], [ -0.039066973594959, 51.492912812914447 ], [ -0.039025775218896, 51.492901335204934 ], [ -0.038987345388085, 51.492889004776202 ], [ -0.038947648535076, 51.492875754102677 ], [ -0.0389092573299, 51.492862525263227 ], [ -0.038872447740237, 51.492848423847079 ], [ -0.038834133747755, 51.492833398213371 ], [ -0.038797401374079, 51.492817500003959 ], [ -0.038762093341773, 51.492801625618512 ], [ -0.03872528091228, 51.492784827014937 ], [ -0.038691439690266, 51.492767988220763 ], [ -0.038681543729963, 51.492763327454604 ], [ -0.038640731463028, 51.492742865761429 ], [ -0.038601263441162, 51.492721527520324 ], [ -0.038563415638713, 51.492698418321211 ], [ -0.038525410592975, 51.492676205507223 ], [ -0.038487601457452, 51.492652197897968 ], [ -0.03845256087969, 51.492627337584111 ], [ -0.038417639032796, 51.492602479245875 ], [ -0.038384141532218, 51.492577644737167 ], [ -0.038360539948246, 51.492557471013598 ], [ -0.038208758246583, 51.492468623377768 ], [ -0.038097795574999, 51.492402844743772 ], [ -0.038065336717678, 51.49238701782815 ], [ -0.038031414983209, 51.492372065442837 ], [ -0.037997493271324, 51.492357113047376 ], [ -0.037963532981906, 51.492343059026275 ], [ -0.037928148414004, 51.492328981148873 ], [ -0.0378911436744, 51.492316674195656 ], [ -0.037857067642415, 51.492305315296313 ], [ -0.037820181633531, 51.492293010307392 ], [ -0.03778309974622, 51.492282500088258 ], [ -0.037744712270091, 51.492271967996103 ], [ -0.037706286207019, 51.49226233427563 ], [ -0.037667664257444, 51.492254495323834 ], [ -0.037627579418017, 51.49224753089382 ], [ -0.037624769430877, 51.492246584809607 ], [ -0.037594657551476, 51.492242484457854 ], [ -0.037564625761226, 51.492239284470315 ], [ -0.03753443667556, 51.492236980871944 ], [ -0.037504247593183, 51.492234677265735 ], [ -0.037474177205451, 51.492232375639368 ], [ -0.037449765395726, 51.49223106779791 ], [ -0.037350652409264, 51.492224013771114 ], [ -0.037288811377295, 51.492220280986245 ], [ -0.035212481700772, 51.492634195415107 ], [ -0.033300931556551, 51.492996891972403 ], [ -0.033277711691054, 51.493000997391007 ], [ -0.033221483474822, 51.492869693846366 ], [ -0.032884580425414, 51.492931465707748 ], [ -0.032523988195265, 51.493008212291109 ], [ -0.032554866296849, 51.493027610464189 ], [ -0.032386510654834, 51.493056249591 ], [ -0.032038169385035, 51.493116028888629 ], [ -0.031911662169077, 51.493176836348049 ], [ -0.031034677553597, 51.49333750393356 ], [ -0.030408761881109, 51.493451949851206 ], [ -0.029921315483352, 51.493564225532367 ], [ -0.029788700103064, 51.493031476308623 ], [ -0.029742913556971, 51.492925429630304 ], [ -0.02960347657652, 51.492685740130966 ], [ -0.029306789665525, 51.492181607279981 ], [ -0.028980709393194, 51.49162663439818 ], [ -0.028360621285593, 51.490805994493492 ], [ -0.028143329273987, 51.490501971434128 ], [ -0.027819701569776, 51.490055819360876 ], [ -0.027490696469464, 51.489704064092038 ], [ -0.027258846838405, 51.489434856539589 ], [ -0.027077582918796, 51.489295151742212 ], [ -0.026875162717338, 51.489111846972833 ], [ -0.026771278710054, 51.489017497282873 ], [ -0.026572275587719, 51.48885411813729 ], [ -0.02595548921525, 51.488395830820068 ], [ -0.025096018049621, 51.487785109854684 ], [ -0.024817454089945, 51.487597011893769 ], [ -0.024666730165651, 51.487484699231594 ], [ -0.024372760633804, 51.487320614361693 ], [ -0.024117062401268, 51.487172367772807 ], [ -0.023798352732325, 51.486981792341155 ], [ -0.02352786881421, 51.486840487350975 ], [ -0.023491224570044, 51.486822787620447 ], [ -0.023417856371755, 51.486786487748496 ], [ -0.024175492726053, 51.486186845269749 ], [ -0.024585731805724, 51.485861929467738 ], [ -0.024707683142637, 51.485705755725512 ], [ -0.024733761576285, 51.485668436001141 ], [ -0.024821090956384, 51.48554665083315 ], [ -0.025003645911396, 51.485290716837682 ], [ -0.025175108884712, 51.485022099051264 ], [ -0.025180977461028, 51.484985247733469 ], [ -0.025196013055742, 51.484637485739306 ], [ -0.025263463417007, 51.484343649998699 ], [ -0.025269794226729, 51.484197214415964 ], [ -0.025552018177264, 51.483434826466649 ], [ -0.025713112264604, 51.482573391673107 ], [ -0.025793025714201, 51.48218887368995 ], [ -0.025856867586023, 51.482044306149703 ], [ -0.025926045077326, 51.481943881016939 ], [ -0.026039079448304, 51.48182882122078 ], [ -0.026342333013551, 51.48157671644055 ], [ -0.026382622774009, 51.481509967657523 ], [ -0.024693763743726, 51.481197325919638 ], [ -0.023135264089912, 51.48073762011289 ], [ -0.023094715175986, 51.48024228886127 ], [ -0.023044902668041, 51.479629028132017 ], [ -0.022497514330598, 51.479699895435104 ], [ -0.020341345156674, 51.47993598457213 ], [ -0.020391973389145, 51.480230912985597 ], [ -0.019988552670422, 51.480366143808126 ], [ -0.018908569375938, 51.480727370771 ], [ -0.018701626846722, 51.480784106925611 ], [ -0.018557715400325, 51.480816735706476 ], [ -0.018374760770815, 51.480848793946215 ], [ -0.018135277688919, 51.480859129814689 ], [ -0.017849251353907, 51.480880367398306 ], [ -0.017618487566929, 51.480719945374247 ], [ -0.017090481341525, 51.48040975319271 ], [ -0.017041380215489, 51.480381052969214 ], [ -0.016833717227714, 51.48028763821015 ], [ -0.016834029253518, 51.48028045124191 ], [ -0.016884318847445, 51.480183307359802 ], [ -0.016935743800488, 51.480125650099339 ], [ -0.017001328635154, 51.480075514407737 ], [ -0.017079573722275, 51.480031885969794 ], [ -0.017205436565327, 51.479985466497133 ], [ -0.017437615445171, 51.479943541432242 ], [ -0.017618392709712, 51.479925919848888 ], [ -0.017742539394315, 51.479919028137097 ], [ -0.017925620143236, 51.479916728539258 ], [ -0.018266379291825, 51.479895516757054 ], [ -0.01835061381241, 51.479878061659946 ], [ -0.018417880703264, 51.479854835478754 ], [ -0.018491581356538, 51.479817423463345 ], [ -0.018546612019306, 51.479777897636659 ], [ -0.018607005339979, 51.47971328959563 ], [ -0.018871878057004, 51.479517194256871 ], [ -0.018938005010016, 51.479451783942402 ], [ -0.018971712146954, 51.47940560418683 ], [ -0.019003272744705, 51.479343205573407 ], [ -0.019035610805825, 51.479194423209641 ], [ -0.019105334801708, 51.478947469321206 ], [ -0.019102343215464, 51.478783705183822 ], [ -0.019113336741128, 51.478595903615414 ], [ -0.019092651434443, 51.47847598279283 ], [ -0.019107935711095, 51.478323405869332 ], [ -0.019140623196593, 51.478166538070866 ], [ -0.019175805301799, 51.477954871520943 ], [ -0.019139900454806, 51.477786145736793 ], [ -0.01906972350573, 51.477578092332919 ], [ -0.019056395341277, 51.477518530957489 ], [ -0.019041483753891, 51.477396909653095 ], [ -0.019071700766259, 51.477332600310937 ], [ -0.019092411047633, 51.477252037592223 ], [ -0.019139166051538, 51.477203381231917 ], [ -0.019235840877611, 51.477167256080662 ], [ -0.019385904470994, 51.47712663905061 ], [ -0.019535305718536, 51.477101294165898 ], [ -0.019684085538869, 51.477093020184881 ], [ -0.019869146773119, 51.477042115685549 ], [ -0.020019715561705, 51.476989818961826 ], [ -0.020186611308819, 51.47692790854201 ], [ -0.020310846610607, 51.476885954904731 ], [ -0.020427549177841, 51.47681780196605 ], [ -0.020552466004944, 51.476727221969128 ], [ -0.020644390294143, 51.476630780267747 ], [ -0.02073454199797, 51.476545096930224 ], [ -0.020749187208862, 51.476505786898372 ], [ -0.020765728997182, 51.476458327709146 ], [ -0.020764499818078, 51.476453811789582 ], [ -0.020742563578736, 51.476359941983119 ], [ -0.020730769593398, 51.476234777368532 ], [ -0.020727196960485, 51.476215837358865 ], [ -0.020701423500863, 51.476114620573526 ], [ -0.020674757360866, 51.475929868653267 ], [ -0.020626569206845, 51.475847242815526 ], [ -0.020681611380578, 51.475771664927009 ], [ -0.02072026495912, 51.475679717532316 ], [ -0.020820614340737, 51.475588812150583 ], [ -0.020917984825267, 51.475536514738792 ], [ -0.021049551768556, 51.475522554082069 ], [ -0.021364189327562, 51.475506200444634 ], [ -0.021573354344442, 51.475498943594687 ], [ -0.021773897050185, 51.4754906417825 ], [ -0.022000498965047, 51.475478284332659 ], [ -0.022132884120161, 51.475448153682251 ], [ -0.022292339398533, 51.475390609743073 ], [ -0.022502085016976, 51.475367178445929 ], [ -0.022737347255752, 51.475354965707616 ], [ -0.022741776021904, 51.475354141402249 ], [ -0.022861303687012, 51.475319297812916 ], [ -0.022898667444307, 51.475254298844256 ], [ -0.022892694651831, 51.475194772029859 ], [ -0.02290471163562, 51.47508169669041 ], [ -0.022804714274387, 51.474731095035054 ], [ -0.022775898296306, 51.474532731786979 ], [ -0.022777310573406, 51.474464429145918 ], [ -0.02278516752773, 51.474282867241392 ], [ -0.022620168401734, 51.474271092849698 ], [ -0.022585793455649, 51.474099696627661 ], [ -0.02259199372187, 51.47408811382914 ], [ -0.022646887716528, 51.473985651362639 ], [ -0.022480662350213, 51.473966573928664 ], [ -0.022423562731662, 51.474087069646714 ], [ -0.022315678134223, 51.474086148015779 ], [ -0.022162652864604, 51.474061089575493 ], [ -0.022075713333265, 51.474039843482458 ], [ -0.022006212286306, 51.474016194575697 ], [ -0.021859253565702, 51.473952489842766 ], [ -0.021844973748179, 51.473947753631371 ], [ -0.021746594628235, 51.474026196690119 ], [ -0.021551843151731, 51.473933814756343 ], [ -0.021619188889625, 51.473875615595958 ], [ -0.021437311726145, 51.473817703958886 ], [ -0.021208758651715, 51.473743720338746 ], [ -0.021115283496741, 51.47370618059891 ], [ -0.021026470597364, 51.473662426292826 ], [ -0.020908653611417, 51.473589323154044 ], [ -0.020810807431769, 51.473521142257049 ], [ -0.020770799108208, 51.473482707183862 ], [ -0.020742141405292, 51.473445362839904 ], [ -0.020724875097356, 51.473410907986555 ], [ -0.02071039649822, 51.473347731181342 ], [ -0.020639835933218, 51.473214291735481 ], [ -0.020621791410714, 51.473197804369022 ], [ -0.020595088093746, 51.473183867841371 ], [ -0.020528008430815, 51.473170148326872 ], [ -0.020301768450721, 51.473174417849194 ], [ -0.020200046168569, 51.473160112907387 ], [ -0.020092258544784, 51.473124128628434 ], [ -0.020024804762055, 51.473083431539784 ], [ -0.019978728496122, 51.473017922712039 ], [ -0.019964238156983, 51.472987919911887 ], [ -0.019952606269726, 51.472922094021122 ], [ -0.01995734102169, 51.472848453376777 ], [ -0.019980271895954, 51.472782312435804 ], [ -0.020015863600144, 51.472725375728324 ], [ -0.020056922003209, 51.472676532758989 ], [ -0.020130195921181, 51.472613040409499 ], [ -0.020311416554987, 51.472417415816729 ], [ -0.020301893869421, 51.472371404295721 ], [ -0.02027396025096, 51.472287232485115 ], [ -0.020219277600724, 51.47218471802703 ], [ -0.020119405788373, 51.472097622670752 ], [ -0.020084237467873, 51.472079047853683 ], [ -0.020026248344745, 51.472055592294154 ], [ -0.019973529487485, 51.4720420252062 ], [ -0.019867539025956, 51.472027647879536 ], [ -0.019372800604767, 51.472047247141461 ], [ -0.019319631933229, 51.472011196351914 ], [ -0.019293436029892, 51.471985580690898 ], [ -0.019259514401445, 51.471938257668477 ], [ -0.01912724405094, 51.471467536217823 ], [ -0.019084263189053, 51.471229375260016 ], [ -0.018997521628162, 51.471138005755549 ], [ -0.018858518215359, 51.471189597860388 ], [ -0.018801873013105, 51.471102333132691 ], [ -0.018932825488756, 51.471069394769152 ], [ -0.018956113085475, 51.471063495212867 ], [ -0.018919452777845, 51.470879472881464 ], [ -0.018766770345446, 51.470748240175134 ], [ -0.018645975760402, 51.470645506318135 ], [ -0.018911788399841, 51.470525034656418 ], [ -0.019005998876782, 51.470611136282756 ], [ -0.019064626167372, 51.470586954402144 ], [ -0.019174256332582, 51.470550149100198 ], [ -0.019246943729353, 51.470500132837685 ], [ -0.019141160794343, 51.470251021014931 ], [ -0.018995243221252, 51.470062364873257 ], [ -0.018992512920633, 51.470059621622532 ], [ -0.01909228597318, 51.469948929092915 ], [ -0.018674915428097, 51.469712530253823 ], [ -0.018447711199509, 51.469605300014578 ], [ -0.018174775953215, 51.469526066088406 ], [ -0.017861534294116, 51.469478427977599 ], [ -0.017718261714925, 51.469461621920289 ], [ -0.017483362494107, 51.469433377490489 ], [ -0.017248229677725, 51.469410522836434 ], [ -0.017135926510933, 51.46934209577126 ], [ -0.017136004475959, 51.469340299024893 ], [ -0.01711478387307, 51.469298584758164 ], [ -0.017088259008656, 51.469247790482854 ], [ -0.016923728126056, 51.469056121872384 ], [ -0.01653331223929, 51.469227617980074 ], [ -0.016441706901928, 51.46904886944457 ], [ -0.016390705077103, 51.468995862970111 ], [ -0.016244041159519, 51.468860325519458 ], [ -0.015878848775998, 51.468549286028804 ], [ -0.015781064800026, 51.468480114386928 ], [ -0.015534118736441, 51.468330292943627 ], [ -0.015430598775914, 51.468262012893874 ], [ -0.015275654128242, 51.468150518101041 ], [ -0.015064556281143, 51.468036364588563 ], [ -0.01500113428423, 51.468039786338565 ], [ -0.014626944998708, 51.468234026568545 ], [ -0.014468228618396, 51.468307757365288 ], [ -0.014082397094428, 51.468472040754051 ], [ -0.013450484010964, 51.46876709951362 ], [ -0.013103355742092, 51.468936620235063 ], [ -0.013448319805613, 51.469379483241916 ], [ -0.013691178566124, 51.469656093190856 ], [ -0.013815328765226, 51.469782352084501 ], [ -0.014021059975772, 51.470050151396478 ], [ -0.014071392655927, 51.470118520991242 ], [ -0.014397218173234, 51.470671638085904 ], [ -0.014835012648631, 51.471399443541756 ], [ -0.015158731939693, 51.471769120468515 ], [ -0.014728835214295, 51.471886809276654 ], [ -0.014508709434669, 51.471917245935764 ], [ -0.014502857330358, 51.471918045890547 ], [ -0.014515193575803, 51.472131415104975 ], [ -0.014517143000672, 51.472152125832224 ], [ -0.014231795887704, 51.472522280534086 ], [ -0.014043723176502, 51.47267561718494 ], [ -0.013645646557006, 51.472492575381054 ], [ -0.013337460144186, 51.472393855809393 ], [ -0.013118251299784, 51.472370363486881 ], [ -0.012848230701525, 51.472352303014446 ], [ -0.012493153308985, 51.472340891745063 ], [ -0.011653012280838, 51.472388683707301 ], [ -0.010296586438787, 51.472552766593004 ], [ -0.010052344453576, 51.47260795852015 ], [ -0.009046104677583, 51.472734724974551 ], [ -0.00887017159368, 51.472739829329583 ], [ -0.008588736993423, 51.472754829368867 ], [ -0.008117797153379, 51.472756720848878 ], [ -0.007337166452418, 51.472629282590958 ], [ -0.006928924728757, 51.472579191836196 ], [ -0.006663569448377, 51.472554903194656 ], [ -0.005604743397928, 51.472401057983966 ], [ -0.003572449615925, 51.472118346719917 ], [ -0.002324065122422, 51.471953153671834 ], [ -0.00147090324361, 51.471837027940666 ], [ -0.001298802357555, 51.471822408297307 ], [ -0.001166603996172, 51.471815660578137 ], [ -0.000957928052426, 51.471812104574674 ], [ -0.000333530905095, 51.471834726212364 ], [ 0.000019911843765, 51.471848479175776 ], [ 0.00039130349301, 51.471879006537577 ], [ 0.000903545300074, 51.471937697222721 ], [ 0.001661909845211, 51.47202374197019 ], [ 0.002868421008207, 51.472152386510274 ], [ 0.003784605794111, 51.47226080555334 ], [ 0.004570383709682, 51.472349060179148 ], [ 0.005437185843731, 51.472446622751256 ], [ 0.007515194746953, 51.472681775196833 ], [ 0.009244359798053, 51.472872520903891 ], [ 0.010173819457076, 51.472955489573295 ], [ 0.012114450372092, 51.473173135586975 ], [ 0.013589169918822, 51.473341120488961 ], [ 0.014382296312989, 51.473433677964913 ], [ 0.01527650409184, 51.473532494454176 ], [ 0.017065635596133, 51.473742768611203 ], [ 0.018066644323495, 51.473845120041638 ], [ 0.018149060057922, 51.473853591257317 ], [ 0.017806020751239, 51.47371564912217 ], [ 0.016578201133187, 51.473431905962499 ], [ 0.016220264038198, 51.473349055909736 ], [ 0.01605463915918, 51.473314053906549 ], [ 0.015010340006806, 51.47308027197731 ], [ 0.014978691400338, 51.472817310964125 ], [ 0.015020634973995, 51.472529711082686 ], [ 0.015104496938353, 51.472274655000319 ], [ 0.015238260639255, 51.471912656229186 ], [ 0.015383095570177, 51.471570245641068 ], [ 0.015541335904838, 51.471273454861645 ], [ 0.015918586309497, 51.470620391429648 ], [ 0.016169299421225, 51.470167287845605 ], [ 0.016221610213078, 51.470080082054125 ], [ 0.016224811654048, 51.470053056215662 ], [ 0.016231056457589, 51.470000805309226 ], [ 0.016316743616448, 51.469951683879479 ], [ 0.016372892909424, 51.469919252670266 ], [ 0.016489418172184, 51.469850631494587 ], [ 0.016631165712704, 51.469635125066645 ], [ 0.016719807067241, 51.469491464821665 ], [ 0.016648706168134, 51.469445937930843 ], [ 0.01663750747559, 51.469323862815777 ], [ 0.016558524536642, 51.469131840093134 ], [ 0.016356137293916, 51.468981585929932 ], [ 0.016137475762935, 51.469116602714024 ], [ 0.016067329828429, 51.469160062721336 ], [ 0.016055862570962, 51.469161158855165 ], [ 0.015985714664647, 51.469169556795471 ], [ 0.015875393386497, 51.469214606242701 ], [ 0.015856972498075, 51.469254569932126 ], [ 0.015553685865204, 51.469365867286974 ], [ 0.015288437116509, 51.469456731700866 ], [ 0.015012753498664, 51.469572138288854 ], [ 0.014570673391229, 51.469701998994118 ], [ 0.014384033993203, 51.469744761347449 ], [ 0.014050691718445, 51.469793638406422 ], [ 0.013781605296838, 51.469829724099775 ], [ 0.013613035518427, 51.469829920752979 ], [ 0.013522364509175, 51.469830578119456 ], [ 0.013511569468232, 51.469879310882291 ], [ 0.013506666214265, 51.469897375589113 ], [ 0.013017959827503, 51.469852720497933 ], [ 0.012627280170766, 51.46980728055847 ], [ 0.012915346492911, 51.468796955493843 ], [ 0.013038992694819, 51.46843153673673 ], [ 0.013077226490144, 51.468286047296495 ], [ 0.013094467803088, 51.468122128421122 ], [ 0.013078648464292, 51.467991951006184 ], [ 0.013002335174393, 51.467892569495504 ], [ 0.012805502227462, 51.467738617182732 ], [ 0.012718351969809, 51.467624947074967 ], [ 0.012692415398499, 51.467491436967443 ], [ 0.01271669155849, 51.46735787445671 ], [ 0.012790357010665, 51.467264909693426 ], [ 0.013038195897434, 51.467072670446413 ], [ 0.013167020286558, 51.466957182389557 ], [ 0.013270973429824, 51.466832231746345 ], [ 0.013179161655017, 51.46680683661863 ], [ 0.012999883821262, 51.466757679725994 ], [ 0.012863075945964, 51.466724066211142 ], [ 0.012771936389302, 51.466713942679569 ], [ 0.012508601582178, 51.466653730793645 ], [ 0.01211510649908, 51.466478877529305 ], [ 0.011834020049517, 51.466341562445862 ], [ 0.011622169773212, 51.466269677285396 ], [ 0.011485048355934, 51.466228875333542 ], [ 0.011328314794363, 51.466200995857434 ], [ 0.010939008743273, 51.466123970805391 ], [ 0.010779468470256, 51.4660970377372 ], [ 0.010510364570355, 51.466067487159108 ], [ 0.00996875842863, 51.465995856011581 ], [ 0.00912262262053, 51.465874507921257 ], [ 0.009141844394221, 51.465820237134714 ], [ 0.009199712734837, 51.465564731665992 ], [ 0.009164390456178, 51.465317205389042 ], [ 0.009093436056699, 51.465109756618475 ], [ 0.009013116873044, 51.46485392075968 ], [ 0.009013643519233, 51.464736139285058 ], [ 0.009043305725753, 51.464657415986984 ], [ 0.009074505600135, 51.464581273521588 ], [ 0.009146479022819, 51.46444968200489 ], [ 0.009294740435639, 51.464087442108351 ], [ 0.0093054603235, 51.464036913007789 ], [ 0.009335722460056, 51.463842115024299 ], [ 0.009405957626148, 51.463638541074097 ], [ 0.009558287381759, 51.46327173596076 ], [ 0.009643431455163, 51.463013065813961 ], [ 0.009745221712827, 51.462773978891924 ], [ 0.009821271408014, 51.462505575104672 ], [ 0.009850623117409, 51.462290114914566 ], [ 0.00986957746097, 51.46206494355949 ], [ 0.009848848016809, 51.461725376685507 ], [ 0.009830331534657, 51.461401055333397 ], [ 0.009790459515953, 51.461149921031982 ], [ 0.009772773174936, 51.460876919861796 ], [ 0.009849437819439, 51.460295554126091 ], [ 0.009892801522996, 51.45983972363549 ], [ 0.009929155488887, 51.459554019237935 ], [ 0.009973096932526, 51.459341095910517 ], [ 0.010139556919839, 51.459034282442261 ], [ 0.010336736988258, 51.4586730006327 ], [ 0.01046859344019, 51.458464773686508 ], [ 0.010670909387808, 51.458088119794105 ], [ 0.010821819288067, 51.457854393051683 ], [ 0.011024561633138, 51.45751998545574 ], [ 0.011259400227064, 51.457197613539208 ], [ 0.011282488900463, 51.457166650724297 ], [ 0.011401090124434, 51.457016187662589 ], [ 0.011440625065956, 51.45696516419958 ], [ 0.011507280866133, 51.456877714550856 ], [ 0.011511043083461, 51.456766170619396 ], [ 0.011509540940543, 51.456699578436094 ], [ 0.011510332438255, 51.456685180422255 ], [ 0.011541922272745, 51.456615413584949 ], [ 0.011544729062246, 51.456614466425087 ], [ 0.011726102928818, 51.456550222112192 ], [ 0.011941000166131, 51.456460229754491 ], [ 0.012314296955812, 51.4563071949772 ], [ 0.012632488060743, 51.456177670097688 ], [ 0.013004791570201, 51.456037236515726 ], [ 0.013186082103018, 51.455968496198999 ], [ 0.013554353386289, 51.455865979123743 ], [ 0.014056312031652, 51.455726912561595 ], [ 0.014222973354863, 51.455687190700502 ], [ 0.014420982118535, 51.455639738042876 ], [ 0.014839056529424, 51.455555241187128 ], [ 0.015341962752666, 51.455470183765158 ], [ 0.016050144177009, 51.455338351994328 ], [ 0.017505473088744, 51.455046225291156 ], [ 0.017539705751628, 51.455039343219902 ], [ 0.017498616666237, 51.454793716242335 ], [ 0.017478133263918, 51.454751724352995 ], [ 0.017454451569062, 51.454704483207472 ], [ 0.017463970678617, 51.454594637990027 ], [ 0.017464483136062, 51.454573951519791 ], [ 0.017488424249266, 51.454430504257864 ], [ 0.017504271037705, 51.454364602581784 ], [ 0.017520907552275, 51.454286999946902 ], [ 0.017528055435834, 51.454187983849039 ], [ 0.01753338263082, 51.454112283908657 ], [ 0.017629852582813, 51.453818440081982 ], [ 0.017729485027686, 51.45359637413943 ], [ 0.017884804205813, 51.453267264622802 ], [ 0.017953886125393, 51.453138324047828 ], [ 0.018035939392933, 51.453039817115794 ], [ 0.01806740098704, 51.453002415585779 ], [ 0.018356289517533, 51.451590014678928 ], [ 0.018357514232576, 51.451582801370584 ], [ 0.019314996161936, 51.451688677537042 ], [ 0.019561845717419, 51.451705104775428 ], [ 0.019665520070528, 51.451349012130137 ], [ 0.019736528195698, 51.451196662509467 ], [ 0.019770789293532, 51.451123251125701 ], [ 0.019897500876083, 51.450735295470935 ], [ 0.019864258797956, 51.450732271867977 ], [ 0.015148659625798, 51.450227043943514 ], [ 0.015035032046107, 51.450621962079914 ], [ 0.014901828435566, 51.450604471702071 ], [ 0.01508964024158, 51.450031979552755 ], [ 0.017319849030873, 51.449527852024453 ], [ 0.018011336428951, 51.449412567409965 ], [ 0.019191464191557, 51.449280685762943 ], [ 0.020493125733928, 51.449130605873947 ], [ 0.021593321294086, 51.449013562498855 ], [ 0.021953542091806, 51.448958805094307 ], [ 0.022157370240485, 51.448718845876279 ], [ 0.022166526889778, 51.448665555302433 ], [ 0.022205238011636, 51.448531831338897 ], [ 0.022222731361604, 51.44843892957946 ], [ 0.02231972816361, 51.44825736107596 ], [ 0.022427724716045, 51.448126038410805 ], [ 0.022485449012872, 51.448033251968674 ], [ 0.022704655005107, 51.447652687910612 ], [ 0.022846144811163, 51.447433491327153 ], [ 0.022968348069645, 51.447204827807091 ], [ 0.022777122688532, 51.447141597838396 ], [ 0.021557844235378, 51.446777655960005 ], [ 0.021236035498965, 51.446691501406299 ], [ 0.021259984666725, 51.445701885202482 ], [ 0.02128820446365, 51.44523372303599 ], [ 0.021289077449463, 51.444992767729246 ], [ 0.02144714777248, 51.444660009095067 ], [ 0.02152247734919, 51.444444651426977 ], [ 0.021509395406824, 51.444441280792304 ], [ 0.020622866812193, 51.444211032834296 ], [ 0.021124260579067, 51.443409268081638 ], [ 0.021508951984915, 51.442735287147279 ], [ 0.021580004950311, 51.442716081789172 ], [ 0.022100412482309, 51.44257405363291 ], [ 0.022802233520474, 51.442367670312812 ], [ 0.023285241909326, 51.442193017765987 ], [ 0.023664597455514, 51.44208389253059 ], [ 0.024199851870434, 51.441953285438316 ], [ 0.02444363137001, 51.441901428639746 ], [ 0.024699069067396, 51.441852966198994 ], [ 0.025030459145026, 51.441796898481357 ], [ 0.025442303569854, 51.441738451399459 ], [ 0.026243991287108, 51.441644588688106 ], [ 0.026688365463824, 51.441605443851316 ], [ 0.026878560173882, 51.441578781897377 ], [ 0.027307205898787, 51.441543502669255 ], [ 0.027793627438443, 51.441510819033958 ], [ 0.028242127318218, 51.441532731527687 ], [ 0.028589349098167, 51.441577072116083 ], [ 0.028674870869695, 51.441589977387871 ], [ 0.028906696650901, 51.44162462564347 ], [ 0.028921200970058, 51.441627970870002 ], [ 0.029385097369189, 51.441705442993218 ], [ 0.029370846379329, 51.441643565989793 ], [ 0.029108666382806, 51.441475487015623 ], [ 0.029111877465929, 51.441384628511351 ], [ 0.028996247933284, 51.441275957387681 ], [ 0.028909182240489, 51.441129122261245 ], [ 0.028847111515929, 51.440930519540878 ], [ 0.028725075909443, 51.440677213736521 ], [ 0.028602936379924, 51.440453667815547 ], [ 0.028597160371593, 51.440192057486165 ], [ 0.028751484820282, 51.439746880781414 ], [ 0.028902000996384, 51.43937647982078 ], [ 0.028891991516757, 51.439214825933583 ], [ 0.028843641421516, 51.439033966616378 ], [ 0.028839884004044, 51.438785806879515 ], [ 0.028715323990924, 51.438767283948458 ], [ 0.026015371308602, 51.438365252482896 ], [ 0.025994249466778, 51.438440237561466 ], [ 0.024816948827138, 51.438237520740536 ], [ 0.024788953620338, 51.438157090764463 ], [ 0.024810393470619, 51.437925578030665 ], [ 0.024897713071038, 51.437558072046748 ], [ 0.024915490484084, 51.43721154568162 ], [ 0.024956401001943, 51.437095762391735 ], [ 0.025055119931077, 51.436822458284752 ], [ 0.025152353618773, 51.436775827138646 ], [ 0.025315260648172, 51.436100353325244 ], [ 0.025311776081874, 51.436085939001146 ], [ 0.025295399646048, 51.436010702672817 ], [ 0.02540208464702, 51.435689611510938 ], [ 0.025526364660414, 51.435734214679883 ], [ 0.025770861519005, 51.435991700885673 ], [ 0.026297672181345, 51.436192164134049 ], [ 0.027266417747659, 51.436559398863622 ], [ 0.027679219579145, 51.436555857383759 ], [ 0.027716560125792, 51.436555211667432 ], [ 0.027727531393627, 51.436508271911769 ], [ 0.028018982209304, 51.436494241123249 ], [ 0.028552795573542, 51.436429266936052 ], [ 0.0286686457506, 51.436414676116293 ], [ 0.028700176810471, 51.436411433474341 ], [ 0.028704006553271, 51.43640147777981 ], [ 0.028893946060955, 51.435914328270464 ], [ 0.028994446918315, 51.435486354480233 ], [ 0.029049974818502, 51.435052775612547 ], [ 0.029091928512511, 51.434666271557646 ], [ 0.029059624574706, 51.434360168056273 ], [ 0.028942664409275, 51.434221042774219 ], [ 0.028629749466523, 51.434042064132328 ], [ 0.028610503714686, 51.434030709601984 ], [ 0.029134063997511, 51.433767130876689 ], [ 0.029633758731521, 51.433516637817775 ], [ 0.029923517993163, 51.433368582834447 ], [ 0.029888069044654, 51.433347619411698 ], [ 0.030079932181182, 51.433228320218454 ], [ 0.030193845680714, 51.433138151086908 ], [ 0.030299678325272, 51.433090466962227 ], [ 0.030527985141377, 51.433017286417922 ], [ 0.03114462883785, 51.432710728144706 ], [ 0.031383897963003, 51.432590605369924 ], [ 0.031407836969273, 51.432579401998581 ], [ 0.031073031722575, 51.432201128759672 ], [ 0.031173824493602, 51.432104083364763 ], [ 0.031376430311098, 51.432293958580473 ], [ 0.031456272185107, 51.432374388663852 ], [ 0.03155785896517, 51.432490403881104 ], [ 0.031613874534697, 51.432555153744204 ], [ 0.032185149723658, 51.432362654159988 ], [ 0.032244626180848, 51.43211519350632 ], [ 0.032477918605206, 51.431892679398828 ], [ 0.033249928154021, 51.432235403592429 ], [ 0.033726686401713, 51.431699210651324 ], [ 0.034672173435003, 51.43209375735308 ], [ 0.037235617180152, 51.433153622532672 ], [ 0.037695420226687, 51.43333532915004 ], [ 0.037724743202097, 51.433346507006036 ], [ 0.037653386768208, 51.43290802275623 ], [ 0.037616483768532, 51.43275852313154 ], [ 0.037577964774235, 51.432474104346177 ], [ 0.037576784068778, 51.432415596788452 ], [ 0.03756514969894, 51.43238073612914 ], [ 0.037513625683763, 51.432225197278626 ], [ 0.037511809755093, 51.432085786355216 ], [ 0.037544080031263, 51.431776761694366 ], [ 0.037530275517427, 51.431597191862771 ], [ 0.037629328277653, 51.431461421759693 ], [ 0.037547975149468, 51.431379224417029 ], [ 0.037638784539516, 51.431188845513944 ], [ 0.037678165162624, 51.431103560395258 ], [ 0.037745295764907, 51.430964838843508 ], [ 0.03783016394778, 51.430609048136802 ], [ 0.03784032386955, 51.43054683711059 ], [ 0.037858594838563, 51.43044034175346 ], [ 0.037945556722702, 51.430227553265411 ], [ 0.038041687249096, 51.430028900173546 ], [ 0.038196459990931, 51.429498287293306 ], [ 0.038138999891672, 51.429467819710204 ], [ 0.038145669759043, 51.429455117043986 ], [ 0.038247587684959, 51.429223997367288 ], [ 0.038324031281199, 51.429001501941165 ], [ 0.038301991209624, 51.42879950921337 ], [ 0.038358373656559, 51.428027863633211 ], [ 0.038292179705244, 51.427995659986131 ], [ 0.038192243847293, 51.427948849090093 ], [ 0.037857228168295, 51.427790147961296 ], [ 0.037862037288915, 51.427770285263151 ], [ 0.037883355558164, 51.42760170246887 ], [ 0.037901962522661, 51.427601378970856 ], [ 0.038489918712003, 51.427591155326674 ], [ 0.038462704734688, 51.427174379736748 ], [ 0.038596711481014, 51.426694474083277 ], [ 0.038639359811188, 51.426520215779277 ], [ 0.038688147042565, 51.426518468206503 ], [ 0.038798757885913, 51.426514746252771 ], [ 0.038845333834084, 51.426236938951348 ], [ 0.038852829342077, 51.42608298118801 ], [ 0.038966961914653, 51.426091784518491 ], [ 0.03896916611477, 51.426077361383051 ], [ 0.039030966717108, 51.425688706059624 ], [ 0.039047654909364, 51.42557873170319 ], [ 0.03905871378233, 51.425504817525862 ], [ 0.0390713505459, 51.425367854351023 ], [ 0.039065446636113, 51.425139512032679 ], [ 0.039055239958908, 51.424779985301868 ], [ 0.039054663393587, 51.424671211979437 ], [ 0.03885059323221, 51.424674761528458 ], [ 0.038692205408029, 51.424638857687626 ], [ 0.037494742354629, 51.423557997208938 ], [ 0.036211840099207, 51.422365327526393 ], [ 0.034986661094603, 51.423115092150177 ], [ 0.034592059049348, 51.423394440078901 ], [ 0.034362893338418, 51.42361238852984 ], [ 0.034027140465539, 51.423889814490643 ], [ 0.033790184472414, 51.424092703386258 ], [ 0.033543557601486, 51.424238131183081 ], [ 0.033266954379231, 51.424392259721287 ], [ 0.032920469122203, 51.424556500096948 ], [ 0.032532538835531, 51.424794370333437 ], [ 0.032361678501834, 51.424864760816185 ], [ 0.032187695361296, 51.424931609042567 ], [ 0.031494634253539, 51.425360057985884 ], [ 0.0312380769615, 51.425509249680516 ], [ 0.030806679907373, 51.425676845212841 ], [ 0.030318990547415, 51.425869598692849 ], [ 0.030110684974557, 51.425973090958465 ], [ 0.029974193305707, 51.426075249283137 ], [ 0.029606496376108, 51.426444023196737 ], [ 0.029146963291526, 51.426753250214475 ], [ 0.028469070454441, 51.427166947511253 ], [ 0.027240245674664, 51.428071339956013 ], [ 0.026935663336546, 51.428240323424511 ], [ 0.026087355118412, 51.428738765560915 ], [ 0.025436700877834, 51.428989245529905 ], [ 0.025366092614526, 51.428953604520565 ], [ 0.025107047660147, 51.428822233764016 ], [ 0.024485649199466, 51.428529898052417 ], [ 0.024231991812484, 51.428423695634727 ], [ 0.024029506859478, 51.428364258626964 ], [ 0.023744202881633, 51.428258511695063 ], [ 0.023733446624193, 51.428208350796538 ], [ 0.02350511356295, 51.42808732496011 ], [ 0.023219554952137, 51.427876392829653 ], [ 0.022974436709567, 51.42776464618283 ], [ 0.022554611645907, 51.42760727512519 ], [ 0.022290770850153, 51.427495850148638 ], [ 0.021919576179501, 51.427300777104222 ], [ 0.021697099861473, 51.427180545978899 ], [ 0.021540014196686, 51.42710953333664 ], [ 0.021564136441791, 51.427035305719592 ], [ 0.0214994611512, 51.427004954470171 ], [ 0.02116142812456, 51.426843560930763 ], [ 0.021068587880578, 51.426825382662429 ], [ 0.020938851249659, 51.426817729925681 ], [ 0.020931661425589, 51.426818752924667 ], [ 0.020228004069159, 51.426910896947497 ], [ 0.019988726441868, 51.42696626597651 ], [ 0.019716147899914, 51.427046482470224 ], [ 0.019521067458607, 51.427028266408882 ] ] ] } }
]
}
