{
"type": "FeatureCollection",
"name": "borough_Greenwich",
"crs": { "type": "name", "properties": { "name": "urn:ogc:def:crs:OGC:1.3:CRS84" } },
"features": [
{ "type": "Feature", "properties": { "DISTRICT": "Greenwich", "NAME": "Middle Park and Sutcliffe", "GSS_CODE": "E05000224", "LAGSSCODE": "E09000011", "HECTARES": 329.143, "NONLD_AREA": 0.0 }, "geometry": { "type": "Polygon", "coordinates": [ [ [ 0.073214498203018, 51.497856888751045 ], [ 0.073455031617612, 51.497919162911479 ], [ 0.073942691724695, 51.498060674574077 ], [ 0.074329052888927, 51.498192379085545 ], [ 0.074889270787947, 51.498377644024792 ], [ 0.075427445576478, 51.498616249048901 ], [ 0.075808820701351, 51.498797483125017 ], [ 0.07612924502574, 51.498968018066229 ], [ 0.076637981497296, 51.49922251181053 ], [ 0.077122724286476, 51.49949001466446 ], [ 0.07741338362972, 51.499671951393424 ], [ 0.077736276465208, 51.499896469227487 ], [ 0.078015919319073, 51.500120763826068 ], [ 0.078480724215813, 51.500487506646934 ], [ 0.078569485282671, 51.500571431608329 ], [ 0.07873063484569, 51.500724109576723 ], [ 0.079146009512564, 51.501111515769132 ], [ 0.079659099689521, 51.501557513658263 ], [ 0.080297556636635, 51.502163114378327 ], [ 0.081452687867929, 51.503227137427238 ], [ 0.082014171419704, 51.503850279517479 ], [ 0.082775381525345, 51.504744170420949 ], [ 0.08279670986038, 51.504768964923962 ], [ 0.083146129761346, 51.505193581733174 ], [ 0.083648651036818, 51.505786296076508 ], [ 0.084005939917286, 51.5063518316447 ], [ 0.084282540412636, 51.506760657570297 ], [ 0.08461891553292, 51.507153945121033 ], [ 0.084793831972022, 51.507323542257573 ], [ 0.084974362301733, 51.5074911512718 ], [ 0.085447462847798, 51.507846941490087 ], [ 0.085933813577984, 51.508240344085095 ], [ 0.08707909038387, 51.509050860798602 ], [ 0.087745033297899, 51.509465329616638 ], [ 0.088075118352224, 51.509686010012899 ], [ 0.088306521424137, 51.509798853915967 ], [ 0.089885027589144, 51.510562964656437 ], [ 0.090102670506814, 51.510657979900373 ], [ 0.090765042235549, 51.510928560224023 ], [ 0.090972708869045, 51.510995072313754 ], [ 0.091254277782019, 51.511069166453566 ], [ 0.09157430232093, 51.511134482490476 ], [ 0.09245372488596, 51.511331055913658 ], [ 0.093188226342304, 51.511445609919186 ], [ 0.093607299915441, 51.511499262733096 ], [ 0.094026177336143, 51.511551209405326 ], [ 0.094839862341895, 51.511632872366192 ], [ 0.095478321774498, 51.511663718560392 ], [ 0.096240001149109, 51.511678872520108 ], [ 0.096594155960212, 51.511703107801658 ], [ 0.098416628015132, 51.511845010248059 ], [ 0.099733541273806, 51.511899641105089 ], [ 0.100906039296938, 51.511917287697244 ], [ 0.102431320808303, 51.511737994147367 ], [ 0.103506421218789, 51.511643091540137 ], [ 0.104670359008941, 51.51159881887817 ], [ 0.105778854537547, 51.511540246785948 ], [ 0.106147107006548, 51.511524638725035 ], [ 0.106644891464476, 51.511504003955089 ], [ 0.106799012466772, 51.511503930593506 ], [ 0.107207037144053, 51.511505585399085 ], [ 0.107690402223487, 51.511517571627522 ], [ 0.108008466457103, 51.511539721806059 ], [ 0.108215587226954, 51.511560270715492 ], [ 0.108944630409338, 51.511650635581439 ], [ 0.109816007316254, 51.511763517530774 ], [ 0.110257013037948, 51.511825704285926 ], [ 0.111208882037134, 51.512057691031771 ], [ 0.112039063688203, 51.512276579287438 ], [ 0.112453003883045, 51.512375208321558 ], [ 0.113798874394856, 51.512680089045752 ], [ 0.114515019955294, 51.512832688235697 ], [ 0.115169606577958, 51.512962029657224 ], [ 0.116096635434329, 51.513092832888439 ], [ 0.116616358762919, 51.513142786640735 ], [ 0.117719884021053, 51.513412441243162 ], [ 0.118324556173287, 51.513584922943288 ], [ 0.119102075521293, 51.512728266460087 ], [ 0.120238854022862, 51.511445066189843 ], [ 0.12056316661029, 51.51104343258914 ], [ 0.120607127097136, 51.510095655815313 ], [ 0.12062796849183, 51.50976882952537 ], [ 0.120653369245003, 51.509445516993225 ], [ 0.120707241519847, 51.508959858297516 ], [ 0.120722824436791, 51.508706855773568 ], [ 0.120733959747938, 51.508450342050871 ], [ 0.120725508130322, 51.507833583311097 ], [ 0.120751538183208, 51.507401490048878 ], [ 0.120774164344542, 51.507018904775975 ], [ 0.120807890912037, 51.506629735606424 ], [ 0.12087564161505, 51.506070124907396 ], [ 0.120851318068649, 51.504927542916917 ], [ 0.120885274228435, 51.503796492915782 ], [ 0.120957110294414, 51.503079388644309 ], [ 0.120973278571797, 51.50243251629054 ], [ 0.120942870308782, 51.501964583524341 ], [ 0.120947441955458, 51.501661438936715 ], [ 0.120954730857131, 51.50135285102931 ], [ 0.121009953534161, 51.500771800133322 ], [ 0.121027054970605, 51.499746340381414 ], [ 0.121051245814333, 51.498840324599719 ], [ 0.12107295888293, 51.497354308609978 ], [ 0.121110147950849, 51.496293426656393 ], [ 0.121113126921532, 51.49620158325569 ], [ 0.12119208894719, 51.495203775615181 ], [ 0.121224268190493, 51.49369509404395 ], [ 0.121215572213521, 51.493290604152492 ], [ 0.121260707342791, 51.492587476157532 ], [ 0.121269169147668, 51.491342710424256 ], [ 0.121302732406544, 51.491103769910076 ], [ 0.121306253854318, 51.49108752363167 ], [ 0.121320516013856, 51.490555757960543 ], [ 0.121362320738602, 51.489780755328162 ], [ 0.121456826260898, 51.488994819888184 ], [ 0.121547654734824, 51.488748639844751 ], [ 0.121554655924308, 51.488651327794649 ], [ 0.121560195496601, 51.488553233058454 ], [ 0.121524145550156, 51.48802507453189 ], [ 0.121482443139972, 51.487840628373839 ], [ 0.12147207060631, 51.487740034513131 ], [ 0.121476102853351, 51.487640168973797 ], [ 0.121494916711031, 51.487518459224695 ], [ 0.121542365147156, 51.487330512131663 ], [ 0.121973187214841, 51.486124845761758 ], [ 0.121992447516518, 51.486074151395599 ], [ 0.122050234610739, 51.485860844045135 ], [ 0.122101292781231, 51.485564048402537 ], [ 0.1220973397218, 51.484456241955563 ], [ 0.122105028399146, 51.483599053900562 ], [ 0.122092883071661, 51.482994941571206 ], [ 0.122087101127019, 51.482747721338356 ], [ 0.122125520371331, 51.482426879204226 ], [ 0.122162504683977, 51.482231118964641 ], [ 0.122260106207806, 51.481849869217093 ], [ 0.122534307052886, 51.481241472701228 ], [ 0.122665723636074, 51.480846933963896 ], [ 0.123013893846798, 51.479970183073746 ], [ 0.12333020795122, 51.479093018849696 ], [ 0.123486008277778, 51.478694531112019 ], [ 0.123734731850242, 51.478065015654956 ], [ 0.123935952914693, 51.477468725391468 ], [ 0.124001204342281, 51.477291242130867 ], [ 0.124067764486485, 51.477113825019067 ], [ 0.124188224977377, 51.476823860806554 ], [ 0.124081220966829, 51.476813212831836 ], [ 0.123913483476268, 51.476985270503938 ], [ 0.123841913200214, 51.477054893796115 ], [ 0.123704356617611, 51.477163561733171 ], [ 0.123467191803919, 51.477328784897544 ], [ 0.122963450117192, 51.477583434018925 ], [ 0.122637947075459, 51.477738657319151 ], [ 0.122250583218447, 51.477894010461647 ], [ 0.121884265981301, 51.478067951088846 ], [ 0.121792617052466, 51.478111864363818 ], [ 0.121411775309367, 51.478251813011013 ], [ 0.121038387490624, 51.47839890774992 ], [ 0.120758407610867, 51.478511856583545 ], [ 0.120617702084948, 51.478550362955048 ], [ 0.120259973329718, 51.478599986102459 ], [ 0.119900291605971, 51.478610085858563 ], [ 0.11973092810603, 51.478622138197103 ], [ 0.119401146203026, 51.478682940934455 ], [ 0.119173530330724, 51.478714026127882 ], [ 0.119117744602664, 51.478722226664416 ], [ 0.118876393562983, 51.478797702190029 ], [ 0.118481771407547, 51.478919909452927 ], [ 0.118192651710826, 51.478679606135287 ], [ 0.117118332719426, 51.477779025852698 ], [ 0.116845934485048, 51.477494364628242 ], [ 0.116480785811584, 51.477134959033634 ], [ 0.116137148916829, 51.476806630346402 ], [ 0.11569145368795, 51.476325508171108 ], [ 0.115517076231051, 51.476164940196583 ], [ 0.115367305882684, 51.476040878385604 ], [ 0.11510668264596, 51.475794659357014 ], [ 0.115076600640059, 51.475765533844381 ], [ 0.115052836747549, 51.475749779888474 ], [ 0.114659883288422, 51.475535615223016 ], [ 0.114373166750099, 51.475377161772712 ], [ 0.11405210198471, 51.47519226603589 ], [ 0.113829280100311, 51.474921088958595 ], [ 0.113777452618532, 51.474858191876891 ], [ 0.113540124398818, 51.474553112464449 ], [ 0.113251762553994, 51.474202202624582 ], [ 0.11309467359358, 51.473983781459246 ], [ 0.113033025240342, 51.473895888078751 ], [ 0.112869805269699, 51.473729721138518 ], [ 0.112587361465452, 51.473475798814853 ], [ 0.112554690313642, 51.473454810667633 ], [ 0.112492396927834, 51.473414577480682 ], [ 0.112265325345227, 51.473269428846422 ], [ 0.112002947286828, 51.473074479934468 ], [ 0.111799670638161, 51.473195016086429 ], [ 0.111693147645097, 51.473289625231253 ], [ 0.111261473043011, 51.473544723861899 ], [ 0.110912400180552, 51.473781162126869 ], [ 0.110843929292766, 51.473828245652513 ], [ 0.110715728621478, 51.473921446085015 ], [ 0.110594884361648, 51.474017121144684 ], [ 0.110398274536303, 51.474187071577809 ], [ 0.110060580090607, 51.474513295747634 ], [ 0.10978099556537, 51.474758369283464 ], [ 0.109408181352565, 51.475013300703381 ], [ 0.109000958261215, 51.4752688498452 ], [ 0.108749382108984, 51.475464959066088 ], [ 0.108504542193533, 51.475745366084709 ], [ 0.108325158070275, 51.476008502875658 ], [ 0.108257623443896, 51.476106902922098 ], [ 0.108252840347576, 51.476126767693373 ], [ 0.108193053635507, 51.476112559134798 ], [ 0.107693752384889, 51.475996480215478 ], [ 0.10769023131523, 51.475920125563533 ], [ 0.107575736193987, 51.47584216965393 ], [ 0.107427044919581, 51.475771930668024 ], [ 0.107363494798462, 51.475735313468554 ], [ 0.107300125949389, 51.475671721936891 ], [ 0.107227242556468, 51.47555885446684 ], [ 0.107187486662587, 51.475479465026261 ], [ 0.107085836511421, 51.475396782692691 ], [ 0.106925012438504, 51.475346629836686 ], [ 0.106405762639657, 51.475140101666 ], [ 0.10618969612423, 51.475014522397544 ], [ 0.105663306789854, 51.475467290740497 ], [ 0.105218304739119, 51.475246028272835 ], [ 0.10491862798042, 51.475524714970327 ], [ 0.10484139234604, 51.475505423777648 ], [ 0.104715967378922, 51.475378214552663 ], [ 0.104511378521398, 51.475218173001636 ], [ 0.10415428736547, 51.475031289884164 ], [ 0.103883691609667, 51.474848157928029 ], [ 0.103739030700247, 51.474769840658247 ], [ 0.103404159215726, 51.474598649297462 ], [ 0.103318301342549, 51.474577713737247 ], [ 0.103299308907847, 51.474572660249258 ], [ 0.103168211263003, 51.474572314876568 ], [ 0.103114878887795, 51.474600242553016 ], [ 0.10310341256453, 51.474601347265661 ], [ 0.102700074600543, 51.474818146169241 ], [ 0.102577728628495, 51.47488417164098 ], [ 0.102576222346752, 51.474882400586658 ], [ 0.102497527666664, 51.474924268296284 ], [ 0.102028916278685, 51.474473174796003 ], [ 0.101848734571279, 51.474469212774608 ], [ 0.101771730595233, 51.474485876759765 ], [ 0.101724689472672, 51.474495710354816 ], [ 0.101467396403054, 51.474694603345206 ], [ 0.101455687091944, 51.474814384628033 ], [ 0.100973454380656, 51.474975952470295 ], [ 0.100226396281553, 51.475234772897402 ], [ 0.099809358787715, 51.475308860865525 ], [ 0.099269530446926, 51.475408430892848 ], [ 0.098740068797476, 51.475449375724452 ], [ 0.098251011130986, 51.47546262406599 ], [ 0.098194217838974, 51.475355756495269 ], [ 0.098124423313336, 51.475213969373733 ], [ 0.098048163271572, 51.475122733635537 ], [ 0.097508707350666, 51.474663809626399 ], [ 0.097361090055808, 51.474520807037266 ], [ 0.097112492378966, 51.474156560443909 ], [ 0.096936788714883, 51.474094882714517 ], [ 0.096830814617857, 51.473886404323629 ], [ 0.09658750992127, 51.473259454486239 ], [ 0.096576025285105, 51.47322909273646 ], [ 0.095691391963258, 51.473250302286054 ], [ 0.095381439120671, 51.473274721685556 ], [ 0.095034922601399, 51.473286308116677 ], [ 0.094674116459326, 51.47326848073628 ], [ 0.094498663422235, 51.473274312240939 ], [ 0.094237424389583, 51.473229531905034 ], [ 0.094024688002524, 51.473175703551476 ], [ 0.09387319945227, 51.473137053519814 ], [ 0.093616792108839, 51.473073305833822 ], [ 0.093198069057376, 51.472952220314355 ], [ 0.092866759537571, 51.472730589523294 ], [ 0.092718212288542, 51.472631650323066 ], [ 0.092508224889748, 51.47254180886209 ], [ 0.092165644813235, 51.472449927833722 ], [ 0.091999466338345, 51.472375576217466 ], [ 0.091963053733407, 51.472334870413022 ], [ 0.091887827861815, 51.472328121301551 ], [ 0.091771421529277, 51.472269873048425 ], [ 0.091568847247321, 51.472186280788563 ], [ 0.091425310342747, 51.472100736067787 ], [ 0.091291069889148, 51.472062674078224 ], [ 0.091325124268899, 51.472020711162585 ], [ 0.09130602837292, 51.471979606374077 ], [ 0.091247506665851, 51.471959073416777 ], [ 0.09122316268147, 51.471899272441298 ], [ 0.091123552709414, 51.47183182354452 ], [ 0.09113488066292, 51.47179655923901 ], [ 0.091211129723537, 51.471732267010424 ], [ 0.090902657008817, 51.471534497260002 ], [ 0.090559985129658, 51.471315759712944 ], [ 0.090130115629472, 51.471046431769537 ], [ 0.089858261881362, 51.470865178003216 ], [ 0.089570560353901, 51.470713784221992 ], [ 0.089074701009729, 51.470418657510592 ], [ 0.088923718177928, 51.470390780497041 ], [ 0.088618089692547, 51.470319807584666 ], [ 0.088129068731865, 51.470205350514298 ], [ 0.0876237810913, 51.470082999852529 ], [ 0.087295225374334, 51.470014229795751 ], [ 0.087028884228467, 51.46995334171568 ], [ 0.086635968989492, 51.46979841937744 ], [ 0.086371272217937, 51.469677265371757 ], [ 0.086045459717892, 51.469543622773223 ], [ 0.085789917295015, 51.46943309297545 ], [ 0.085471920062374, 51.469090734237376 ], [ 0.085203588889295, 51.468796039092467 ], [ 0.085133423592802, 51.468710080810361 ], [ 0.084823490621413, 51.46873177494313 ], [ 0.084558741945857, 51.468325444701009 ], [ 0.084360512884853, 51.468021409939155 ], [ 0.084004763717682, 51.467545762529376 ], [ 0.0835695718919, 51.466936581230399 ], [ 0.083244942933055, 51.466479168572626 ], [ 0.082322217105808, 51.466641293455538 ], [ 0.08230057947043, 51.466609312607716 ], [ 0.082249532745231, 51.466531104413725 ], [ 0.082216687299542, 51.466412026617071 ], [ 0.082231016414376, 51.466061958863371 ], [ 0.082227373176173, 51.465697825767982 ], [ 0.082172070534555, 51.465114257392408 ], [ 0.082202371369504, 51.46473693495993 ], [ 0.082215597969944, 51.464646796855007 ], [ 0.082495919131534, 51.464131886975331 ], [ 0.082611711631316, 51.463893294774806 ], [ 0.082656549656935, 51.463613708389708 ], [ 0.082629084283251, 51.463263483805683 ], [ 0.082557531356532, 51.462987763004229 ], [ 0.082438397019153, 51.462647257970367 ], [ 0.082401942964233, 51.462542718698195 ], [ 0.082334318324572, 51.46219680345726 ], [ 0.08230594101188, 51.46192031561057 ], [ 0.08229308455274, 51.461606691747861 ], [ 0.082290303086447, 51.461545606945634 ], [ 0.082253693405935, 51.461184756233337 ], [ 0.082253950551348, 51.461096556579939 ], [ 0.082257495699661, 51.460984114552026 ], [ 0.082271130345108, 51.460902959456462 ], [ 0.082300771887663, 51.460795358202539 ], [ 0.082338106106829, 51.460700296659567 ], [ 0.082436424791545, 51.46051865385671 ], [ 0.082506213292128, 51.460343900891594 ], [ 0.082682514797029, 51.460073666404625 ], [ 0.082904880293612, 51.459834978387043 ], [ 0.080851651822887, 51.459575571726688 ], [ 0.079415329952056, 51.459392486553654 ], [ 0.078663653813293, 51.459293350589469 ], [ 0.078694135110694, 51.459266738088274 ], [ 0.078853248526815, 51.459124566181202 ], [ 0.079527957286066, 51.458640425781134 ], [ 0.079638058639288, 51.458561155527647 ], [ 0.079779162660512, 51.458623382182793 ], [ 0.080447741743482, 51.458226641077331 ], [ 0.080806661050516, 51.458046666527274 ], [ 0.080893963302097, 51.458003761110902 ], [ 0.081446357780543, 51.457774588706059 ], [ 0.082232426008466, 51.45752409277889 ], [ 0.083022479406688, 51.457298694584537 ], [ 0.08392881786304, 51.457065020567256 ], [ 0.085012725221989, 51.456811009828883 ], [ 0.085710542168183, 51.456645670882963 ], [ 0.085706241003703, 51.456551348849992 ], [ 0.085748925183171, 51.456446301482927 ], [ 0.085849800399027, 51.45619628338028 ], [ 0.08603093266546, 51.455780313820696 ], [ 0.08604806521381, 51.455619890982412 ], [ 0.086057508896343, 51.455543305035071 ], [ 0.086085581527586, 51.455401567221074 ], [ 0.086084796251911, 51.455256836700073 ], [ 0.08611191545729, 51.455062971855803 ], [ 0.086214305775221, 51.454846280544672 ], [ 0.086271316642916, 51.454706724762339 ], [ 0.086293417704307, 51.454561586911353 ], [ 0.086325117126349, 51.454340669440057 ], [ 0.086415576669772, 51.453766194750614 ], [ 0.086462059635917, 51.453398471463238 ], [ 0.086534883067037, 51.452942173898663 ], [ 0.086602617039181, 51.452470593345389 ], [ 0.086634291354642, 51.452186743713256 ], [ 0.086670960463021, 51.451887521554326 ], [ 0.086680484429397, 51.451812732136382 ], [ 0.086743419387306, 51.451550801826109 ], [ 0.086836182060972, 51.450964598012213 ], [ 0.086857094339445, 51.450699819557109 ], [ 0.086822739857641, 51.450451398479601 ], [ 0.087063914698531, 51.449963243966025 ], [ 0.087435556371672, 51.449497129433333 ], [ 0.087859420367746, 51.448662198131203 ], [ 0.087914507314217, 51.448418387417448 ], [ 0.087934926503117, 51.448171598050394 ], [ 0.088065713310541, 51.44750649923094 ], [ 0.088067004066575, 51.447092829898111 ], [ 0.088032054674653, 51.446800276917145 ], [ 0.08793617880074, 51.44658972244072 ], [ 0.087793190775559, 51.446423250673064 ], [ 0.087558506863662, 51.44623135088667 ], [ 0.087379399649388, 51.446089795868758 ], [ 0.087381492689244, 51.445945822968937 ], [ 0.087381334355078, 51.445848729924116 ], [ 0.087307618359053, 51.445746653552291 ], [ 0.087094054049924, 51.445609217955855 ], [ 0.086923837979554, 51.4455376287384 ], [ 0.086837979028783, 51.445452849960432 ], [ 0.086721008803715, 51.445411778711126 ], [ 0.086582021391749, 51.44539267614914 ], [ 0.086382635176519, 51.445344890457555 ], [ 0.086320731451578, 51.445311828973459 ], [ 0.086415009566093, 51.444982811937365 ], [ 0.086530952677587, 51.444683976346369 ], [ 0.086697900102005, 51.444400415243123 ], [ 0.086830964086353, 51.444131032581012 ], [ 0.0869505943528, 51.443915741186359 ], [ 0.087245511831077, 51.44356606904811 ], [ 0.087406543272612, 51.443246650707941 ], [ 0.086939652603182, 51.44326485413206 ], [ 0.086476891135633, 51.443246121711915 ], [ 0.086346897196927, 51.443236748230973 ], [ 0.085774582784524, 51.442993316115931 ], [ 0.085565458691657, 51.442950287499997 ], [ 0.085309589214991, 51.4428630484962 ], [ 0.085331073808455, 51.442829401929288 ], [ 0.085018884087205, 51.442735162895637 ], [ 0.085017420515869, 51.442734289895277 ], [ 0.08473834371878, 51.442611590970017 ], [ 0.084374704300561, 51.442872485380519 ], [ 0.083692896962428, 51.443259685832935 ], [ 0.083242455627203, 51.443542797486678 ], [ 0.083058750093053, 51.443427389794223 ], [ 0.082836596715222, 51.443288391100367 ], [ 0.082970133159893, 51.443187933310291 ], [ 0.082999301353295, 51.443164040031483 ], [ 0.0831241866833, 51.443063825704222 ], [ 0.082958311304754, 51.442928232296353 ], [ 0.082852188392121, 51.442841113695124 ], [ 0.082939982753539, 51.442778419118895 ], [ 0.083250557642548, 51.442647034472557 ], [ 0.084441876271401, 51.442010733398881 ], [ 0.084196130788901, 51.4417965473815 ], [ 0.083264953415391, 51.441097288141258 ], [ 0.082967936333758, 51.440864232171819 ], [ 0.082816291349419, 51.440725688279002 ], [ 0.08260019825213, 51.440560509131643 ], [ 0.081859431041074, 51.439998105644342 ], [ 0.08181175973326, 51.439962091873547 ], [ 0.081668550887435, 51.440040154865038 ], [ 0.081352961171193, 51.440188797471137 ], [ 0.080877937788461, 51.44040581026583 ], [ 0.080442064819784, 51.440030469538762 ], [ 0.080430075779616, 51.440019893937631 ], [ 0.080513117066708, 51.43997796294795 ], [ 0.080319060377151, 51.43982488569327 ], [ 0.080072581850923, 51.439625179561986 ], [ 0.080059088802454, 51.43961283254496 ], [ 0.080159237075451, 51.439568800070219 ], [ 0.080222574334995, 51.439537108463284 ], [ 0.080130518852159, 51.439443354698398 ], [ 0.079985555074814, 51.439294889562419 ], [ 0.079970149683545, 51.439271788028577 ], [ 0.079963969624802, 51.439261109272209 ], [ 0.080055626824942, 51.439220823744037 ], [ 0.079837836259906, 51.43902051798834 ], [ 0.079804874802161, 51.438989636688099 ], [ 0.079790045072071, 51.438981808551418 ], [ 0.079729496020628, 51.438946921667728 ], [ 0.079632660869756, 51.438907194591998 ], [ 0.079514741001712, 51.438876022845221 ], [ 0.079608206091781, 51.438747599901575 ], [ 0.079485847555457, 51.438652675231985 ], [ 0.079279440460538, 51.43847823852429 ], [ 0.079172896116435, 51.438415398276341 ], [ 0.079089502739912, 51.438321579907658 ], [ 0.078841494501403, 51.438150577634289 ], [ 0.078816299694933, 51.438133942876604 ], [ 0.078876549996963, 51.43809960963619 ], [ 0.079028813581803, 51.437998913218834 ], [ 0.079062370438755, 51.437977639992305 ], [ 0.078930403787533, 51.437796487696424 ], [ 0.078858984755936, 51.43765022263856 ], [ 0.078711818321416, 51.437419083538003 ], [ 0.078527472736992, 51.437192109969459 ], [ 0.078461317259713, 51.437130350748099 ], [ 0.078444817290679, 51.437114460728132 ], [ 0.078340660335133, 51.437007434633003 ], [ 0.078165387370182, 51.43679207697658 ], [ 0.077992961928725, 51.436608044978541 ], [ 0.077846180250187, 51.436447921942786 ], [ 0.077330707758216, 51.436630575317508 ], [ 0.077103190807445, 51.436688550627409 ], [ 0.076955878936562, 51.436741507803383 ], [ 0.076570776849874, 51.43687968216225 ], [ 0.076538108198535, 51.436857785134691 ], [ 0.076026330221712, 51.436517936540312 ], [ 0.075927017942266, 51.436452178215873 ], [ 0.075028114476388, 51.435889029108488 ], [ 0.074986549815295, 51.435861894953327 ], [ 0.075477051094249, 51.435510495277548 ], [ 0.075674609305678, 51.435362250967884 ], [ 0.07603234625257, 51.435128367260496 ], [ 0.076433025921844, 51.434889316221678 ], [ 0.076444360630103, 51.434885519220629 ], [ 0.076529344565029, 51.434855154165312 ], [ 0.075915770673, 51.434459570507137 ], [ 0.076316344338037, 51.434092768414729 ], [ 0.076414446835076, 51.434003823424703 ], [ 0.075938544023044, 51.43375593972489 ], [ 0.075722110188436, 51.433647394164133 ], [ 0.075680868573591, 51.433627356947966 ], [ 0.076106217257583, 51.433299674615107 ], [ 0.075918848228565, 51.433036879104826 ], [ 0.075655887057416, 51.432854447682118 ], [ 0.075450132426505, 51.432696175507431 ], [ 0.075073330476318, 51.432412459657343 ], [ 0.074930113155065, 51.432333093433201 ], [ 0.074858852869346, 51.432315475451347 ], [ 0.074810827766964, 51.432271373941973 ], [ 0.074713236999085, 51.432183198140592 ], [ 0.074678820312892, 51.432151442155607 ], [ 0.07533367644438, 51.431998607275922 ], [ 0.075369263769386, 51.431990784695593 ], [ 0.075208253730502, 51.431613253541094 ], [ 0.074861985625699, 51.430830749732593 ], [ 0.074330824760989, 51.431490337480184 ], [ 0.074048327012886, 51.43157265517037 ], [ 0.073353904939508, 51.431773742025399 ], [ 0.073061165881676, 51.431378759875294 ], [ 0.073497502396763, 51.43125955906244 ], [ 0.072263712244795, 51.429938762338423 ], [ 0.071968845928778, 51.429653497612748 ], [ 0.071662533539672, 51.429434963274829 ], [ 0.071256776334121, 51.429210094645143 ], [ 0.070314957672093, 51.428679944059652 ], [ 0.070151125227195, 51.428587540597981 ], [ 0.069954796024695, 51.428476831185847 ], [ 0.068567471935476, 51.427607417344618 ], [ 0.067738396103643, 51.427150774960211 ], [ 0.06696088851134, 51.426722076204875 ], [ 0.066429956951813, 51.426337572187819 ], [ 0.066605289037042, 51.42601523186368 ], [ 0.064740298359933, 51.425617287825183 ], [ 0.06480480873781, 51.425514560481489 ], [ 0.0642199912321, 51.425370226573541 ], [ 0.064222754353031, 51.425368379867436 ], [ 0.064462998267701, 51.425049400136508 ], [ 0.064029743019216, 51.424789028839143 ], [ 0.063554864697753, 51.424465557605799 ], [ 0.063505882262087, 51.424399801856623 ], [ 0.063414015290449, 51.424308818997993 ], [ 0.063367877343909, 51.42427456897974 ], [ 0.063289734058802, 51.424232790979545 ], [ 0.063228037711026, 51.424203309860154 ], [ 0.062966304129107, 51.424108932898946 ], [ 0.061733934749922, 51.423734950046892 ], [ 0.061363250809859, 51.424062511134871 ], [ 0.060925758550978, 51.425079181465797 ], [ 0.060670230969961, 51.425059399482549 ], [ 0.059862198096136, 51.4248749145939 ], [ 0.059279880555284, 51.424722330731342 ], [ 0.059178257819525, 51.424701640030392 ], [ 0.059031551231543, 51.424670053704617 ], [ 0.058857581169103, 51.424670411968478 ], [ 0.058756888440316, 51.424670382209676 ], [ 0.058622379285654, 51.424590932686563 ], [ 0.058225517834206, 51.424882982580819 ], [ 0.057806635644258, 51.425162831294273 ], [ 0.056440852060271, 51.426140046659825 ], [ 0.056417205769846, 51.426157543281711 ], [ 0.056011075118255, 51.426500099962247 ], [ 0.054853004920282, 51.427522210095212 ], [ 0.054737269414488, 51.427668085888399 ], [ 0.054444066922403, 51.42793223963119 ], [ 0.053917729881893, 51.428448704189478 ], [ 0.053484916356559, 51.428995804065927 ], [ 0.052952989326597, 51.429647309605549 ], [ 0.052480028548391, 51.430167239244341 ], [ 0.052182142257592, 51.430486312027348 ], [ 0.051361001575193, 51.431262448174053 ], [ 0.051075142684733, 51.431529972560433 ], [ 0.050174286616837, 51.432134789776192 ], [ 0.049562019278779, 51.43253316772212 ], [ 0.04927824850338, 51.432717939454768 ], [ 0.048394810158846, 51.433326036104013 ], [ 0.047811093973275, 51.433753483803365 ], [ 0.047130399250031, 51.434392189472064 ], [ 0.04664983514934, 51.434843091996775 ], [ 0.04644099144098, 51.435032840884404 ], [ 0.046224378221046, 51.435239896772423 ], [ 0.045828360366225, 51.435650570774776 ], [ 0.045173201678449, 51.436219591679603 ], [ 0.045174360271477, 51.436404864673634 ], [ 0.045209070879626, 51.436602948024174 ], [ 0.04491079162598, 51.436785353798342 ], [ 0.044345213598502, 51.437169311712267 ], [ 0.043612781231072, 51.437653272593778 ], [ 0.043337862060834, 51.43774536242433 ], [ 0.043251487517413, 51.437875431385727 ], [ 0.042969669063367, 51.43829947780538 ], [ 0.042938639617269, 51.438345869845683 ], [ 0.042738442263104, 51.438631748472368 ], [ 0.042524299588607, 51.438990692256361 ], [ 0.04249342950847, 51.439040677558474 ], [ 0.042339542800482, 51.439269108697729 ], [ 0.042210891125715, 51.439480827283127 ], [ 0.041979791554941, 51.439653963257967 ], [ 0.041427454586292, 51.439950468099859 ], [ 0.040972648662795, 51.440204725328435 ], [ 0.040143167943624, 51.44070932238062 ], [ 0.040103197787309, 51.440746878749408 ], [ 0.040124732759013, 51.440812134114985 ], [ 0.040025586157475, 51.440879579572069 ], [ 0.039840387979449, 51.44098619221991 ], [ 0.039774636208438, 51.440996326751105 ], [ 0.039643030719968, 51.441046265888211 ], [ 0.039349906581972, 51.441151159301754 ], [ 0.039075797930796, 51.441264801535716 ], [ 0.038841574210877, 51.441336303574523 ], [ 0.03851621644846, 51.44139950044498 ], [ 0.038324344579849, 51.441452284106759 ], [ 0.037921684262841, 51.441652668649454 ], [ 0.037622519477011, 51.441784633879905 ], [ 0.037018592518224, 51.44192288326056 ], [ 0.036979299388869, 51.441978407572662 ], [ 0.036847088152383, 51.44201486836608 ], [ 0.036802527576135, 51.442048008088406 ], [ 0.036727839168494, 51.442052002847632 ], [ 0.036593677302365, 51.442140641658163 ], [ 0.036199720713597, 51.442310299893549 ], [ 0.036073516589627, 51.44235115015907 ], [ 0.036005956297284, 51.442387385700961 ], [ 0.035961379188616, 51.442388159874888 ], [ 0.03592261132915, 51.442388833145394 ], [ 0.035757480320697, 51.442429460064304 ], [ 0.035569693443476, 51.442446206319126 ], [ 0.035515093921507, 51.442480418476435 ], [ 0.035505256238966, 51.442485983471634 ], [ 0.035283616562952, 51.442613987711482 ], [ 0.035266626717444, 51.442621474917786 ], [ 0.035158129420419, 51.442671007109254 ], [ 0.034863521439272, 51.442777711619783 ], [ 0.034641598994956, 51.442899426368506 ], [ 0.034632280048134, 51.44291666968725 ], [ 0.034596891549827, 51.44296403346565 ], [ 0.034335476502439, 51.443070160597237 ], [ 0.034322674586095, 51.443075776934407 ], [ 0.034155851453158, 51.443142502888023 ], [ 0.034057833308766, 51.443203629554453 ], [ 0.03401575549406, 51.443228633461494 ], [ 0.033997660580323, 51.443240634814899 ], [ 0.033965753883809, 51.443299625399206 ], [ 0.033861324748416, 51.443443484061234 ], [ 0.033665015303568, 51.443495527275701 ], [ 0.033623375875571, 51.443530412779474 ], [ 0.033610931685444, 51.443541417019908 ], [ 0.033496660731078, 51.44359194689639 ], [ 0.03340327681081, 51.443597162832759 ], [ 0.033206576573408, 51.443672496967793 ], [ 0.033113696614212, 51.44365432913262 ], [ 0.033094923179081, 51.443651058593225 ], [ 0.03299736388748, 51.443690509793406 ], [ 0.032729813222944, 51.443792244665374 ], [ 0.03255257940991, 51.443819681441177 ], [ 0.032311376651922, 51.443894886648508 ], [ 0.032120670497149, 51.443944942207409 ], [ 0.031684546273989, 51.444007341896366 ], [ 0.031360141869042, 51.444154199049073 ], [ 0.031311933399026, 51.444172115635098 ], [ 0.031027200465962, 51.44420761400746 ], [ 0.030785305581084, 51.444237874764113 ], [ 0.030611798561997, 51.444317296690052 ], [ 0.030526827945693, 51.444314272712987 ], [ 0.03035095867041, 51.444308327200929 ], [ 0.030004393379691, 51.443275675813659 ], [ 0.029598954658115, 51.442116289139705 ], [ 0.029600050355213, 51.441977728234008 ], [ 0.029600358074984, 51.441952549810175 ], [ 0.029602500378825, 51.441741238512336 ], [ 0.029385097369189, 51.441705442993218 ], [ 0.028921200970058, 51.441627970870002 ], [ 0.028906696650901, 51.44162462564347 ], [ 0.028674870869695, 51.441589977387871 ], [ 0.028589349098167, 51.441577072116083 ], [ 0.028242127318218, 51.441532731527687 ], [ 0.027793627438443, 51.441510819033958 ], [ 0.027307205898787, 51.441543502669255 ], [ 0.026878560173882, 51.441578781897377 ], [ 0.026688365463824, 51.441605443851316 ], [ 0.026243991287108, 51.441644588688106 ], [ 0.025442303569854, 51.441738451399459 ], [ 0.025030459145026, 51.441796898481357 ], [ 0.024699069067396, 51.441852966198994 ], [ 0.02444363137001, 51.441901428639746 ], [ 0.024199851870434, 51.441953285438316 ], [ 0.023664597455514, 51.44208389253059 ], [ 0.023285241909326, 51.442193017765987 ], [ 0.022802233520474, 51.442367670312812 ], [ 0.022100412482309, 51.44257405363291 ], [ 0.021580004950311, 51.442716081789172 ], [ 0.021508951984915, 51.442735287147279 ], [ 0.021124260579067, 51.443409268081638 ], [ 0.020622866812193, 51.444211032834296 ], [ 0.021509395406824, 51.444441280792304 ], [ 0.02152247734919, 51.444444651426977 ], [ 0.02144714777248, 51.444660009095067 ], [ 0.021289077449463, 51.444992767729246 ], [ 0.02128820446365, 51.44523372303599 ], [ 0.021259984666725, 51.445701885202482 ], [ 0.021236035498965, 51.446691501406299 ], [ 0.021557844235378, 51.446777655960005 ], [ 0.022777122688532, 51.447141597838396 ], [ 0.022968348069645, 51.447204827807091 ], [ 0.022846144811163, 51.447433491327153 ], [ 0.022704655005107, 51.447652687910612 ], [ 0.022485449012872, 51.448033251968674 ], [ 0.022427724716045, 51.448126038410805 ], [ 0.02231972816361, 51.44825736107596 ], [ 0.022222731361604, 51.44843892957946 ], [ 0.022205238011636, 51.448531831338897 ], [ 0.022166526889778, 51.448665555302433 ], [ 0.022157370240485, 51.448718845876279 ], [ 0.021953542091806, 51.448958805094307 ], [ 0.021593321294086, 51.449013562498855 ], [ 0.020493125733928, 51.449130605873947 ], [ 0.019191464191557, 51.449280685762943 ], [ 0.018011336428951, 51.449412567409965 ], [ 0.017319849030873, 51.449527852024453 ], [ 0.01508964024158, 51.450031979552755 ], [ 0.014901828435566, 51.450604471702071 ], [ 0.015035032046107, 51.450621962079914 ], [ 0.015148659625798, 51.450227043943514 ], [ 0.019864258797956, 51.450732271867977 ], [ 0.019897500876083, 51.450735295470935 ], [ 0.019770789293532, 51.451123251125701 ], [ 0.019736528195698, 51.451196662509467 ], [ 0.019665520070528, 51.451349012130137 ], [ 0.019561845717419, 51.451705104775428 ], [ 0.019314996161936, 51.451688677537042 ], [ 0.018357514232576, 51.451582801370584 ], [ 0.018356289517533, 51.451590014678928 ], [ 0.01806740098704, 51.453002415585779 ], [ 0.018035939392933, 51.453039817115794 ], [ 0.017953886125393, 51.453138324047828 ], [ 0.017884804205813, 51.453267264622802 ], [ 0.017729485027686, 51.45359637413943 ], [ 0.017629852582813, 51.453818440081982 ], [ 0.01753338263082, 51.454112283908657 ], [ 0.017528055435834, 51.454187983849039 ], [ 0.017520907552275, 51.454286999946902 ], [ 0.017504271037705, 51.454364602581784 ], [ 0.017488424249266, 51.454430504257864 ], [ 0.017464483136062, 51.454573951519791 ], [ 0.017463970678617, 51.454594637990027 ], [ 0.017454451569062, 51.454704483207472 ], [ 0.017478133263918, 51.454751724352995 ], [ 0.017498616666237, 51.454793716242335 ], [ 0.017539705751628, 51.455039343219902 ], [ 0.017505473088744, 51.455046225291156 ], [ 0.016050144177009, 51.455338351994328 ], [ 0.015341962752666, 51.455470183765158 ], [ 0.014839056529424, 51.455555241187128 ], [ 0.014420982118535, 51.455639738042876 ], [ 0.014222973354863, 51.455687190700502 ], [ 0.014056312031652, 51.455726912561595 ], [ 0.013554353386289, 51.455865979123743 ], [ 0.013186082103018, 51.455968496198999 ], [ 0.013004791570201, 51.456037236515726 ], [ 0.012632488060743, 51.456177670097688 ], [ 0.012314296955812, 51.4563071949772 ], [ 0.011941000166131, 51.456460229754491 ], [ 0.011726102928818, 51.456550222112192 ], [ 0.011544729062246, 51.456614466425087 ], [ 0.011541922272745, 51.456615413584949 ], [ 0.011510332438255, 51.456685180422255 ], [ 0.011509540940543, 51.456699578436094 ], [ 0.011511043083461, 51.456766170619396 ], [ 0.011507280866133, 51.456877714550856 ], [ 0.011440625065956, 51.45696516419958 ], [ 0.011401090124434, 51.457016187662589 ], [ 0.011282488900463, 51.457166650724297 ], [ 0.011259400227064, 51.457197613539208 ], [ 0.011024561633138, 51.45751998545574 ], [ 0.010821819288067, 51.457854393051683 ], [ 0.010670909387808, 51.458088119794105 ], [ 0.01046859344019, 51.458464773686508 ], [ 0.010336736988258, 51.4586730006327 ], [ 0.010139556919839, 51.459034282442261 ], [ 0.009973096932526, 51.459341095910517 ], [ 0.009929155488887, 51.459554019237935 ], [ 0.009892801522996, 51.45983972363549 ], [ 0.009849437819439, 51.460295554126091 ], [ 0.009772773174936, 51.460876919861796 ], [ 0.009790459515953, 51.461149921031982 ], [ 0.009830331534657, 51.461401055333397 ], [ 0.009848848016809, 51.461725376685507 ], [ 0.00986957746097, 51.46206494355949 ], [ 0.009850623117409, 51.462290114914566 ], [ 0.009821271408014, 51.462505575104672 ], [ 0.009745221712827, 51.462773978891924 ], [ 0.009643431455163, 51.463013065813961 ], [ 0.009558287381759, 51.46327173596076 ], [ 0.009405957626148, 51.463638541074097 ], [ 0.009335722460056, 51.463842115024299 ], [ 0.0093054603235, 51.464036913007789 ], [ 0.009294740435639, 51.464087442108351 ], [ 0.009146479022819, 51.46444968200489 ], [ 0.009074505600135, 51.464581273521588 ], [ 0.009043305725753, 51.464657415986984 ], [ 0.009013643519233, 51.464736139285058 ], [ 0.009013116873044, 51.46485392075968 ], [ 0.009093436056699, 51.465109756618475 ], [ 0.009164390456178, 51.465317205389042 ], [ 0.009199712734837, 51.465564731665992 ], [ 0.009141844394221, 51.465820237134714 ], [ 0.00912262262053, 51.465874507921257 ], [ 0.00996875842863, 51.465995856011581 ], [ 0.010510364570355, 51.466067487159108 ], [ 0.010779468470256, 51.4660970377372 ], [ 0.010939008743273, 51.466123970805391 ], [ 0.011328314794363, 51.466200995857434 ], [ 0.011485048355934, 51.466228875333542 ], [ 0.011622169773212, 51.466269677285396 ], [ 0.011834020049517, 51.466341562445862 ], [ 0.01211510649908, 51.466478877529305 ], [ 0.012508601582178, 51.466653730793645 ], [ 0.012771936389302, 51.466713942679569 ], [ 0.012863075945964, 51.466724066211142 ], [ 0.012999883821262, 51.466757679725994 ], [ 0.013179161655017, 51.46680683661863 ], [ 0.013270973429824, 51.466832231746345 ], [ 0.013167020286558, 51.466957182389557 ], [ 0.013038195897434, 51.467072670446413 ], [ 0.012790357010665, 51.467264909693426 ], [ 0.01271669155849, 51.46735787445671 ], [ 0.012692415398499, 51.467491436967443 ], [ 0.012718351969809, 51.467624947074967 ], [ 0.012805502227462, 51.467738617182732 ], [ 0.013002335174393, 51.467892569495504 ], [ 0.013078648464292, 51.467991951006184 ], [ 0.013094467803088, 51.468122128421122 ], [ 0.013077226490144, 51.468286047296495 ], [ 0.013038992694819, 51.46843153673673 ], [ 0.012915346492911, 51.468796955493843 ], [ 0.012627280170766, 51.46980728055847 ], [ 0.013017959827503, 51.469852720497933 ], [ 0.013506666214265, 51.469897375589113 ], [ 0.013511569468232, 51.469879310882291 ], [ 0.013522364509175, 51.469830578119456 ], [ 0.013613035518427, 51.469829920752979 ], [ 0.013781605296838, 51.469829724099775 ], [ 0.014050691718445, 51.469793638406422 ], [ 0.014384033993203, 51.469744761347449 ], [ 0.014570673391229, 51.469701998994118 ], [ 0.015012753498664, 51.469572138288854 ], [ 0.015288437116509, 51.469456731700866 ], [ 0.015553685865204, 51.469365867286974 ], [ 0.015856972498075, 51.469254569932126 ], [ 0.015875393386497, 51.469214606242701 ], [ 0.015985714664647, 51.469169556795471 ], [ 0.016055862570962, 51.469161158855165 ], [ 0.016067329828429, 51.469160062721336 ], [ 0.016137475762935, 51.469116602714024 ], [ 0.016356137293916, 51.468981585929932 ], [ 0.016558524536642, 51.469131840093134 ], [ 0.01663750747559, 51.469323862815777 ], [ 0.016648706168134, 51.469445937930843 ], [ 0.016719807067241, 51.469491464821665 ], [ 0.016631165712704, 51.469635125066645 ], [ 0.016489418172184, 51.469850631494587 ], [ 0.016372892909424, 51.469919252670266 ], [ 0.016316743616448, 51.469951683879479 ], [ 0.016231056457589, 51.470000805309226 ], [ 0.016224811654048, 51.470053056215662 ], [ 0.016221610213078, 51.470080082054125 ], [ 0.016169299421225, 51.470167287845605 ], [ 0.015918586309497, 51.470620391429648 ], [ 0.015541335904838, 51.471273454861645 ], [ 0.015383095570177, 51.471570245641068 ], [ 0.015238260639255, 51.471912656229186 ], [ 0.015104496938353, 51.472274655000319 ], [ 0.015020634973995, 51.472529711082686 ], [ 0.014978691400338, 51.472817310964125 ], [ 0.015010340006806, 51.47308027197731 ], [ 0.01605463915918, 51.473314053906549 ], [ 0.016220264038198, 51.473349055909736 ], [ 0.016578201133187, 51.473431905962499 ], [ 0.017806020751239, 51.47371564912217 ], [ 0.018149060057922, 51.473853591257317 ], [ 0.018066644323495, 51.473845120041638 ], [ 0.017065635596133, 51.473742768611203 ], [ 0.01527650409184, 51.473532494454176 ], [ 0.014382296312989, 51.473433677964913 ], [ 0.013589169918822, 51.473341120488961 ], [ 0.012114450372092, 51.473173135586975 ], [ 0.010173819457076, 51.472955489573295 ], [ 0.009244359798053, 51.472872520903891 ], [ 0.007515194746953, 51.472681775196833 ], [ 0.005437185843731, 51.472446622751256 ], [ 0.004570383709682, 51.472349060179148 ], [ 0.003784605794111, 51.47226080555334 ], [ 0.002868421008207, 51.472152386510274 ], [ 0.001661909845211, 51.47202374197019 ], [ 0.000903545300074, 51.471937697222721 ], [ 0.00039130349301, 51.471879006537577 ], [ 0.000019911843765, 51.471848479175776 ], [ -0.000333530905095, 51.471834726212364 ], [ -0.000957928052426, 51.471812104574674 ], [ -0.001166603996172, 51.471815660578137 ], [ -0.001298802357555, 51.471822408297307 ], [ -0.00147090324361, 51.471837027940666 ], [ -0.002324065122422, 51.471953153671834 ], [ -0.003572449615925, 51.472118346719917 ], [ -0.005604743397928, 51.472401057983966 ], [ -0.006663569448377, 51.472554903194656 ], [ -0.006928924728757, 51.472579191836196 ], [ -0.007337166452418, 51.472629282590958 ], [ -0.008117797153379, 51.472756720848878 ], [ -0.008588736993423, 51.472754829368867 ], [ -0.00887017159368, 51.472739829329583 ], [ -0.009046104677583, 51.472734724974551 ], [ -0.010052344453576, 51.47260795852015 ], [ -0.010296586438787, 51.472552766593004 ], [ -0.011653012280838, 51.472388683707301 ], [ -0.012493153308985, 51.472340891745063 ], [ -0.012848230701525, 51.472352303014446 ], [ -0.013118251299784, 51.472370363486881 ], [ -0.013337460144186, 51.472393855809393 ], [ -0.013645646557006, 51.472492575381054 ], [ -0.014043723176502, 51.47267561718494 ], [ -0.014231795887704, 51.472522280534086 ], [ -0.014517143000672, 51.472152125832224 ], [ -0.014515193575803, 51.472131415104975 ], [ -0.014502857330358, 51.471918045890547 ], [ -0.014508709434669, 51.471917245935764 ], [ -0.014728835214295, 51.471886809276654 ], [ -0.015158731939693, 51.471769120468515 ], [ -0.014835012648631, 51.471399443541756 ], [ -0.014397218173234, 51.470671638085904 ], [ -0.014071392655927, 51.470118520991242 ], [ -0.014021059975772, 51.470050151396478 ], [ -0.013815328765226, 51.469782352084501 ], [ -0.013691178566124, 51.469656093190856 ], [ -0.013448319805613, 51.469379483241916 ], [ -0.013103355742092, 51.468936620235063 ], [ -0.013450484010964, 51.46876709951362 ], [ -0.014082397094428, 51.468472040754051 ], [ -0.014468228618396, 51.468307757365288 ], [ -0.014626944998708, 51.468234026568545 ], [ -0.01500113428423, 51.468039786338565 ], [ -0.015064556281143, 51.468036364588563 ], [ -0.015275654128242, 51.468150518101041 ], [ -0.015430598775914, 51.468262012893874 ], [ -0.015534118736441, 51.468330292943627 ], [ -0.015781064800026, 51.468480114386928 ], [ -0.015878848775998, 51.468549286028804 ], [ -0.016244041159519, 51.468860325519458 ], [ -0.016390705077103, 51.468995862970111 ], [ -0.016441706901928, 51.46904886944457 ], [ -0.01653331223929, 51.469227617980074 ], [ -0.016923728126056, 51.469056121872384 ], [ -0.017088259008656, 51.469247790482854 ], [ -0.01711478387307, 51.469298584758164 ], [ -0.017136004475959, 51.469340299024893 ], [ -0.017135926510933, 51.46934209577126 ], [ -0.017248229677725, 51.469410522836434 ], [ -0.017483362494107, 51.469433377490489 ], [ -0.017718261714925, 51.469461621920289 ], [ -0.017861534294116, 51.469478427977599 ], [ -0.018174775953215, 51.469526066088406 ], [ -0.018447711199509, 51.469605300014578 ], [ -0.018674915428097, 51.469712530253823 ], [ -0.01909228597318, 51.469948929092915 ], [ -0.018992512920633, 51.470059621622532 ], [ -0.018995243221252, 51.470062364873257 ], [ -0.019141160794343, 51.470251021014931 ], [ -0.019246943729353, 51.470500132837685 ], [ -0.019174256332582, 51.470550149100198 ], [ -0.019064626167372, 51.470586954402144 ], [ -0.019005998876782, 51.470611136282756 ], [ -0.018911788399841, 51.470525034656418 ], [ -0.018645975760402, 51.470645506318135 ], [ -0.018766770345446, 51.470748240175134 ], [ -0.018919452777845, 51.470879472881464 ], [ -0.018956113085475, 51.471063495212867 ], [ -0.018932825488756, 51.471069394769152 ], [ -0.018801873013105, 51.471102333132691 ], [ -0.018858518215359, 51.471189597860388 ], [ -0.018997521628162, 51.471138005755549 ], [ -0.019084263189053, 51.471229375260016 ], [ -0.01912724405094, 51.471467536217823 ], [ -0.019259514401445, 51.471938257668477 ], [ -0.019293436029892, 51.471985580690898 ], [ -0.019319631933229, 51.472011196351914 ], [ -0.019372800604767, 51.472047247141461 ], [ -0.019867539025956, 51.472027647879536 ], [ -0.019973529487485, 51.4720420252062 ], [ -0.020026248344745, 51.472055592294154 ], [ -0.020084237467873, 51.472079047853683 ], [ -0.020119405788373, 51.472097622670752 ], [ -0.020219277600724, 51.47218471802703 ], [ -0.02027396025096, 51.472287232485115 ], [ -0.020301893869421, 51.472371404295721 ], [ -0.020311416554987, 51.472417415816729 ], [ -0.020130195921181, 51.472613040409499 ], [ -0.020056922003209, 51.472676532758989 ], [ -0.020015863600144, 51.472725375728324 ], [ -0.019980271895954, 51.472782312435804 ], [ -0.01995734102169, 51.472848453376777 ], [ -0.019952606269726, 51.472922094021122 ], [ -0.019964238156983, 51.472987919911887 ], [ -0.019978728496122, 51.473017922712039 ], [ -0.020024804762055, 51.473083431539784 ], [ -0.020092258544784, 51.473124128628434 ], [ -0.020200046168569, 51.473160112907387 ], [ -0.020301768450721, 51.473174417849194 ], [ -0.020528008430815, 51.473170148326872 ], [ -0.020595088093746, 51.473183867841371 ], [ -0.020621791410714, 51.473197804369022 ], [ -0.020639835933218, 51.473214291735481 ], [ -0.02071039649822, 51.473347731181342 ], [ -0.020724875097356, 51.473410907986555 ], [ -0.020742141405292, 51.473445362839904 ], [ -0.020770799108208, 51.473482707183862 ], [ -0.020810807431769, 51.473521142257049 ], [ -0.020908653611417, 51.473589323154044 ], [ -0.021026470597364, 51.473662426292826 ], [ -0.021115283496741, 51.47370618059891 ], [ -0.021208758651715, 51.473743720338746 ], [ -0.021437311726145, 51.473817703958886 ], [ -0.021619188889625, 51.473875615595958 ], [ -0.021551843151731, 51.473933814756343 ], [ -0.021746594628235, 51.474026196690119 ], [ -0.021844973748179, 51.473947753631371 ], [ -0.021859253565702, 51.473952489842766 ], [ -0.022006212286306, 51.474016194575697 ], [ -0.022075713333265, 51.474039843482458 ], [ -0.022162652864604, 51.474061089575493 ], [ -0.022315678134223, 51.474086148015779 ], [ -0.022423562731662, 51.474087069646714 ], [ -0.022480662350213, 51.473966573928664 ], [ -0.022646887716528, 51.473985651362639 ], [ -0.02259199372187, 51.47408811382914 ], [ -0.022585793455649, 51.474099696627661 ], [ -0.022620168401734, 51.474271092849698 ], [ -0.02278516752773, 51.474282867241392 ], [ -0.022777310573406, 51.474464429145918 ], [ -0.022775898296306, 51.474532731786979 ], [ -0.022804714274387, 51.474731095035054 ], [ -0.02290471163562, 51.47508169669041 ], [ -0.022892694651831, 51.475194772029859 ], [ -0.022898667444307, 51.475254298844256 ], [ -0.022861303687012, 51.475319297812916 ], [ -0.022741776021904, 51.475354141402249 ], [ -0.022737347255752, 51.475354965707616 ], [ -0.022502085016976, 51.475367178445929 ], [ -0.022292339398533, 51.475390609743073 ], [ -0.022132884120161, 51.475448153682251 ], [ -0.022000498965047, 51.475478284332659 ], [ -0.021773897050185, 51.4754906417825 ], [ -0.021573354344442, 51.475498943594687 ], [ -0.021364189327562, 51.475506200444634 ], [ -0.021049551768556, 51.475522554082069 ], [ -0.020917984825267, 51.475536514738792 ], [ -0.020820614340737, 51.475588812150583 ], [ -0.02072026495912, 51.475679717532316 ], [ -0.020681611380578, 51.475771664927009 ], [ -0.020626569206845, 51.475847242815526 ], [ -0.020674757360866, 51.475929868653267 ], [ -0.020701423500863, 51.476114620573526 ], [ -0.020727196960485, 51.476215837358865 ], [ -0.020730769593398, 51.476234777368532 ], [ -0.020742563578736, 51.476359941983119 ], [ -0.020764499818078, 51.476453811789582 ], [ -0.020765728997182, 51.476458327709146 ], [ -0.020749187208862, 51.476505786898372 ], [ -0.02073454199797, 51.476545096930224 ], [ -0.020644390294143, 51.476630780267747 ], [ -0.020552466004944, 51.476727221969128 ], [ -0.020427549177841, 51.47681780196605 ], [ -0.020310846610607, 51.476885954904731 ], [ -0.020186611308819, 51.47692790854201 ], [ -0.020019715561705, 51.476989818961826 ], [ -0.019869146773119, 51.477042115685549 ], [ -0.019684085538869, 51.477093020184881 ], [ -0.019535305718536, 51.477101294165898 ], [ -0.019385904470994, 51.47712663905061 ], [ -0.019235840877611, 51.477167256080662 ], [ -0.019139166051538, 51.477203381231917 ], [ -0.019092411047633, 51.477252037592223 ], [ -0.019071700766259, 51.477332600310937 ], [ -0.019041483753891, 51.477396909653095 ], [ -0.019056395341277, 51.477518530957489 ], [ -0.01906972350573, 51.477578092332919 ], [ -0.019139900454806, 51.477786145736793 ], [ -0.019175805301799, 51.477954871520943 ], [ -0.019140623196593, 51.478166538070866 ], [ -0.019107935711095, 51.478323405869332 ], [ -0.019092651434443, 51.47847598279283 ], [ -0.019113336741128, 51.478595903615414 ], [ -0.019102343215464, 51.478783705183822 ], [ -0.019105334801708, 51.478947469321206 ], [ -0.019035610805825, 51.479194423209641 ], [ -0.019003272744705, 51.479343205573407 ], [ -0.018971712146954, 51.47940560418683 ], [ -0.018938005010016, 51.479451783942402 ], [ -0.018871878057004, 51.479517194256871 ], [ -0.018607005339979, 51.47971328959563 ], [ -0.018546612019306, 51.479777897636659 ], [ -0.018491581356538, 51.479817423463345 ], [ -0.018417880703264, 51.479854835478754 ], [ -0.01835061381241, 51.479878061659946 ], [ -0.018266379291825, 51.479895516757054 ], [ -0.017925620143236, 51.479916728539258 ], [ -0.017742539394315, 51.479919028137097 ], [ -0.017618392709712, 51.479925919848888 ], [ -0.017437615445171, 51.479943541432242 ], [ -0.017205436565327, 51.479985466497133 ], [ -0.017079573722275, 51.480031885969794 ], [ -0.017001328635154, 51.480075514407737 ], [ -0.016935743800488, 51.480125650099339 ], [ -0.016884318847445, 51.480183307359802 ], [ -0.016834029253518, 51.48028045124191 ], [ -0.016833717227714, 51.48028763821015 ], [ -0.017041380215489, 51.480381052969214 ], [ -0.017090481341525, 51.48040975319271 ], [ -0.017618487566929, 51.480719945374247 ], [ -0.017849251353907, 51.480880367398306 ], [ -0.018135277688919, 51.480859129814689 ], [ -0.018374760770815, 51.480848793946215 ], [ -0.018557715400325, 51.480816735706476 ], [ -0.018701626846722, 51.480784106925611 ], [ -0.018908569375938, 51.480727370771 ], [ -0.019988552670422, 51.480366143808126 ], [ -0.020391973389145, 51.480230912985597 ], [ -0.020341345156674, 51.47993598457213 ], [ -0.022497514330598, 51.479699895435104 ], [ -0.023044902668041, 51.479629028132017 ], [ -0.023094715175986, 51.48024228886127 ], [ -0.023135264089912, 51.48073762011289 ], [ -0.024693763743726, 51.481197325919638 ], [ -0.026382622774009, 51.481509967657523 ], [ -0.026342333013551, 51.48157671644055 ], [ -0.026039079448304, 51.48182882122078 ], [ -0.025926045077326, 51.481943881016939 ], [ -0.025856867586023, 51.482044306149703 ], [ -0.025793025714201, 51.48218887368995 ], [ -0.025713112264604, 51.482573391673107 ], [ -0.025552018177264, 51.483434826466649 ], [ -0.025269794226729, 51.484197214415964 ], [ -0.025263463417007, 51.484343649998699 ], [ -0.025196013055742, 51.484637485739306 ], [ -0.025180977461028, 51.484985247733469 ], [ -0.025175108884712, 51.485022099051264 ], [ -0.025003645911396, 51.485290716837682 ], [ -0.024821090956384, 51.48554665083315 ], [ -0.024733761576285, 51.485668436001141 ], [ -0.024707683142637, 51.485705755725512 ], [ -0.024585731805724, 51.485861929467738 ], [ -0.024175492726053, 51.486186845269749 ], [ -0.023417856371755, 51.486786487748496 ], [ -0.022991935613069, 51.486576120894078 ], [ -0.021857706518383, 51.486091998656512 ], [ -0.02136511869233, 51.485893895965887 ], [ -0.021054708267116, 51.485775375787739 ], [ -0.019994118063695, 51.485387866516319 ], [ -0.019446743465204, 51.485223892217341 ], [ -0.018942740592747, 51.485086810495453 ], [ -0.018787572124326, 51.485044629535942 ], [ -0.018005091451356, 51.484822734411573 ], [ -0.017624141489048, 51.484773141450361 ], [ -0.01742510230397, 51.484778766796175 ], [ -0.017402041829925, 51.484779275943879 ], [ -0.016760362962108, 51.484695603664015 ], [ -0.016559880482498, 51.484668837987059 ], [ -0.016519847414145, 51.484663665689837 ], [ -0.016336454892456, 51.484639885796497 ], [ -0.015906831984949, 51.48461733388001 ], [ -0.015635899791636, 51.484585778478397 ], [ -0.015447574075619, 51.484579894350681 ], [ -0.015108065490889, 51.484568753898863 ], [ -0.014776109673624, 51.484553245170879 ], [ -0.014531145753653, 51.484555391016457 ], [ -0.013776375612578, 51.484521931393623 ], [ -0.013166544538665, 51.484503509181351 ], [ -0.012861023385293, 51.484508221610128 ], [ -0.012759376613384, 51.484527176797556 ], [ -0.011031563408963, 51.484678588572436 ], [ -0.010805715718297, 51.48470532470364 ], [ -0.010579828636201, 51.484732958760823 ], [ -0.007931988757781, 51.485208726006746 ], [ -0.007438508936941, 51.485359560081292 ], [ -0.006940679262817, 51.485512026282507 ], [ -0.006710055697892, 51.485582725807738 ], [ -0.006218294481063, 51.485696723651856 ], [ -0.005900571563408, 51.485782123165251 ], [ -0.005624343489977, 51.485871823673143 ], [ -0.005529262530513, 51.485906167738811 ], [ -0.005355114761179, 51.485969823759206 ], [ -0.005116905569889, 51.486080847453358 ], [ -0.004718865271067, 51.486256668331926 ], [ -0.004528778712427, 51.486323558117526 ], [ -0.003384259681204, 51.486903009943134 ], [ -0.002927130416219, 51.487145155863992 ], [ -0.002149089813643, 51.487642731323319 ], [ -0.00171947051403, 51.488015790353963 ], [ -0.001450311870755, 51.488307074474399 ], [ -0.001151665424274, 51.488713021555071 ], [ -0.000915202120053, 51.489111846493223 ], [ -0.000677830391751, 51.489534030134685 ], [ -0.000554753979634, 51.489843985047841 ], [ -0.00048391601226, 51.490078412920582 ], [ -0.000449470784777, 51.490306268962215 ], [ -0.00042091087834, 51.490662786470352 ], [ -0.000422571168291, 51.490822841938936 ], [ -0.000422865891711, 51.490913738793829 ], [ -0.00038907215087, 51.491389737861752 ], [ -0.000650547835527, 51.492161337094373 ], [ -0.000775929739102, 51.492555538544849 ], [ -0.000998074044003, 51.493075454272926 ], [ -0.001055296392645, 51.493314760595986 ], [ -0.001187316608048, 51.493489713083413 ], [ -0.001414654439164, 51.493858680774217 ], [ -0.00157450507407, 51.494089846567796 ], [ -0.001993720779058, 51.494552885682111 ], [ -0.002085458899534, 51.494660533710103 ], [ -0.002115808954512, 51.494691707577211 ], [ -0.002184040597724, 51.494777378427301 ], [ -0.002282470208556, 51.494900423746543 ], [ -0.002443352423366, 51.495108232142591 ], [ -0.002797724527212, 51.495669146679099 ], [ -0.003631664220052, 51.497123047107578 ], [ -0.003978963828421, 51.497615512679999 ], [ -0.00413684908297, 51.497924857972677 ], [ -0.004304600819504, 51.498272130101256 ], [ -0.004350414242788, 51.498378994897521 ], [ -0.004450004773518, 51.498636103090931 ], [ -0.004576617329209, 51.499003352182882 ], [ -0.004920308404735, 51.5001387365471 ], [ -0.00496774962884, 51.500371492313562 ], [ -0.00505602045642, 51.500727395765622 ], [ -0.005152781752986, 51.500886376036057 ], [ -0.005151418148073, 51.500950185249941 ], [ -0.00515108243779, 51.50102309234363 ], [ -0.005150347135153, 51.501072527478762 ], [ -0.005148663432397, 51.501244217021217 ], [ -0.005110309237014, 51.501461223817266 ], [ -0.005053602737897, 51.50157353876218 ], [ -0.005008641834779, 51.501678052065017 ], [ -0.004911229731316, 51.501830131289275 ], [ -0.004836361411787, 51.501961106918465 ], [ -0.004795177969931, 51.5021123450394 ], [ -0.004640857540134, 51.502511682538469 ], [ -0.004535491653713, 51.502810260815167 ], [ -0.004483651266962, 51.502941628254185 ], [ -0.004299218204906, 51.503238860244217 ], [ -0.004007408664761, 51.503616976012076 ], [ -0.003690322949884, 51.503915544386935 ], [ -0.003527619583565, 51.504112362004747 ], [ -0.003336061301388, 51.504306080666773 ], [ -0.003201560665091, 51.504482790044655 ], [ -0.003022424160492, 51.504658648951896 ], [ -0.002848185367136, 51.504820296176916 ], [ -0.002635638019936, 51.504966815726071 ], [ -0.002427330140999, 51.505152156130407 ], [ -0.001973178610691, 51.505451980409298 ], [ -0.001290590982778, 51.505870178888792 ], [ -0.000891766395903, 51.506059460427494 ], [ -0.000129622957236, 51.506318961615392 ], [ 0.000170531656726, 51.506395653671348 ], [ 0.000674289629014, 51.506512024303966 ], [ 0.000981101952355, 51.506575204759159 ], [ 0.001391511879258, 51.506667992317261 ], [ 0.002208872952344, 51.506739443237144 ], [ 0.002724846422624, 51.506741417332819 ], [ 0.003183435530782, 51.506751562182224 ], [ 0.003636760410648, 51.506768987566424 ], [ 0.003898311032912, 51.506753728025984 ], [ 0.00398161654658, 51.506746010550884 ], [ 0.004173201259807, 51.50671216755719 ], [ 0.005201213708089, 51.506429278798336 ], [ 0.005992083847919, 51.50616302646926 ], [ 0.007347715489733, 51.505630872606893 ], [ 0.007624854432538, 51.505511049283449 ], [ 0.008223605369282, 51.505231890295306 ], [ 0.008607387104737, 51.505013950607726 ], [ 0.008850090809082, 51.504865046302363 ], [ 0.009166355254885, 51.504651858106534 ], [ 0.009674582521563, 51.504281642689726 ], [ 0.009950910651654, 51.504079026691336 ], [ 0.010266213707321, 51.503811909992997 ], [ 0.010587092481194, 51.50353930271514 ], [ 0.011248185528174, 51.502910143578163 ], [ 0.0124457277215, 51.501870713633657 ], [ 0.012843261665484, 51.501540145966679 ], [ 0.013387898938366, 51.501083883048942 ], [ 0.01415207070386, 51.500442153283672 ], [ 0.015014881025126, 51.499686270121011 ], [ 0.015366441614131, 51.499391553832737 ], [ 0.015631202984556, 51.499189219136682 ], [ 0.016242464744266, 51.498806426902867 ], [ 0.017573533141397, 51.498083825869578 ], [ 0.017576342222902, 51.498082878516463 ], [ 0.018432602973149, 51.497669787104378 ], [ 0.019216899011601, 51.497356820567255 ], [ 0.019828903897207, 51.497155687811492 ], [ 0.020711830821041, 51.496889558975788 ], [ 0.021944638278731, 51.496522993512571 ], [ 0.023163541019741, 51.496296002665275 ], [ 0.024038798324064, 51.496149640155821 ], [ 0.024718420922088, 51.49607578402771 ], [ 0.025713749162589, 51.49604151080387 ], [ 0.026882013484474, 51.496004239731292 ], [ 0.027797356592639, 51.496017181404014 ], [ 0.029074116261324, 51.496087782236799 ], [ 0.029569258247765, 51.496142143841077 ], [ 0.030965537001496, 51.496277092719076 ], [ 0.031461182699122, 51.496374680455311 ], [ 0.032397275584897, 51.496463641244809 ], [ 0.033814574080993, 51.496682785175132 ], [ 0.034905209983877, 51.496811297876327 ], [ 0.034967530888074, 51.496818307253605 ], [ 0.03554481716474, 51.496841548541475 ], [ 0.036444747504628, 51.496830413973143 ], [ 0.037321733282875, 51.49688538967149 ], [ 0.038020195112982, 51.496943372694908 ], [ 0.038539775366491, 51.496996371156804 ], [ 0.039221155058135, 51.497121261609358 ], [ 0.039840089038012, 51.497172526049006 ], [ 0.040172785726668, 51.497203596423567 ], [ 0.040510776811793, 51.497222886421589 ], [ 0.041360607311245, 51.497249446136401 ], [ 0.042177120675647, 51.497272084990001 ], [ 0.042846886965005, 51.497301770586724 ], [ 0.043784061638302, 51.497347558105048 ], [ 0.044215951593967, 51.497373291593306 ], [ 0.044652168935759, 51.497365684165459 ], [ 0.045870632344653, 51.497323748572512 ], [ 0.047140277466574, 51.497268230276937 ], [ 0.047980492040071, 51.497241867544169 ], [ 0.048891947610132, 51.497196274571344 ], [ 0.049540698966981, 51.497173248626034 ], [ 0.050166244638159, 51.497083197953536 ], [ 0.050845688390547, 51.497005686509368 ], [ 0.051459987246377, 51.496953584618666 ], [ 0.05180747410005, 51.496927725584953 ], [ 0.052390401996922, 51.49688335995841 ], [ 0.052832717299127, 51.49685035379391 ], [ 0.053203027691454, 51.496819595836087 ], [ 0.053467273631816, 51.496802381720727 ], [ 0.053968421796256, 51.496764834601372 ], [ 0.054768473336033, 51.496709460944096 ], [ 0.056656496542759, 51.496563978961618 ], [ 0.058233637173594, 51.496457997441411 ], [ 0.058654510619285, 51.496431728611952 ], [ 0.059288107851933, 51.496423298865516 ], [ 0.060051118157126, 51.49644234978858 ], [ 0.060794554816526, 51.496475135358111 ], [ 0.061558332703544, 51.496511154693003 ], [ 0.061903565492922, 51.496530256674284 ], [ 0.062501399897999, 51.496561096847564 ], [ 0.063005337903979, 51.496585494921796 ], [ 0.063933030224654, 51.496647383575755 ], [ 0.066217677739275, 51.496767260001249 ], [ 0.06818476376521, 51.496967312785586 ], [ 0.071556616566875, 51.497485048725494 ], [ 0.073185328271853, 51.497850212371659 ], [ 0.073214498203018, 51.497856888751045 ] ] ] } }
]
}
