{
"type": "FeatureCollection",
"name": "borough_Hammersmith_and_Fulham",
"crs": { "type": "name", "properties": { "name": "urn:ogc:def:crs:OGC:1.3:CRS84" } },
"features": [
{ "type": "Feature", "properties": { "DISTRICT": "Hammersmith and Fulham", "NAME": "Palace Riverside", "GSS_CODE": "E05000259", "LAGSSCODE": "E09000013", "HECTARES": 148.083, "NONLD_AREA": 34.321 }, "geometry": { "type": "Polygon", "coordinates": [ [ [ -0.177607080213649, 51.477158049464592 ], [ -0.177603077024008, 51.477079684017923 ], [ -0.177612315122622, 51.476990826198858 ], [ -0.177610312079233, 51.476862237516194 ], [ -0.177621109884261, 51.476805768072481 ], [ -0.177643862060801, 51.476741303464642 ], [ -0.177711556368344, 51.476633575949222 ], [ -0.177978337832745, 51.476371526250702 ], [ -0.178007811810959, 51.476317144953754 ], [ -0.178053801201618, 51.476211777021 ], [ -0.178083285465321, 51.476121345806739 ], [ -0.178096841248372, 51.476034353031771 ], [ -0.178100547556164, 51.476012834519288 ], [ -0.178112660921466, 51.475854708117708 ], [ -0.17814577596764, 51.475744645105976 ], [ -0.178332173368756, 51.475404930344993 ], [ -0.178457487994019, 51.475042690257567 ], [ -0.178631417416284, 51.474616386874018 ], [ -0.178696790204166, 51.474456480398871 ], [ -0.178751298136965, 51.474026613861554 ], [ -0.178853079795027, 51.473712554035103 ], [ -0.178993098815547, 51.473416168977408 ], [ -0.179137261863363, 51.473230425668135 ], [ -0.17919453438343, 51.473166586610958 ], [ -0.179249167544565, 51.47313327270669 ], [ -0.179413672238042, 51.472979310048906 ], [ -0.179499949477576, 51.472872768908061 ], [ -0.179601282896017, 51.472716027257761 ], [ -0.180216046229839, 51.471521531671542 ], [ -0.180263412223705, 51.471452953415202 ], [ -0.18029716834135, 51.471365374742852 ], [ -0.180358450400828, 51.471054281029545 ], [ -0.180958124989449, 51.470059126245424 ], [ -0.181506921130527, 51.469184544973146 ], [ -0.181677285347161, 51.468954254442295 ], [ -0.181996463760416, 51.468569843882378 ], [ -0.18286998531849, 51.467528579724025 ], [ -0.182953718375264, 51.46744977578976 ], [ -0.183379929922512, 51.467122757520578 ], [ -0.183531070834506, 51.467014519963605 ], [ -0.183866988544912, 51.466784990011114 ], [ -0.184211417233445, 51.466559276762908 ], [ -0.185023121185562, 51.466060122167256 ], [ -0.185498326999573, 51.465838134916012 ], [ -0.186257706274568, 51.465532436328871 ], [ -0.186338152603916, 51.465500416561724 ], [ -0.18736704323737, 51.465115268794342 ], [ -0.187807635762033, 51.46496645642415 ], [ -0.18866927094236, 51.464694686132297 ], [ -0.189029065418208, 51.464589662174028 ], [ -0.190145493708795, 51.464319117041704 ], [ -0.190383262669486, 51.464276935349112 ], [ -0.190484477617045, 51.464265910453797 ], [ -0.190697952699944, 51.464255717978858 ], [ -0.191233125703445, 51.464191150744554 ], [ -0.191487005734177, 51.464179781796133 ], [ -0.191820651338262, 51.464153459532064 ], [ -0.193165749804505, 51.463995190980008 ], [ -0.19321334380408, 51.463992327973394 ], [ -0.194830707609677, 51.463903951582743 ], [ -0.195164958016625, 51.463898306474555 ], [ -0.196659205992508, 51.464012087623701 ], [ -0.197453806708866, 51.464087231474124 ], [ -0.198138520550963, 51.464101346908521 ], [ -0.198385480716107, 51.464081765533933 ], [ -0.198842986781439, 51.464017768609978 ], [ -0.199685220605464, 51.464089133628406 ], [ -0.200998596789807, 51.4641542336444 ], [ -0.20193722411613, 51.464264819277041 ], [ -0.20193864769188, 51.464264841096245 ], [ -0.202534809605018, 51.464333402123962 ], [ -0.203193761745201, 51.464417216231801 ], [ -0.20384521052797, 51.464510800936075 ], [ -0.204169935637731, 51.464563420244957 ], [ -0.204808913136805, 51.464678474989988 ], [ -0.205307314030945, 51.464782295653961 ], [ -0.205579860820933, 51.464845800016619 ], [ -0.206130145043157, 51.464982775390553 ], [ -0.206920613516415, 51.46520352196454 ], [ -0.20981448582355, 51.46597520209977 ], [ -0.211615827542366, 51.46644697007676 ], [ -0.212663516711583, 51.466791167470944 ], [ -0.213352259618142, 51.4670345937039 ], [ -0.214365577668327, 51.467411515148164 ], [ -0.21534593794343, 51.467821189665187 ], [ -0.215765292228644, 51.468032633330608 ], [ -0.215968377142087, 51.468140007442294 ], [ -0.216362876305929, 51.468361859211726 ], [ -0.217051102394142, 51.468768875920134 ], [ -0.217781885831912, 51.469229577050733 ], [ -0.218139858136293, 51.469466151308417 ], [ -0.21843868683073, 51.469666765041765 ], [ -0.218491982662944, 51.469703535029488 ], [ -0.218801517471215, 51.469924987849083 ], [ -0.218923519269063, 51.470011347628073 ], [ -0.220538641645229, 51.471351475943408 ], [ -0.221710439431795, 51.472358429555882 ], [ -0.222750234406396, 51.473280661806918 ], [ -0.223126638670899, 51.473637068523757 ], [ -0.223639139073397, 51.474124183495519 ], [ -0.223906537174266, 51.474392631701562 ], [ -0.224073924971028, 51.474570473195442 ], [ -0.224229507615019, 51.474752720703371 ], [ -0.224570074728511, 51.47517960195222 ], [ -0.225051387485126, 51.475837948779095 ], [ -0.225191828048002, 51.476080199024402 ], [ -0.225219786335865, 51.476139956633297 ], [ -0.225327560646301, 51.476367328378096 ], [ -0.225368553026929, 51.47646144549477 ], [ -0.22545640381557, 51.476758638501103 ], [ -0.225520847226674, 51.476988950664676 ], [ -0.225604055260568, 51.477555866142062 ], [ -0.225653823369772, 51.478277804421737 ], [ -0.225650523939275, 51.478956686528043 ], [ -0.225588339748002, 51.479592424457458 ], [ -0.225596425772463, 51.480164496520381 ], [ -0.225718255364446, 51.480626721898609 ], [ -0.225770277572495, 51.480953938981806 ], [ -0.225765569344578, 51.481522221391508 ], [ -0.225614908185683, 51.481766360995536 ], [ -0.225692154426181, 51.4821137377984 ], [ -0.225704546759299, 51.482131006409226 ], [ -0.225863537337099, 51.482376233436277 ], [ -0.226125208856151, 51.482907189787277 ], [ -0.226262651260219, 51.483334589270669 ], [ -0.226266554614389, 51.483347234418567 ], [ -0.226475871186084, 51.484076978029634 ], [ -0.226788069663706, 51.484866801274514 ], [ -0.226946263611289, 51.485169551009726 ], [ -0.227054697515544, 51.485343799456842 ], [ -0.227270493073537, 51.485646520363112 ], [ -0.227406865427612, 51.485807795501607 ], [ -0.22761847439517, 51.486034845973869 ], [ -0.227846076636607, 51.486256833556332 ], [ -0.228064428471581, 51.486457104787632 ], [ -0.228424346587225, 51.48675840464611 ], [ -0.22869002327571, 51.486966491647685 ], [ -0.229601534857284, 51.487640304304293 ], [ -0.230260277108101, 51.488113413885308 ], [ -0.230610580644992, 51.488289510146544 ], [ -0.230988455420692, 51.488465212094667 ], [ -0.231598820607664, 51.488808037664214 ], [ -0.231676565350486, 51.488846069081873 ], [ -0.231956525071193, 51.488983432456436 ], [ -0.232700938023748, 51.489250868273821 ], [ -0.233170416970114, 51.489404569275017 ], [ -0.233351022942618, 51.489463927151235 ], [ -0.233608264710286, 51.489516347792957 ], [ -0.233880008439717, 51.489565390200106 ], [ -0.234340514123511, 51.489616464495732 ], [ -0.234508530321562, 51.489629781657037 ], [ -0.234541577706749, 51.489632077090654 ], [ -0.234729584622145, 51.489647492841428 ], [ -0.235105591756094, 51.489647756260972 ], [ -0.235949703879375, 51.489683825234607 ], [ -0.236528443266574, 51.489693424494419 ], [ -0.236822242228306, 51.4896942440771 ], [ -0.237387381920131, 51.489683856522021 ], [ -0.237716311212732, 51.489669918479066 ], [ -0.237843274421994, 51.489663734380578 ], [ -0.237942836461949, 51.489659745747296 ], [ -0.238350378895607, 51.489624511326141 ], [ -0.238722128239016, 51.489584243120447 ], [ -0.239088525632199, 51.489534903313007 ], [ -0.239453725304978, 51.489476554289467 ], [ -0.239813538003593, 51.489410032219041 ], [ -0.240169425986453, 51.489334370172926 ], [ -0.240503760619532, 51.489253978664784 ], [ -0.240823904608796, 51.489168878374031 ], [ -0.241147398660621, 51.489073848415295 ], [ -0.241463889393412, 51.488972509418474 ], [ -0.241772094080163, 51.488861156277316 ], [ -0.241997382871147, 51.48877184429417 ], [ -0.242372846347168, 51.488597667635567 ], [ -0.242566886544339, 51.488496289183914 ], [ -0.242755251424484, 51.488391139462287 ], [ -0.243016411714872, 51.488230531849339 ], [ -0.243420180397977, 51.48791913720676 ], [ -0.244539460694099, 51.488702924658995 ], [ -0.244576435510364, 51.488791580857523 ], [ -0.244821691084227, 51.489082124176242 ], [ -0.244981827663967, 51.489037771157022 ], [ -0.245260592740373, 51.489278470257162 ], [ -0.245411462485317, 51.489478598690511 ], [ -0.245306384610312, 51.489548948022339 ], [ -0.245492241387956, 51.489849389712333 ], [ -0.245554174483885, 51.489999551512483 ], [ -0.24558410111329, 51.490157415666886 ], [ -0.24558635454737, 51.49021318798038 ], [ -0.245556065980465, 51.490813453473415 ], [ -0.245444103973668, 51.491629158861727 ], [ -0.24544164463221, 51.491656092374413 ], [ -0.245401902353161, 51.49205393912213 ], [ -0.245335894018117, 51.492721092167869 ], [ -0.245262801359667, 51.493050023151817 ], [ -0.245021947493283, 51.494255040746161 ], [ -0.244950819389261, 51.494681093229708 ], [ -0.244864789704388, 51.495046689523768 ], [ -0.244817845368119, 51.495368819299152 ], [ -0.244798937622944, 51.495561013016484 ], [ -0.244692789745177, 51.495584597110835 ], [ -0.244598400237688, 51.495793641578885 ], [ -0.244533835634327, 51.49608584049804 ], [ -0.244753723351305, 51.496100817273039 ], [ -0.244748433081637, 51.496124112209671 ], [ -0.244704312830032, 51.496335616877587 ], [ -0.244686405526303, 51.496501754434767 ], [ -0.244629199403928, 51.496602485926651 ], [ -0.244617488728743, 51.496758827144127 ], [ -0.244740500147804, 51.497344300162297 ], [ -0.24461534706666, 51.497599542639726 ], [ -0.244522072166683, 51.497590955098261 ], [ -0.244397538127418, 51.497944377722959 ], [ -0.244536719788176, 51.497960844225837 ], [ -0.244572899384693, 51.497955991506451 ], [ -0.244981482820616, 51.497895487608041 ], [ -0.245108603840409, 51.498111441537525 ], [ -0.245269489288934, 51.498385436442419 ], [ -0.245349934703853, 51.498356972407109 ], [ -0.245982353277271, 51.498131698664146 ], [ -0.246332367100091, 51.498021858240207 ], [ -0.246882716463099, 51.497833111150904 ], [ -0.247231014510719, 51.497693575356912 ], [ -0.247473346134674, 51.497609902069883 ], [ -0.247744476605528, 51.497490788185488 ], [ -0.247956923765603, 51.497399565486688 ], [ -0.248559885289641, 51.497154959091517 ], [ -0.24886768314026, 51.497055269034739 ], [ -0.249211661432436, 51.496950634149449 ], [ -0.249223947326081, 51.49696789851928 ], [ -0.249371233921477, 51.497185047621244 ], [ -0.249992471213381, 51.49796673764174 ], [ -0.25071265436433, 51.499025173630002 ], [ -0.251002962776701, 51.499345140854885 ], [ -0.251105247104882, 51.499419484602413 ], [ -0.250969673621947, 51.499460615846282 ], [ -0.251248607778559, 51.499776816849561 ], [ -0.251297841797804, 51.499846773736593 ], [ -0.251325114393033, 51.499848079192518 ], [ -0.251340404409562, 51.499864489089873 ], [ -0.251623273645854, 51.500189737844046 ], [ -0.251820529080587, 51.500380658264795 ], [ -0.252119540616096, 51.500662994204291 ], [ -0.252343390397522, 51.500838936751265 ], [ -0.252816359247084, 51.501167013729194 ], [ -0.25273913446025, 51.501226186636636 ], [ -0.253000251783935, 51.501406278880808 ], [ -0.253061044667675, 51.501400891049187 ], [ -0.253121922013089, 51.501464727444933 ], [ -0.253091773720355, 51.501575844475909 ], [ -0.253087277588208, 51.501578474533559 ], [ -0.253057823067222, 51.501596914984653 ], [ -0.253053048854371, 51.501647187900268 ], [ -0.253050455526924, 51.5016777152873 ], [ -0.253087405836282, 51.501764569440013 ], [ -0.253160228990197, 51.502121747550788 ], [ -0.253236071189941, 51.502474565441169 ], [ -0.253220464423436, 51.502581314076565 ], [ -0.253302350175096, 51.50269850411874 ], [ -0.253333080702534, 51.502839295472512 ], [ -0.253342948344212, 51.502882594359903 ], [ -0.253384655422353, 51.502922771222387 ], [ -0.253469375870828, 51.503003144346579 ], [ -0.253643138260401, 51.503131680636571 ], [ -0.253900595621647, 51.503333292310366 ], [ -0.254152318917154, 51.503569968974077 ], [ -0.254349222049612, 51.503770768494576 ], [ -0.254402396187156, 51.503849772576693 ], [ -0.254456806916423, 51.503896431043941 ], [ -0.254479239304233, 51.503915643762589 ], [ -0.254488972765837, 51.503922081563282 ], [ -0.254539555608168, 51.50395699604951 ], [ -0.255049406148531, 51.504303592410444 ], [ -0.255044909856354, 51.504306222540023 ], [ -0.255067395616555, 51.504320940940062 ], [ -0.254845107634662, 51.504445382726054 ], [ -0.254545058775065, 51.50418910971139 ], [ -0.254535309543499, 51.504179974682401 ], [ -0.254516839516744, 51.504175204915278 ], [ -0.254284515767847, 51.504220294481655 ], [ -0.253636289183056, 51.504292456979741 ], [ -0.253661190113034, 51.504355847475971 ], [ -0.253741496921464, 51.504554822629729 ], [ -0.253689333465015, 51.504561238257018 ], [ -0.252771298982951, 51.504679813829227 ], [ -0.252568546548397, 51.504706461364016 ], [ -0.252520776093156, 51.504712941897409 ], [ -0.25250431156347, 51.504540897857488 ], [ -0.252492350661142, 51.504511951726904 ], [ -0.251223462219042, 51.504649562560608 ], [ -0.251023475117664, 51.50464118792658 ], [ -0.250815140266359, 51.50454989063531 ], [ -0.25031165402, 51.504453383205139 ], [ -0.250004731226984, 51.504451503245527 ], [ -0.24990601707166, 51.504435647009693 ], [ -0.249868619072501, 51.504546565218781 ], [ -0.249852307854394, 51.5045939689333 ], [ -0.249845985101544, 51.504610146527625 ], [ -0.249653796034275, 51.504587411961928 ], [ -0.249464453447899, 51.504564809444226 ], [ -0.249417440239612, 51.50466308797408 ], [ -0.249408048959273, 51.504681826867341 ], [ -0.249325195664419, 51.504664408768825 ], [ -0.249257393333148, 51.50444035527169 ], [ -0.249016704422898, 51.504477218923846 ], [ -0.248057733458575, 51.504609532021959 ], [ -0.248011160953164, 51.504436138731144 ], [ -0.247988087586135, 51.504359379207138 ], [ -0.246621931503585, 51.504514278318297 ], [ -0.246261475492159, 51.504557527546268 ], [ -0.245679539323281, 51.50462614273475 ], [ -0.245692817207477, 51.504657806265726 ], [ -0.24568838936463, 51.504658639067792 ], [ -0.245999590102598, 51.505371883424729 ], [ -0.246205973909791, 51.505813860180474 ], [ -0.246258066474914, 51.505920720773887 ], [ -0.246357070325598, 51.506120879444673 ], [ -0.246412296130282, 51.506257543690793 ], [ -0.246453502866206, 51.506384918507756 ], [ -0.246487947158139, 51.506577010164101 ], [ -0.246494072138439, 51.506680486709037 ], [ -0.246490645835601, 51.506732577516878 ], [ -0.245153143395888, 51.506739643077758 ], [ -0.245063675283016, 51.506742800074491 ], [ -0.245333305754734, 51.507601062262829 ], [ -0.245443394465157, 51.507809568309284 ], [ -0.245723345395545, 51.508473799661445 ], [ -0.245756633076904, 51.508621733292401 ], [ -0.245752687254506, 51.508913040308293 ], [ -0.245827197175766, 51.50918484345997 ], [ -0.245928025192094, 51.509448948923605 ], [ -0.246030772120903, 51.509963095186258 ], [ -0.246193601788823, 51.510264986082667 ], [ -0.246207107907444, 51.510287662958675 ], [ -0.246416524208442, 51.510799716943723 ], [ -0.246424433916141, 51.510819613159029 ], [ -0.246627120377955, 51.511247149917494 ], [ -0.247185403786086, 51.511945203212917 ], [ -0.247698118780761, 51.512478056075594 ], [ -0.248378542860948, 51.513223775778478 ], [ -0.24879027971208, 51.51368850029624 ], [ -0.248973141697905, 51.513881007655804 ], [ -0.249028685464418, 51.513972635347606 ], [ -0.249047358559253, 51.514012469933981 ], [ -0.249068706216506, 51.514056929318265 ], [ -0.249109593682648, 51.514230147277061 ], [ -0.249260788671433, 51.514721638464295 ], [ -0.249338035565278, 51.514925964677126 ], [ -0.249416729268994, 51.515204120264301 ], [ -0.249728994316613, 51.515818478985658 ], [ -0.250203291617716, 51.517355198960821 ], [ -0.250581593739109, 51.518541587975257 ], [ -0.250681539245524, 51.519093446794621 ], [ -0.250690291946661, 51.519128638332667 ], [ -0.250697500559634, 51.519163806856035 ], [ -0.250704827960398, 51.519198977149244 ], [ -0.250709304719019, 51.519234104954855 ], [ -0.250712202934959, 51.519270108235077 ], [ -0.250713710270215, 51.519305191782827 ], [ -0.250713606937789, 51.519307887249035 ], [ -0.250713773278052, 51.519343849812074 ], [ -0.250712429953413, 51.519378890872296 ], [ -0.250709504627309, 51.519414897255984 ], [ -0.250703885295769, 51.519449874584602 ], [ -0.250698265954801, 51.519484851912686 ], [ -0.250689780489939, 51.519517089516008 ], [ -0.250680007456282, 51.51954571191964 ], [ -0.250668809072414, 51.519574313077989 ], [ -0.250656219781291, 51.519601994501961 ], [ -0.250643596028274, 51.519630574412886 ], [ -0.250628156025101, 51.51965821334408 ], [ -0.250614141343311, 51.519685873517794 ], [ -0.250604812586163, 51.519702905410178 ], [ -0.250575461146246, 51.519755509037722 ], [ -0.250544599960855, 51.519807191151735 ], [ -0.250510888010519, 51.519858830763887 ], [ -0.250475750633383, 51.519910449118228 ], [ -0.250462080274951, 51.51992912438542 ], [ -0.250281789655603, 51.520158469178824 ], [ -0.250565863760414, 51.520418110255555 ], [ -0.250668606339157, 51.520633604100759 ], [ -0.251900148892819, 51.522236534353972 ], [ -0.251995263730221, 51.522763057896213 ], [ -0.25206974340539, 51.523192271701731 ], [ -0.252231844614184, 51.523586740393569 ], [ -0.252429151167851, 51.523968248016608 ], [ -0.252617803927462, 51.52438648543702 ], [ -0.252637257444502, 51.524595433220348 ], [ -0.252615825810558, 51.524779499239372 ], [ -0.252505912272179, 51.525089006957401 ], [ -0.252369431361246, 51.525226319881419 ], [ -0.252280261334681, 51.525335569162422 ], [ -0.251111598272178, 51.52652677540209 ], [ -0.25064452361682, 51.526900181468378 ], [ -0.250341504305845, 51.527096231552179 ], [ -0.250271906395776, 51.527181497979832 ], [ -0.250271561746019, 51.527190482833703 ], [ -0.250271251188646, 51.527310134991886 ], [ -0.250272256640065, 51.52736139293156 ], [ -0.250597657335547, 51.527784367726653 ], [ -0.250537063103697, 51.527823919554145 ], [ -0.250213358425606, 51.528032247046525 ], [ -0.250042607958171, 51.528197904197356 ], [ -0.25011224500734, 51.528223215361045 ], [ -0.250444990903104, 51.528343247420182 ], [ -0.250368952409565, 51.528410437934092 ], [ -0.249621026154584, 51.529076413087118 ], [ -0.249545223111866, 51.529137403510418 ], [ -0.249411282783773, 51.529245083898338 ], [ -0.249319389880942, 51.529198763420446 ], [ -0.249302354956207, 51.529190418355483 ], [ -0.248830903390046, 51.529490933410464 ], [ -0.248453689249235, 51.529742508924024 ], [ -0.248484627561864, 51.529800506534983 ], [ -0.247702384770883, 51.530309442148024 ], [ -0.246932025008325, 51.530731437154493 ], [ -0.246611256875351, 51.53086239511056 ], [ -0.246305999309288, 51.530964006848286 ], [ -0.246025224492255, 51.531031731746751 ], [ -0.245983127610465, 51.531038294714236 ], [ -0.245899002924733, 51.531049623636939 ], [ -0.245816457262396, 51.531060077097003 ], [ -0.24552701045052, 51.531050357230981 ], [ -0.245382842218127, 51.531052697327709 ], [ -0.245245386392239, 51.531214260590652 ], [ -0.245316485565381, 51.531238697421216 ], [ -0.246263080061849, 51.531557694333358 ], [ -0.246348823452148, 51.531538298324151 ], [ -0.246970937124459, 51.531785016408278 ], [ -0.246920945728389, 51.53184540178934 ], [ -0.246915035610119, 51.531850707521841 ], [ -0.246559009491894, 51.532221351528015 ], [ -0.246411765268949, 51.532451992868985 ], [ -0.246347495341503, 51.532586871577124 ], [ -0.246287687637785, 51.532754090997699 ], [ -0.246190280109186, 51.532699594764992 ], [ -0.246014177903063, 51.532629538634581 ], [ -0.244734190877262, 51.53217241344165 ], [ -0.244480721573441, 51.532089511048042 ], [ -0.24391037569254, 51.531921857015568 ], [ -0.243625689961829, 51.531828506821405 ], [ -0.243489844007935, 51.531796807132885 ], [ -0.243405240988468, 51.531786551125457 ], [ -0.243206457081077, 51.531780879271842 ], [ -0.24207942818818, 51.531807158652171 ], [ -0.241078055990997, 51.531864168088852 ], [ -0.240911622988167, 51.531879654119486 ], [ -0.240475629242829, 51.531930655730761 ], [ -0.240105510437507, 51.531956572345287 ], [ -0.239467613074426, 51.531974875966839 ], [ -0.23934204551485, 51.531975689647425 ], [ -0.239228156036688, 51.531975779363833 ], [ -0.238545255672412, 51.531961937861354 ], [ -0.23732616482702, 51.532020053220315 ], [ -0.236775789308994, 51.532157515625528 ], [ -0.236461810388882, 51.532225618151664 ], [ -0.235428806018851, 51.532426843735557 ], [ -0.235363532470442, 51.53243934754498 ], [ -0.235080199944074, 51.532492624077861 ], [ -0.235064293730501, 51.532495081930897 ], [ -0.234604685630788, 51.532596947767161 ], [ -0.234399781416529, 51.532638814599352 ], [ -0.234194357794747, 51.532546721863191 ], [ -0.234164583185695, 51.532532788707655 ], [ -0.233835960587264, 51.532343546802707 ], [ -0.233229044945071, 51.532007082334687 ], [ -0.232925081909602, 51.531813624282812 ], [ -0.232330849096155, 51.531521397297389 ], [ -0.231590046637718, 51.531180210091165 ], [ -0.231370036357302, 51.531090589546558 ], [ -0.231074021811025, 51.530989843785477 ], [ -0.230718334927606, 51.530867610281668 ], [ -0.230445583981008, 51.53083832486378 ], [ -0.230053120817933, 51.530732615725682 ], [ -0.229894782341323, 51.530689681984839 ], [ -0.229404431458648, 51.530545634705142 ], [ -0.229174011538154, 51.530500803086646 ], [ -0.228787943075531, 51.530420358306486 ], [ -0.22869225266286, 51.530469257862975 ], [ -0.228479053583172, 51.530354472737784 ], [ -0.228703626869499, 51.529879503879499 ], [ -0.228341682952944, 51.529214890091261 ], [ -0.228300847688034, 51.529152242261929 ], [ -0.228245885488916, 51.529082998168583 ], [ -0.228183533534586, 51.529017328366194 ], [ -0.227995305968009, 51.528853564174206 ], [ -0.227802763213395, 51.528650987464438 ], [ -0.227716050402168, 51.528545393309514 ], [ -0.227564271626815, 51.528330845903206 ], [ -0.227483840962503, 51.528176800303889 ], [ -0.227433897138759, 51.528051893438807 ], [ -0.227388093181344, 51.527893875878227 ], [ -0.227353612889306, 51.527704474366551 ], [ -0.227331054246824, 51.527508060933684 ], [ -0.227323585816569, 51.527290389306529 ], [ -0.227326540721216, 51.52710425036998 ], [ -0.227390214661899, 51.526282444504808 ], [ -0.227392900634372, 51.526250031061267 ], [ -0.227368044555972, 51.525962873433301 ], [ -0.227351036766712, 51.525843858115273 ], [ -0.227274784205463, 51.525319396359656 ], [ -0.227247441353613, 51.525169658953793 ], [ -0.227171215138737, 51.524794432340933 ], [ -0.226595939845005, 51.524797425567101 ], [ -0.226709547592028, 51.522354934600131 ], [ -0.226705535279615, 51.521978101915252 ], [ -0.226796570535391, 51.521935426659894 ], [ -0.228047053828859, 51.521358999321308 ], [ -0.22805326891029, 51.521198980788498 ], [ -0.228277737409664, 51.521098985316257 ], [ -0.226698981497468, 51.519773917436439 ], [ -0.226744654095589, 51.519748536646198 ], [ -0.226677223418181, 51.519700769328963 ], [ -0.226601977872179, 51.519633914885098 ], [ -0.226539340382077, 51.519579027911625 ], [ -0.226504804121649, 51.519538050729871 ], [ -0.226460249214901, 51.519534680223472 ], [ -0.226448762893451, 51.519533607589068 ], [ -0.226402929065248, 51.519489762588265 ], [ -0.226345805155449, 51.519513172127823 ], [ -0.225870902862922, 51.519085168553381 ], [ -0.225653662158461, 51.518889406789739 ], [ -0.225275187633728, 51.518503314140979 ], [ -0.225053369500791, 51.518278713888122 ], [ -0.22489369407676, 51.518121669572622 ], [ -0.224723578067592, 51.517973367188844 ], [ -0.224440447317807, 51.517657038647535 ], [ -0.224253388968167, 51.517501377035551 ], [ -0.224276089097918, 51.517473851497257 ], [ -0.224291229532231, 51.517454302570748 ], [ -0.223644347454684, 51.516743916714418 ], [ -0.222904013287137, 51.515916230036595 ], [ -0.222727341520326, 51.515713885104987 ], [ -0.222580202794039, 51.515644230803986 ], [ -0.222451062999662, 51.515408443370525 ], [ -0.222378417032881, 51.515275189114298 ], [ -0.222253194859027, 51.515085310010427 ], [ -0.22200841935681, 51.514746182373386 ], [ -0.221733418766635, 51.514331978735051 ], [ -0.221456311698359, 51.51389877349056 ], [ -0.221455131682661, 51.513892462572336 ], [ -0.221439483952405, 51.513812213980536 ], [ -0.22147343057785, 51.51364551378613 ], [ -0.221336136563091, 51.51346983470588 ], [ -0.221107871725366, 51.513112975286603 ], [ -0.220514254295813, 51.512221780057608 ], [ -0.22041214192329, 51.512067400454008 ], [ -0.220322208739543, 51.511862771344902 ], [ -0.220310175345356, 51.511839214688635 ], [ -0.220245145491688, 51.511730347664979 ], [ -0.220115572994209, 51.511506237959971 ], [ -0.2200166461386, 51.511346422386332 ], [ -0.21991335762267, 51.511185731441778 ], [ -0.219858402231112, 51.51108061306271 ], [ -0.219810645866598, 51.5109737159801 ], [ -0.219765855035762, 51.510866953774944 ], [ -0.219744744543807, 51.510817188181782 ], [ -0.219547023030716, 51.510342030439176 ], [ -0.219494616090814, 51.510208182389988 ], [ -0.219277077970578, 51.509616751750805 ], [ -0.219262742982095, 51.509576078947688 ], [ -0.21882078932945, 51.509638593422416 ], [ -0.217864869206086, 51.509760724225842 ], [ -0.218029578760804, 51.510231788039221 ], [ -0.217817109971582, 51.510247439101654 ], [ -0.21776939927478, 51.510252108209201 ], [ -0.217623263279124, 51.510266968774602 ], [ -0.217576648271803, 51.510277048483523 ], [ -0.217531471734945, 51.51028984704854 ], [ -0.21748780384132, 51.5103035675277 ], [ -0.217465910509557, 51.510310426858759 ], [ -0.217222373796118, 51.510382242021969 ], [ -0.217185936061858, 51.510393375265181 ], [ -0.216971192825413, 51.510135692689573 ], [ -0.216936475147107, 51.510102800752392 ], [ -0.216939497278618, 51.510025442354312 ], [ -0.216969673825735, 51.509989041868167 ], [ -0.216986323377095, 51.509970415852699 ], [ -0.21696047167946, 51.509929567647056 ], [ -0.216889205330098, 51.509798128542499 ], [ -0.216835827674974, 51.509689346570134 ], [ -0.21679157174313, 51.509569106079113 ], [ -0.216818031578562, 51.509445355722214 ], [ -0.216589219800984, 51.509325905303641 ], [ -0.216487322638231, 51.509242546485041 ], [ -0.216438364506928, 51.509203144821008 ], [ -0.21640697229293, 51.509121667097261 ], [ -0.216068207655419, 51.509161555488788 ], [ -0.216062368700999, 51.50912550647152 ], [ -0.215793263695893, 51.509115929404125 ], [ -0.215588086110406, 51.508540950803024 ], [ -0.215521819657288, 51.508394213849087 ], [ -0.215369240255539, 51.50805737243158 ], [ -0.215179219278274, 51.507648040590873 ], [ -0.21537365290507, 51.50761324083377 ], [ -0.215838362889215, 51.507521329984577 ], [ -0.215858689714642, 51.507518043153937 ], [ -0.216063235909088, 51.507519356307924 ], [ -0.216120826416167, 51.507520232200122 ], [ -0.216131566205468, 51.507467354201268 ], [ -0.216145858005902, 51.50739655010765 ], [ -0.216165545580665, 51.507224150524053 ], [ -0.216203634764452, 51.506948735024849 ], [ -0.216033188510158, 51.506591754645797 ], [ -0.215939716153067, 51.506402440706886 ], [ -0.216219548155855, 51.506359049419338 ], [ -0.216295722643547, 51.506364702886778 ], [ -0.216298572411297, 51.506364746224229 ], [ -0.216339792898683, 51.506416616403946 ], [ -0.216364484760281, 51.506447558088389 ], [ -0.217157244805905, 51.506294103766471 ], [ -0.217967086641995, 51.506147286574695 ], [ -0.217724669861587, 51.505749748832045 ], [ -0.217564791059134, 51.505490113760359 ], [ -0.217549722074068, 51.505468308621261 ], [ -0.217612720638226, 51.505443194809885 ], [ -0.217574700049493, 51.505382383642065 ], [ -0.217394883601623, 51.505116152285076 ], [ -0.217016840145057, 51.504501599263662 ], [ -0.216985151625929, 51.504464258300921 ], [ -0.216558522397282, 51.503953249795977 ], [ -0.216386002510916, 51.503719491941887 ], [ -0.21635188665651, 51.503671325810906 ], [ -0.21631847924296, 51.503678009822451 ], [ -0.216212382221249, 51.503702467485482 ], [ -0.215995391232788, 51.503390718148552 ], [ -0.215352311307539, 51.502703803329801 ], [ -0.214942917438488, 51.502302819572435 ], [ -0.215051490354409, 51.502251430549883 ], [ -0.2146947937008, 51.501645285399249 ], [ -0.214346087213956, 51.501132757409302 ], [ -0.214109445555698, 51.500771259771476 ], [ -0.213039090204709, 51.499848487491157 ], [ -0.21256877202623, 51.499530174157449 ], [ -0.211919670692733, 51.499145303831462 ], [ -0.21165497169387, 51.498988346784564 ], [ -0.211484327330443, 51.498895843901664 ], [ -0.210801439338555, 51.498524836210436 ], [ -0.210246529045569, 51.498128807231112 ], [ -0.210028121866722, 51.49792760243794 ], [ -0.209898559580768, 51.497778187653807 ], [ -0.20956346609444, 51.497396208377388 ], [ -0.208943884549131, 51.496811293051245 ], [ -0.208185900773711, 51.496190906781152 ], [ -0.207977841120145, 51.496023119472248 ], [ -0.207364939342762, 51.496149593385567 ], [ -0.207294161375513, 51.496043237635632 ], [ -0.207285058328239, 51.496017926249493 ], [ -0.207274530736704, 51.495992593087941 ], [ -0.207258150960746, 51.495968069481066 ], [ -0.207240430091743, 51.495944424381122 ], [ -0.207225157464873, 51.495928008771564 ], [ -0.207201549168081, 51.49590607168934 ], [ -0.20717502124912, 51.495885887990049 ], [ -0.207145454996413, 51.49586745585701 ], [ -0.207112969122796, 51.49585077710266 ], [ -0.207111967848817, 51.495839973691275 ], [ -0.207079940562931, 51.495811614823872 ], [ -0.206816441528258, 51.495624997740897 ], [ -0.206695659223406, 51.49554583625271 ], [ -0.206567247823506, 51.49547644707652 ], [ -0.206303884673464, 51.495359054583915 ], [ -0.205985533847009, 51.49521124300464 ], [ -0.205593354255047, 51.495037937876575 ], [ -0.205167887936217, 51.494829150582085 ], [ -0.204760219693709, 51.494608857142282 ], [ -0.204841764818867, 51.494549871704237 ], [ -0.204362139122413, 51.494289818056906 ], [ -0.204013289350171, 51.494038957170922 ], [ -0.203763999832942, 51.493857045761587 ], [ -0.203614747759184, 51.493771151961489 ], [ -0.203424677639439, 51.493620803058747 ], [ -0.203165986970453, 51.493424362196954 ], [ -0.203099915274814, 51.493382894510177 ], [ -0.203004316099324, 51.493322095177952 ], [ -0.203107794199991, 51.493291316275361 ], [ -0.203070532825618, 51.493251188978988 ], [ -0.202979129740463, 51.493156201658621 ], [ -0.202756738189267, 51.492912758446927 ], [ -0.202546197646565, 51.492664012468296 ], [ -0.202401903174158, 51.492485505200143 ], [ -0.202223960423985, 51.492286793663858 ], [ -0.201840753962531, 51.491883378529216 ], [ -0.201811686995711, 51.491852366709416 ], [ -0.202284617844323, 51.49169599783918 ], [ -0.202363462905636, 51.491669337194466 ], [ -0.201750819871501, 51.491129352667372 ], [ -0.200912060301682, 51.49037193335478 ], [ -0.20091067129468, 51.490371013042662 ], [ -0.200599633965249, 51.490074873809334 ], [ -0.200351229248415, 51.489982870007061 ], [ -0.199557253847659, 51.48929265424367 ], [ -0.199350851080763, 51.489120472457543 ], [ -0.198927044222217, 51.488799223057754 ], [ -0.19900218325244, 51.488758033763041 ], [ -0.198275318179062, 51.488122869755145 ], [ -0.198198385630802, 51.48806496059148 ], [ -0.198042841777934, 51.487955589157011 ], [ -0.1978783029651, 51.487851473330572 ], [ -0.197703775381573, 51.487750709889909 ], [ -0.197520249321078, 51.487655291823216 ], [ -0.197075957169234, 51.487450591459798 ], [ -0.196424546067512, 51.48720683407771 ], [ -0.195964189345641, 51.487373261837512 ], [ -0.195300675342082, 51.486997068176223 ], [ -0.195091957425718, 51.486884177478657 ], [ -0.194889118549647, 51.48676679195696 ], [ -0.194693694571934, 51.486645115084364 ], [ -0.194657195088367, 51.486622078075769 ], [ -0.194470684981322, 51.486494244992464 ], [ -0.194292902419095, 51.486361961046462 ], [ -0.194119698432044, 51.486228039211845 ], [ -0.193981348286512, 51.486119736126199 ], [ -0.193597238077365, 51.485814361362991 ], [ -0.193227967704965, 51.485500223853087 ], [ -0.193166839665537, 51.485445341706793 ], [ -0.192929567854414, 51.485216934285077 ], [ -0.192701107951799, 51.484984976229619 ], [ -0.192551640368815, 51.484830650723204 ], [ -0.192006136085013, 51.484273758172662 ], [ -0.19179732566926, 51.484019626018686 ], [ -0.191751919745221, 51.484038704086565 ], [ -0.191709255497051, 51.484060521431964 ], [ -0.191684238526187, 51.484074519806335 ], [ -0.191367699646804, 51.483772876764469 ], [ -0.191189725202235, 51.48357675655803 ], [ -0.191002824314059, 51.48338418429617 ], [ -0.190840497908104, 51.483227861019422 ], [ -0.190770994754029, 51.483165656665044 ], [ -0.190634683066027, 51.483042188406323 ], [ -0.190421539505289, 51.482861706460227 ], [ -0.190198045607168, 51.482684750308358 ], [ -0.190132357974441, 51.482634201581874 ], [ -0.18949572514053, 51.482088479781481 ], [ -0.189017404876291, 51.481692545741161 ], [ -0.188329341410033, 51.481030861117546 ], [ -0.188257162649843, 51.480961421902585 ], [ -0.188171087242231, 51.480880080919505 ], [ -0.187565665634273, 51.480458893060394 ], [ -0.187379365685597, 51.480323770500881 ], [ -0.187200563237058, 51.480185257424274 ], [ -0.187193537901729, 51.480179754815019 ], [ -0.187022157015686, 51.480036771267905 ], [ -0.186857917564879, 51.47989039176575 ], [ -0.186856564731565, 51.479888572845155 ], [ -0.186705846204326, 51.47976658533689 ], [ -0.18652602131484, 51.479872674054526 ], [ -0.186340379594204, 51.479724074971635 ], [ -0.186212966161603, 51.479595345109253 ], [ -0.186142751040738, 51.479512449907737 ], [ -0.186018452223595, 51.479344121979828 ], [ -0.185746454202644, 51.47893886940723 ], [ -0.18566113500358, 51.478838659198843 ], [ -0.185608392392961, 51.478788308177599 ], [ -0.185350689180879, 51.478603621415701 ], [ -0.184645010583733, 51.478098068579484 ], [ -0.184552882719845, 51.478022924144085 ], [ -0.184315366841884, 51.477802497299137 ], [ -0.184009253124831, 51.477533450425788 ], [ -0.183856804985635, 51.477419523276865 ], [ -0.183715184292827, 51.477358894708871 ], [ -0.183595621691912, 51.477322880717892 ], [ -0.183396982380557, 51.477283843652785 ], [ -0.18289633474595, 51.477237429948609 ], [ -0.182801571232349, 51.477228769504293 ], [ -0.182624669031571, 51.477222432078918 ], [ -0.182529453315747, 51.477228148458991 ], [ -0.182400583743128, 51.47724413119078 ], [ -0.18221456310043, 51.477287996002204 ], [ -0.180826899848154, 51.477744837330164 ], [ -0.180708967144773, 51.477775371927308 ], [ -0.18056378516811, 51.4778073715432 ], [ -0.180414454592165, 51.477830226674406 ], [ -0.180186164922979, 51.477850058327888 ], [ -0.179658490756598, 51.477829282504224 ], [ -0.179519073232706, 51.477820825250518 ], [ -0.17930536210343, 51.477799527341212 ], [ -0.178200288066327, 51.477632141465556 ], [ -0.177924428550554, 51.477579309394514 ], [ -0.177791470673296, 51.47755476837839 ], [ -0.177704543784169, 51.477423871165655 ], [ -0.177656087207207, 51.477337712802758 ], [ -0.177626236368368, 51.477255439571131 ], [ -0.177607080213649, 51.477158049464592 ] ] ] } }
]
}
