{
"type": "FeatureCollection",
"name": "borough_Camden",
"crs": { "type": "name", "properties": { "name": "urn:ogc:def:crs:OGC:1.3:CRS84" } },
"features": [
{ "type": "Feature", "properties": { "DISTRICT": "Camden", "NAME": "Swiss Cottage", "GSS_CODE": "E05000144", "LAGSSCODE": "E09000007", "HECTARES": 125.671, "NONLD_AREA": 0.0 }, "geometry": { "type": "Polygon", "coordinates": [ [ [ -0.129664349947609, 51.514127609576562 ], [ -0.129827244715598, 51.514479114559677 ], [ -0.130413148698857, 51.515939824048047 ], [ -0.130446237966177, 51.516080687639793 ], [ -0.130440801170124, 51.516178593614356 ], [ -0.130347618664525, 51.516448700878982 ], [ -0.130344205969923, 51.516497193289254 ], [ -0.130402064967378, 51.516596197965413 ], [ -0.130806492775779, 51.517103484037392 ], [ -0.131051621713197, 51.517031872479393 ], [ -0.131089510196423, 51.51702078892604 ], [ -0.131137456674413, 51.517010764613438 ], [ -0.131561055906622, 51.516945591200425 ], [ -0.132449479764562, 51.516719611687527 ], [ -0.132543626479973, 51.517166212526192 ], [ -0.132979455132777, 51.517365629151335 ], [ -0.133597270593649, 51.517729762607146 ], [ -0.133841854541848, 51.517598801372131 ], [ -0.13388502255841, 51.517566134601978 ], [ -0.133917283642093, 51.517553162564262 ], [ -0.133952101134586, 51.517547423310155 ], [ -0.133988086621403, 51.517547995735931 ], [ -0.134045099367575, 51.517563286875692 ], [ -0.13444875600982, 51.51795106941308 ], [ -0.134317477739284, 51.518022700915203 ], [ -0.135232966854745, 51.518934744704424 ], [ -0.135826487533301, 51.518695960095592 ], [ -0.136296690453298, 51.519148533841808 ], [ -0.137007865437063, 51.518886440067469 ], [ -0.138010618983818, 51.519816928535811 ], [ -0.13814563312482, 51.520006156396299 ], [ -0.13818157952315, 51.520042687488818 ], [ -0.138230407479697, 51.520083918081461 ], [ -0.138318839063852, 51.520141959424606 ], [ -0.138711659586473, 51.520441361338939 ], [ -0.139154659402042, 51.520818962940147 ], [ -0.139778740724362, 51.521349479710921 ], [ -0.140448670404696, 51.521889799700546 ], [ -0.141390740173365, 51.522650190562487 ], [ -0.142875819359927, 51.523879644625076 ], [ -0.143067851995105, 51.523871896162902 ], [ -0.143286701414295, 51.52387985501236 ], [ -0.14349600248138, 51.52390923865039 ], [ -0.143495746133815, 51.523950589161274 ], [ -0.143488322246653, 51.524027876643245 ], [ -0.143389493856892, 51.524543334670113 ], [ -0.143471169677039, 51.524624639271316 ], [ -0.143964389615791, 51.52469006987323 ], [ -0.144153724518134, 51.524643529487832 ], [ -0.144129608865103, 51.523997477516971 ], [ -0.144621434214901, 51.524061984372516 ], [ -0.144683209836257, 51.524065658365885 ], [ -0.144827730372846, 51.524057155631304 ], [ -0.145173359583858, 51.523996003818354 ], [ -0.145790316376802, 51.525271924301819 ], [ -0.147170562066718, 51.525042906168977 ], [ -0.149897553382483, 51.531207219801594 ], [ -0.150859942863428, 51.5333222105156 ], [ -0.151455826997116, 51.53462923396166 ], [ -0.152707062499271, 51.537521196271214 ], [ -0.153391117838572, 51.537472629298463 ], [ -0.153902727223571, 51.537442921520096 ], [ -0.154156030412538, 51.537420835348904 ], [ -0.154397907474301, 51.537393174833902 ], [ -0.154721237754708, 51.537350522749577 ], [ -0.154969372353249, 51.537312171337113 ], [ -0.155196136328906, 51.537267190317152 ], [ -0.155456667471129, 51.537207456516875 ], [ -0.155824094426483, 51.537106249790483 ], [ -0.15755429669551, 51.536753869210543 ], [ -0.158606239324739, 51.536521357119746 ], [ -0.159412876619231, 51.536363111846399 ], [ -0.15942008804995, 51.536364123984029 ], [ -0.160461577513915, 51.537283333294212 ], [ -0.161894623052483, 51.536860602149616 ], [ -0.163364978910894, 51.536405264438876 ], [ -0.163593901477655, 51.536306360581477 ], [ -0.163767593181497, 51.536220886182697 ], [ -0.164935887010033, 51.535781478770907 ], [ -0.166557764416311, 51.536902096202475 ], [ -0.168018974095572, 51.537892522297618 ], [ -0.168180897296572, 51.537990435067961 ], [ -0.16842505613408, 51.538121905891316 ], [ -0.16901892114771, 51.538415351433684 ], [ -0.169235989467484, 51.538505043462749 ], [ -0.1694108862038, 51.538567196788236 ], [ -0.169517668354633, 51.538599429044027 ], [ -0.170865166575451, 51.537794885880963 ], [ -0.1719561464656, 51.538384736546327 ], [ -0.173485832624557, 51.537634245681339 ], [ -0.174010394948681, 51.538040850483192 ], [ -0.174069637900129, 51.538108298959344 ], [ -0.174098030297352, 51.538156388161212 ], [ -0.174116430937066, 51.53820162484174 ], [ -0.174127714245175, 51.538279114989834 ], [ -0.173896572797279, 51.539478747885546 ], [ -0.175765717029162, 51.539616693630073 ], [ -0.178273564165167, 51.539794105218419 ], [ -0.178328342475749, 51.539794955715507 ], [ -0.17835424631987, 51.539795357893908 ], [ -0.178546054585701, 51.539794739675365 ], [ -0.178739575854901, 51.53978695569139 ], [ -0.17901310684974, 51.539761534066294 ], [ -0.179063930376382, 51.539754231795072 ], [ -0.179287904434142, 51.539707363298206 ], [ -0.179727207634796, 51.539648462212789 ], [ -0.18001198498984, 51.53959444459008 ], [ -0.180156020093443, 51.539563415536627 ], [ -0.180394979415407, 51.539501494290533 ], [ -0.18157572218916, 51.539147521916753 ], [ -0.182724301521675, 51.538767777650627 ], [ -0.18384854852578, 51.538380543551241 ], [ -0.184053676493726, 51.538263252019604 ], [ -0.184199422078309, 51.5381890923436 ], [ -0.184443227424969, 51.53807680384211 ], [ -0.184618196324537, 51.537955448642009 ], [ -0.184676508787209, 51.537903309636228 ], [ -0.185368521271193, 51.537256663033951 ], [ -0.185465872023568, 51.537164582379489 ], [ -0.187726421993684, 51.535035889119257 ], [ -0.187816271508789, 51.534988730751472 ], [ -0.187876999445851, 51.534947415546746 ], [ -0.187953329107541, 51.534878472145905 ], [ -0.188558601937873, 51.534596451729357 ], [ -0.188748775490131, 51.53452566947383 ], [ -0.189034412935635, 51.534778204062228 ], [ -0.189191404127123, 51.534890395665919 ], [ -0.18929998382637, 51.534988264941163 ], [ -0.189400782419762, 51.535063538924163 ], [ -0.189531768162374, 51.535142065569971 ], [ -0.189644924541359, 51.535199549954072 ], [ -0.189810953073344, 51.535266840054078 ], [ -0.190381359644388, 51.535533743646617 ], [ -0.190800556932099, 51.535761453616743 ], [ -0.191057412082112, 51.535939821003133 ], [ -0.19125977660029, 51.536110245629793 ], [ -0.191402975180607, 51.53624370778099 ], [ -0.191458748175725, 51.536291315743924 ], [ -0.192437682973536, 51.53713105821722 ], [ -0.192625862344658, 51.537296676962988 ], [ -0.193730739111815, 51.538268703987463 ], [ -0.195417407925856, 51.539739806996849 ], [ -0.196366582385826, 51.540605129192272 ], [ -0.196514668392756, 51.540726973027986 ], [ -0.196667423915646, 51.540838999410553 ], [ -0.196830348150912, 51.54094947376722 ], [ -0.197771721472414, 51.541724674209277 ], [ -0.198849860613393, 51.542614432196764 ], [ -0.198851286613142, 51.542614454088181 ], [ -0.199381131006458, 51.543038915358771 ], [ -0.201204225767647, 51.544605524378419 ], [ -0.20190706010791, 51.545288032847267 ], [ -0.201933436594046, 51.545312710158264 ], [ -0.202697567916321, 51.546012425086467 ], [ -0.203193205634697, 51.546501072912669 ], [ -0.203564636900051, 51.546813410367605 ], [ -0.203711683871821, 51.546959592052715 ], [ -0.204239155725556, 51.547482884737022 ], [ -0.204247548348146, 51.547490205208355 ], [ -0.205111662234226, 51.54829212224341 ], [ -0.20574262251876, 51.548897092069197 ], [ -0.206311892018616, 51.549420115200803 ], [ -0.206788833436662, 51.549835732097449 ], [ -0.207229395612235, 51.550187771107431 ], [ -0.207284424572052, 51.550255138039276 ], [ -0.207538029844763, 51.550444206962204 ], [ -0.20794908709031, 51.55077601728069 ], [ -0.208577130185488, 51.551239788513506 ], [ -0.209147321996161, 51.551632460628383 ], [ -0.209731851511011, 51.552063107220846 ], [ -0.210293607730535, 51.552453037934768 ], [ -0.210724723162896, 51.552786943195549 ], [ -0.211255556627092, 51.553192490038228 ], [ -0.211405472675842, 51.553306252868715 ], [ -0.211705219826212, 51.553532967551668 ], [ -0.211916389548496, 51.553704390925589 ], [ -0.212355327656321, 51.554133704596723 ], [ -0.212466437924134, 51.554242379758897 ], [ -0.212783268825054, 51.554588920432685 ], [ -0.212874573783107, 51.554650634848556 ], [ -0.213214556954802, 51.554958869533458 ], [ -0.213437735774102, 51.555151959420279 ], [ -0.213476743532239, 51.555188513826579 ], [ -0.213260684340514, 51.555290497932546 ], [ -0.212975641799745, 51.555422806448973 ], [ -0.212487052694798, 51.555704935110846 ], [ -0.212104777989139, 51.55592665008033 ], [ -0.211673022747456, 51.556157408818322 ], [ -0.211222244814356, 51.556324136068241 ], [ -0.210820036831975, 51.55646544103773 ], [ -0.210006496321986, 51.556756088590355 ], [ -0.210002357951384, 51.556752429411375 ], [ -0.209541786558642, 51.55635604035421 ], [ -0.209513936678261, 51.556332241077065 ], [ -0.209212499341801, 51.556036271253447 ], [ -0.208831675059794, 51.555741785761292 ], [ -0.208820462253209, 51.555733523486467 ], [ -0.208309337706182, 51.555892126145544 ], [ -0.208013684600699, 51.555964026788416 ], [ -0.207498039537117, 51.556089203555686 ], [ -0.206966684476546, 51.556211530828605 ], [ -0.206471360539447, 51.556337013608932 ], [ -0.206311234727959, 51.556374122180188 ], [ -0.206190932652495, 51.556387566123753 ], [ -0.206064889445789, 51.556401821171953 ], [ -0.205967538442349, 51.556418402738075 ], [ -0.205941448236147, 51.556422498844761 ], [ -0.205869181994109, 51.556206440431588 ], [ -0.205873293117428, 51.556138178513656 ], [ -0.205878692884815, 51.556073442440542 ], [ -0.205840652811189, 51.555939807211274 ], [ -0.205852816587782, 51.555557823909176 ], [ -0.205812682930672, 51.555441147944144 ], [ -0.205790571676723, 51.5553077562722 ], [ -0.205754330200686, 51.555309899082573 ], [ -0.205321870641619, 51.5553401442791 ], [ -0.205079809601944, 51.555367906755784 ], [ -0.204951105522356, 51.555413585272973 ], [ -0.204764632033047, 51.555425116346498 ], [ -0.204285999948562, 51.555561723344894 ], [ -0.204057342825711, 51.555617558169985 ], [ -0.203924120946409, 51.555629903018222 ], [ -0.203651971341676, 51.555654504900261 ], [ -0.203322960358792, 51.555694417608024 ], [ -0.202765922718287, 51.5557740790615 ], [ -0.2018254747003, 51.55591879417927 ], [ -0.201624107087296, 51.555939981087455 ], [ -0.201313505004092, 51.555986462211401 ], [ -0.200957082678889, 51.556063794722881 ], [ -0.200526692720979, 51.556149790529368 ], [ -0.200144477999416, 51.556184381440481 ], [ -0.19996680568308, 51.556189745985144 ], [ -0.199385204262994, 51.556195203063503 ], [ -0.199439275143222, 51.556286832970549 ], [ -0.199460098763046, 51.556343880065135 ], [ -0.199477053263207, 51.55646280944022 ], [ -0.199492777480282, 51.55650440520769 ], [ -0.199579309680014, 51.556650563784508 ], [ -0.199644516007092, 51.556827770363114 ], [ -0.199650876822701, 51.556883606525005 ], [ -0.199648856152014, 51.556934818989255 ], [ -0.199635443178429, 51.556982350447363 ], [ -0.199599300050139, 51.557057312345499 ], [ -0.199473337914788, 51.557253250419521 ], [ -0.199101427896852, 51.557719609443218 ], [ -0.199027546308791, 51.55776522335524 ], [ -0.198881941500892, 51.557834907982681 ], [ -0.198766503709674, 51.557908741660476 ], [ -0.19861424181924, 51.558038557181185 ], [ -0.198555566433134, 51.558099687443615 ], [ -0.198508492691142, 51.558159197865272 ], [ -0.198482873139181, 51.558223622759677 ], [ -0.198474202705299, 51.558259449867428 ], [ -0.19847532409021, 51.558450955657968 ], [ -0.198454367498923, 51.558761780161937 ], [ -0.198206327363377, 51.558943253466872 ], [ -0.19820490084046, 51.558943231550245 ], [ -0.197959958621585, 51.55911845783551 ], [ -0.197598548822956, 51.558881772523762 ], [ -0.197539425148902, 51.558915025625979 ], [ -0.19732192101266, 51.55901596584814 ], [ -0.197009523705284, 51.559110142751358 ], [ -0.196793012353342, 51.559185925400556 ], [ -0.196655502210285, 51.559234154659485 ], [ -0.196741568686256, 51.55939190302 ], [ -0.196792653033662, 51.55959505203576 ], [ -0.196817916155161, 51.559870622518986 ], [ -0.196907265508651, 51.559870198304978 ], [ -0.196919844817319, 51.55988297762535 ], [ -0.196897732870535, 51.560039062598065 ], [ -0.196878985354291, 51.560404844660745 ], [ -0.19689394730284, 51.560610045300201 ], [ -0.196894840920331, 51.56062354394718 ], [ -0.196788382180414, 51.56061741210695 ], [ -0.196725977782663, 51.560697451895216 ], [ -0.196624509341568, 51.560673416763393 ], [ -0.196569940767861, 51.560741800141663 ], [ -0.196219148752992, 51.560672576592786 ], [ -0.196100004076178, 51.560656360074468 ], [ -0.195933270427514, 51.560604260714179 ], [ -0.195570032449191, 51.560524954849839 ], [ -0.195323611755033, 51.560481607332541 ], [ -0.195052907275031, 51.560465754354766 ], [ -0.194827131431893, 51.56048385509721 ], [ -0.19458726256722, 51.560566465970211 ], [ -0.194588028907229, 51.560658264994508 ], [ -0.194544190479888, 51.560707933729567 ], [ -0.194456936830389, 51.560760530007876 ], [ -0.194377859827975, 51.56078987828564 ], [ -0.194276944937017, 51.56082698120106 ], [ -0.194255023841998, 51.560833835614481 ], [ -0.194085515636736, 51.560887862026476 ], [ -0.193957340025343, 51.560916453926495 ], [ -0.193827957424842, 51.560870410657884 ], [ -0.193763973458975, 51.5608460513753 ], [ -0.193590934384878, 51.56095315318094 ], [ -0.192955633444284, 51.561183396797126 ], [ -0.192295169633467, 51.561541085816607 ], [ -0.19172217814821, 51.561582595586295 ], [ -0.191381565807922, 51.561583635976646 ], [ -0.191115446921181, 51.561637966008909 ], [ -0.190935185381776, 51.561708003796916 ], [ -0.190741466359223, 51.561826379279005 ], [ -0.190638106339667, 51.56192196569647 ], [ -0.190593811643263, 51.562057929131527 ], [ -0.190490143668719, 51.562380056746228 ], [ -0.190380291722024, 51.562639159349843 ], [ -0.190346263692585, 51.562768179049478 ], [ -0.190119718921661, 51.563497541386916 ], [ -0.19013550377446, 51.563753188676976 ], [ -0.190118122179758, 51.563972274498319 ], [ -0.189996644054163, 51.564527055468396 ], [ -0.189993968667396, 51.56463039825563 ], [ -0.189972255306526, 51.564703870354499 ], [ -0.189910348065745, 51.564809894842917 ], [ -0.18987542513259, 51.564961375320443 ], [ -0.189822517506241, 51.56505944774274 ], [ -0.189618424859677, 51.565255873308374 ], [ -0.189471029394261, 51.565297738200343 ], [ -0.189398016341697, 51.565356843349079 ], [ -0.189340030827608, 51.56543595830361 ], [ -0.189286373484727, 51.565480978371532 ], [ -0.18922728281344, 51.565516025605604 ], [ -0.18916272315283, 51.56554199843908 ], [ -0.189124807788633, 51.565553099832606 ], [ -0.188676372908687, 51.565581324628369 ], [ -0.188359870781905, 51.565774213573803 ], [ -0.188390080225913, 51.565813336911802 ], [ -0.188068546578057, 51.565917237050783 ], [ -0.187893613367373, 51.565996342160702 ], [ -0.187788354176251, 51.566031574190291 ], [ -0.187703771234249, 51.566055438781454 ], [ -0.187504882458247, 51.566084728547715 ], [ -0.187421833179864, 51.566105919663862 ], [ -0.187366165347898, 51.566126634981778 ], [ -0.187252756158143, 51.566184305225448 ], [ -0.187167994026819, 51.566212661610685 ], [ -0.186991880719678, 51.566467949380637 ], [ -0.186751636081011, 51.566630638023952 ], [ -0.186697000955761, 51.56666125788464 ], [ -0.186618799552767, 51.566704099167573 ], [ -0.186539397366311, 51.566744224853714 ], [ -0.186459876145254, 51.566784348643608 ], [ -0.186445117011463, 51.566790503223466 ], [ -0.186396593368973, 51.566814025528508 ], [ -0.186346642918467, 51.566837525745399 ], [ -0.186296609265925, 51.566860125662586 ], [ -0.186246730207513, 51.566881828958017 ], [ -0.186195341192542, 51.566902609885211 ], [ -0.186142644267128, 51.566923370558484 ], [ -0.186089899896795, 51.566942332491742 ], [ -0.185656913643512, 51.567054300809765 ], [ -0.185216454398879, 51.567171635698799 ], [ -0.184725695477988, 51.567249445085153 ], [ -0.18416990446981, 51.567364904375651 ], [ -0.183983105076268, 51.567416042223975 ], [ -0.18378638796337, 51.567501098018354 ], [ -0.183456853527648, 51.567769379102693 ], [ -0.183693968578338, 51.56797532378706 ], [ -0.183542481904554, 51.568009027781748 ], [ -0.183468285968573, 51.568025858716112 ], [ -0.182185676230797, 51.568672322845863 ], [ -0.182107072973709, 51.568725044242804 ], [ -0.181975117023163, 51.568850656011946 ], [ -0.1818650071122, 51.56893264554499 ], [ -0.18180319596705, 51.568964051195231 ], [ -0.181685842758205, 51.569009878737141 ], [ -0.180893653954764, 51.569407626346681 ], [ -0.180808774287895, 51.569438673708724 ], [ -0.180949528805844, 51.569671088011141 ], [ -0.180727344979639, 51.569669440345265 ], [ -0.180490343471879, 51.5696783503085 ], [ -0.180156146410602, 51.569701933776017 ], [ -0.179699510696518, 51.569788343667518 ], [ -0.179062146813066, 51.569922379729078 ], [ -0.179036189794618, 51.569922875776911 ], [ -0.178982730001251, 51.569923843859009 ], [ -0.178930625267013, 51.569926630933196 ], [ -0.178877212580135, 51.569929397678266 ], [ -0.178823609188656, 51.569933959418023 ], [ -0.178771432638183, 51.56993854328595 ], [ -0.178719303183378, 51.569944925841476 ], [ -0.178667018909743, 51.569952204959634 ], [ -0.178614698718401, 51.569960382486315 ], [ -0.178563888362582, 51.569969482423268 ], [ -0.178512959082419, 51.569978580491174 ], [ -0.178462076877665, 51.569989477247198 ], [ -0.178412585596258, 51.570001294569948 ], [ -0.178362939478458, 51.570014008456603 ], [ -0.178360085771862, 51.570013964140443 ], [ -0.178345554707253, 51.570017334440642 ], [ -0.178332295682447, 51.570021623482987 ], [ -0.178317764613369, 51.570024993779597 ], [ -0.178303233542158, 51.570028364074311 ], [ -0.178288702468816, 51.570031734367149 ], [ -0.178274016580573, 51.570036001243579 ], [ -0.178259485502667, 51.570039371532665 ], [ -0.178246345367907, 51.570043662411408 ], [ -0.178233169321569, 51.570048851720649 ], [ -0.178219993272223, 51.570054041028271 ], [ -0.178208244074476, 51.570059252494332 ], [ -0.178197885818961, 51.570065384551221 ], [ -0.178186100705659, 51.57007149444685 ], [ -0.178175706534046, 51.570078524933564 ], [ -0.178165312359188, 51.570085555419233 ], [ -0.178154882270366, 51.570093484335786 ], [ -0.178145914944666, 51.570100536980178 ], [ -0.178136911705056, 51.570108488055702 ], [ -0.178128027366948, 51.570116440977166 ], [ -0.17812041147498, 51.570125402487328 ], [ -0.178112799171113, 51.570134274153666 ], [ -0.178106732626167, 51.570143169827517 ], [ -0.178100547174001, 51.57015206365417 ], [ -0.178094516536183, 51.570160060895319 ], [ -0.178089757937207, 51.570168976882691 ], [ -0.178086509187233, 51.570178815310065 ], [ -0.178081869489491, 51.570187733143804 ], [ -0.178080047595228, 51.570197593732516 ], [ -0.178076679935995, 51.570207430312635 ], [ -0.178074858039697, 51.570217290901198 ], [ -0.17807449891485, 51.570226275219632 ], [ -0.178074103877303, 51.570236157969894 ], [ -0.178075135699935, 51.570246062881949 ], [ -0.178076286428026, 51.570255969640812 ], [ -0.178053238784823, 51.570433701506985 ], [ -0.177669897455417, 51.570275727656032 ], [ -0.177652943585794, 51.570268272355044 ], [ -0.177361287366432, 51.570200811719381 ], [ -0.176928664509811, 51.570192290879916 ], [ -0.176489231421801, 51.570068502078669 ], [ -0.175967922352711, 51.569897680016389 ], [ -0.175899464265608, 51.569875039760994 ], [ -0.175908454609453, 51.569796068538245 ], [ -0.175167597171102, 51.569557910710301 ], [ -0.175132173592828, 51.569432310316266 ], [ -0.174862646217081, 51.56942452111636 ], [ -0.174381705639045, 51.569256118285217 ], [ -0.174326195395567, 51.569308294686287 ], [ -0.174236262607091, 51.569394096861643 ], [ -0.174080913351878, 51.569523920046834 ], [ -0.173970478190034, 51.569616594771006 ], [ -0.173826317681192, 51.569719532213377 ], [ -0.173828321674034, 51.569921925650334 ], [ -0.173705731762903, 51.569920017115486 ], [ -0.173714373040099, 51.570244776254697 ], [ -0.173718343350469, 51.570433715461633 ], [ -0.173626632287529, 51.570777588860693 ], [ -0.173522970863873, 51.570989124845191 ], [ -0.173481485130373, 51.571050509030073 ], [ -0.173436114695785, 51.571101943839722 ], [ -0.173418009031825, 51.571123237610294 ], [ -0.173351596053751, 51.571195021429375 ], [ -0.173282365093941, 51.571265862333817 ], [ -0.17327032694327, 51.571278260690697 ], [ -0.173198274353174, 51.571348248509089 ], [ -0.173124798245646, 51.571418124209139 ], [ -0.173048457252212, 51.57148525827423 ], [ -0.172669388493015, 51.57168980657508 ], [ -0.172271002651852, 51.571910144459679 ], [ -0.172065542256991, 51.571921416495442 ], [ -0.171817846583125, 51.572054202260112 ], [ -0.171785852157245, 51.572131016488022 ], [ -0.171671744659947, 51.572240802227896 ], [ -0.171333255725925, 51.572406333160551 ], [ -0.171259995660708, 51.572432160608535 ], [ -0.170983339143786, 51.57253042138084 ], [ -0.170479341123052, 51.572648419485432 ], [ -0.169921769024047, 51.572770074438452 ], [ -0.169888268107365, 51.572777642618526 ], [ -0.169123220489148, 51.572853893913241 ], [ -0.168423080956457, 51.572896003392451 ], [ -0.16734770009443, 51.572972714251961 ], [ -0.167081785357681, 51.572981149013813 ], [ -0.166828318863122, 51.572969999845419 ], [ -0.16657018250308, 51.572930009650214 ], [ -0.166295770166141, 51.572862795097727 ], [ -0.166188918436473, 51.57279190427608 ], [ -0.165931148856705, 51.572742838627839 ], [ -0.165864435442917, 51.572750786312817 ], [ -0.165745801253694, 51.572759810684595 ], [ -0.1656081786522, 51.572735095971879 ], [ -0.165245930734087, 51.572665607559507 ], [ -0.164886718660239, 51.572591670537236 ], [ -0.164869502562874, 51.572587805496696 ], [ -0.164832371634258, 51.572579134238147 ], [ -0.164795157989222, 51.572569562688344 ], [ -0.164758027090051, 51.572560891406411 ], [ -0.164720932385466, 51.572551321691975 ], [ -0.164683682606212, 51.572542648527914 ], [ -0.164646515569145, 51.572534875631824 ], [ -0.164607921631585, 51.572527080417437 ], [ -0.164569100248494, 51.572521978593947 ], [ -0.164534642339029, 51.572517843959844 ], [ -0.164448293396858, 51.572511100083965 ], [ -0.164361954829432, 51.572507053265959 ], [ -0.164275461180607, 51.572503902945982 ], [ -0.164238004730313, 51.572503317286426 ], [ -0.164151438716692, 51.572501963716377 ], [ -0.164064836516756, 51.572501508503088 ], [ -0.163978161930627, 51.572502850066918 ], [ -0.163359382998668, 51.572530929332004 ], [ -0.162582898049567, 51.57256912315804 ], [ -0.161527498424574, 51.572690236291329 ], [ -0.161469319815691, 51.572701911075889 ], [ -0.161376320971874, 51.572718434464306 ], [ -0.161283275648843, 51.572733159077586 ], [ -0.161190421677166, 51.572746088640464 ], [ -0.161097603906446, 51.572758119710258 ], [ -0.161003395424121, 51.572769229936625 ], [ -0.160907749836061, 51.572777620615355 ], [ -0.160813686300491, 51.572785137012268 ], [ -0.160794826025942, 51.572786639537483 ], [ -0.160765822152681, 51.572788882142923 ], [ -0.160735510268083, 51.572791104250278 ], [ -0.160706470129999, 51.572794245260027 ], [ -0.160676158239342, 51.572796467351992 ], [ -0.160645763696689, 51.572797789154194 ], [ -0.160616796071187, 51.572799133303675 ], [ -0.160586556697145, 51.572799558534442 ], [ -0.160557625331534, 51.572800004250318 ], [ -0.160527339572824, 51.572798630764915 ], [ -0.160520204979747, 51.572798518983433 ], [ -0.1604899554871, 51.572796247069427 ], [ -0.160459742261957, 51.572793076728736 ], [ -0.160429647951055, 51.572789908243401 ], [ -0.160399471000145, 51.572785839468331 ], [ -0.160369330320857, 51.572780872266634 ], [ -0.160340735475883, 51.572775929278954 ], [ -0.160312057994632, 51.572770086002286 ], [ -0.160306386591702, 51.57276909814783 ], [ -0.160277745387157, 51.57276235644396 ], [ -0.160249140459605, 51.5727547163143 ], [ -0.160220654451494, 51.572747078041061 ], [ -0.160193512729308, 51.572738561839095 ], [ -0.16016648992704, 51.572730047494289 ], [ -0.160140930321334, 51.572720657085469 ], [ -0.15978818748178, 51.572592776622088 ], [ -0.158837360276556, 51.572195710078255 ], [ -0.156955953267241, 51.572078988865179 ], [ -0.155365838223681, 51.571932562986795 ], [ -0.153907619918973, 51.571805360173229 ], [ -0.152680697322674, 51.571707849409144 ], [ -0.151151688161486, 51.571619053471451 ], [ -0.150325186890259, 51.571576367776728 ], [ -0.150088048003624, 51.571515006108243 ], [ -0.14975004701352, 51.571309205066925 ], [ -0.149517487890342, 51.571208358924046 ], [ -0.14913710752864, 51.571088191031187 ], [ -0.148041940459553, 51.570802931383689 ], [ -0.147070943239837, 51.57061860005625 ], [ -0.14609378451458, 51.570448457327409 ], [ -0.145103076792058, 51.570219658143152 ], [ -0.144577025783593, 51.570133133362489 ], [ -0.144391456211598, 51.570082553994951 ], [ -0.144127677178164, 51.570003768346538 ], [ -0.143829664674212, 51.569915450966896 ], [ -0.142392250673722, 51.569283021460464 ], [ -0.142386653340633, 51.569280235927884 ], [ -0.142390091780037, 51.5691228774377 ], [ -0.142475217540669, 51.569016345725288 ], [ -0.14251070141254, 51.568925120420722 ], [ -0.142198793329204, 51.568684649982188 ], [ -0.141864480733676, 51.56831967377942 ], [ -0.141644741150548, 51.567692117711147 ], [ -0.141515694170239, 51.567282653218683 ], [ -0.141277599925711, 51.5661135234255 ], [ -0.14117628188918, 51.565698204070891 ], [ -0.141171445431366, 51.56567385476265 ], [ -0.141119838845804, 51.565419432549227 ], [ -0.141085933487924, 51.565328996681096 ], [ -0.141010485892803, 51.565163286811568 ], [ -0.140664466737979, 51.564590364501321 ], [ -0.140655790451418, 51.564555166467514 ], [ -0.14064507320758, 51.5644650078046 ], [ -0.140641522174755, 51.564374153548165 ], [ -0.140647205990862, 51.564307718290792 ], [ -0.140656721012784, 51.56424943462401 ], [ -0.140791142127405, 51.563855828002239 ], [ -0.140791440400424, 51.563635580098072 ], [ -0.140777020500094, 51.563528281979067 ], [ -0.140729433126429, 51.563350427217927 ], [ -0.14069297886639, 51.563255455873474 ], [ -0.140596818954462, 51.563066852954584 ], [ -0.140566843318383, 51.562845136623388 ], [ -0.140571733054223, 51.562550255293118 ], [ -0.140612961987899, 51.562280222266814 ], [ -0.140633249944316, 51.562208624357105 ], [ -0.140673264681248, 51.562111268156421 ], [ -0.140779478595319, 51.561913284546613 ], [ -0.140970733360237, 51.561467627162358 ], [ -0.140992300372962, 51.561399645404379 ], [ -0.141017415367188, 51.561241730863856 ], [ -0.141017382990007, 51.561172508071841 ], [ -0.141006371062317, 51.561054565917011 ], [ -0.141052075403604, 51.560712594413175 ], [ -0.141030587858345, 51.560530658026536 ], [ -0.141005693725366, 51.560432273824595 ], [ -0.14098011632789, 51.56035356669291 ], [ -0.140911917148627, 51.560220335036547 ], [ -0.14085843650389, 51.560152063770907 ], [ -0.140778241154821, 51.560067996642161 ], [ -0.140676443805617, 51.559982778222931 ], [ -0.140503218654642, 51.559805630239403 ], [ -0.139667217563958, 51.558587373431251 ], [ -0.139425243983109, 51.558258907657127 ], [ -0.139241986160285, 51.558013181534747 ], [ -0.13848941515037, 51.557011174530658 ], [ -0.138368605362294, 51.556861731721121 ], [ -0.137419753415363, 51.555686691320339 ], [ -0.137358381939592, 51.555599322903007 ], [ -0.137246541143588, 51.555477980167133 ], [ -0.137153063098549, 51.555399182059439 ], [ -0.136991512610022, 51.555292243324629 ], [ -0.136518233975925, 51.555048291534966 ], [ -0.135886867985933, 51.554860172674218 ], [ -0.135448948084637, 51.554705779627518 ], [ -0.135311661931312, 51.554639679216727 ], [ -0.135230087565449, 51.554589836807608 ], [ -0.135178262866739, 51.554551255098907 ], [ -0.135121284287321, 51.554499106359764 ], [ -0.135063275242269, 51.55443435510594 ], [ -0.134857519758522, 51.554140615800129 ], [ -0.134696545894692, 51.553950074048196 ], [ -0.134613546246546, 51.553862449661807 ], [ -0.134353612832097, 51.553622686600683 ], [ -0.133979163094172, 51.553362222534425 ], [ -0.133224595872779, 51.552837694663801 ], [ -0.132135889992104, 51.552123456678117 ], [ -0.131814801168884, 51.5519690193656 ], [ -0.131329002725826, 51.551715764238914 ], [ -0.131219072504656, 51.551652880858697 ], [ -0.131001191661807, 51.551513660226668 ], [ -0.130899731517898, 51.551421154344787 ], [ -0.130853113643128, 51.5513601782149 ], [ -0.130811409081513, 51.551286694241618 ], [ -0.130788225292932, 51.551219798365338 ], [ -0.130736091930432, 51.550872760133281 ], [ -0.130688572874726, 51.550659747465438 ], [ -0.130318919708095, 51.549894912423596 ], [ -0.130136925544344, 51.549620420647734 ], [ -0.12999957490904, 51.549486886004992 ], [ -0.129808805295639, 51.549322023243697 ], [ -0.129324058422325, 51.548971682212496 ], [ -0.1293212061357, 51.548971636737356 ], [ -0.129111692293995, 51.548840546566922 ], [ -0.128209805759483, 51.548428709140815 ], [ -0.127946453578692, 51.548308535084054 ], [ -0.127755871524998, 51.548174148526712 ], [ -0.127673510428151, 51.54810630740004 ], [ -0.127583982109015, 51.54803925085325 ], [ -0.12724266950613, 51.547744231885552 ], [ -0.127178140645156, 51.547664987877575 ], [ -0.127147165128774, 51.54761136184603 ], [ -0.12711305189919, 51.547529906249821 ], [ -0.127062681876087, 51.547456282254309 ], [ -0.126862343611391, 51.546998004285186 ], [ -0.126627834120904, 51.546106755544798 ], [ -0.126483499653121, 51.545617006595542 ], [ -0.126369734968584, 51.545190766356427 ], [ -0.126336085494864, 51.545063378400442 ], [ -0.126129429578612, 51.544195048599875 ], [ -0.125968264445475, 51.543556693101813 ], [ -0.125883877072538, 51.543188368404131 ], [ -0.125912690774699, 51.543048582661122 ], [ -0.125874717471499, 51.542919417365319 ], [ -0.125801384959585, 51.542739252677883 ], [ -0.125715306021795, 51.542481569259962 ], [ -0.125664108414219, 51.542112965313855 ], [ -0.125453621404539, 51.541760695564136 ], [ -0.125240958296776, 51.541461432473284 ], [ -0.125067405435612, 51.54119425941596 ], [ -0.125060445285107, 51.541117732010086 ], [ -0.124983084213859, 51.540859287925869 ], [ -0.124835290773121, 51.540596122178009 ], [ -0.124271820536106, 51.539815582172821 ], [ -0.124024560397376, 51.539516662739672 ], [ -0.123708496449089, 51.539240016959397 ], [ -0.123352151907798, 51.538893501993144 ], [ -0.123150515078672, 51.538644756130225 ], [ -0.12304969589239, 51.538500200180202 ], [ -0.12269866708807, 51.537920833578546 ], [ -0.122581165813679, 51.537621289918235 ], [ -0.12249523272303, 51.537363605915154 ], [ -0.122374921673465, 51.536886911191417 ], [ -0.122347474851651, 51.536571726972298 ], [ -0.122326564133848, 51.536311487219329 ], [ -0.122314856999852, 51.536070274040313 ], [ -0.122303371885985, 51.535823670315715 ], [ -0.122312989044039, 51.535520766337704 ], [ -0.122315237767739, 51.534588254224275 ], [ -0.122314625778014, 51.534568466102982 ], [ -0.122334770159037, 51.534044482941418 ], [ -0.12243905132963, 51.532738621813451 ], [ -0.122537715603043, 51.531109833043963 ], [ -0.122527524272247, 51.530831783739529 ], [ -0.122530388124414, 51.530727543562769 ], [ -0.121969876713276, 51.530791393581929 ], [ -0.121193226377522, 51.530849982091453 ], [ -0.119870254408998, 51.530939459085431 ], [ -0.118985743189475, 51.53074808566631 ], [ -0.118115379941345, 51.530559718784545 ], [ -0.117531972808239, 51.530409121714719 ], [ -0.117077208039541, 51.530284051246369 ], [ -0.116506733339886, 51.530096797070016 ], [ -0.116027196484125, 51.529875129984319 ], [ -0.115990885524462, 51.529844789305038 ], [ -0.115917624991261, 51.529770792196182 ], [ -0.115854528962306, 51.529692463223164 ], [ -0.115815348103516, 51.529628003627266 ], [ -0.115781308634842, 51.529545556350506 ], [ -0.115757541127785, 51.529456171825132 ], [ -0.11570112653559, 51.528726881485156 ], [ -0.115654551242137, 51.528320586419383 ], [ -0.115544079493265, 51.527959024907453 ], [ -0.115503051616417, 51.527870262079205 ], [ -0.115450427108532, 51.527783110976181 ], [ -0.115406630529173, 51.527723971226266 ], [ -0.115277881062579, 51.527597748417399 ], [ -0.114679957256442, 51.527204170103538 ], [ -0.11446915524006, 51.52707312159334 ], [ -0.113799071559165, 51.52668008734387 ], [ -0.113734608992627, 51.526634999022427 ], [ -0.11359958765484, 51.526588776094684 ], [ -0.113411937631956, 51.526524625344123 ], [ -0.112923599225585, 51.52641068701859 ], [ -0.113198902941044, 51.526237918918987 ], [ -0.113709559465575, 51.525881039971622 ], [ -0.114227676502374, 51.525518884431946 ], [ -0.114181114416109, 51.525460598863951 ], [ -0.114077453435774, 51.525282635218772 ], [ -0.113855149268764, 51.524906778292646 ], [ -0.113653974606099, 51.524612172239586 ], [ -0.113586501813508, 51.524536468878345 ], [ -0.113481187378394, 51.524433096546197 ], [ -0.113186493015132, 51.52423866465827 ], [ -0.112537309479919, 51.523795614835443 ], [ -0.112332250690612, 51.523701514792201 ], [ -0.112168524972564, 51.523651232353657 ], [ -0.111859358243909, 51.523562648300526 ], [ -0.111175584620641, 51.523398718549316 ], [ -0.110576875453028, 51.523273104450581 ], [ -0.109959473959199, 51.523142601170015 ], [ -0.109783859443103, 51.523101114046796 ], [ -0.10957894300666, 51.523072639759306 ], [ -0.109455867236745, 51.523016715438409 ], [ -0.109295891352019, 51.522944913010413 ], [ -0.109218688617064, 51.522929284493117 ], [ -0.108965512248455, 51.523021398661527 ], [ -0.108941033919562, 51.522986841435355 ], [ -0.108732579765038, 51.522693907658287 ], [ -0.108576388250587, 51.522462050272956 ], [ -0.108311271537928, 51.522148423810442 ], [ -0.108260027827907, 51.522097252544697 ], [ -0.108248730242572, 51.522091676266491 ], [ -0.10699474389445, 51.522191108125512 ], [ -0.106621956864936, 51.521691352018692 ], [ -0.106475927928503, 51.521495616545891 ], [ -0.106326725409131, 51.521267554938994 ], [ -0.106139261590316, 51.520921913327527 ], [ -0.106010711600778, 51.520686003641721 ], [ -0.105858663892423, 51.520286093252992 ], [ -0.105463835000737, 51.519138505064227 ], [ -0.105324207718467, 51.51854271873259 ], [ -0.105811661829591, 51.518397757002468 ], [ -0.106174202125856, 51.518275859467714 ], [ -0.106505445622093, 51.518177819068953 ], [ -0.107023664941434, 51.518021571672165 ], [ -0.107380524981832, 51.517896072558877 ], [ -0.107565692353689, 51.517844219484864 ], [ -0.107800992250558, 51.517767013275368 ], [ -0.108166080376677, 51.517792679479264 ], [ -0.109008197844485, 51.517887257569313 ], [ -0.109506694180961, 51.517928555116868 ], [ -0.110450343877861, 51.518076812060734 ], [ -0.111600832441968, 51.518209601457251 ], [ -0.112313532943903, 51.518264223970888 ], [ -0.11300423513443, 51.518293315821673 ], [ -0.113795473723731, 51.518259290715122 ], [ -0.11378693832767, 51.518221394721927 ], [ -0.11376133593339, 51.518107616896735 ], [ -0.113716847180196, 51.517964856725499 ], [ -0.113693570191781, 51.517935713887574 ], [ -0.113423083618108, 51.517645386882627 ], [ -0.112835314990757, 51.517044199842047 ], [ -0.112128343755074, 51.516225237066863 ], [ -0.112107733068649, 51.516200631890804 ], [ -0.111843189436744, 51.515801615314828 ], [ -0.111581256162212, 51.515339618833565 ], [ -0.111662152030308, 51.515334627850677 ], [ -0.111682365222288, 51.515299891464402 ], [ -0.112299614032448, 51.515219024243152 ], [ -0.112282442628777, 51.515148624467663 ], [ -0.113833786784119, 51.514821970823277 ], [ -0.114660474825679, 51.515988070281757 ], [ -0.114692840152872, 51.51604172237014 ], [ -0.117250926499624, 51.515382199095825 ], [ -0.117591704562389, 51.515227642512528 ], [ -0.118353760484983, 51.515026710958537 ], [ -0.118380064452397, 51.515019940757178 ], [ -0.118598489621104, 51.514965008124193 ], [ -0.1186324210855, 51.514842386995383 ], [ -0.118675017568095, 51.514717117874525 ], [ -0.11882811905459, 51.514672824356566 ], [ -0.119296291382884, 51.51454098381187 ], [ -0.119467751515667, 51.514506783094731 ], [ -0.120321429145396, 51.514599669076055 ], [ -0.121290781042491, 51.514789607354238 ], [ -0.121818024123953, 51.514868173707931 ], [ -0.122072761744394, 51.514629517657539 ], [ -0.122868748272952, 51.515145797140462 ], [ -0.123354593055623, 51.514792076328675 ], [ -0.123559454556254, 51.514717139156865 ], [ -0.123951849561345, 51.514462610840347 ], [ -0.124467577134576, 51.514153415229671 ], [ -0.125236746747142, 51.513778145015472 ], [ -0.126172895398118, 51.513373082883405 ], [ -0.126643398954929, 51.513145954817503 ], [ -0.126842061085327, 51.513013286072677 ], [ -0.126919160597786, 51.512958778247537 ], [ -0.127017709316648, 51.512876743367812 ], [ -0.127152665735075, 51.51271249033919 ], [ -0.127253424241148, 51.512680835440101 ], [ -0.127327557706132, 51.512666735714667 ], [ -0.127427173368737, 51.512662931915429 ], [ -0.127577397389491, 51.512653642773117 ], [ -0.127688912662174, 51.512710262761615 ], [ -0.127963748915093, 51.512861278753149 ], [ -0.128247604252879, 51.513073481162834 ], [ -0.128339195943777, 51.513126276433255 ], [ -0.128844284044087, 51.513391452990462 ], [ -0.1289721087709, 51.513435835567805 ], [ -0.128983443665291, 51.51344051144271 ], [ -0.129094900171737, 51.513463865543933 ], [ -0.129336219358889, 51.513484795509939 ], [ -0.129664349947609, 51.514127609576562 ] ] ] } }
]
}
