{
"type": "FeatureCollection",
"name": "borough_Wandsworth",
"crs": { "type": "name", "properties": { "name": "urn:ogc:def:crs:OGC:1.3:CRS84" } },
"features": [
{ "type": "Feature", "properties": { "DISTRICT": "Wandsworth", "NAME": "Roehampton and Putney Heath", "GSS_CODE": "E05000621", "LAGSSCODE": "E09000032", "HECTARES": 442.415, "NONLD_AREA": 0.0 }, "geometry": { "type": "Polygon", "coordinates": [ [ [ -0.159857415942987, 51.422633769457335 ], [ -0.159893134555608, 51.422281818879505 ], [ -0.159996880316225, 51.422314912888964 ], [ -0.159994515553984, 51.42226452990775 ], [ -0.160018323072517, 51.422209163371228 ], [ -0.159888534059409, 51.422183752035274 ], [ -0.160011835968279, 51.421977920061742 ], [ -0.159939879834368, 51.421941728730062 ], [ -0.159947686774438, 51.421927466689034 ], [ -0.160057717880874, 51.421836502737484 ], [ -0.160336485518671, 51.421917383952454 ], [ -0.1603358554823, 51.421823784678324 ], [ -0.160969863230629, 51.420937122774824 ], [ -0.161156566028254, 51.420619904676457 ], [ -0.161530570504996, 51.419937828213989 ], [ -0.161573857001941, 51.419863887042219 ], [ -0.161645784402742, 51.419862317536939 ], [ -0.162693843849538, 51.419910208969249 ], [ -0.163518073298003, 51.419944696553344 ], [ -0.164114572652192, 51.4199890988302 ], [ -0.164526815192919, 51.420038705530779 ], [ -0.165068400897863, 51.420092222681092 ], [ -0.16502728057522, 51.420183280618687 ], [ -0.164855417403729, 51.420166206716729 ], [ -0.164808141841449, 51.420339879293607 ], [ -0.16504758531002, 51.42039586002241 ], [ -0.16615577381037, 51.420521078970722 ], [ -0.166504187373079, 51.420550800793613 ], [ -0.166711639450905, 51.420576519923941 ], [ -0.167007507647039, 51.420624298466493 ], [ -0.167113364605254, 51.420601679147801 ], [ -0.167537980534007, 51.420700915351254 ], [ -0.167571617194973, 51.420725714832642 ], [ -0.16839982081251, 51.420910458873159 ], [ -0.168422820485525, 51.420981841726885 ], [ -0.169164438151187, 51.421214676672655 ], [ -0.169605566405223, 51.421369904533741 ], [ -0.170608647857333, 51.421713796369104 ], [ -0.170992156800718, 51.421871805784235 ], [ -0.171043758423487, 51.421913067138519 ], [ -0.17134913773874, 51.422082442972027 ], [ -0.171559456131856, 51.422217880546341 ], [ -0.172075519166448, 51.422513706919275 ], [ -0.172205459663048, 51.422574169615636 ], [ -0.172391031332986, 51.422646287680422 ], [ -0.172814865906756, 51.422837284469978 ], [ -0.173322073205854, 51.423070034910104 ], [ -0.17357212617895, 51.4231818138542 ], [ -0.173697853653109, 51.423023744922681 ], [ -0.173746004741091, 51.423041576481118 ], [ -0.17460536997935, 51.423350829036508 ], [ -0.174581159341488, 51.423381019123632 ], [ -0.174667936498109, 51.423405744828429 ], [ -0.174798598817637, 51.423448235167804 ], [ -0.175118186727539, 51.423550304722426 ], [ -0.175561492451771, 51.423687652440428 ], [ -0.175803386801029, 51.423754348037178 ], [ -0.176490134223705, 51.423919663141923 ], [ -0.177445800116032, 51.424122508303434 ], [ -0.177975404938896, 51.42422243986141 ], [ -0.178773949254576, 51.424326546462453 ], [ -0.17904899823618, 51.424355990981056 ], [ -0.180799225310438, 51.424545972096695 ], [ -0.181915104785831, 51.424735083174404 ], [ -0.183207633941883, 51.425548237280523 ], [ -0.183921044626628, 51.426203170302571 ], [ -0.184068022446974, 51.426379048244556 ], [ -0.184322782348841, 51.42695675090404 ], [ -0.18452803193987, 51.42762268980254 ], [ -0.184540041054408, 51.428588697971904 ], [ -0.184515900072536, 51.429126030872055 ], [ -0.184499232421474, 51.429474774178466 ], [ -0.184271471748194, 51.430501799888589 ], [ -0.184173160112998, 51.430911221854934 ], [ -0.184129442874328, 51.431218101244724 ], [ -0.184223635734341, 51.431271703030639 ], [ -0.184232111454336, 51.431276329376701 ], [ -0.184313454345248, 51.431327934088721 ], [ -0.184382418299413, 51.431368648713239 ], [ -0.184368709460862, 51.431460136967381 ], [ -0.184355245912282, 51.431617257791558 ], [ -0.184394972387008, 51.431740229999065 ], [ -0.184555569298159, 51.431935107221136 ], [ -0.184712181153884, 51.432122820219291 ], [ -0.184888016687771, 51.432259496218371 ], [ -0.185263834405191, 51.432507239554084 ], [ -0.185406129681871, 51.432691134059681 ], [ -0.185736982548024, 51.433163835022555 ], [ -0.186399905295985, 51.432955535784487 ], [ -0.186549142993711, 51.432964226592844 ], [ -0.187264752473647, 51.432986078074904 ], [ -0.18727657461337, 51.432906157823183 ], [ -0.187394836044639, 51.43209688676766 ], [ -0.187429333150325, 51.43209741994567 ], [ -0.188218913967017, 51.432105125598504 ], [ -0.188308095532645, 51.432069643361949 ], [ -0.188333797796339, 51.432109597433652 ], [ -0.189229620802565, 51.431830261121682 ], [ -0.189220006082199, 51.431818425366949 ], [ -0.189064419233644, 51.431607359671617 ], [ -0.189094991541065, 51.431596144456059 ], [ -0.18977225279968, 51.431351187969042 ], [ -0.189933293364554, 51.431535366190595 ], [ -0.190199904813441, 51.431779609878753 ], [ -0.19031797309574, 51.431886617524206 ], [ -0.190384414503378, 51.431988333318159 ], [ -0.190424619016635, 51.432099623390272 ], [ -0.190448670080476, 51.432220463549967 ], [ -0.190518140775634, 51.432389652701559 ], [ -0.190643445395041, 51.432568783351137 ], [ -0.190820418042531, 51.432788267912571 ], [ -0.191037654980828, 51.433042536102015 ], [ -0.191119534403664, 51.433264059539717 ], [ -0.191135104241022, 51.433308351786224 ], [ -0.191144364887792, 51.433365222937013 ], [ -0.191152383892834, 51.433417489921361 ], [ -0.191160603674103, 51.433461668799069 ], [ -0.191158794250898, 51.433507491036792 ], [ -0.191121047383377, 51.43362827687713 ], [ -0.191107581005726, 51.433638857444649 ], [ -0.191094233172792, 51.43364943983908 ], [ -0.191079459171787, 51.433660090137046 ], [ -0.191049799693704, 51.433681209203684 ], [ -0.191035064701404, 51.433690871173212 ], [ -0.191021681353769, 51.433702352034331 ], [ -0.19100833348145, 51.433712934418686 ], [ -0.190926740429693, 51.433775506443915 ], [ -0.190842218844826, 51.433837134216205 ], [ -0.190756428495043, 51.433897843440093 ], [ -0.19075493490088, 51.433899618447803 ], [ -0.190615068348945, 51.434089042807912 ], [ -0.190348916184937, 51.434598459187562 ], [ -0.190241486821974, 51.434804476184681 ], [ -0.190160122866785, 51.435008288151451 ], [ -0.190044358155806, 51.435278097007071 ], [ -0.189862478590861, 51.435804006406286 ], [ -0.189735651286544, 51.436173525880889 ], [ -0.189619047085571, 51.436575478012024 ], [ -0.189417580413283, 51.437338516827992 ], [ -0.189325565603541, 51.437628470211799 ], [ -0.189243005663764, 51.438117343804635 ], [ -0.189191484461773, 51.438547271010727 ], [ -0.18952336924089, 51.438557788442822 ], [ -0.189703874637683, 51.438616314000576 ], [ -0.189910621753112, 51.438773327774506 ], [ -0.190246865129141, 51.438856731332415 ], [ -0.19051083046177, 51.438913846226754 ], [ -0.19064288856267, 51.438919479501635 ], [ -0.190621644202394, 51.438949718599446 ], [ -0.190505827383356, 51.439112543227516 ], [ -0.190440651571085, 51.439305816809913 ], [ -0.190437273484121, 51.439319250052918 ], [ -0.19039592870448, 51.439308722939266 ], [ -0.190289102168282, 51.439280014173477 ], [ -0.190267557757545, 51.439314833604968 ], [ -0.190186041522118, 51.439450227513184 ], [ -0.189938833904205, 51.439731493468805 ], [ -0.189916667742654, 51.43982105380779 ], [ -0.189862243597666, 51.44003337252601 ], [ -0.18977813245341, 51.440048256918779 ], [ -0.18973465404377, 51.440055677134005 ], [ -0.189921490430457, 51.440425452121545 ], [ -0.190046448318414, 51.440796969027787 ], [ -0.190038845625749, 51.44098933271043 ], [ -0.190012224525807, 51.441188595118888 ], [ -0.190005901132005, 51.441312562824628 ], [ -0.19000160425188, 51.44142127839465 ], [ -0.190015279128302, 51.441474531801731 ], [ -0.190054490298909, 51.441467045618616 ], [ -0.190067556672538, 51.441463651135692 ], [ -0.190369376301941, 51.441400880984361 ], [ -0.192498152997894, 51.441095580203005 ], [ -0.192839914202285, 51.441039712401462 ], [ -0.19339180006461, 51.440947523055712 ], [ -0.194433958339859, 51.440754906210493 ], [ -0.194523796142406, 51.440739207602476 ], [ -0.19458616858498, 51.440836363004159 ], [ -0.196428648475942, 51.440454663078398 ], [ -0.196681417364243, 51.440359656955664 ], [ -0.197146371241823, 51.440281307148027 ], [ -0.198493143408043, 51.440025909587611 ], [ -0.201581806842427, 51.439458196085106 ], [ -0.202709757539104, 51.439241743482221 ], [ -0.202976298114943, 51.439197281148651 ], [ -0.203657618531624, 51.439067382639287 ], [ -0.204231628405195, 51.438960200395783 ], [ -0.204261277489211, 51.439011898557347 ], [ -0.204533752896542, 51.438961230424155 ], [ -0.205415231490749, 51.438791233123759 ], [ -0.205865692653923, 51.438715415878988 ], [ -0.206658397670835, 51.438643033133772 ], [ -0.207265004826653, 51.438511971095132 ], [ -0.207452209071607, 51.438472578862367 ], [ -0.207852396734936, 51.438429249248109 ], [ -0.20801853060067, 51.43841290862413 ], [ -0.208293084002265, 51.438384739011276 ], [ -0.208661297611312, 51.43834900929356 ], [ -0.209104832412485, 51.43830444960102 ], [ -0.209914290824567, 51.438209825198165 ], [ -0.210363966965214, 51.438153757131964 ], [ -0.210973032653335, 51.438068653354392 ], [ -0.211659878522, 51.437945085799676 ], [ -0.212095471202705, 51.437878907104732 ], [ -0.212205486755174, 51.437862603967922 ], [ -0.212521789994002, 51.437831464851946 ], [ -0.212755009771016, 51.437828726332611 ], [ -0.212945037899544, 51.437826228184299 ], [ -0.213127623458698, 51.437829010442044 ], [ -0.213221960892722, 51.437846630210757 ], [ -0.213757088436296, 51.437850287369827 ], [ -0.214225392702289, 51.437830449027359 ], [ -0.215084337560515, 51.437795787900889 ], [ -0.21552714426608, 51.437766566067793 ], [ -0.215683230453066, 51.437749162668787 ], [ -0.215710758256707, 51.437745985436251 ], [ -0.21589697977286, 51.437914328225993 ], [ -0.215926163494975, 51.437941742804533 ], [ -0.215966414357154, 51.437977416918486 ], [ -0.216009664338814, 51.438012237623418 ], [ -0.216052949374149, 51.43804615982561 ], [ -0.216099114970425, 51.4380792268108 ], [ -0.216145399196525, 51.438112295582037 ], [ -0.216152338046168, 51.438116896230682 ], [ -0.216214142848392, 51.438156584103787 ], [ -0.21650752966324, 51.438345345450905 ], [ -0.216861310631464, 51.438497355466382 ], [ -0.217110315949187, 51.438567668877155 ], [ -0.21730774358896, 51.438597640845316 ], [ -0.217370532503935, 51.438612080613197 ], [ -0.217433272817796, 51.438624721569497 ], [ -0.217497589465138, 51.438636487432824 ], [ -0.217561976064264, 51.438646456284935 ], [ -0.217626362692378, 51.438656425102018 ], [ -0.217690819262225, 51.43866459690765 ], [ -0.217756698630678, 51.438672790301098 ], [ -0.217822529366716, 51.438679184879362 ], [ -0.217888548591719, 51.438683784245988 ], [ -0.217954567830957, 51.438688383575595 ], [ -0.218020656984247, 51.438691185891379 ], [ -0.218045081296106, 51.438691557028626 ], [ -0.218111205408953, 51.438693460805027 ], [ -0.218177399421894, 51.438693567567199 ], [ -0.218243628368081, 51.438692775801762 ], [ -0.218309927095772, 51.438690187008376 ], [ -0.218377648590011, 51.438687619792582 ], [ -0.218442594414824, 51.438683212331746 ], [ -0.218508997941295, 51.43867792795978 ], [ -0.218573929994402, 51.438670823158965 ], [ -0.218791978411663, 51.438652558774564 ], [ -0.219134269260489, 51.438618200388134 ], [ -0.219574837993681, 51.438536786071829 ], [ -0.219680479395145, 51.438523106553234 ], [ -0.220414272218296, 51.438448747377976 ], [ -0.22110704061206, 51.438505107997884 ], [ -0.223215784077894, 51.438743041631831 ], [ -0.224252967032834, 51.438860340369295 ], [ -0.224483958989703, 51.438581546141123 ], [ -0.224774258489631, 51.438664155526403 ], [ -0.225106816104622, 51.438733918484573 ], [ -0.225482088444536, 51.438742294599891 ], [ -0.225869373460179, 51.438697809191623 ], [ -0.226958278920523, 51.43859461814403 ], [ -0.227614572839467, 51.438514637064429 ], [ -0.228785672913346, 51.438405569096105 ], [ -0.229267263485929, 51.4383427184423 ], [ -0.230075055544048, 51.438253233962705 ], [ -0.230439608660791, 51.438201198317849 ], [ -0.230883465821978, 51.438184520560661 ], [ -0.231050458762938, 51.4381825445423 ], [ -0.231299621790572, 51.438138654803197 ], [ -0.231632275484912, 51.438018618206598 ], [ -0.23218674579495, 51.437856164726647 ], [ -0.233144193933517, 51.437543262019318 ], [ -0.235135187858611, 51.436914982854219 ], [ -0.236053090983183, 51.436654504077424 ], [ -0.236875409821753, 51.436411460377251 ], [ -0.237589416369096, 51.436177571320528 ], [ -0.238454997328799, 51.435928873676616 ], [ -0.239177639748897, 51.435695194626632 ], [ -0.239790630360816, 51.435505625165689 ], [ -0.240484073929656, 51.435281299082689 ], [ -0.240687868199057, 51.435219627637778 ], [ -0.241171825022921, 51.43509383308777 ], [ -0.241693886581164, 51.434948739664506 ], [ -0.242237173885356, 51.434813042157032 ], [ -0.242743254282025, 51.434673098621374 ], [ -0.243212081480189, 51.434564150258666 ], [ -0.243705967510669, 51.434442000208193 ], [ -0.244076377750282, 51.434350453672714 ], [ -0.244992963843616, 51.434084491422169 ], [ -0.24594453255153, 51.433843318834086 ], [ -0.246383577983516, 51.433724923971553 ], [ -0.247433081949241, 51.43348161176219 ], [ -0.248212236340154, 51.433269403111069 ], [ -0.248750503171182, 51.433152392328807 ], [ -0.24966622337503, 51.432907962291239 ], [ -0.250252999103549, 51.432762991074121 ], [ -0.250625121727152, 51.432663270797704 ], [ -0.250769046603369, 51.43262496307581 ], [ -0.25089093313745, 51.432595316418102 ], [ -0.251060392792426, 51.432565480241131 ], [ -0.25104187940245, 51.432637123891418 ], [ -0.251012885025018, 51.432830964754864 ], [ -0.251016012973159, 51.43320238722486 ], [ -0.251002594865237, 51.433438713289036 ], [ -0.251013609973193, 51.433526080320128 ], [ -0.25106973574715, 51.433789514513272 ], [ -0.251190478672275, 51.434094372026557 ], [ -0.251230854611414, 51.434167794373025 ], [ -0.251275670137097, 51.434236787835616 ], [ -0.25138805689399, 51.434347334472797 ], [ -0.251450886391602, 51.434395020124263 ], [ -0.251591471225284, 51.434481623827139 ], [ -0.251646451278925, 51.434511212269555 ], [ -0.251762220877303, 51.434570475705435 ], [ -0.251965823762521, 51.43466260413399 ], [ -0.252076161909777, 51.434711897087936 ], [ -0.252585861848375, 51.434967713368302 ], [ -0.252702766516674, 51.435031487791775 ], [ -0.252820166996107, 51.435085380323002 ], [ -0.252911534932234, 51.435140682810129 ], [ -0.253000913655854, 51.435213935855828 ], [ -0.253086914107589, 51.435298016553332 ], [ -0.253233198123972, 51.435459321663039 ], [ -0.253298256371753, 51.435563767463449 ], [ -0.253375966956073, 51.43571595953842 ], [ -0.25343256017847, 51.43589309923113 ], [ -0.253425537508878, 51.436077292400732 ], [ -0.253427666204364, 51.436360603291142 ], [ -0.253449932516267, 51.436566898996396 ], [ -0.253488583225827, 51.43664838598216 ], [ -0.253533062079176, 51.436726363713433 ], [ -0.253586367413293, 51.436799977831988 ], [ -0.253714485080483, 51.436949414244118 ], [ -0.253790518160915, 51.437030558871719 ], [ -0.254011380331179, 51.437239812037092 ], [ -0.254067000134962, 51.437290086018479 ], [ -0.253249875381104, 51.437625923294661 ], [ -0.252019511109816, 51.438121103722828 ], [ -0.251128056522629, 51.438482790250113 ], [ -0.249039300451992, 51.439335621989841 ], [ -0.247912661421211, 51.439787270954128 ], [ -0.245922112108324, 51.440591169937939 ], [ -0.245002416348358, 51.440972167126972 ], [ -0.244430776987763, 51.441208232746511 ], [ -0.243751137111581, 51.441482234861127 ], [ -0.243179622871005, 51.44171470023408 ], [ -0.242705560875996, 51.44191796680056 ], [ -0.242432037786, 51.442222319689684 ], [ -0.241940061039017, 51.442743745902959 ], [ -0.241635851579412, 51.443096183849164 ], [ -0.24160562303137, 51.443132590215562 ], [ -0.242023249070947, 51.443611913087878 ], [ -0.242537001332067, 51.444174395399145 ], [ -0.243005442306113, 51.444718306073888 ], [ -0.244221117542999, 51.446077302875949 ], [ -0.244476542775856, 51.446359910939549 ], [ -0.245024214557294, 51.446899604891129 ], [ -0.245501311503392, 51.44737081430781 ], [ -0.245986512743149, 51.447853740152617 ], [ -0.246660638350913, 51.448513087966887 ], [ -0.247052680662034, 51.448910109098264 ], [ -0.247221694743618, 51.449082638591307 ], [ -0.247263246358569, 51.449125513205637 ], [ -0.247302927867221, 51.449180047029166 ], [ -0.249261747222639, 51.450118475932896 ], [ -0.25242501306897, 51.451665657193779 ], [ -0.254965535286069, 51.452905823483157 ], [ -0.259089800540574, 51.454931989623937 ], [ -0.259056992132507, 51.455264226507104 ], [ -0.258995296781017, 51.455638288120554 ], [ -0.258931539558194, 51.455991641853394 ], [ -0.25870852132362, 51.456482068037069 ], [ -0.258505867200398, 51.456926856740878 ], [ -0.258502815380018, 51.456932205496798 ], [ -0.258317723197583, 51.457333293026252 ], [ -0.2581273783791, 51.457682069789939 ], [ -0.257679114582046, 51.458339961419838 ], [ -0.257294302381847, 51.458805416928492 ], [ -0.257223341622942, 51.458967173011189 ], [ -0.257132563215107, 51.459160009753106 ], [ -0.257130296413173, 51.45933177619645 ], [ -0.257026152376364, 51.459498433017409 ], [ -0.25696158450224, 51.459604455448861 ], [ -0.256844407773305, 51.459733070319089 ], [ -0.256802415879354, 51.459779194694349 ], [ -0.256786661053316, 51.459850071999739 ], [ -0.256784827004378, 51.459860832824454 ], [ -0.258020294306365, 51.460268543975801 ], [ -0.257997371423764, 51.460303264829548 ], [ -0.257998794901384, 51.460303285966432 ], [ -0.257882445305168, 51.460485045364834 ], [ -0.257511323899894, 51.461008239184778 ], [ -0.257496046803632, 51.461032285441092 ], [ -0.257066189129287, 51.461660778235618 ], [ -0.256577847852609, 51.462384684178126 ], [ -0.255997241904458, 51.463040600555928 ], [ -0.25551316091949, 51.463465016983839 ], [ -0.253908789443759, 51.464651574760808 ], [ -0.253530963736507, 51.464894167422585 ], [ -0.252892386535715, 51.465216484350627 ], [ -0.251804976201614, 51.46522815708456 ], [ -0.251042868362485, 51.465204211686661 ], [ -0.249425367944181, 51.465072203279234 ], [ -0.249023034115584, 51.465051814257826 ], [ -0.248618726930638, 51.465045778530573 ], [ -0.24811433162385, 51.465058923884243 ], [ -0.245025100042918, 51.465238398238228 ], [ -0.243952804510348, 51.465230441898264 ], [ -0.242991803215859, 51.46517739422243 ], [ -0.241479286511491, 51.465047747158501 ], [ -0.236352195672862, 51.464498611535262 ], [ -0.235550707909909, 51.464412839110345 ], [ -0.235209706447693, 51.464369051639054 ], [ -0.234873406875172, 51.464317242786286 ], [ -0.234540266754183, 51.464257389300826 ], [ -0.233290886754895, 51.463991259353243 ], [ -0.233317431026407, 51.464272241414427 ], [ -0.233383927785873, 51.464453045723715 ], [ -0.233456209839698, 51.464929892475546 ], [ -0.233544653215096, 51.465323284335064 ], [ -0.233556823182215, 51.465380105473791 ], [ -0.233626257333769, 51.465709380992287 ], [ -0.233623804172454, 51.466031280848952 ], [ -0.23362635046607, 51.466042197257757 ], [ -0.233543543703185, 51.466136245724307 ], [ -0.233391552694651, 51.466269707816224 ], [ -0.233254049723021, 51.466363022217067 ], [ -0.232807336400392, 51.466634088342921 ], [ -0.233303892505477, 51.467568719934171 ], [ -0.233368895442217, 51.467714529664825 ], [ -0.233392507500197, 51.467847039944651 ], [ -0.233424208072475, 51.468145180017004 ], [ -0.233366930929457, 51.468398827526855 ], [ -0.233203722316084, 51.468822590715803 ], [ -0.233077426732622, 51.469184967816091 ], [ -0.232991546022076, 51.469693503483001 ], [ -0.232946644833373, 51.470072299747848 ], [ -0.23292715379087, 51.470352587526044 ], [ -0.232867718777205, 51.470772609215999 ], [ -0.232872028938891, 51.471257331004807 ], [ -0.232923589411205, 51.471674439676029 ], [ -0.232924816093525, 51.471682639153514 ], [ -0.233001859803713, 51.472036301834358 ], [ -0.23298639351988, 51.472101696667167 ], [ -0.232962855466646, 51.472151686729717 ], [ -0.232926210689753, 51.472205974414912 ], [ -0.232725052284566, 51.472416099659441 ], [ -0.23271755302127, 51.472499594697318 ], [ -0.232706808028406, 51.472516514032343 ], [ -0.232672211221238, 51.472554650298079 ], [ -0.23259213276978, 51.472614576615264 ], [ -0.232085612073213, 51.472794028540655 ], [ -0.231699519597473, 51.472797199549198 ], [ -0.231469260586528, 51.47283238600744 ], [ -0.231084661118501, 51.472833779479302 ], [ -0.230945575233752, 51.472819995020551 ], [ -0.230780157434429, 51.472777943930737 ], [ -0.230722020231033, 51.47275549086195 ], [ -0.230655638323246, 51.472722125278779 ], [ -0.230358852775044, 51.47254045353386 ], [ -0.229963482157239, 51.472375363691938 ], [ -0.229664373939456, 51.472217029379152 ], [ -0.229559423290121, 51.472174090993491 ], [ -0.22943261425952, 51.472140711734134 ], [ -0.229267754869514, 51.472121142182594 ], [ -0.229198699191929, 51.472120099811271 ], [ -0.229057169399041, 51.472129650493585 ], [ -0.22874341776481, 51.472125812642574 ], [ -0.228506025394218, 51.471971194062554 ], [ -0.228372153958728, 51.471933211931443 ], [ -0.228333775829223, 51.471921754292666 ], [ -0.228100767243711, 51.471877779538453 ], [ -0.22777896047171, 51.47171109623595 ], [ -0.227049077111306, 51.47144735515112 ], [ -0.226760682059084, 51.471383661334777 ], [ -0.226318767755546, 51.471305059556222 ], [ -0.225715806738715, 51.471185272946492 ], [ -0.225549350545843, 51.471093752943666 ], [ -0.224314467205635, 51.470857416122783 ], [ -0.223704842418098, 51.470762780431535 ], [ -0.223612771263421, 51.470761386237101 ], [ -0.223543215471538, 51.470770222079437 ], [ -0.22348507785611, 51.470784624877503 ], [ -0.223438274648867, 51.470803694366644 ], [ -0.22339707582636, 51.470828242793651 ], [ -0.223356798268399, 51.470862694303726 ], [ -0.223328043542308, 51.47090001735792 ], [ -0.223314786420568, 51.470944857131279 ], [ -0.223310347763007, 51.471019407995271 ], [ -0.223316112923472, 51.471094113399928 ], [ -0.223361992385345, 51.471248629394438 ], [ -0.223418867725243, 51.471303431540981 ], [ -0.2235110800891, 51.471377648069954 ], [ -0.223517675731198, 51.471391233147514 ], [ -0.22351854128212, 51.471405630463501 ], [ -0.223504561694434, 51.471432389151886 ], [ -0.223401727314439, 51.471521632127647 ], [ -0.223214186455079, 51.471642945453077 ], [ -0.222972787598687, 51.471741776432708 ], [ -0.222462035841453, 51.472026307538414 ], [ -0.221710439431795, 51.472358429555882 ], [ -0.220538641645229, 51.471351475943408 ], [ -0.218923519269063, 51.470011347628073 ], [ -0.218801517471215, 51.469924987849083 ], [ -0.218491982662944, 51.469703535029488 ], [ -0.21843868683073, 51.469666765041765 ], [ -0.218139858136293, 51.469466151308417 ], [ -0.217781885831912, 51.469229577050733 ], [ -0.217051102394142, 51.468768875920134 ], [ -0.216362876305929, 51.468361859211726 ], [ -0.215968377142087, 51.468140007442294 ], [ -0.215765292228644, 51.468032633330608 ], [ -0.21534593794343, 51.467821189665187 ], [ -0.214365577668327, 51.467411515148164 ], [ -0.213352259618142, 51.4670345937039 ], [ -0.212663516711583, 51.466791167470944 ], [ -0.211615827542366, 51.46644697007676 ], [ -0.20981448582355, 51.46597520209977 ], [ -0.206920613516415, 51.46520352196454 ], [ -0.206130145043157, 51.464982775390553 ], [ -0.205579860820933, 51.464845800016619 ], [ -0.205307314030945, 51.464782295653961 ], [ -0.204808913136805, 51.464678474989988 ], [ -0.204169935637731, 51.464563420244957 ], [ -0.20384521052797, 51.464510800936075 ], [ -0.203193761745201, 51.464417216231801 ], [ -0.202534809605018, 51.464333402123962 ], [ -0.20193864769188, 51.464264841096245 ], [ -0.20193722411613, 51.464264819277041 ], [ -0.200998596789807, 51.4641542336444 ], [ -0.199685220605464, 51.464089133628406 ], [ -0.198842986781439, 51.464017768609978 ], [ -0.198385480716107, 51.464081765533933 ], [ -0.198138520550963, 51.464101346908521 ], [ -0.197453806708866, 51.464087231474124 ], [ -0.196659205992508, 51.464012087623701 ], [ -0.195164958016625, 51.463898306474555 ], [ -0.194830707609677, 51.463903951582743 ], [ -0.19321334380408, 51.463992327973394 ], [ -0.193165749804505, 51.463995190980008 ], [ -0.191820651338262, 51.464153459532064 ], [ -0.191487005734177, 51.464179781796133 ], [ -0.191233125703445, 51.464191150744554 ], [ -0.190697952699944, 51.464255717978858 ], [ -0.190484477617045, 51.464265910453797 ], [ -0.190383262669486, 51.464276935349112 ], [ -0.190145493708795, 51.464319117041704 ], [ -0.189029065418208, 51.464589662174028 ], [ -0.18866927094236, 51.464694686132297 ], [ -0.187807635762033, 51.46496645642415 ], [ -0.18736704323737, 51.465115268794342 ], [ -0.186338152603916, 51.465500416561724 ], [ -0.186257706274568, 51.465532436328871 ], [ -0.185498326999573, 51.465838134916012 ], [ -0.185023121185562, 51.466060122167256 ], [ -0.184211417233445, 51.466559276762908 ], [ -0.183866988544912, 51.466784990011114 ], [ -0.183531070834506, 51.467014519963605 ], [ -0.183379929922512, 51.467122757520578 ], [ -0.182953718375264, 51.46744977578976 ], [ -0.18286998531849, 51.467528579724025 ], [ -0.181996463760416, 51.468569843882378 ], [ -0.181677285347161, 51.468954254442295 ], [ -0.181506921130527, 51.469184544973146 ], [ -0.180958124989449, 51.470059126245424 ], [ -0.180358450400828, 51.471054281029545 ], [ -0.18029716834135, 51.471365374742852 ], [ -0.180263412223705, 51.471452953415202 ], [ -0.180216046229839, 51.471521531671542 ], [ -0.179601282896017, 51.472716027257761 ], [ -0.179499949477576, 51.472872768908061 ], [ -0.179413672238042, 51.472979310048906 ], [ -0.179249167544565, 51.47313327270669 ], [ -0.17919453438343, 51.473166586610958 ], [ -0.179137261863363, 51.473230425668135 ], [ -0.178993098815547, 51.473416168977408 ], [ -0.178853079795027, 51.473712554035103 ], [ -0.178751298136965, 51.474026613861554 ], [ -0.178696790204166, 51.474456480398871 ], [ -0.178631417416284, 51.474616386874018 ], [ -0.178457487994019, 51.475042690257567 ], [ -0.178332173368756, 51.475404930344993 ], [ -0.17814577596764, 51.475744645105976 ], [ -0.178112660921466, 51.475854708117708 ], [ -0.178100547556164, 51.476012834519288 ], [ -0.178096841248372, 51.476034353031771 ], [ -0.178083285465321, 51.476121345806739 ], [ -0.178053801201618, 51.476211777021 ], [ -0.178007811810959, 51.476317144953754 ], [ -0.177978337832745, 51.476371526250702 ], [ -0.177711556368344, 51.476633575949222 ], [ -0.177643862060801, 51.476741303464642 ], [ -0.177621109884261, 51.476805768072481 ], [ -0.177610312079233, 51.476862237516194 ], [ -0.177612315122622, 51.476990826198858 ], [ -0.177603077024008, 51.477079684017923 ], [ -0.177607080213649, 51.477158049464592 ], [ -0.177626236368368, 51.477255439571131 ], [ -0.177656087207207, 51.477337712802758 ], [ -0.177704543784169, 51.477423871165655 ], [ -0.177791470673296, 51.47755476837839 ], [ -0.177460545959102, 51.477802335724078 ], [ -0.177436702085401, 51.477822642238131 ], [ -0.177167089037329, 51.478119707841032 ], [ -0.177012772665195, 51.478303402825318 ], [ -0.176681356732842, 51.478634567707196 ], [ -0.176126369050545, 51.479191590566749 ], [ -0.175860876763441, 51.479456353147668 ], [ -0.17522888167138, 51.479990597837094 ], [ -0.174924274321832, 51.480190830505364 ], [ -0.174218922362488, 51.480542329385855 ], [ -0.173916601848116, 51.480685058825188 ], [ -0.173346341309393, 51.480936079663117 ], [ -0.172520854196465, 51.481193908806212 ], [ -0.171394113108868, 51.481531541516567 ], [ -0.170903982549593, 51.48168751667388 ], [ -0.170755879203325, 51.481714873739364 ], [ -0.170657732858522, 51.481722332823246 ], [ -0.170487946743219, 51.481718785181855 ], [ -0.170247676788939, 51.481746591627484 ], [ -0.170094677971026, 51.481756790401569 ], [ -0.170010556674783, 51.48176986181354 ], [ -0.169940769784576, 51.481786752874136 ], [ -0.169643217004618, 51.481880999562073 ], [ -0.169507339695696, 51.48192922297018 ], [ -0.169367836916701, 51.481961207554747 ], [ -0.16914054010718, 51.481988225346825 ], [ -0.168756218924262, 51.482019173748505 ], [ -0.168519945344967, 51.482056838214511 ], [ -0.168289018819341, 51.482106272777578 ], [ -0.16806081708241, 51.482194406756342 ], [ -0.167962226813662, 51.482209947760353 ], [ -0.167674270515229, 51.482242308302737 ], [ -0.166768483452572, 51.482383770585123 ], [ -0.166758324058278, 51.482385409786382 ], [ -0.166363338018892, 51.48243047809602 ], [ -0.164799545604238, 51.482637151868609 ], [ -0.164487796718563, 51.482655647233557 ], [ -0.164024952321166, 51.482666382452329 ], [ -0.163563028591785, 51.482802091938616 ], [ -0.16341332342009, 51.482836606834788 ], [ -0.163262288051373, 51.482865796579773 ], [ -0.163076984276254, 51.482890763471509 ], [ -0.162550016827569, 51.48292206463293 ], [ -0.161490363373181, 51.483020530424987 ], [ -0.160631780284316, 51.483059210019476 ], [ -0.160544950272093, 51.483068636225923 ], [ -0.160323540767506, 51.483096628496348 ], [ -0.158894955907505, 51.483306243724378 ], [ -0.158571340904496, 51.483368588400282 ], [ -0.158224967339751, 51.483385624500798 ], [ -0.157954501471309, 51.483413830819529 ], [ -0.157822685833389, 51.483431538496497 ], [ -0.155506939307417, 51.48374853980372 ], [ -0.154751266783682, 51.483840937299973 ], [ -0.154125149768272, 51.483903904202926 ], [ -0.153904783239907, 51.483938194052172 ], [ -0.153743442036629, 51.483975300635052 ], [ -0.153462050606442, 51.484023912142632 ], [ -0.153343875107266, 51.48406250692144 ], [ -0.153243343369619, 51.4840905912816 ], [ -0.153141714044052, 51.484110567170887 ], [ -0.153020054443194, 51.484126631478794 ], [ -0.152794897102646, 51.484138368520441 ], [ -0.150245663306305, 51.484527106016493 ], [ -0.149819387999931, 51.484560926934741 ], [ -0.14936011322956, 51.484591438617002 ], [ -0.14883205736772, 51.484613670702807 ], [ -0.147733582164696, 51.484636781367563 ], [ -0.147230565253925, 51.484647714568013 ], [ -0.146163945886972, 51.48462906026176 ], [ -0.145145975283407, 51.484585094380108 ], [ -0.144896509831066, 51.484557774088884 ], [ -0.144764902413231, 51.484535014869927 ], [ -0.144565099069032, 51.484489600268645 ], [ -0.144251897141078, 51.484435108926583 ], [ -0.144135792158387, 51.48442248344265 ], [ -0.143430409823636, 51.48437805496792 ], [ -0.143340250162226, 51.48436404141809 ], [ -0.142905264259544, 51.484290626982393 ], [ -0.142513962406398, 51.484208912737458 ], [ -0.141670922911247, 51.484080393213539 ], [ -0.141037578356468, 51.483964271862334 ], [ -0.140721267713319, 51.483913407728295 ], [ -0.140506453516075, 51.483883930409 ], [ -0.140331432569883, 51.483865871880958 ], [ -0.140052660445171, 51.483849763667905 ], [ -0.138965058446019, 51.483819023994613 ], [ -0.138914775947659, 51.483817327023409 ], [ -0.138541499760107, 51.483823988688101 ], [ -0.138278620058308, 51.483840492849765 ], [ -0.138085733361764, 51.483838329569082 ], [ -0.137768261815094, 51.483853965863709 ], [ -0.137351929522643, 51.483891405477856 ], [ -0.137118835285036, 51.483920067383998 ], [ -0.136640630392632, 51.483992482081817 ], [ -0.135122544815719, 51.484273205918342 ], [ -0.134169105258738, 51.484449619529002 ], [ -0.133037122166202, 51.484659143569921 ], [ -0.13285529695039, 51.484702997378143 ], [ -0.132766300245284, 51.484730348758724 ], [ -0.132602409776583, 51.484791568982544 ], [ -0.13236773832506, 51.48486155088785 ], [ -0.132268539492113, 51.484891526355355 ], [ -0.130683926106629, 51.485496665670397 ], [ -0.130346311583738, 51.485615347321726 ], [ -0.129962830744557, 51.485728801561002 ], [ -0.129942149615194, 51.485705996450015 ], [ -0.129752240787715, 51.485773090929101 ], [ -0.129558919544242, 51.485851008734116 ], [ -0.1295016802322, 51.485877066158039 ], [ -0.129466445341184, 51.485893585395402 ], [ -0.129386339722638, 51.485842861931722 ], [ -0.129211459528804, 51.485716817573234 ], [ -0.129054850162633, 51.485602841509156 ], [ -0.128560954070971, 51.485175930784223 ], [ -0.128430738932148, 51.485049698965611 ], [ -0.128343452065233, 51.484965596659443 ], [ -0.128146899977989, 51.484736717230717 ], [ -0.128011091258951, 51.484747135563161 ], [ -0.127702350111535, 51.484723327398115 ], [ -0.127027406371652, 51.48460286980216 ], [ -0.126507021980524, 51.484510050013249 ], [ -0.126338735932358, 51.484466815834189 ], [ -0.126848633385469, 51.483870734534193 ], [ -0.127024077831652, 51.483628916575832 ], [ -0.127136092345719, 51.483355519227821 ], [ -0.127254886646397, 51.482881661345253 ], [ -0.127380803383264, 51.482410703991931 ], [ -0.127471575504077, 51.482023692069326 ], [ -0.127964925685982, 51.48186246550555 ], [ -0.128610570785766, 51.48164163583543 ], [ -0.129143237232153, 51.48147123260857 ], [ -0.129434073839553, 51.481366103388474 ], [ -0.129922591696855, 51.481183305316165 ], [ -0.130164073199126, 51.480667349728051 ], [ -0.130194986007745, 51.480648963476639 ], [ -0.130286390741225, 51.480597379441036 ], [ -0.130323383715423, 51.480575494069384 ], [ -0.130327876053469, 51.48057017164831 ], [ -0.130345678873188, 51.480558768393799 ], [ -0.130416369742568, 51.480447429576714 ], [ -0.130542924205935, 51.480241776389484 ], [ -0.130558347519452, 51.480215951042702 ], [ -0.130619998094121, 51.480224125932693 ], [ -0.130636771946842, 51.480200120121495 ], [ -0.130828669797017, 51.47994417493819 ], [ -0.130960039767929, 51.479760084359874 ], [ -0.131143548187955, 51.479604783739944 ], [ -0.131319968731624, 51.479483442286757 ], [ -0.131387319859188, 51.479418887988246 ], [ -0.131519491210197, 51.479252879628497 ], [ -0.131586705490208, 51.479156767862271 ], [ -0.131711201528386, 51.478928605454243 ], [ -0.131804569044864, 51.47872413029917 ], [ -0.131852127695717, 51.478617906047248 ], [ -0.131944607016146, 51.478470054128799 ], [ -0.131963170259118, 51.478437086560142 ], [ -0.131964594210381, 51.47843710924441 ], [ -0.131967707494246, 51.478433562808945 ], [ -0.132036475700879, 51.478441850361421 ], [ -0.132082272993257, 51.478378750338706 ], [ -0.132250107635775, 51.478147591794482 ], [ -0.13260726405181, 51.477653251908123 ], [ -0.133069815458943, 51.477011353725842 ], [ -0.13329432613819, 51.4766974883362 ], [ -0.133620973308024, 51.476243205004572 ], [ -0.133808680757303, 51.475949430043357 ], [ -0.133858419953802, 51.475859421843715 ], [ -0.133858366860115, 51.475683125542702 ], [ -0.13395531511053, 51.475637920007024 ], [ -0.134032161194472, 51.475552838151657 ], [ -0.134086602218251, 51.475277618608231 ], [ -0.134218920065403, 51.475174450036846 ], [ -0.134495257084448, 51.474896557610599 ], [ -0.134502824584445, 51.474888586915597 ], [ -0.134685725347485, 51.474957124354638 ], [ -0.134927859137616, 51.474705567175668 ], [ -0.134832712450431, 51.474671689415622 ], [ -0.134847810635206, 51.474656646405904 ], [ -0.135205477162994, 51.474288256505289 ], [ -0.134902412322322, 51.474164677604641 ], [ -0.134681438971472, 51.474074857602936 ], [ -0.134508838052478, 51.473998392912179 ], [ -0.134436756869214, 51.473966679772211 ], [ -0.134424043142822, 51.473923235107115 ], [ -0.134454157234701, 51.473892248869049 ], [ -0.134512179065729, 51.473881484846522 ], [ -0.134476887425393, 51.473791921365276 ], [ -0.134469186949106, 51.473771121618562 ], [ -0.134461308286539, 51.473646932865982 ], [ -0.134532646356282, 51.473449296671532 ], [ -0.134696857648853, 51.473306269389013 ], [ -0.134722512304105, 51.473314768589951 ], [ -0.134773657581322, 51.473329966345126 ], [ -0.135046619153123, 51.473099576312961 ], [ -0.135213788606139, 51.47295380816098 ], [ -0.135323702860173, 51.472872847020234 ], [ -0.135571425221056, 51.472763510511918 ], [ -0.135679325400771, 51.47273196258169 ], [ -0.135762043143168, 51.472715297395773 ], [ -0.135884808360826, 51.472706460844272 ], [ -0.136054959529117, 51.472700175384198 ], [ -0.136233479246974, 51.472701214761869 ], [ -0.13625050914295, 51.472708677501828 ], [ -0.136268844172645, 51.472716160981705 ], [ -0.136285874080032, 51.47272362371659 ], [ -0.136302867405518, 51.472731984877626 ], [ -0.136318318312235, 51.472740321523148 ], [ -0.136333769224603, 51.472748658166701 ], [ -0.136349302204126, 51.472757895122427 ], [ -0.136363256177624, 51.472768005992272 ], [ -0.136467570580361, 51.472824503336419 ], [ -0.136635887309635, 51.472933261154736 ], [ -0.136892910395185, 51.473091165510681 ], [ -0.137467485184899, 51.472596667384408 ], [ -0.137823987989959, 51.472293878814632 ], [ -0.13801773805045, 51.472130638541493 ], [ -0.138249099593302, 51.472002966571324 ], [ -0.138324104159433, 51.47196280288297 ], [ -0.138490969164721, 51.471897127095474 ], [ -0.138653588642589, 51.471862849027644 ], [ -0.13870189390069, 51.471915758321721 ], [ -0.138721586202333, 51.471997880769919 ], [ -0.139041240911763, 51.471891476742059 ], [ -0.139134661894948, 51.471859695886025 ], [ -0.139184465433266, 51.471875769355343 ], [ -0.139245367662861, 51.471864149614774 ], [ -0.139423962463475, 51.471793174677742 ], [ -0.139477006224763, 51.471796713297643 ], [ -0.139574671130357, 51.471733534090482 ], [ -0.139553515883631, 51.471722410346516 ], [ -0.139430937978005, 51.471656635884472 ], [ -0.139291185961316, 51.471516869987894 ], [ -0.139716206017791, 51.471367994604471 ], [ -0.139841814819356, 51.471324137676753 ], [ -0.140317630813019, 51.471593386125619 ], [ -0.140956225558207, 51.471289667414034 ], [ -0.141759377607312, 51.470909440215088 ], [ -0.141470624340628, 51.470679122879829 ], [ -0.141558930024812, 51.470632874897412 ], [ -0.142651764956526, 51.470064754400759 ], [ -0.143075393500544, 51.470520158985785 ], [ -0.143215680622336, 51.470468439834768 ], [ -0.146089476611261, 51.469334948368903 ], [ -0.147273359435408, 51.468864508656885 ], [ -0.149404048860908, 51.468015956645445 ], [ -0.150320299032662, 51.467683305930819 ], [ -0.15059369292508, 51.467615697446725 ], [ -0.150618269325155, 51.467401132157732 ], [ -0.150616481100073, 51.467266162797948 ], [ -0.150540701397317, 51.466327032885971 ], [ -0.150445338320466, 51.465978421875576 ], [ -0.151206453040406, 51.465885240656007 ], [ -0.150966702198553, 51.464226836468676 ], [ -0.150957425861545, 51.463956897906172 ], [ -0.150942204416447, 51.463837089817609 ], [ -0.150767973080856, 51.463051935497283 ], [ -0.150706631497407, 51.462860288455133 ], [ -0.15063539333381, 51.462699141463524 ], [ -0.150510555161889, 51.46247502753387 ], [ -0.15043724934935, 51.462365091261859 ], [ -0.150359637195978, 51.462255986018903 ], [ -0.150029656602312, 51.461871219018676 ], [ -0.149905234295657, 51.461707434410492 ], [ -0.149760137664848, 51.461488394016492 ], [ -0.149677471370039, 51.461325268029242 ], [ -0.149668296473561, 51.461302648034838 ], [ -0.149646152082071, 51.461245571151608 ], [ -0.149365230525114, 51.459362569256534 ], [ -0.149273852907689, 51.459095020386371 ], [ -0.149191988006834, 51.45887697717049 ], [ -0.148941767861957, 51.458443119373719 ], [ -0.148939020518112, 51.458437681923257 ], [ -0.148639333678575, 51.457912331832517 ], [ -0.14834037468037, 51.457366225058102 ], [ -0.14831549286644, 51.457306497217495 ], [ -0.148308130235751, 51.45720389341033 ], [ -0.14812856909519, 51.456411453828942 ], [ -0.148054695113998, 51.455957993179503 ], [ -0.147951507936246, 51.455129000785178 ], [ -0.147944537963728, 51.454946300959506 ], [ -0.14797630192438, 51.454873982620136 ], [ -0.147932588757932, 51.454742935048138 ], [ -0.147755218318501, 51.453861526430003 ], [ -0.147625620501442, 51.452972781009592 ], [ -0.147605650309468, 51.45297066742669 ], [ -0.147352554932332, 51.452963970860701 ], [ -0.147704499955272, 51.452340042475491 ], [ -0.147334495098127, 51.452237101936696 ], [ -0.146544227714115, 51.452024039617477 ], [ -0.144596000051615, 51.451479792183179 ], [ -0.143743048550147, 51.451215373247905 ], [ -0.143586704687896, 51.451167047562038 ], [ -0.143121925221379, 51.451095766023094 ], [ -0.142297126762759, 51.450991897074644 ], [ -0.142302380252801, 51.450967706870756 ], [ -0.142347028826718, 51.45075345946973 ], [ -0.142418192797084, 51.450561298555208 ], [ -0.142558233551997, 51.450338672585985 ], [ -0.142795404560322, 51.450061845822781 ], [ -0.14292773416636, 51.449920997893514 ], [ -0.143048016859818, 51.449793354397968 ], [ -0.143334632327243, 51.449505622546106 ], [ -0.143591699415003, 51.449305616082576 ], [ -0.144043143876088, 51.449032180106812 ], [ -0.144622066900389, 51.448705020913557 ], [ -0.144769613198817, 51.448542745358907 ], [ -0.144911526793675, 51.448238335032222 ], [ -0.145149368452058, 51.447660251949301 ], [ -0.145257861310561, 51.447328341677128 ], [ -0.145414856881876, 51.446862345419497 ], [ -0.145540621543516, 51.446314852957741 ], [ -0.14556092343763, 51.445992335339362 ], [ -0.145563656495355, 51.445960013784457 ], [ -0.145653074682035, 51.445885011537179 ], [ -0.145670887137192, 51.445870009953524 ], [ -0.145662372772516, 51.445831217308893 ], [ -0.145577897926754, 51.445394574392921 ], [ -0.145381390385984, 51.444917590750556 ], [ -0.145120479797315, 51.444466468346015 ], [ -0.144829386450222, 51.444086879288207 ], [ -0.144724173219247, 51.443913410822077 ], [ -0.144568597301472, 51.443703274049916 ], [ -0.144441581677202, 51.443464730564074 ], [ -0.144312188421803, 51.443246826801357 ], [ -0.143977892705066, 51.442654292242622 ], [ -0.143798002580438, 51.442300734833175 ], [ -0.143595096975031, 51.441838929485947 ], [ -0.143245603727981, 51.441800129894638 ], [ -0.142743050525138, 51.441773288517915 ], [ -0.142333017673572, 51.441770386922585 ], [ -0.141589892926719, 51.441751414981788 ], [ -0.140778747932389, 51.441742147712198 ], [ -0.139016094982602, 51.441703387514842 ], [ -0.137859511648348, 51.44169580730312 ], [ -0.137344692377876, 51.441722689227007 ], [ -0.13732584918513, 51.441725086847754 ], [ -0.136725483398759, 51.441804547725361 ], [ -0.136391171442385, 51.441885538753674 ], [ -0.136369886739004, 51.441915856892962 ], [ -0.135997639498505, 51.442010627892948 ], [ -0.135954407802917, 51.442011738422728 ], [ -0.135878351808446, 51.442006033781794 ], [ -0.135916237577538, 51.441783589730079 ], [ -0.136078510153626, 51.441542446234102 ], [ -0.136398524758905, 51.441139289938036 ], [ -0.136662635647794, 51.440730748822105 ], [ -0.136781898790621, 51.440595903706196 ], [ -0.136985676828446, 51.440252930085336 ], [ -0.137021391042424, 51.44026158886367 ], [ -0.137022923448928, 51.440258916158449 ], [ -0.13734622136854, 51.440340470482234 ], [ -0.137407563933348, 51.440211986317536 ], [ -0.137451561308015, 51.44019200793884 ], [ -0.137472011682689, 51.440150078929655 ], [ -0.13749263578218, 51.44010096051494 ], [ -0.137462154875227, 51.440036555885968 ], [ -0.137450291261, 51.440010295804953 ], [ -0.137260665540393, 51.439862540501373 ], [ -0.137276220009324, 51.439798058227758 ], [ -0.137234123291777, 51.439771317716264 ], [ -0.137234235448399, 51.439733560659832 ], [ -0.137277726959543, 51.439691008891799 ], [ -0.137355755442559, 51.439397280259897 ], [ -0.137357844869099, 51.439383828157794 ], [ -0.137375598273124, 51.439087343698709 ], [ -0.137478453154583, 51.438821968888064 ], [ -0.13765798000843, 51.438581995625654 ], [ -0.137789830777419, 51.438420378508745 ], [ -0.137977526766438, 51.438262435181841 ], [ -0.138281140816153, 51.438048705153307 ], [ -0.138483332569664, 51.437925153895549 ], [ -0.138956230438605, 51.437758161836754 ], [ -0.139093466096704, 51.437709096068602 ], [ -0.139299557235311, 51.4375945953851 ], [ -0.139355525798188, 51.437563118890019 ], [ -0.13971144938334, 51.43730256678311 ], [ -0.13988694665912, 51.437021170512345 ], [ -0.139947296487416, 51.436881790652428 ], [ -0.139851711743648, 51.436258870054502 ], [ -0.139779385525058, 51.435878245288563 ], [ -0.139733348750787, 51.435665255732559 ], [ -0.139671942860075, 51.43544222296898 ], [ -0.139622403604123, 51.435315483938481 ], [ -0.139463886044247, 51.435179014354901 ], [ -0.139084512064998, 51.434814194141211 ], [ -0.138203090019908, 51.434059138328131 ], [ -0.137831906457368, 51.433776345518204 ], [ -0.13757329975853, 51.433802804979692 ], [ -0.136906108795205, 51.433932453049415 ], [ -0.136660388674959, 51.433924952429258 ], [ -0.136496849287379, 51.433915161311006 ], [ -0.1364299050094, 51.433828690459485 ], [ -0.13612452989547, 51.432847231692882 ], [ -0.135843868916316, 51.431964158564966 ], [ -0.135568256683873, 51.431207927133521 ], [ -0.135339246358108, 51.430650400363717 ], [ -0.135238335318105, 51.430334948292575 ], [ -0.135306278750853, 51.430256824962242 ], [ -0.13535358403244, 51.430260274127036 ], [ -0.135469777280488, 51.43027021257825 ], [ -0.135905176387477, 51.43031767946421 ], [ -0.136681994840427, 51.430390258146907 ], [ -0.137197485538257, 51.430448792104627 ], [ -0.137686152085618, 51.430496109653532 ], [ -0.138372769311496, 51.430555557735616 ], [ -0.138361310601125, 51.430484353111126 ], [ -0.138356597584062, 51.430457307640282 ], [ -0.138356670607833, 51.430455510755465 ], [ -0.138359958170646, 51.430339589103944 ], [ -0.138338872358811, 51.429974071664638 ], [ -0.138368445521824, 51.429564497107236 ], [ -0.138385356249474, 51.429078304631219 ], [ -0.138411459915748, 51.42875408201148 ], [ -0.138463630204044, 51.428319603394748 ], [ -0.138515654748466, 51.427996691056123 ], [ -0.1387386849532, 51.426824847936857 ], [ -0.138846110740088, 51.426092769833048 ], [ -0.138900612290911, 51.425282446082548 ], [ -0.138907148554884, 51.424768218917627 ], [ -0.138896344408127, 51.424572869705727 ], [ -0.138840648388025, 51.423818425364701 ], [ -0.138799302423371, 51.423633379939922 ], [ -0.138504739908499, 51.422669180235779 ], [ -0.138490801864369, 51.422624007988134 ], [ -0.138276286699503, 51.422027969055108 ], [ -0.137826087358588, 51.421106250316093 ], [ -0.13814590829257, 51.420846922444802 ], [ -0.138493312120647, 51.420579939841311 ], [ -0.139020880793461, 51.420195343966164 ], [ -0.139484115752265, 51.419876253170827 ], [ -0.140379635647101, 51.419249262040523 ], [ -0.140645679115844, 51.419110532156701 ], [ -0.140858760663024, 51.418996944492484 ], [ -0.140970540897629, 51.418936682335136 ], [ -0.141149469194717, 51.418852310839839 ], [ -0.141365143035618, 51.418747843349244 ], [ -0.141551111179883, 51.418665290798536 ], [ -0.14179652004603, 51.418570283510661 ], [ -0.141998508855321, 51.418484477609447 ], [ -0.142639471915073, 51.418249997174357 ], [ -0.142766354165271, 51.418206154566413 ], [ -0.143085736576462, 51.418096941441917 ], [ -0.143487111264924, 51.417986417091392 ], [ -0.143721211654714, 51.417924490569995 ], [ -0.143977279868227, 51.417853021609957 ], [ -0.144454526176693, 51.417751694792472 ], [ -0.14448010591286, 51.417758392369358 ], [ -0.144670714548882, 51.41780995298199 ], [ -0.144979637848362, 51.417888645951109 ], [ -0.145260113314705, 51.418031528856289 ], [ -0.145268618883537, 51.418035259378783 ], [ -0.145573058732645, 51.418151549405209 ], [ -0.145752803146184, 51.418225502394812 ], [ -0.145825863478541, 51.418266213898121 ], [ -0.145856850723013, 51.418282885952465 ], [ -0.145970435964912, 51.418356602632507 ], [ -0.146027698778345, 51.41839796351573 ], [ -0.146246392924814, 51.418573222472681 ], [ -0.146449180431248, 51.418716673917515 ], [ -0.146787984661098, 51.418910011362208 ], [ -0.146892580012562, 51.41895391731483 ], [ -0.147014291038123, 51.418967526349732 ], [ -0.147415218442274, 51.41897655258758 ], [ -0.14757345552372, 51.418975454056664 ], [ -0.147644255472071, 51.419001744372586 ], [ -0.147870621127818, 51.419131181263602 ], [ -0.148162980250263, 51.41933546960842 ], [ -0.148629349402003, 51.419573968582334 ], [ -0.149202146971818, 51.419814144368601 ], [ -0.149315625403159, 51.419855491349402 ], [ -0.14952304293077, 51.419919896256744 ], [ -0.149768191466136, 51.419975006311454 ], [ -0.14989793110968, 51.420001325564861 ], [ -0.15011001554217, 51.420055913701177 ], [ -0.150258671650618, 51.420080732680937 ], [ -0.150402681285939, 51.420076709158188 ], [ -0.150521933316879, 51.420042627169295 ], [ -0.150747963853836, 51.419966174943958 ], [ -0.150975307041415, 51.419892440030495 ], [ -0.151136274446062, 51.419859014595801 ], [ -0.151301997537021, 51.419851735856632 ], [ -0.151884185689687, 51.420038918093276 ], [ -0.153269599871728, 51.420458207210174 ], [ -0.155339162957157, 51.421105000726037 ], [ -0.155733734153637, 51.421237161456098 ], [ -0.156144929587271, 51.421312853159357 ], [ -0.156815918857724, 51.421510490388762 ], [ -0.157519589889021, 51.421750801896977 ], [ -0.158162587676982, 51.422001933537814 ], [ -0.158765646749519, 51.422240747081858 ], [ -0.159263893213723, 51.422443659143497 ], [ -0.159566721932624, 51.422566275377683 ], [ -0.159652938801417, 51.422424592177734 ], [ -0.159675246072706, 51.422442023883406 ], [ -0.159673637364857, 51.422591328110869 ], [ -0.159857415942987, 51.422633769457335 ] ] ] } }
]
}
