{
"type": "FeatureCollection",
"name": "borough_Hackney",
"crs": { "type": "name", "properties": { "name": "urn:ogc:def:crs:OGC:1.3:CRS84" } },
"features": [
{ "type": "Feature", "properties": { "DISTRICT": "Hackney", "NAME": "Hoxton East & Shoreditch", "GSS_CODE": "E05009377", "LAGSSCODE": "E09000012", "HECTARES": 102.355, "NONLD_AREA": 0.0 }, "geometry": { "type": "Polygon", "coordinates": [ [ [ -0.06281122690771, 51.534636064729519 ], [ -0.062727302467611, 51.534235434444035 ], [ -0.062689779955343, 51.534099965105874 ], [ -0.062544310588483, 51.533790913287206 ], [ -0.062430698431613, 51.533613641063724 ], [ -0.062287272072109, 51.533391015925744 ], [ -0.062211177766797, 51.533248525666224 ], [ -0.06264789485297, 51.53318562564813 ], [ -0.063236329206452, 51.533080192239815 ], [ -0.064953917461258, 51.532901800962961 ], [ -0.065083578942081, 51.533177326146451 ], [ -0.06511354528319, 51.533219174692675 ], [ -0.065337333184366, 51.532937798949057 ], [ -0.065596914520942, 51.532462741087841 ], [ -0.065869446875193, 51.532018552055952 ], [ -0.06615227633679, 51.531505219831743 ], [ -0.066286605460329, 51.53122775963967 ], [ -0.067282175519232, 51.531141699636464 ], [ -0.06796902936741, 51.531094592078112 ], [ -0.069269337522527, 51.531032422186435 ], [ -0.069888038180744, 51.531028233487 ], [ -0.070504727700803, 51.531004140573785 ], [ -0.071205875825575, 51.530959049966881 ], [ -0.07160665661888, 51.530924294075426 ], [ -0.071899869822866, 51.530877877456298 ], [ -0.07223879517697, 51.530841202285707 ], [ -0.072761288683946, 51.530691485476545 ], [ -0.072895799535284, 51.530647849320445 ], [ -0.073122549383415, 51.53057066922181 ], [ -0.073746456874264, 51.53034170580338 ], [ -0.074018569147208, 51.530214925717139 ], [ -0.074144117995297, 51.53014417068843 ], [ -0.074347051291607, 51.53001436460945 ], [ -0.074623145820172, 51.529793163503079 ], [ -0.074905759658506, 51.529417440684313 ], [ -0.075291949885214, 51.528806891443487 ], [ -0.075451963850644, 51.528600951773171 ], [ -0.075608892002071, 51.528437124283059 ], [ -0.075653950502406, 51.528394712287316 ], [ -0.075707485905829, 51.528354237494923 ], [ -0.076012689216792, 51.528124520374135 ], [ -0.076323042327095, 51.527876906828517 ], [ -0.076862127917796, 51.527504489416124 ], [ -0.077226953739665, 51.527298222221198 ], [ -0.076288881839242, 51.52714797470167 ], [ -0.076330769420666, 51.526873477896771 ], [ -0.076513246257241, 51.526512287705394 ], [ -0.076609228558424, 51.526389711009827 ], [ -0.076614039381008, 51.526275616687421 ], [ -0.07661615089865, 51.526157882046746 ], [ -0.076602855796295, 51.525993955505456 ], [ -0.076575003064142, 51.525732697767765 ], [ -0.076534098151287, 51.525332777761818 ], [ -0.076416711774976, 51.524288627637816 ], [ -0.075889062114481, 51.524323117570823 ], [ -0.075750135570647, 51.523857665932091 ], [ -0.075692300286523, 51.523588810939913 ], [ -0.075700900080181, 51.523486375000694 ], [ -0.075744151573047, 51.523179533551136 ], [ -0.075788864481789, 51.523040921046672 ], [ -0.075812049704092, 51.522970279878876 ], [ -0.075836777610057, 51.522896877102248 ], [ -0.07598819674246, 51.522553154121674 ], [ -0.076053270778516, 51.522379814369756 ], [ -0.076137066061485, 51.522202196977155 ], [ -0.076160766333915, 51.522153140456687 ], [ -0.076427532841868, 51.522013677934915 ], [ -0.076691659051067, 51.522213098701116 ], [ -0.077105105026465, 51.522115598452459 ], [ -0.077896567553723, 51.521943296843666 ], [ -0.078210261145205, 51.521854944601955 ], [ -0.078426570869485, 51.521544647003481 ], [ -0.078445192711587, 51.521511688944322 ], [ -0.079743082670906, 51.521672311022947 ], [ -0.080732850998336, 51.521890893318229 ], [ -0.081024199510431, 51.52195499947868 ], [ -0.081258043873477, 51.521433626257448 ], [ -0.081523219620414, 51.521023433773323 ], [ -0.081736151244473, 51.520758924310762 ], [ -0.081768920276635, 51.520734288407304 ], [ -0.081991127675108, 51.520557224316903 ], [ -0.082299587857419, 51.520315853616303 ], [ -0.082707836309868, 51.520069821736719 ], [ -0.083299434464265, 51.519815999370316 ], [ -0.085191778639566, 51.520336176085742 ], [ -0.085041047726138, 51.520631376769558 ], [ -0.084880203715829, 51.52099473659743 ], [ -0.08467711845413, 51.521608318964944 ], [ -0.084497633750041, 51.522072960950204 ], [ -0.084415160110728, 51.522491630805092 ], [ -0.084312007819107, 51.523402710475331 ], [ -0.08428922298135, 51.523602817442736 ], [ -0.084197356092575, 51.523902574145261 ], [ -0.084501647784963, 51.523899457421301 ], [ -0.085113230297523, 51.523926532910203 ], [ -0.085084896874996, 51.524428796997036 ], [ -0.085417248259207, 51.524513338658608 ], [ -0.085383528339317, 51.524594597913797 ], [ -0.085244539192549, 51.524850433741804 ], [ -0.085004680273823, 51.525207108775994 ], [ -0.084724840559629, 51.525417489271646 ], [ -0.084882824123954, 51.525878656163172 ], [ -0.084994521626064, 51.526205113542524 ], [ -0.086272864465524, 51.525903156338238 ], [ -0.086430128267431, 51.525866167281698 ], [ -0.086769199708694, 51.525790791108207 ], [ -0.087006054590437, 51.525851294366213 ], [ -0.087268309339171, 51.525921201713921 ], [ -0.087413733574731, 51.525959624877622 ], [ -0.08777795532493, 51.5261094086394 ], [ -0.087811719482438, 51.526234022814634 ], [ -0.088105766745227, 51.526818860459329 ], [ -0.088284083996422, 51.527070884429222 ], [ -0.088458583091453, 51.527241035963947 ], [ -0.088526098851168, 51.527317653799116 ], [ -0.088572070114594, 51.527355262852055 ], [ -0.088636847438932, 51.527392279531718 ], [ -0.088754239213046, 51.527444538230135 ], [ -0.08902386215539, 51.527548814155431 ], [ -0.089150603684133, 51.527585042709063 ], [ -0.089575123368856, 51.527706136623195 ], [ -0.095379242737024, 51.529195314868574 ], [ -0.095115907696447, 51.529668590203826 ], [ -0.095067414075922, 51.529793663617305 ], [ -0.095055886813464, 51.529861890996152 ], [ -0.095057424376793, 51.529927543767052 ], [ -0.095086740596348, 51.53005388170412 ], [ -0.095291574700609, 51.530466350172517 ], [ -0.095498775714651, 51.530788056669451 ], [ -0.095869111200872, 51.53131118431655 ], [ -0.096235285071943, 51.531863011572931 ], [ -0.097007461967184, 51.532984300706715 ], [ -0.096526350383487, 51.533112329020838 ], [ -0.096137730829717, 51.533234575751401 ], [ -0.095985588919239, 51.533285145998825 ], [ -0.095019410907175, 51.533635523917837 ], [ -0.095023574534235, 51.533706613394216 ], [ -0.094527026766555, 51.53389362691528 ], [ -0.094457839611903, 51.533856541964759 ], [ -0.093960009139962, 51.534040025114152 ], [ -0.093753060734992, 51.534127458930769 ], [ -0.093258331076609, 51.534336161480468 ], [ -0.09252200022851, 51.5346703865969 ], [ -0.091955375989884, 51.534946237487546 ], [ -0.091562248743421, 51.535138606394582 ], [ -0.091348836141902, 51.53524391051689 ], [ -0.090746681862034, 51.535504792566606 ], [ -0.090231314586653, 51.535759893521281 ], [ -0.089692298499826, 51.53599473867714 ], [ -0.08966421378134, 51.536009563939011 ], [ -0.089112981259481, 51.536294641124741 ], [ -0.088635177945816, 51.536549448058921 ], [ -0.088172605921339, 51.536781127356249 ], [ -0.087674933353005, 51.537027514987479 ], [ -0.087383223185762, 51.537139624834658 ], [ -0.087059687638111, 51.537222446458792 ], [ -0.086789457071568, 51.537270267260894 ], [ -0.086590979557147, 51.537257138024152 ], [ -0.086544520184812, 51.537403815473994 ], [ -0.086435889209821, 51.537553073786214 ], [ -0.086377774730135, 51.537733812728874 ], [ -0.086009826571768, 51.538735852231142 ], [ -0.085655775129123, 51.539783156910197 ], [ -0.08546790223439, 51.540378101840815 ], [ -0.084662640346587, 51.542383728426444 ], [ -0.084059713054903, 51.543931364707191 ], [ -0.083634134443556, 51.545066478540726 ], [ -0.083602937743744, 51.545225988374888 ], [ -0.083811847309962, 51.546605221522604 ], [ -0.083139443851772, 51.54657803701452 ], [ -0.079693282456601, 51.546350776827836 ], [ -0.07829447482322, 51.546243328087925 ], [ -0.076812826324012, 51.546081371172932 ], [ -0.076351340910967, 51.546354369862385 ], [ -0.076331156046315, 51.546424160256755 ], [ -0.076347363328132, 51.546654660083711 ], [ -0.076388622856275, 51.54697637022084 ], [ -0.07641451379157, 51.547318504872571 ], [ -0.07660920366829, 51.547935897804734 ], [ -0.076702406550864, 51.548120014736206 ], [ -0.076731044264013, 51.548160040863685 ], [ -0.076889777423133, 51.548431537294476 ], [ -0.077063917909366, 51.548678923462795 ], [ -0.077691788541936, 51.549422180750035 ], [ -0.077723128574287, 51.549465846857075 ], [ -0.077878778123569, 51.549675259903758 ], [ -0.07865757660407, 51.550944298042346 ], [ -0.07877654085569, 51.551064918069343 ], [ -0.078842343679961, 51.551146008878298 ], [ -0.079014645849444, 51.55133591781378 ], [ -0.079306872101628, 51.551589824132748 ], [ -0.079434941725934, 51.551666541307085 ], [ -0.07948273497574, 51.551695194017007 ], [ -0.079553023138378, 51.551740397588688 ], [ -0.079698477706814, 51.551813803398623 ], [ -0.079936914604065, 51.551870752720056 ], [ -0.080261199276195, 51.551911217982543 ], [ -0.081095066990102, 51.551977919889083 ], [ -0.083191267386755, 51.552140791726643 ], [ -0.083687859183107, 51.552130935022319 ], [ -0.084352545099733, 51.552068985323253 ], [ -0.084486198294473, 51.552046897359034 ], [ -0.084606105121361, 51.552043463668412 ], [ -0.08467227187595, 51.552048141404377 ], [ -0.085154094275507, 51.552115352246162 ], [ -0.085274862891201, 51.552125417354596 ], [ -0.085378015684723, 51.552141487470749 ], [ -0.085478052352927, 51.55216379961562 ], [ -0.085613271593538, 51.55220646479291 ], [ -0.086052527775689, 51.552429493903759 ], [ -0.086243959305081, 51.552507238967685 ], [ -0.086325073887392, 51.552535534276984 ], [ -0.086483502692048, 51.552574981518539 ], [ -0.086762626658504, 51.552626288882209 ], [ -0.08696705364272, 51.552669273609325 ], [ -0.087330297292605, 51.552745327420034 ], [ -0.087526054405004, 51.552824938929142 ], [ -0.087629690207769, 51.552897652251687 ], [ -0.087718497784392, 51.552946749271008 ], [ -0.08856218074483, 51.553949783727326 ], [ -0.089023697940858, 51.553815180247312 ], [ -0.089273398906315, 51.55374283772592 ], [ -0.089502841142367, 51.553912895587061 ], [ -0.089619815811935, 51.553979621384499 ], [ -0.089727174800653, 51.554031716288989 ], [ -0.089846557866785, 51.55407501709584 ], [ -0.090011154386357, 51.554140631027977 ], [ -0.090231598915102, 51.554147820857899 ], [ -0.090377121162413, 51.554151991025272 ], [ -0.090367114144501, 51.554425215082389 ], [ -0.090306765908693, 51.554935045543594 ], [ -0.090281733240696, 51.55536265335833 ], [ -0.090240171273716, 51.555804375781356 ], [ -0.090293781196298, 51.556694634265682 ], [ -0.090394105897918, 51.55767375629096 ], [ -0.090357219063687, 51.557728084225808 ], [ -0.090266364287581, 51.557795826689791 ], [ -0.090285367875115, 51.557824904551374 ], [ -0.090349172215475, 51.557920339871025 ], [ -0.090531603918708, 51.558318964551347 ], [ -0.090744754797452, 51.558776614517924 ], [ -0.090857936945774, 51.558999703706476 ], [ -0.091021497338403, 51.559263978966122 ], [ -0.091223961812856, 51.559562240802151 ], [ -0.09148542997914, 51.559968534753395 ], [ -0.09153042144127, 51.560064562045952 ], [ -0.091565352843293, 51.560162223477356 ], [ -0.091676713208816, 51.560224270470385 ], [ -0.092141916835142, 51.560278684067626 ], [ -0.092256470056051, 51.560298529277397 ], [ -0.092742523877413, 51.560440393448609 ], [ -0.092959162930436, 51.560468192601718 ], [ -0.093100050128558, 51.560481273530485 ], [ -0.093314587495931, 51.56049105773711 ], [ -0.093609237971115, 51.560516529051412 ], [ -0.093730292968054, 51.560554458666459 ], [ -0.094265483919716, 51.560798793142247 ], [ -0.094472961052388, 51.560872289647939 ], [ -0.094799470786389, 51.560966690207451 ], [ -0.095732805342886, 51.561176945636106 ], [ -0.096006128619409, 51.561229034358192 ], [ -0.09856153687392, 51.560839817007931 ], [ -0.099453594134925, 51.561487366852958 ], [ -0.100838820781748, 51.562418987150672 ], [ -0.100935179506646, 51.562496065006066 ], [ -0.100973080032223, 51.562520053289504 ], [ -0.101075862428059, 51.562582851094632 ], [ -0.101303906477666, 51.562682829509662 ], [ -0.101391320874219, 51.562731892984566 ], [ -0.101489668460268, 51.562795517558556 ], [ -0.101903877273334, 51.563104381033305 ], [ -0.102060013940415, 51.56323726470054 ], [ -0.102138561307809, 51.563290768582867 ], [ -0.103767809279117, 51.564324289153717 ], [ -0.104484780773879, 51.564708162155092 ], [ -0.104365238277477, 51.564773653924313 ], [ -0.104281216806547, 51.564814548064874 ], [ -0.103069606536974, 51.56556925545673 ], [ -0.101354745160949, 51.566663713199027 ], [ -0.100674567290597, 51.567127543639806 ], [ -0.09901627305841, 51.568382982904396 ], [ -0.098715058673693, 51.568616420349855 ], [ -0.098080130741505, 51.569100655787977 ], [ -0.096327443651479, 51.570436427387044 ], [ -0.09602962270927, 51.570656338936075 ], [ -0.096089883012956, 51.570700559592922 ], [ -0.096191958331608, 51.570811895310939 ], [ -0.096341865555155, 51.570988735587122 ], [ -0.096416741675245, 51.57109612321117 ], [ -0.096578831189595, 51.571397312407782 ], [ -0.096666559782608, 51.571507515636945 ], [ -0.096736483932045, 51.571596752757131 ], [ -0.096839210696053, 51.571832249770338 ], [ -0.096886514450503, 51.571941796396587 ], [ -0.097428032338375, 51.572970408594692 ], [ -0.097773394640302, 51.573618975464868 ], [ -0.097639122453026, 51.573654554239198 ], [ -0.097532685543341, 51.573678897690996 ], [ -0.09731643927412, 51.57374281250307 ], [ -0.097275755503821, 51.573751142083736 ], [ -0.097200126433787, 51.573764298371756 ], [ -0.097124572307573, 51.57377565783699 ], [ -0.097049137051551, 51.573787019184358 ], [ -0.096973695340935, 51.57379568339141 ], [ -0.096924443864369, 51.57380117677075 ], [ -0.096876500335946, 51.573806691365 ], [ -0.096828750698331, 51.573810411095728 ], [ -0.096782427918296, 51.573814153974148 ], [ -0.096752032046913, 51.573815458445516 ], [ -0.096705784257452, 51.573817404519218 ], [ -0.096661038331837, 51.573817576968629 ], [ -0.096616292406341, 51.573817749400995 ], [ -0.096587517304474, 51.573817282155012 ], [ -0.096542846386743, 51.573815657784742 ], [ -0.096498175472527, 51.573814033397419 ], [ -0.096101879542618, 51.573730283673868 ], [ -0.095539756602391, 51.573645636479803 ], [ -0.095513910385574, 51.573643418558639 ], [ -0.095417578454227, 51.573633762416129 ], [ -0.095321171511332, 51.573625902968502 ], [ -0.095224808450744, 51.573619842147835 ], [ -0.095128288982047, 51.573614677702651 ], [ -0.095098005796939, 51.573613286582471 ], [ -0.095069268375681, 51.57361192057472 ], [ -0.095040449583321, 51.573609654240336 ], [ -0.095011712166305, 51.573608288218445 ], [ -0.094982855846399, 51.573606920257077 ], [ -0.094954118433084, 51.573605554221032 ], [ -0.094925262116885, 51.573604186245454 ], [ -0.094896368268012, 51.573603716649998 ], [ -0.094867555789541, 51.573604147367206 ], [ -0.094684855451704, 51.573591288859852 ], [ -0.094550355862947, 51.573632254455198 ], [ -0.094277113056336, 51.573747379124342 ], [ -0.093800949702708, 51.573917728291846 ], [ -0.093698684466096, 51.573947530167686 ], [ -0.093557536978674, 51.573976699593508 ], [ -0.093515419288236, 51.573982307580714 ], [ -0.093220908130911, 51.574019770165819 ], [ -0.093125176307325, 51.574029899873345 ], [ -0.093039745475585, 51.574038399085651 ], [ -0.093020958375971, 51.574038093453169 ], [ -0.092938681828364, 51.574039451920626 ], [ -0.092857907293552, 51.574039036770927 ], [ -0.092775662138686, 51.574036799641028 ], [ -0.092693573475779, 51.574033666001 ], [ -0.092654760308799, 51.574028539469381 ], [ -0.092486634507634, 51.574011419724201 ], [ -0.09231696921583, 51.573996971676209 ], [ -0.092148618138257, 51.573985241765875 ], [ -0.092129987562448, 51.573984039538502 ], [ -0.092089672459631, 51.573980686368969 ], [ -0.092049357362896, 51.573977333185539 ], [ -0.092007696722205, 51.573974857085553 ], [ -0.091967344046281, 51.573972402260829 ], [ -0.091926953783433, 51.573970845809249 ], [ -0.091885180379188, 51.573971064826864 ], [ -0.091860648264595, 51.573971564488751 ], [ -0.091818718361038, 51.573972679934222 ], [ -0.091775323996166, 51.573974670523903 ], [ -0.091733318898291, 51.573977582713063 ], [ -0.091606183603812, 51.573981805961353 ], [ -0.091562714026796, 51.573985593246789 ], [ -0.091520633709612, 51.57399030213427 ], [ -0.091462701355358, 51.573995651910309 ], [ -0.091364115509491, 51.574005733722032 ], [ -0.091238931337704, 51.574031564329509 ], [ -0.090971841742644, 51.574104618727254 ], [ -0.090634979019415, 51.574221396142647 ], [ -0.090326259198195, 51.574322449124246 ], [ -0.090270502843058, 51.574344015775331 ], [ -0.090163129033332, 51.57435934743674 ], [ -0.09012236225258, 51.574366774237404 ], [ -0.090067128774833, 51.574375853215102 ], [ -0.089955468184062, 51.574388417844467 ], [ -0.08981093972183, 51.574395951775948 ], [ -0.08951815462524, 51.574392079340214 ], [ -0.08939582567005, 51.574383792559878 ], [ -0.089328124354149, 51.57438089107437 ], [ -0.089262000493914, 51.574374419260387 ], [ -0.089194374489651, 51.574369720923507 ], [ -0.089128175374885, 51.574365045807404 ], [ -0.088991763863128, 51.574349247130826 ], [ -0.088960091204183, 51.574346932781935 ], [ -0.088813380762644, 51.574335550896713 ], [ -0.088613319205936, 51.574322399907594 ], [ -0.088387671002835, 51.574334902346862 ], [ -0.088076727065568, 51.57438386113688 ], [ -0.087970892382598, 51.574396518915272 ], [ -0.087875347125533, 51.574402152430899 ], [ -0.087765721451576, 51.574403061170671 ], [ -0.087687800184447, 51.574402689022271 ], [ -0.087581173076737, 51.574397353496714 ], [ -0.087395655889798, 51.574383538709441 ], [ -0.086846575967047, 51.574294477508168 ], [ -0.086840364165346, 51.574374477196677 ], [ -0.086929205794621, 51.57445773630193 ], [ -0.087018165964843, 51.574504138190505 ], [ -0.087148426339452, 51.574496374849872 ], [ -0.087154699876505, 51.57451985126648 ], [ -0.087206143191979, 51.574703277948039 ], [ -0.086638258769863, 51.574756041247745 ], [ -0.086063038534348, 51.574844642154837 ], [ -0.086029637183052, 51.574849490814245 ], [ -0.085827802048385, 51.574878559273159 ], [ -0.085663739258101, 51.575039588509014 ], [ -0.084879467802129, 51.575122072474748 ], [ -0.083795867625111, 51.575186168586455 ], [ -0.083586329752003, 51.57519173223448 ], [ -0.082774579034282, 51.575313395267507 ], [ -0.082209533081454, 51.575366181049425 ], [ -0.08182180819043, 51.575455129772415 ], [ -0.080851401990372, 51.57564250550714 ], [ -0.08083627245479, 51.575589217059346 ], [ -0.07981107865653, 51.575534666018122 ], [ -0.079815332420579, 51.575501472851812 ], [ -0.079322740308525, 51.575478117579422 ], [ -0.078933365801886, 51.57543658429897 ], [ -0.078442856916099, 51.575363814245179 ], [ -0.078042968605564, 51.575297922385531 ], [ -0.077998561886149, 51.575290002061976 ], [ -0.078003870205374, 51.575268513021804 ], [ -0.07800560000779, 51.575261349358286 ], [ -0.077542822189125, 51.575180040266964 ], [ -0.077520340762774, 51.57523630873542 ], [ -0.077495916092477, 51.575231413031361 ], [ -0.077026535391991, 51.575137407509644 ], [ -0.077067965402937, 51.575080461146818 ], [ -0.077030655665969, 51.57507355590883 ], [ -0.076221242461407, 51.574933511858625 ], [ -0.075947942888196, 51.575254554638505 ], [ -0.075873136665832, 51.575349519921581 ], [ -0.075758866186312, 51.575494271327919 ], [ -0.075727572396358, 51.575482969434255 ], [ -0.075404845563705, 51.575367901358696 ], [ -0.075349473854955, 51.575346314883014 ], [ -0.075298307071391, 51.575326595450321 ], [ -0.075179770811561, 51.575332739631598 ], [ -0.07515011038901, 51.575556194169117 ], [ -0.074408915980183, 51.575609644802491 ], [ -0.074410115247369, 51.575615058500667 ], [ -0.074423165620151, 51.575683596840896 ], [ -0.074368154937678, 51.575687277848928 ], [ -0.07434932491725, 51.575620352629407 ], [ -0.074210264574265, 51.575630653556246 ], [ -0.073974275517296, 51.575651048351411 ], [ -0.073736621539783, 51.575671415312641 ], [ -0.073736645434384, 51.575707465575476 ], [ -0.073615211170181, 51.575711762527767 ], [ -0.073603369978893, 51.575651245028887 ], [ -0.07359860619356, 51.575625994740399 ], [ -0.073519104046554, 51.575629182858151 ], [ -0.073520166850728, 51.575604028345879 ], [ -0.07301770458504, 51.575642515458483 ], [ -0.072742978628923, 51.575655977842864 ], [ -0.072487848928472, 51.575614023893799 ], [ -0.072352770115186, 51.575634277118546 ], [ -0.072341273919443, 51.575633189021673 ], [ -0.072296146341379, 51.575642335725917 ], [ -0.07189534292099, 51.575702358132446 ], [ -0.071867684959774, 51.575706398090531 ], [ -0.071832452449629, 51.575619424469181 ], [ -0.071827157763761, 51.575606751348374 ], [ -0.07090860687766, 51.575692412760866 ], [ -0.070462198430192, 51.575803731815583 ], [ -0.069950924205363, 51.575881616930516 ], [ -0.069705183234209, 51.57592710458578 ], [ -0.069463873688653, 51.575966281826751 ], [ -0.069305457910132, 51.575992440200601 ], [ -0.068723870885567, 51.576095232792937 ], [ -0.068306197067063, 51.576143188264517 ], [ -0.067969143414591, 51.576195170873099 ], [ -0.067404723664826, 51.576265970734518 ], [ -0.067346822759727, 51.576270410427206 ], [ -0.067209264645498, 51.576281628118906 ], [ -0.067063995835023, 51.576303506576899 ], [ -0.066712398151022, 51.576358842275894 ], [ -0.066757556322036, 51.576621286583858 ], [ -0.066103385052725, 51.576731864695958 ], [ -0.065446865259433, 51.576864066415446 ], [ -0.064595928448342, 51.577020834885467 ], [ -0.064207861863101, 51.577152965390034 ], [ -0.06374061793427, 51.577246838172478 ], [ -0.062690554619309, 51.577468718791664 ], [ -0.061158762069539, 51.577786011237471 ], [ -0.0609693118102, 51.577422288115088 ], [ -0.060664929952152, 51.576839913957535 ], [ -0.06030836503043, 51.576164078237149 ], [ -0.060058018510362, 51.57560417220585 ], [ -0.059979022775977, 51.575424772277138 ], [ -0.059716087860718, 51.575023869862896 ], [ -0.059660544935911, 51.574939343138013 ], [ -0.059347237381717, 51.57443323159432 ], [ -0.059053737044594, 51.574071378004419 ], [ -0.058839146688154, 51.573756679386307 ], [ -0.058722450018721, 51.573515521685003 ], [ -0.058717082550614, 51.573504644738257 ], [ -0.058568195238275, 51.573206316476401 ], [ -0.058507263696381, 51.572940999560167 ], [ -0.058470693630094, 51.572715552393774 ], [ -0.058424554114429, 51.57258074645172 ], [ -0.05840520849278, 51.572526485691853 ], [ -0.058200155415427, 51.572326207509697 ], [ -0.057564632263814, 51.571899260966468 ], [ -0.05708032801402, 51.57161245476167 ], [ -0.056744970414282, 51.571356973279229 ], [ -0.056595847615154, 51.5709948089279 ], [ -0.05637337734609, 51.570795946884587 ], [ -0.056146381417839, 51.570672615898509 ], [ -0.055984515834259, 51.570609608919071 ], [ -0.055843750015728, 51.570559627575356 ], [ -0.05575468426566, 51.570550059676556 ], [ -0.055550250447228, 51.570539477568424 ], [ -0.05526454968113, 51.570540133347848 ], [ -0.054954496074227, 51.570500828126086 ], [ -0.054765790054693, 51.570459040287474 ], [ -0.05465341978538, 51.570421215689258 ], [ -0.054530321388969, 51.570364333821843 ], [ -0.054413240678756, 51.570300269715524 ], [ -0.05426602072389, 51.570198036932943 ], [ -0.054150158395324, 51.570074748178513 ], [ -0.053508714842624, 51.569007407714068 ], [ -0.053358337830307, 51.568745097950689 ], [ -0.053268028534985, 51.568664395981443 ], [ -0.053133238683415, 51.568574954212231 ], [ -0.052798987678756, 51.568394906312342 ], [ -0.051908468827758, 51.567993450631683 ], [ -0.051156554905677, 51.567725559511977 ], [ -0.051149536371684, 51.567722746030384 ], [ -0.050826623953709, 51.567578041285962 ], [ -0.050761854897882, 51.567540107051194 ], [ -0.050662481480985, 51.567468335153414 ], [ -0.050420789264397, 51.567216107366008 ], [ -0.049825769850614, 51.566854626526784 ], [ -0.04912398823556, 51.566394186333142 ], [ -0.049027627287684, 51.566318866930267 ], [ -0.048933388611526, 51.566230097557543 ], [ -0.048541316012313, 51.565914234621367 ], [ -0.048407390930896, 51.565807634322525 ], [ -0.048280019428656, 51.565714717817542 ], [ -0.048212786433624, 51.565667751058804 ], [ -0.047640220266516, 51.565324612183424 ], [ -0.047521184501026, 51.565239924490136 ], [ -0.047457156261262, 51.565184829576104 ], [ -0.046810400858356, 51.564518517735522 ], [ -0.04677410249752, 51.564457680415693 ], [ -0.046743937219931, 51.564420319340783 ], [ -0.046700890438007, 51.564380946005137 ], [ -0.046674963361075, 51.564311291037789 ], [ -0.046660267228467, 51.564284975331041 ], [ -0.046646878846817, 51.56425868137223 ], [ -0.046636462601178, 51.564232436843291 ], [ -0.046626050214436, 51.564206102476454 ], [ -0.046617217962468, 51.564178985280037 ], [ -0.046612161992644, 51.564160920989643 ], [ -0.046604637487608, 51.564133825542292 ], [ -0.046598658489566, 51.564106755799152 ], [ -0.046593987226856, 51.564079707805867 ], [ -0.046590899934921, 51.56405178714693 ], [ -0.046589081903977, 51.564024786608222 ], [ -0.046588809369166, 51.563997811774186 ], [ -0.046591428521908, 51.563969986024723 ], [ -0.04659320482955, 51.56396462150807 ], [ -0.046596904364833, 51.563944904817738 ], [ -0.046601992035585, 51.563926110224742 ], [ -0.046608667508479, 51.56390635312863 ], [ -0.046616608382564, 51.563887605989073 ], [ -0.046624668133528, 51.563868860826098 ], [ -0.046634154482854, 51.563850139389316 ], [ -0.046643640823927, 51.563831417951569 ], [ -0.046654434877281, 51.563812718262312 ], [ -0.046666735941252, 51.563794942645828 ], [ -0.046679194345752, 51.563776270634747 ], [ -0.046691495389239, 51.5637584950153 ], [ -0.046699051534238, 51.563748731572154 ], [ -0.046715982047372, 51.563725638882985 ], [ -0.046735608394791, 51.563703490035451 ], [ -0.046755353605609, 51.563681343161392 ], [ -0.046776486930852, 51.563660118379133 ], [ -0.046797620235563, 51.563638893592739 ], [ -0.046821606715847, 51.563617716251173 ], [ -0.04682750542695, 51.563613319296842 ], [ -0.047001812530854, 51.56341834578685 ], [ -0.047173730086291, 51.563245807538507 ], [ -0.047190310535133, 51.56322810302067 ], [ -0.047205425929824, 51.563211273151332 ], [ -0.047219153183344, 51.563193521189675 ], [ -0.047233037762549, 51.563174872832057 ], [ -0.047245338409788, 51.563157097147631 ], [ -0.04725613203645, 51.563138397395399 ], [ -0.047267044535627, 51.563119699618554 ], [ -0.047273369648527, 51.56310811765043 ], [ -0.047276530443637, 51.56310097812181 ], [ -0.047284628215972, 51.563081334534715 ], [ -0.047289484763215, 51.563067930128788 ], [ -0.047296155943301, 51.563048262822072 ], [ -0.047302669782335, 51.563029491909091 ], [ -0.047306368911119, 51.563009775188178 ], [ -0.04731165194906, 51.562989185791054 ], [ -0.047313889884825, 51.56297025388514 ], [ -0.047314774302053, 51.562949591356407 ], [ -0.047315620265343, 51.562929827198353 ], [ -0.047315039652069, 51.562910039322055 ], [ -0.047313032464148, 51.562890227727493 ], [ -0.04731086794374, 51.562871312527179 ], [ -0.04730600761166, 51.562851453495981 ], [ -0.047304850208722, 51.562845141181882 ], [ -0.047298329068872, 51.562827951568025 ], [ -0.047291846387117, 51.562809863583006 ], [ -0.047285444138203, 51.562792675945005 ], [ -0.047276069870812, 51.562775438892942 ], [ -0.047268083727637, 51.562759123929723 ], [ -0.04725728290379, 51.562741863157584 ], [ -0.047246443634282, 51.562725500755292 ], [ -0.047234177803693, 51.562709114633009 ], [ -0.047221911982103, 51.562692728509496 ], [ -0.047208062266247, 51.562677215059622 ], [ -0.047192908718733, 51.562661590028185 ], [ -0.047177712881085, 51.562646953202723 ], [ -0.04716097160647, 51.56263229067882 ], [ -0.04715962195125, 51.562630470217329 ], [ -0.047141415666984, 51.562616682341577 ], [ -0.047124754840001, 51.562602920160202 ], [ -0.047106471664682, 51.562590929020757 ], [ -0.047086761934645, 51.562578914157754 ], [ -0.047065625651116, 51.562566875570511 ], [ -0.047045996365496, 51.562555761048401 ], [ -0.047024821646009, 51.562544620824767 ], [ -0.047002220374149, 51.562533456875599 ], [ -0.046979461774429, 51.562523189316074 ], [ -0.046956822065575, 51.562512923729116 ], [ -0.046934143907299, 51.56250355650856 ], [ -0.046911465758734, 51.562494189283768 ], [ -0.046887361058444, 51.562484798331461 ], [ -0.046877410092945, 51.56248103680916 ], [ -0.046844781008509, 51.562467908048617 ], [ -0.04680926036036, 51.562455630201605 ], [ -0.046775127829025, 51.562444274439187 ], [ -0.046739530291955, 51.562433793312636 ], [ -0.046702387332821, 51.562423286472971 ], [ -0.046666751365129, 51.562413703695292 ], [ -0.046629650388483, 51.562404995551155 ], [ -0.046590965521729, 51.562397160061977 ], [ -0.04655378763932, 51.56239024863514 ], [ -0.046542371698411, 51.562387361728248 ], [ -0.046037686572489, 51.562313248766912 ], [ -0.045699720411511, 51.562251886928806 ], [ -0.045678972944455, 51.5622335614866 ], [ -0.045328149653683, 51.561933656974723 ], [ -0.04507734035679, 51.561759569518152 ], [ -0.044713852873763, 51.561691486932133 ], [ -0.044447785926966, 51.561704138282295 ], [ -0.044337602889388, 51.561715788784099 ], [ -0.04411882057673, 51.561738216842031 ], [ -0.043708322037461, 51.56172059183487 ], [ -0.04334696021549, 51.561603004926077 ], [ -0.04276665320873, 51.5614396048069 ], [ -0.042685318651512, 51.561419370124696 ], [ -0.042512310712851, 51.561381425304944 ], [ -0.04236286966519, 51.561368146340349 ], [ -0.042166070761761, 51.561382846081464 ], [ -0.041861671986455, 51.561415529808706 ], [ -0.041687237485786, 51.561444086778714 ], [ -0.041052250117376, 51.561615097402033 ], [ -0.040714601998895, 51.561718335323285 ], [ -0.040583552834651, 51.561744917385838 ], [ -0.040449920588528, 51.561765163129266 ], [ -0.040287674184741, 51.561781335225554 ], [ -0.040164686671377, 51.561789172111048 ], [ -0.040049684049536, 51.561780060914892 ], [ -0.039883698764203, 51.561714360074454 ], [ -0.039698392774654, 51.561627659266556 ], [ -0.039348229755196, 51.561415850769279 ], [ -0.039206814962806, 51.561315497711298 ], [ -0.039082023821414, 51.561229716307977 ], [ -0.038955996452929, 51.56117546941185 ], [ -0.038810836832653, 51.561162257402245 ], [ -0.038699497678063, 51.561167590224827 ], [ -0.038458773861753, 51.56116356998912 ], [ -0.038340144604038, 51.561169679724728 ], [ -0.038111257803157, 51.561191927803797 ], [ -0.037922553835312, 51.561217543779598 ], [ -0.03765632926502, 51.561269823469679 ], [ -0.037214043745351, 51.561421557673654 ], [ -0.037059506142607, 51.561457632377639 ], [ -0.036937326974858, 51.561479863564344 ], [ -0.036787883368469, 51.561499840856385 ], [ -0.036664780116041, 51.561510369169049 ], [ -0.036581016416317, 51.56151346392371 ], [ -0.036389461601943, 51.561505766369052 ], [ -0.035987613075273, 51.561455894534269 ], [ -0.035236146400984, 51.561281503561979 ], [ -0.034999832874375, 51.561208236241029 ], [ -0.034880712428119, 51.56115949453222 ], [ -0.034701249335219, 51.561072883376532 ], [ -0.034239674717655, 51.560869083865626 ], [ -0.033850745812528, 51.560721428394579 ], [ -0.033643782405437, 51.560668517667537 ], [ -0.033489107823846, 51.560641654468078 ], [ -0.033280673316373, 51.560622880890847 ], [ -0.032847564476806, 51.560630910162644 ], [ -0.032542476733144, 51.560679740094109 ], [ -0.03215064909152, 51.560764874265672 ], [ -0.031663667055514, 51.560918625040401 ], [ -0.031170345601083, 51.56111443106181 ], [ -0.031118935732602, 51.561136943447785 ], [ -0.031066054166406, 51.561157723016862 ], [ -0.031011907622848, 51.561177492441367 ], [ -0.030956254482021, 51.561196337569434 ], [ -0.030900640079159, 51.561214284309706 ], [ -0.030845064417855, 51.561231332662317 ], [ -0.030811472496139, 51.561240658517001 ], [ -0.030754509092401, 51.561256784546153 ], [ -0.030696196764934, 51.561271089906725 ], [ -0.030637923191332, 51.561284496877441 ], [ -0.030578143039145, 51.561296979543471 ], [ -0.030518520519629, 51.561308565811949 ], [ -0.030458936764631, 51.561319253689632 ], [ -0.030397846440778, 51.561329017259276 ], [ -0.030336952559527, 51.561336986071076 ], [ -0.030274670990939, 51.56134403256597 ], [ -0.030264489259618, 51.561345659813469 ], [ -0.030203554062612, 51.561351829842195 ], [ -0.030142776523912, 51.561357103473355 ], [ -0.030090596570728, 51.561361622279023 ], [ -0.030081880098821, 51.561362375078673 ], [ -0.030021180142796, 51.56136585192764 ], [ -0.029766039256668, 51.561359773744151 ], [ -0.02972874978325, 51.561355552100977 ], [ -0.029692925595242, 51.561350456019639 ], [ -0.029562040144001, 51.561340168939743 ], [ -0.029349169475194, 51.561324909965016 ], [ -0.029143171943465, 51.561285492682735 ], [ -0.02852470749346, 51.561073643843002 ], [ -0.028100320751817, 51.560910091078291 ], [ -0.027863764510273, 51.560809924817072 ], [ -0.02750439514859, 51.560677938177143 ], [ -0.026825323302153, 51.560368868543144 ], [ -0.026478886957769, 51.56020482167726 ], [ -0.026344477571523, 51.560144127300262 ], [ -0.026173210007137, 51.560066541228707 ], [ -0.025863407488624, 51.559924684514975 ], [ -0.025507023216497, 51.559693851028939 ], [ -0.025111445301198, 51.559398527758482 ], [ -0.02492216627606, 51.559239816090376 ], [ -0.024731658609834, 51.559073801487976 ], [ -0.024628850157111, 51.558983969387647 ], [ -0.0245178688284, 51.558879615577673 ], [ -0.024419631414754, 51.558750213752113 ], [ -0.02435010526547, 51.558658244114433 ], [ -0.024250688582344, 51.558487467761417 ], [ -0.024176652141518, 51.558299228002937 ], [ -0.02404412111857, 51.557929212990153 ], [ -0.023954943759452, 51.557621059997288 ], [ -0.023941131250344, 51.557374408749013 ], [ -0.023892316420938, 51.557369991339321 ], [ -0.023525965789891, 51.557334159055976 ], [ -0.023066655017126, 51.557280578629694 ], [ -0.023006466768309, 51.557272373352887 ], [ -0.022529688064652, 51.557053887870843 ], [ -0.021906348042489, 51.556759213032748 ], [ -0.020747259354185, 51.55624055338167 ], [ -0.020385308938602, 51.556073529765015 ], [ -0.019132322428694, 51.555493936399849 ], [ -0.018799948884654, 51.555341790883396 ], [ -0.018443486354471, 51.555177460911452 ], [ -0.018048031410711, 51.554088104564968 ], [ -0.017922844080114, 51.554212750294063 ], [ -0.017772075163327, 51.553965582013184 ], [ -0.017648248261885, 51.553727948792321 ], [ -0.017476631094078, 51.553394122762739 ], [ -0.017279502531177, 51.552388932983888 ], [ -0.017161879132584, 51.551710708546814 ], [ -0.017156114298191, 51.551676448672346 ], [ -0.017142318451045, 51.551594405446266 ], [ -0.017140208519456, 51.551577288563912 ], [ -0.018054807116844, 51.551576560066451 ], [ -0.018968090978685, 51.551603660150519 ], [ -0.018944837051739, 51.551542135073042 ], [ -0.0188604272622, 51.551426446716206 ], [ -0.018816653358008, 51.551303442630399 ], [ -0.018827963527109, 51.551144418420222 ], [ -0.018875355411723, 51.550981597740055 ], [ -0.0188944820443, 51.550842483641702 ], [ -0.018921102759654, 51.550659534271155 ], [ -0.018914337932949, 51.550484022875061 ], [ -0.018847819132419, 51.550287814851629 ], [ -0.01869693760981, 51.550043344915245 ], [ -0.018313678753646, 51.549401995007322 ], [ -0.018164617817121, 51.548948892574586 ], [ -0.017903352133824, 51.548390596969092 ], [ -0.017593547528671, 51.547917696069717 ], [ -0.017480935113621, 51.54765498949763 ], [ -0.017431152778351, 51.547539074587988 ], [ -0.017314729863368, 51.547131562293764 ], [ -0.017198076755614, 51.546797765097324 ], [ -0.017024046637172, 51.546221972542327 ], [ -0.016957702693501, 51.545956451364951 ], [ -0.016880223599368, 51.545550495811959 ], [ -0.016857602720111, 51.545274925389307 ], [ -0.016847992792684, 51.545096668346979 ], [ -0.016810600082378, 51.544961184271692 ], [ -0.016815057347668, 51.544858682141751 ], [ -0.016720918051692, 51.544537851157202 ], [ -0.016593212319268, 51.544321727205343 ], [ -0.016499605767686, 51.543887539401993 ], [ -0.016505876804771, 51.543644911673987 ], [ -0.016544539384349, 51.543384761316531 ], [ -0.016543933953666, 51.543365871790186 ], [ -0.016737390687592, 51.543396112292243 ], [ -0.016795741469839, 51.543347652791788 ], [ -0.017022914274758, 51.543395543957246 ], [ -0.017393416589968, 51.543431472392527 ], [ -0.017756790237737, 51.543467279230278 ], [ -0.018528239380457, 51.54356930800752 ], [ -0.019200591976517, 51.543595933817421 ], [ -0.019865792478061, 51.543587373624845 ], [ -0.020324523871485, 51.543585218438615 ], [ -0.021429206952136, 51.543519328118293 ], [ -0.022269890957589, 51.543489437333854 ], [ -0.022327512246163, 51.543424779684543 ], [ -0.022344094824493, 51.543407078658618 ], [ -0.022525894342838, 51.543404656087993 ], [ -0.022725427614519, 51.543393631580777 ], [ -0.022982317468844, 51.543389865436019 ], [ -0.02305598387146, 51.543385711490629 ], [ -0.023043163868076, 51.543349535110302 ], [ -0.023836003335509, 51.543326019768642 ], [ -0.025321082779833, 51.543235027809573 ], [ -0.025478114785845, 51.543271830717188 ], [ -0.025515401205489, 51.543341681714168 ], [ -0.025585245491579, 51.543362634311833 ], [ -0.025632008041628, 51.543246548671654 ], [ -0.025680094663076, 51.543201507386193 ], [ -0.025735273834288, 51.543160181372883 ], [ -0.025830700983208, 51.543123038086009 ], [ -0.02647908473603, 51.542901091321134 ], [ -0.027023557629905, 51.5427501255162 ], [ -0.027350320905205, 51.542664814377829 ], [ -0.02781575602673, 51.54254038665978 ], [ -0.028359478556288, 51.542406573216638 ], [ -0.028689970901043, 51.54233390714856 ], [ -0.028979522029309, 51.542275836251889 ], [ -0.028988806554099, 51.54229487137831 ], [ -0.029128225880194, 51.542571410579114 ], [ -0.02935876464553, 51.542877438001568 ], [ -0.029447259304112, 51.543030946232811 ], [ -0.029624747908252, 51.543131017824088 ], [ -0.029898288692827, 51.543239982554489 ], [ -0.030489317177255, 51.543382051131083 ], [ -0.030923348121009, 51.543483725846244 ], [ -0.031037590080175, 51.54354227917888 ], [ -0.031486576994922, 51.5437989228612 ], [ -0.031967480888844, 51.544084868130945 ], [ -0.03289291987929, 51.54462917310704 ], [ -0.033035081329783, 51.544677403969551 ], [ -0.033145717386164, 51.544687348092069 ], [ -0.033235617931187, 51.54467626752924 ], [ -0.033360259500652, 51.544628909119211 ], [ -0.033398968393655, 51.544599889886968 ], [ -0.033625990944552, 51.544420202653868 ], [ -0.033751994009648, 51.544308137625308 ], [ -0.03385698660806, 51.544214510093184 ], [ -0.034042632697638, 51.544056694559188 ], [ -0.034509810827755, 51.543657171209233 ], [ -0.035122330720207, 51.543364363582405 ], [ -0.035845415397015, 51.543016764534208 ], [ -0.036757598894326, 51.54246366149497 ], [ -0.037735345365739, 51.5417956762291 ], [ -0.037129429810781, 51.541432958328762 ], [ -0.037142845167587, 51.541422394456674 ], [ -0.037238219825403, 51.541350269854384 ], [ -0.037351512771268, 51.541331486213124 ], [ -0.037417204736965, 51.541280441594843 ], [ -0.037441067568698, 51.541261961214815 ], [ -0.037506524543372, 51.541213609651336 ], [ -0.037523880926545, 51.54114737302497 ], [ -0.037922469639841, 51.540765481851963 ], [ -0.038628986571342, 51.540096555321078 ], [ -0.039084067223131, 51.539641975358762 ], [ -0.040128185890014, 51.538699895446349 ], [ -0.040707631529648, 51.538103454327 ], [ -0.041075437993882, 51.537764282168816 ], [ -0.041410015441997, 51.537462313020406 ], [ -0.042364181524937, 51.537001571659722 ], [ -0.043442551884085, 51.536502437450196 ], [ -0.043549587363077, 51.536462866718018 ], [ -0.043702216705126, 51.536499572169461 ], [ -0.043805203250539, 51.536485105941821 ], [ -0.043943301283806, 51.536425375227708 ], [ -0.044272763053669, 51.536142192455479 ], [ -0.044615862358866, 51.535906883321971 ], [ -0.044679457531068, 51.535871083167628 ], [ -0.044761782093757, 51.535833796872119 ], [ -0.044833469089634, 51.535808919471911 ], [ -0.04489906838608, 51.535792930723026 ], [ -0.045955511116877, 51.535604555519917 ], [ -0.046896126059576, 51.535491648634249 ], [ -0.047132352227826, 51.535497376047211 ], [ -0.047300628943286, 51.535507366925856 ], [ -0.047547648992407, 51.535530354119018 ], [ -0.047826470741214, 51.535585334741455 ], [ -0.04796468672729, 51.535592127813963 ], [ -0.048052137972655, 51.535601672782477 ], [ -0.048159520693918, 51.535620539082089 ], [ -0.048283553916225, 51.535653167140566 ], [ -0.048401381313811, 51.535697468873728 ], [ -0.048487606925748, 51.535738458307435 ], [ -0.048559299966152, 51.53578010513764 ], [ -0.048874686019426, 51.535992117725179 ], [ -0.049272397382458, 51.536200193075935 ], [ -0.049524293687817, 51.536312258427813 ], [ -0.049598450902015, 51.536332459308269 ], [ -0.049891195418518, 51.536398454162388 ], [ -0.050221983135968, 51.536453392970927 ], [ -0.050331101692354, 51.536465094003539 ], [ -0.050471976731413, 51.536473726207497 ], [ -0.050627615045526, 51.536476310325639 ], [ -0.050782134693618, 51.536471683636009 ], [ -0.050929790759657, 51.536457952771414 ], [ -0.05140154572845, 51.53638577170792 ], [ -0.051576869761855, 51.536331055164801 ], [ -0.051738043857944, 51.536270804129828 ], [ -0.051852621753659, 51.536221465725788 ], [ -0.05211510893429, 51.536085584524692 ], [ -0.052367531263197, 51.535915283533321 ], [ -0.05255465482288, 51.535720522882919 ], [ -0.052683845621433, 51.535532081244398 ], [ -0.052782818752024, 51.535171338048208 ], [ -0.05280905426534, 51.534929852472665 ], [ -0.05298886196525, 51.534973295293412 ], [ -0.053439750859104, 51.535083272320307 ], [ -0.053829728950984, 51.53513568873246 ], [ -0.054114101629853, 51.53516378528775 ], [ -0.054362932577311, 51.535177806014516 ], [ -0.054676622506415, 51.535159639910347 ], [ -0.05483679686565, 51.535122652901123 ], [ -0.055011776489803, 51.535112072331167 ], [ -0.05519869732694, 51.5350891036842 ], [ -0.05521322583588, 51.53508574880383 ], [ -0.055220472915516, 51.53508586907806 ], [ -0.055398217955135, 51.5350438688412 ], [ -0.055621279944348, 51.534984640303115 ], [ -0.05618495023937, 51.534819496118502 ], [ -0.056788101884729, 51.534606548122696 ], [ -0.057272938708071, 51.534427505786738 ], [ -0.057539042003468, 51.534342916503476 ], [ -0.058085708083678, 51.534202653915692 ], [ -0.058726889494983, 51.534112590570366 ], [ -0.059036366363819, 51.534089848446285 ], [ -0.059328819568608, 51.534095591455227 ], [ -0.059657821160741, 51.534125312849184 ], [ -0.059882798754097, 51.534157805965144 ], [ -0.06017231168594, 51.534232720816405 ], [ -0.060344384611822, 51.534290408033982 ], [ -0.060433580530518, 51.534328833186677 ], [ -0.060628175931002, 51.534430044515474 ], [ -0.06065628145474, 51.534448489578025 ], [ -0.060911749228173, 51.534681151968471 ], [ -0.061314220601735, 51.535016034205874 ], [ -0.061674660155222, 51.535288188948719 ], [ -0.062068327671, 51.535458316702069 ], [ -0.062443523436034, 51.535517561415908 ], [ -0.062637337491944, 51.535301411474592 ], [ -0.062769838217241, 51.535101238664502 ], [ -0.062823439472877, 51.534992447633094 ], [ -0.06281122690771, 51.534636064729519 ] ] ] } }
]
}
