{
"type": "FeatureCollection",
"name": "lsoas_E05009302",
"crs": { "type": "name", "properties": { "name": "urn:ogc:def:crs:OGC:1.3:CRS84" } },
"features": [
{ "type": "Feature", "properties": { "lsoa21cd": "E01002706", "lsoa21nm": "Islington 023E", "msoa21cd": "E02000576", "msoa21nm": "Islington 023", "lad22cd": "E09000019", "lad22nm": "Islington", "index_right": 635, "GSS_CODE": "E05009302", "risk_score": 6.2586119970333058, "allocation_hours": 201.2166051947552, "patrol_units": 101 }, "geometry": { "type": "Polygon", "coordinates": [ [ [ -0.094947014455968, 51.526766986212586 ], [ -0.094594849933001, 51.526664330117207 ], [ -0.094440572068944, 51.52673106587762 ], [ -0.094415316567013, 51.526741980696301 ], [ -0.094395631314951, 51.526750487896614 ], [ -0.094343217776449, 51.526628189612381 ], [ -0.094239503945349, 51.526425292163687 ], [ -0.094236597909597, 51.526419624489542 ], [ -0.094142494077217, 51.526256226189325 ], [ -0.093956203575634, 51.526294185815587 ], [ -0.093943349736244, 51.526296809500465 ], [ -0.093834806047269, 51.526318929031618 ], [ -0.093748407280333, 51.526336534555846 ], [ -0.093634265728973, 51.526359785870341 ], [ -0.093144704738156, 51.52645954633492 ], [ -0.093129800667821, 51.526462586211757 ], [ -0.093065692096558, 51.526475643828689 ], [ -0.092818776975376, 51.526526523446904 ], [ -0.092630306733059, 51.526564359150676 ], [ -0.092517204148618, 51.526366559196305 ], [ -0.092446486645084, 51.526242892117537 ], [ -0.092436169719164, 51.526224837783197 ], [ -0.092401911313992, 51.526164964551022 ], [ -0.092367180720743, 51.526108455880127 ], [ -0.092239944214263, 51.52590154087904 ], [ -0.092259500859795, 51.525895834066432 ], [ -0.092269133235671, 51.525893023247043 ], [ -0.092512388855269, 51.525839401791281 ], [ -0.092525461164972, 51.525773284490896 ], [ -0.092509158205487, 51.52575668848786 ], [ -0.092498794792441, 51.525743885128229 ], [ -0.092471173208445, 51.525709749057448 ], [ -0.092464126727719, 51.525701055370952 ], [ -0.092440629822999, 51.525662400146651 ], [ -0.092430165350261, 51.525648911692684 ], [ -0.092432692864303, 51.52564569747301 ], [ -0.092447141378492, 51.525627344724377 ], [ -0.092461163576593, 51.525609533589908 ], [ -0.092477895919223, 51.52558827739508 ], [ -0.092505833786637, 51.525536583459733 ], [ -0.092507380272178, 51.525533730966927 ], [ -0.092521151385747, 51.525468137500653 ], [ -0.092522609142553, 51.525461200866872 ], [ -0.092508141298363, 51.525453470015243 ], [ -0.092307745646235, 51.52539164386166 ], [ -0.092176656034156, 51.525298288373122 ], [ -0.092167976234011, 51.525292112999061 ], [ -0.092177360193954, 51.525256285910594 ], [ -0.092192797954168, 51.525222895452252 ], [ -0.092195238644709, 51.52521762048584 ], [ -0.09219791685186, 51.525211836800743 ], [ -0.092194222550985, 51.525206066306431 ], [ -0.092192192752904, 51.525202894816346 ], [ -0.092135461511263, 51.525094050017096 ], [ -0.092121382029735, 51.52506704058294 ], [ -0.09184080332436, 51.5251148830719 ], [ -0.091419281004213, 51.525186751778335 ], [ -0.091193766029677, 51.525219545159565 ], [ -0.09092698476814, 51.525258356610649 ], [ -0.090752074903988, 51.52528379891455 ], [ -0.090748190508976, 51.525273618858144 ], [ -0.090735433145635, 51.525240183039294 ], [ -0.090625473811893, 51.524952055406501 ], [ -0.090558372928091, 51.524776252213691 ], [ -0.090479256965586, 51.524568931687604 ], [ -0.090476753308788, 51.524561930553126 ], [ -0.090470844769057, 51.524545350683447 ], [ -0.090466355404069, 51.524532750720091 ], [ -0.090455452315375, 51.524506341401519 ], [ -0.090347344504204, 51.524244664255214 ], [ -0.090353882152238, 51.52424345782336 ], [ -0.090986497075479, 51.524126604979465 ], [ -0.090989444830224, 51.524120582909262 ], [ -0.091122510988252, 51.523849245730517 ], [ -0.091116673785657, 51.523839915170491 ], [ -0.091105891897034, 51.523822662452581 ], [ -0.091094529173926, 51.523804132304072 ], [ -0.091091091845961, 51.523801873117556 ], [ -0.091021398588531, 51.523756233307772 ], [ -0.090958511079552, 51.523715038775613 ], [ -0.090921706768745, 51.523691292182292 ], [ -0.090812486958519, 51.523655619925663 ], [ -0.090714704298508, 51.523650821450801 ], [ -0.090632168627728, 51.523505949100432 ], [ -0.090639305336001, 51.523504203853093 ], [ -0.09078333053065, 51.523469104014261 ], [ -0.090769403358408, 51.523398527265066 ], [ -0.090726539446441, 51.523181320807325 ], [ -0.090720736506333, 51.523147063012289 ], [ -0.090797279358373, 51.523115113078148 ], [ -0.090790331153334, 51.523105121431065 ], [ -0.090807625519856, 51.523100744872927 ], [ -0.090930755667306, 51.52306956706321 ], [ -0.090938172678543, 51.52308075787046 ], [ -0.09094431527745, 51.523090021469869 ], [ -0.090959156609039, 51.523087079744556 ], [ -0.091053907587877, 51.523238378244962 ], [ -0.091066125988425, 51.52323542077248 ], [ -0.091134428896527, 51.523218835363821 ], [ -0.091143400215255, 51.523216652337858 ], [ -0.09122609046061, 51.523196605147824 ], [ -0.091290868342087, 51.523180888497272 ], [ -0.091330997748579, 51.52317115081437 ], [ -0.091493025627734, 51.52312659059907 ], [ -0.091498291376447, 51.52312959446116 ], [ -0.09150537279898, 51.523128823967937 ], [ -0.091534560144625, 51.523120306438287 ], [ -0.091552856346372, 51.523144704755616 ], [ -0.091574797784483, 51.5231739735123 ], [ -0.09158419902484, 51.523179432259276 ], [ -0.091602829653845, 51.523211344924185 ], [ -0.091491269433795, 51.523230256907219 ], [ -0.091555687701072, 51.523347887102382 ], [ -0.091567044464598, 51.523368629317581 ], [ -0.091614975676226, 51.523456180251991 ], [ -0.091675500308497, 51.523442552402237 ], [ -0.091727365866099, 51.523430878864069 ], [ -0.091865921420392, 51.523399690392409 ], [ -0.091863820139292, 51.52340615791659 ], [ -0.091868645843414, 51.523404518859365 ], [ -0.091951763124928, 51.523521787765326 ], [ -0.0919554930906, 51.523527046261918 ], [ -0.092057217913116, 51.523670597900505 ], [ -0.092072082885259, 51.523691568031794 ], [ -0.092113669679347, 51.523750229862387 ], [ -0.092162102241874, 51.523737232291268 ], [ -0.092306029451154, 51.523698603838355 ], [ -0.092438278648234, 51.52366310348259 ], [ -0.0924510308576, 51.523679443914254 ], [ -0.09246346349289, 51.523675500584922 ], [ -0.09249198095473, 51.523666459335523 ], [ -0.092505861439194, 51.523662710422663 ], [ -0.0926929270703, 51.523612184639809 ], [ -0.092682625604501, 51.523590668336062 ], [ -0.092669169060622, 51.523562554003462 ], [ -0.092573063840409, 51.523361783761118 ], [ -0.092560730539751, 51.523355423074527 ], [ -0.092562782588121, 51.523346337856275 ], [ -0.092582490449905, 51.523259060539374 ], [ -0.092769296511669, 51.523182631369352 ], [ -0.092813842764556, 51.523163266394405 ], [ -0.092941631409034, 51.52310993225781 ], [ -0.092950976888349, 51.523106037570507 ], [ -0.092941830458222, 51.523096203625094 ], [ -0.092933807639221, 51.523098114454278 ], [ -0.092905562960933, 51.523057187758759 ], [ -0.092897326327591, 51.523045246331158 ], [ -0.09285612957106, 51.522985520978608 ], [ -0.092852242451931, 51.522979882258582 ], [ -0.092811338925785, 51.522915386532489 ], [ -0.092769940084271, 51.522799291548807 ], [ -0.092760043152074, 51.522771549884233 ], [ -0.09275450520977, 51.52275919372574 ], [ -0.092707304542417, 51.522653786590311 ], [ -0.092708807251996, 51.522617840192893 ], [ -0.092709050690651, 51.522612016876487 ], [ -0.092709398191675, 51.522603704272022 ], [ -0.092709667927488, 51.522597251893643 ], [ -0.092709845622474, 51.522593001232103 ], [ -0.092710685258863, 51.522572916182284 ], [ -0.093114981248627, 51.522501787298808 ], [ -0.093131826872221, 51.522498823938577 ], [ -0.093256105157486, 51.522468723442351 ], [ -0.093282054216276, 51.522472481802694 ], [ -0.093310991087979, 51.522466144971993 ], [ -0.093336360358251, 51.522449282589676 ], [ -0.093360403734972, 51.522443450682495 ], [ -0.093377077928171, 51.522439414365124 ], [ -0.093564776388715, 51.52239395127355 ], [ -0.093606789466952, 51.52238378029783 ], [ -0.093758023039985, 51.522347139258436 ], [ -0.093958032122377, 51.522300967439129 ], [ -0.093967071023425, 51.522298884209839 ], [ -0.094427581886832, 51.522192549947995 ], [ -0.094558581554236, 51.522162314492434 ], [ -0.094519868973552, 51.522053772629185 ], [ -0.094532901670806, 51.5220481823631 ], [ -0.094613620090332, 51.522210609695257 ], [ -0.09465352934469, 51.522291194632729 ], [ -0.094654845528172, 51.522293850891558 ], [ -0.094764403496602, 51.522515080831973 ], [ -0.094767354228058, 51.522521054990058 ], [ -0.094813950890579, 51.522615147715982 ], [ -0.094839555220868, 51.522666867295996 ], [ -0.094891934560976, 51.522772654580521 ], [ -0.094900270441215, 51.522789480536233 ], [ -0.094954963776682, 51.522899927658713 ], [ -0.09500336878967, 51.522997682763531 ], [ -0.095005282990073, 51.523001553761304 ], [ -0.095017687524118, 51.523026584237911 ], [ -0.095035434784393, 51.523062447833468 ], [ -0.095056317752506, 51.523057908634883 ], [ -0.095070945848067, 51.523054715619146 ], [ -0.095527367429136, 51.522955298031924 ], [ -0.095559408997623, 51.522948314149538 ], [ -0.095565278898032, 51.522947038120279 ], [ -0.095781777901353, 51.522899881107655 ], [ -0.095934674217807, 51.52286657359317 ], [ -0.095980651766594, 51.522939298127149 ], [ -0.09599133696369, 51.522956144184974 ], [ -0.096132128214975, 51.522914798147568 ], [ -0.096145409135346, 51.522910895172906 ], [ -0.09640612152379, 51.52283432042266 ], [ -0.096436813685659, 51.52282529551745 ], [ -0.096444635975685, 51.522823003494317 ], [ -0.096504854719924, 51.522950715786287 ], [ -0.096555221981374, 51.523057494896264 ], [ -0.096567975963054, 51.52308453627559 ], [ -0.096716144994382, 51.523220187236149 ], [ -0.096752962307263, 51.52325370736154 ], [ -0.096759931833589, 51.523251401473317 ], [ -0.096832623357329, 51.523290841192001 ], [ -0.097125115235934, 51.523184210027324 ], [ -0.097277582443058, 51.523330568477057 ], [ -0.097305269789259, 51.523357996053832 ], [ -0.097202180201665, 51.52341027911794 ], [ -0.097121623929195, 51.523447307498728 ], [ -0.096937612682147, 51.523531882536702 ], [ -0.096766100754109, 51.523597757501754 ], [ -0.096600668014921, 51.523661302879731 ], [ -0.096578327027618, 51.523631506939104 ], [ -0.096569422890558, 51.523619644840437 ], [ -0.096563782558271, 51.52361213425894 ], [ -0.096477763946665, 51.523497429189611 ], [ -0.096436045731656, 51.523460789855555 ], [ -0.096406484108474, 51.523478295263324 ], [ -0.096234985594098, 51.523536579801551 ], [ -0.096128647607173, 51.523572703170743 ], [ -0.096082012641172, 51.523591019320662 ], [ -0.096040697737369, 51.523607245620632 ], [ -0.095951651695299, 51.523636617367735 ], [ -0.095912244400063, 51.523649619240224 ], [ -0.095806842040136, 51.523684381618708 ], [ -0.095747522564979, 51.523703696608678 ], [ -0.095430742061308, 51.523806840592954 ], [ -0.095412254784562, 51.523812862107398 ], [ -0.095439205755195, 51.523858254590365 ], [ -0.095478943087127, 51.523911255814028 ], [ -0.095517629769252, 51.523962837091801 ], [ -0.095540639715217, 51.523993516385623 ], [ -0.095589404140925, 51.52405854361443 ], [ -0.095637227202843, 51.524122296551056 ], [ -0.095648561554262, 51.524137408597966 ], [ -0.095654174109371, 51.524144891791941 ], [ -0.095706230304337, 51.52421429795082 ], [ -0.095730428568514, 51.524246561248184 ], [ -0.095698184285148, 51.524257516649293 ], [ -0.095699142435604, 51.52426253666308 ], [ -0.095700790378102, 51.524266641632437 ], [ -0.09569580423469, 51.524268948199321 ], [ -0.095668787782285, 51.524275190902387 ], [ -0.095675722668278, 51.524286913162769 ], [ -0.095714383761855, 51.524336011975926 ], [ -0.095795551410707, 51.524439137095634 ], [ -0.095810665057417, 51.524447979645586 ], [ -0.095808845147292, 51.524456007559728 ], [ -0.095816552660504, 51.524467180318318 ], [ -0.095827425120909, 51.524479546563455 ], [ -0.095832178680128, 51.524484470856478 ], [ -0.095845598844252, 51.524498312823773 ], [ -0.09585055622412, 51.52450629795176 ], [ -0.095857756129406, 51.524517889616575 ], [ -0.095911174724228, 51.524585411367426 ], [ -0.095954378628694, 51.524640006509031 ], [ -0.096008238701863, 51.524730808550565 ], [ -0.096124784454577, 51.524947074467313 ], [ -0.096131126073096, 51.52495799121202 ], [ -0.096140895652591, 51.524976063384699 ], [ -0.096144214535106, 51.524982205360217 ], [ -0.09615564306747, 51.525003498690012 ], [ -0.09618126964141, 51.525075342279976 ], [ -0.096212260289813, 51.525144532001995 ], [ -0.09623402005582, 51.525193104367943 ], [ -0.096236719144425, 51.525205117514318 ], [ -0.096246176434115, 51.525247258119919 ], [ -0.096257582829885, 51.525319385131183 ], [ -0.096264634653414, 51.525349040743883 ], [ -0.096275560739396, 51.525395022611171 ], [ -0.09628885367405, 51.525450961886776 ], [ -0.096343428220354, 51.525680487508474 ], [ -0.096379053185598, 51.525813789143179 ], [ -0.096394116015128, 51.525870157127109 ], [ -0.096418242910812, 51.525960475819964 ], [ -0.09645169365023, 51.52607644918303 ], [ -0.096456820153237, 51.526096141888949 ], [ -0.096402212781573, 51.526124556874862 ], [ -0.096300472111141, 51.526177499210775 ], [ -0.096195171904576, 51.526179278200573 ], [ -0.0961220758919, 51.526282666960078 ], [ -0.096115992977527, 51.526291282075135 ], [ -0.095534160660039, 51.526666888295303 ], [ -0.095456347400759, 51.526717116147438 ], [ -0.095386935809203, 51.526723910898703 ], [ -0.09527127668505, 51.526735235529152 ], [ -0.094947014455968, 51.526766986212586 ] ] ] } },
{ "type": "Feature", "properties": { "lsoa21cd": "E01033490", "lsoa21nm": "Islington 022H", "msoa21cd": "E02000575", "msoa21nm": "Islington 022", "lad22cd": "E09000019", "lad22nm": "Islington", "index_right": 635, "GSS_CODE": "E05009302", "risk_score": 5.5192006226279045, "allocation_hours": 177.44426610890548, "patrol_units": 89 }, "geometry": { "type": "Polygon", "coordinates": [ [ [ -0.096275560739396, 51.525395022611171 ], [ -0.096264634653414, 51.525349040743883 ], [ -0.096257582829885, 51.525319385131183 ], [ -0.096246176434115, 51.525247258119919 ], [ -0.096236719144425, 51.525205117514318 ], [ -0.09623402005582, 51.525193104367943 ], [ -0.096212260289813, 51.525144532001995 ], [ -0.09618126964141, 51.525075342279976 ], [ -0.09615564306747, 51.525003498690012 ], [ -0.096144214535106, 51.524982205360217 ], [ -0.096140895652591, 51.524976063384699 ], [ -0.096131126073096, 51.52495799121202 ], [ -0.096124784454577, 51.524947074467313 ], [ -0.096008238701863, 51.524730808550565 ], [ -0.095954378628694, 51.524640006509031 ], [ -0.095911174724228, 51.524585411367426 ], [ -0.095857756129406, 51.524517889616575 ], [ -0.09585055622412, 51.52450629795176 ], [ -0.095845598844252, 51.524498312823773 ], [ -0.095832178680128, 51.524484470856478 ], [ -0.095827425120909, 51.524479546563455 ], [ -0.095816552660504, 51.524467180318318 ], [ -0.095808845147292, 51.524456007559728 ], [ -0.095810665057417, 51.524447979645586 ], [ -0.095795551410707, 51.524439137095634 ], [ -0.095714383761855, 51.524336011975926 ], [ -0.095675722668278, 51.524286913162769 ], [ -0.095668787782285, 51.524275190902387 ], [ -0.09569580423469, 51.524268948199321 ], [ -0.095700790378102, 51.524266641632437 ], [ -0.095699142435604, 51.52426253666308 ], [ -0.095698184285148, 51.524257516649293 ], [ -0.095730428568514, 51.524246561248184 ], [ -0.095706230304337, 51.52421429795082 ], [ -0.095654174109371, 51.524144891791941 ], [ -0.095648561554262, 51.524137408597966 ], [ -0.095637227202843, 51.524122296551056 ], [ -0.095589404140925, 51.52405854361443 ], [ -0.095540639715217, 51.523993516385623 ], [ -0.095517629769252, 51.523962837091801 ], [ -0.095478943087127, 51.523911255814028 ], [ -0.095439205755195, 51.523858254590365 ], [ -0.095412254784562, 51.523812862107398 ], [ -0.095430742061308, 51.523806840592954 ], [ -0.095747522564979, 51.523703696608678 ], [ -0.095806842040136, 51.523684381618708 ], [ -0.095912244400063, 51.523649619240224 ], [ -0.095951651695299, 51.523636617367735 ], [ -0.096040697737369, 51.523607245620632 ], [ -0.096082012641172, 51.523591019320662 ], [ -0.096128647607173, 51.523572703170743 ], [ -0.096234985594098, 51.523536579801551 ], [ -0.096406484108474, 51.523478295263324 ], [ -0.096436045731656, 51.523460789855555 ], [ -0.096477763946665, 51.523497429189611 ], [ -0.096563782558271, 51.52361213425894 ], [ -0.096569422890558, 51.523619644840437 ], [ -0.096578327027618, 51.523631506939104 ], [ -0.096600668014921, 51.523661302879731 ], [ -0.096766100754109, 51.523597757501754 ], [ -0.096937612682147, 51.523531882536702 ], [ -0.097121623929195, 51.523447307498728 ], [ -0.097202180201665, 51.52341027911794 ], [ -0.097305269789259, 51.523357996053832 ], [ -0.097277582443058, 51.523330568477057 ], [ -0.097125115235934, 51.523184210027324 ], [ -0.096832623357329, 51.523290841192001 ], [ -0.096759931833589, 51.523251401473317 ], [ -0.097377016288539, 51.523032355852393 ], [ -0.097559636595695, 51.522967586460346 ], [ -0.097693985999712, 51.522919937989435 ], [ -0.097783620088421, 51.522888155368719 ], [ -0.097837553073037, 51.522869021691029 ], [ -0.097907815258215, 51.522844091841527 ], [ -0.097875797751424, 51.522812646334984 ], [ -0.097849700116375, 51.522784084623318 ], [ -0.097762061520297, 51.522688139977674 ], [ -0.097705994401844, 51.522615324309477 ], [ -0.097675731948503, 51.522576020608909 ], [ -0.097614729834263, 51.522483277865057 ], [ -0.097572621991768, 51.522401012493525 ], [ -0.097541378343467, 51.52233995741264 ], [ -0.097486434002452, 51.522232627791745 ], [ -0.097466183901129, 51.522173432747493 ], [ -0.097419972728217, 51.522037477091246 ], [ -0.097334075721182, 51.521785401685094 ], [ -0.097307427347212, 51.521707155091548 ], [ -0.097288998611671, 51.521653034502556 ], [ -0.09726573965096, 51.521584770885156 ], [ -0.097351178776645, 51.521586467836968 ], [ -0.097436728281227, 51.521588283423455 ], [ -0.097475434701949, 51.521444416409132 ], [ -0.097483640245337, 51.521413911344212 ], [ -0.09749235774552, 51.521381499135238 ], [ -0.097508155761141, 51.521322745219493 ], [ -0.097517677078442, 51.521268979325178 ], [ -0.097541531265438, 51.521134205699006 ], [ -0.097542341404172, 51.521129641546196 ], [ -0.097585030581374, 51.520888501785116 ], [ -0.097587578497292, 51.520874064834814 ], [ -0.097599776829161, 51.52080518062359 ], [ -0.097600567304722, 51.520800742049076 ], [ -0.097607297393134, 51.520762749059053 ], [ -0.097619422678816, 51.520694232360206 ], [ -0.097620105738746, 51.520690295635312 ], [ -0.097996087405102, 51.520625920152398 ], [ -0.098010925405478, 51.520623373136971 ], [ -0.098061275142454, 51.520614747627505 ], [ -0.098326202492972, 51.520569450450886 ], [ -0.098498494252385, 51.520539871263857 ], [ -0.098600402609932, 51.52051473568914 ], [ -0.098640467687544, 51.52050485410038 ], [ -0.098700735092302, 51.520489986333459 ], [ -0.098716362331101, 51.520486139087666 ], [ -0.098989545156475, 51.520418762212429 ], [ -0.099045049517048, 51.520405076012096 ], [ -0.09923032179304, 51.52035937539663 ], [ -0.099235876690339, 51.52035786475323 ], [ -0.099349736760155, 51.520326743378661 ], [ -0.099390693421598, 51.520315554948851 ], [ -0.099472796942032, 51.520293109186603 ], [ -0.099634123974523, 51.52024900712501 ], [ -0.09967858715556, 51.520236859252904 ], [ -0.099696608774021, 51.520231931988342 ], [ -0.099910461831031, 51.520173468822641 ], [ -0.100095137974856, 51.520122999984665 ], [ -0.100204140674766, 51.520093053527134 ], [ -0.100204212118901, 51.520093034001583 ], [ -0.100272855255769, 51.520074171668384 ], [ -0.100293001489794, 51.520068100688768 ], [ -0.100528898103135, 51.519997008042921 ], [ -0.100703660845747, 51.519944336247782 ], [ -0.10091801211439, 51.519879724631615 ], [ -0.100943119651475, 51.51987216377124 ], [ -0.101216210439723, 51.51978985212817 ], [ -0.10136345564563, 51.519745465590901 ], [ -0.101564587837891, 51.519684852674594 ], [ -0.101598415842574, 51.519674657560024 ], [ -0.101600767459961, 51.519673949215111 ], [ -0.101652323977915, 51.519658407681682 ], [ -0.10179474928283, 51.519613077629231 ], [ -0.101791114406881, 51.519674124531839 ], [ -0.1017909266978, 51.519677250970602 ], [ -0.101789697616229, 51.519697788503208 ], [ -0.101780735631869, 51.51984843387396 ], [ -0.101778970719908, 51.519878387134483 ], [ -0.10177185903212, 51.51999806444163 ], [ -0.101770843635479, 51.520015197179589 ], [ -0.101764777205333, 51.520117022809515 ], [ -0.101721772637356, 51.520326460472305 ], [ -0.101715120197133, 51.520358861607548 ], [ -0.101701509465811, 51.520425124745003 ], [ -0.101698898110937, 51.520487896819795 ], [ -0.101698495097843, 51.520497584478505 ], [ -0.101695359588427, 51.520572955900484 ], [ -0.101694834696757, 51.520585573221986 ], [ -0.10169367836354, 51.520613369073324 ], [ -0.101693434236049, 51.520619237385915 ], [ -0.10169322674631, 51.52062422500228 ], [ -0.101691734687699, 51.520660090906468 ], [ -0.101691607950431, 51.520663137396433 ], [ -0.101593534357228, 51.520812035031902 ], [ -0.101583350186724, 51.520841663187753 ], [ -0.10157506838618, 51.520865755530771 ], [ -0.101540658216032, 51.520965935027469 ], [ -0.101537935699712, 51.520973858510942 ], [ -0.101533032959818, 51.520988104558228 ], [ -0.101540984476066, 51.521079356807235 ], [ -0.101547665315477, 51.521156110158962 ], [ -0.101556531282892, 51.521183115062051 ], [ -0.101566035637837, 51.521212099713566 ], [ -0.101568644524965, 51.521220073562162 ], [ -0.101595547827636, 51.521302064293465 ], [ -0.101613225551213, 51.521355992070156 ], [ -0.101649896984792, 51.521444345661102 ], [ -0.101661255700029, 51.521471723518594 ], [ -0.101663234229179, 51.521476485717137 ], [ -0.101685991928889, 51.521531314021708 ], [ -0.101750412653388, 51.52168653699669 ], [ -0.101774506431337, 51.521744597310935 ], [ -0.101815068053418, 51.521842366244719 ], [ -0.101859940786654, 51.521950510599886 ], [ -0.10189652203413, 51.522038628837826 ], [ -0.101899221505409, 51.522045120310487 ], [ -0.101939090440811, 51.52214118735543 ], [ -0.10196306737426, 51.522198948977298 ], [ -0.101976181837876, 51.522230563811853 ], [ -0.10200069528368, 51.522289638053294 ], [ -0.101986041322404, 51.522289210328616 ], [ -0.101659412799853, 51.522279673737792 ], [ -0.101652394850214, 51.522289668021301 ], [ -0.101601646789506, 51.5223618948894 ], [ -0.101330120780372, 51.522490770132599 ], [ -0.101291304105813, 51.522588369155471 ], [ -0.101270262066621, 51.52264126537149 ], [ -0.101263773724894, 51.52265758102611 ], [ -0.101216394397502, 51.522652290264936 ], [ -0.101180657341424, 51.522659598046324 ], [ -0.101092301902874, 51.522677699091098 ], [ -0.100950704025895, 51.522706691081332 ], [ -0.100892437471745, 51.522720881948871 ], [ -0.10071693676832, 51.522763667834013 ], [ -0.100696668000476, 51.522768741382379 ], [ -0.100591839313248, 51.52280039068858 ], [ -0.100371375625909, 51.522641333912283 ], [ -0.10033048740026, 51.522645986036295 ], [ -0.100321203811628, 51.522645988472412 ], [ -0.100062876768056, 51.522646082534834 ], [ -0.099909509732056, 51.52264613273195 ], [ -0.099465635446342, 51.522556420001692 ], [ -0.099322919039385, 51.522516390625839 ], [ -0.099096500599034, 51.522149206074097 ], [ -0.099054013808101, 51.522142411064735 ], [ -0.098998653652214, 51.522133554781817 ], [ -0.098786541341613, 51.522275221702245 ], [ -0.098744193134985, 51.522318374467098 ], [ -0.09899743231601, 51.522857270192084 ], [ -0.098690854970319, 51.522997135156807 ], [ -0.098689553767434, 51.523002761488222 ], [ -0.09862069574687, 51.523271426602598 ], [ -0.098563072471531, 51.523270491952488 ], [ -0.098490294318006, 51.523287296911576 ], [ -0.098475513959848, 51.52329604989108 ], [ -0.098460424297431, 51.523301155795359 ], [ -0.098395766250577, 51.523323047405817 ], [ -0.098368233296946, 51.523332366876488 ], [ -0.098314672882517, 51.523350508642153 ], [ -0.098312934884934, 51.523392206715748 ], [ -0.098294733601139, 51.523828886172005 ], [ -0.098188767910124, 51.523993397664348 ], [ -0.098253989076482, 51.52404967113327 ], [ -0.09827643533456, 51.524051725914163 ], [ -0.09857585054718, 51.524222282989939 ], [ -0.098385707724246, 51.524289323924137 ], [ -0.098552941352879, 51.524538491443693 ], [ -0.098451140457416, 51.524572622173231 ], [ -0.098129707893659, 51.524675320280402 ], [ -0.097730171592666, 51.524812154405225 ], [ -0.097769620945988, 51.524862119684549 ], [ -0.097928460735136, 51.524964039823594 ], [ -0.097963054842886, 51.525409174573134 ], [ -0.097975570605124, 51.5254474978221 ], [ -0.097684226099428, 51.525519217197498 ], [ -0.097603546158486, 51.525539076645344 ], [ -0.097589139622845, 51.525538842837243 ], [ -0.097537232854243, 51.52547477266787 ], [ -0.097504010878441, 51.525433765315753 ], [ -0.097493165820778, 51.52542037988561 ], [ -0.097464727592086, 51.525410925599353 ], [ -0.097303993350967, 51.525462264051093 ], [ -0.097147889026901, 51.525505934699325 ], [ -0.097125834233959, 51.525512105389389 ], [ -0.096939346176006, 51.525564266058808 ], [ -0.096883512424106, 51.52557772990729 ], [ -0.0967645931278, 51.52560639227471 ], [ -0.096589397036768, 51.525638052535577 ], [ -0.096445009777986, 51.525664151773462 ], [ -0.09635515535454, 51.525678600645698 ], [ -0.096343428220354, 51.525680487508474 ], [ -0.09628885367405, 51.525450961886776 ], [ -0.096275560739396, 51.525395022611171 ] ] ] } },
{ "type": "Feature", "properties": { "lsoa21cd": "E01002704", "lsoa21nm": "Islington 023D", "msoa21cd": "E02000576", "msoa21nm": "Islington 023", "lad22cd": "E09000019", "lad22nm": "Islington", "index_right": 635, "GSS_CODE": "E05009302", "risk_score": 10.0, "allocation_hours": 321.50356227568591, "patrol_units": 161 }, "geometry": { "type": "Polygon", "coordinates": [ [ [ -0.084994758495586, 51.52620482295535 ], [ -0.084831539183489, 51.525728702670499 ], [ -0.084817425304945, 51.525687501403574 ], [ -0.084732338733604, 51.525439270920806 ], [ -0.084724967825826, 51.525417738877181 ], [ -0.084793805309784, 51.525365897059714 ], [ -0.084903716685959, 51.525283099206639 ], [ -0.084958188315489, 51.525242065324974 ], [ -0.08500490363994, 51.525206875764781 ], [ -0.085208367465127, 51.524905482461023 ], [ -0.085245230350313, 51.524850851545189 ], [ -0.085294674680617, 51.524759214399907 ], [ -0.085306993096603, 51.524736376354149 ], [ -0.085325063698945, 51.524702886005088 ], [ -0.085351676531241, 51.524653577660601 ], [ -0.08537198954139, 51.524615946827502 ], [ -0.085383982454525, 51.524593649311143 ], [ -0.085410822588393, 51.524528102077724 ], [ -0.085417088174922, 51.52451277296759 ], [ -0.085162742748561, 51.524447621149896 ], [ -0.085136299808884, 51.524440849361483 ], [ -0.085085482087327, 51.524427834149328 ], [ -0.085087127203422, 51.524397915390395 ], [ -0.085094323010189, 51.524265984385323 ], [ -0.085101593525175, 51.524132615767542 ], [ -0.085111995422526, 51.523941817066436 ], [ -0.085112843797933, 51.523926242108317 ], [ -0.084788985717799, 51.523912160292845 ], [ -0.084773142144086, 51.523911487686732 ], [ -0.084502176620441, 51.523899954554999 ], [ -0.084488665063513, 51.523900048437042 ], [ -0.084381124183564, 51.52390070953453 ], [ -0.084331232521496, 51.523901018024347 ], [ -0.084234621518886, 51.523901614861138 ], [ -0.084226849556754, 51.523901658662943 ], [ -0.084197123633882, 51.523901842641727 ], [ -0.084215210375173, 51.523842062717819 ], [ -0.084219677617709, 51.523827684509364 ], [ -0.084237949661758, 51.523768811375334 ], [ -0.084270694331848, 51.523663269003762 ], [ -0.084272078704177, 51.523658795294061 ], [ -0.084285967138881, 51.523614022956075 ], [ -0.084289416330027, 51.523602946401503 ], [ -0.084306200079645, 51.523454895462727 ], [ -0.084317702765354, 51.523353304314959 ], [ -0.084357393343842, 51.523003031661453 ], [ -0.084372926641997, 51.522866210106038 ], [ -0.084411119957378, 51.522529258076524 ], [ -0.084415335734291, 51.522492025335573 ], [ -0.084425993567117, 51.522438351361295 ], [ -0.084435497814528, 51.522390521758823 ], [ -0.084469077208274, 51.522221459636064 ], [ -0.084494205834767, 51.5220950465581 ], [ -0.084498742762239, 51.522072135416117 ], [ -0.084550588851275, 51.521938362389164 ], [ -0.08462809254569, 51.521738345935539 ], [ -0.08463900450278, 51.521710197331508 ], [ -0.08467859659505, 51.521608022086433 ], [ -0.084719396567902, 51.521484967566167 ], [ -0.084772605847068, 51.521324526417224 ], [ -0.084845835870871, 51.521103675840379 ], [ -0.08488179937527, 51.52099520029028 ], [ -0.08499261474395, 51.520742238958775 ], [ -0.085041225521979, 51.52063120893574 ], [ -0.08505099326075, 51.520612106149798 ], [ -0.085059787551972, 51.520594902904698 ], [ -0.085189597745882, 51.520340947405536 ], [ -0.085192348639491, 51.520335506796258 ], [ -0.085195596690847, 51.520329211008914 ], [ -0.085201174269675, 51.520318241100966 ], [ -0.085228647622138, 51.520264338010556 ], [ -0.085298412842683, 51.520127322767856 ], [ -0.08540606947145, 51.519956394361536 ], [ -0.085727935110231, 51.519445415922902 ], [ -0.085931517849896, 51.519132179125876 ], [ -0.086115081565477, 51.518849747814478 ], [ -0.086146854866628, 51.518800842653413 ], [ -0.086154010129533, 51.518769431073437 ], [ -0.086161219525681, 51.518737759588269 ], [ -0.086769699409309, 51.518902374345473 ], [ -0.086778878078192, 51.518905887401147 ], [ -0.087065165719264, 51.519015382361545 ], [ -0.087658394493038, 51.519242261013545 ], [ -0.087672985546808, 51.51924784517638 ], [ -0.087680674489649, 51.519250794302025 ], [ -0.087686675292705, 51.519253095395051 ], [ -0.087709218580995, 51.519261709410898 ], [ -0.087837851409963, 51.519310902266952 ], [ -0.08787260945456, 51.519324193840596 ], [ -0.088103175785578, 51.519412377588814 ], [ -0.088153607316965, 51.519427615310626 ], [ -0.088411288939699, 51.51950545840279 ], [ -0.089225474609194, 51.51975145783188 ], [ -0.089556708112751, 51.519851544656355 ], [ -0.089767833399566, 51.51991532595563 ], [ -0.089815817813339, 51.519929821676541 ], [ -0.089846734953225, 51.519939165251401 ], [ -0.089926946398729, 51.519963394537861 ], [ -0.089919544910871, 51.519984217959205 ], [ -0.089708694529541, 51.520576621056669 ], [ -0.089668687432452, 51.520689007431784 ], [ -0.089697456792221, 51.520693370068166 ], [ -0.089959257809613, 51.520731754103991 ], [ -0.090545269642138, 51.520817657384143 ], [ -0.090559436572567, 51.520819102144891 ], [ -0.090820372313403, 51.520845644778646 ], [ -0.091039811696477, 51.52086796801251 ], [ -0.091302326942134, 51.520894670193471 ], [ -0.091507614236422, 51.520915548129359 ], [ -0.091555871710691, 51.520920452387976 ], [ -0.091653764311298, 51.5209304091698 ], [ -0.092188844107279, 51.520984837064233 ], [ -0.09237087913145, 51.521003347709396 ], [ -0.092372443432253, 51.521009029580213 ], [ -0.092375496688506, 51.521020126810726 ], [ -0.092380452462893, 51.521038125431623 ], [ -0.09238514462191, 51.521055189016991 ], [ -0.092487293432529, 51.521426757390451 ], [ -0.092488792626577, 51.521432618054746 ], [ -0.092501977725893, 51.521430314633626 ], [ -0.092737225553573, 51.521389043708915 ], [ -0.092785173823621, 51.52138066919651 ], [ -0.092803891586661, 51.521377394610226 ], [ -0.092815319731121, 51.521375395300424 ], [ -0.093284914104309, 51.521293340625604 ], [ -0.09332174970055, 51.521375998261128 ], [ -0.093323001774865, 51.521378806366926 ], [ -0.093366374876595, 51.521476120530764 ], [ -0.093388702505565, 51.521526168415505 ], [ -0.093567420701815, 51.521496476301671 ], [ -0.093568570968326, 51.521499651450846 ], [ -0.093588423800379, 51.52155442519544 ], [ -0.093597803547872, 51.521552806163484 ], [ -0.093709015149037, 51.521533490733951 ], [ -0.093768006061417, 51.52152509754292 ], [ -0.094266590650995, 51.521454040797281 ], [ -0.094279786839979, 51.521452160012728 ], [ -0.09430881860213, 51.521448018686719 ], [ -0.094312605636795, 51.521462612481628 ], [ -0.094354666600066, 51.521629706470648 ], [ -0.094374866362732, 51.521710366782678 ], [ -0.094384020589929, 51.521746936098303 ], [ -0.09443770109411, 51.521855343609694 ], [ -0.094464714823669, 51.521909882907586 ], [ -0.09449729832908, 51.52197568169025 ], [ -0.094532901670806, 51.5220481823631 ], [ -0.094519868973552, 51.522053772629185 ], [ -0.094558581554236, 51.522162314492434 ], [ -0.094427581886832, 51.522192549947995 ], [ -0.093967071023425, 51.522298884209839 ], [ -0.093958032122377, 51.522300967439129 ], [ -0.093758023039985, 51.522347139258436 ], [ -0.093606789466952, 51.52238378029783 ], [ -0.093564776388715, 51.52239395127355 ], [ -0.093377077928171, 51.522439414365124 ], [ -0.093360403734972, 51.522443450682495 ], [ -0.093336360358251, 51.522449282589676 ], [ -0.093310991087979, 51.522466144971993 ], [ -0.093282054216276, 51.522472481802694 ], [ -0.093256105157486, 51.522468723442351 ], [ -0.093131826872221, 51.522498823938577 ], [ -0.093114981248627, 51.522501787298808 ], [ -0.092710685258863, 51.522572916182284 ], [ -0.092709845622474, 51.522593001232103 ], [ -0.092709667927488, 51.522597251893643 ], [ -0.092709398191675, 51.522603704272022 ], [ -0.092709050690651, 51.522612016876487 ], [ -0.092708807251996, 51.522617840192893 ], [ -0.092707304542417, 51.522653786590311 ], [ -0.09275450520977, 51.52275919372574 ], [ -0.092760043152074, 51.522771549884233 ], [ -0.092769940084271, 51.522799291548807 ], [ -0.092811338925785, 51.522915386532489 ], [ -0.092852242451931, 51.522979882258582 ], [ -0.09285612957106, 51.522985520978608 ], [ -0.092897326327591, 51.523045246331158 ], [ -0.092905562960933, 51.523057187758759 ], [ -0.092933807639221, 51.523098114454278 ], [ -0.092941830458222, 51.523096203625094 ], [ -0.092950976888349, 51.523106037570507 ], [ -0.092941631409034, 51.52310993225781 ], [ -0.092813842764556, 51.523163266394405 ], [ -0.092769296511669, 51.523182631369352 ], [ -0.092582490449905, 51.523259060539374 ], [ -0.092562782588121, 51.523346337856275 ], [ -0.092560730539751, 51.523355423074527 ], [ -0.092573063840409, 51.523361783761118 ], [ -0.092669169060622, 51.523562554003462 ], [ -0.092682625604501, 51.523590668336062 ], [ -0.0926929270703, 51.523612184639809 ], [ -0.092505861439194, 51.523662710422663 ], [ -0.09249198095473, 51.523666459335523 ], [ -0.09246346349289, 51.523675500584922 ], [ -0.0924510308576, 51.523679443914254 ], [ -0.092438278648234, 51.52366310348259 ], [ -0.092306029451154, 51.523698603838355 ], [ -0.092162102241874, 51.523737232291268 ], [ -0.092113669679347, 51.523750229862387 ], [ -0.092072082885259, 51.523691568031794 ], [ -0.092057217913116, 51.523670597900505 ], [ -0.0919554930906, 51.523527046261918 ], [ -0.091951763124928, 51.523521787765326 ], [ -0.091868645843414, 51.523404518859365 ], [ -0.091863820139292, 51.52340615791659 ], [ -0.091865921420392, 51.523399690392409 ], [ -0.091727365866099, 51.523430878864069 ], [ -0.091675500308497, 51.523442552402237 ], [ -0.091614975676226, 51.523456180251991 ], [ -0.091567044464598, 51.523368629317581 ], [ -0.091555687701072, 51.523347887102382 ], [ -0.091491269433795, 51.523230256907219 ], [ -0.091602829653845, 51.523211344924185 ], [ -0.09158419902484, 51.523179432259276 ], [ -0.091574797784483, 51.5231739735123 ], [ -0.091552856346372, 51.523144704755616 ], [ -0.091534560144625, 51.523120306438287 ], [ -0.09150537279898, 51.523128823967937 ], [ -0.091498291376447, 51.52312959446116 ], [ -0.091493025627734, 51.52312659059907 ], [ -0.091330997748579, 51.52317115081437 ], [ -0.091290868342087, 51.523180888497272 ], [ -0.09122609046061, 51.523196605147824 ], [ -0.091143400215255, 51.523216652337858 ], [ -0.091134428896527, 51.523218835363821 ], [ -0.091066125988425, 51.52323542077248 ], [ -0.091053907587877, 51.523238378244962 ], [ -0.090959156609039, 51.523087079744556 ], [ -0.09094431527745, 51.523090021469869 ], [ -0.090938172678543, 51.52308075787046 ], [ -0.090930755667306, 51.52306956706321 ], [ -0.090807625519856, 51.523100744872927 ], [ -0.090790331153334, 51.523105121431065 ], [ -0.090797279358373, 51.523115113078148 ], [ -0.090720736506333, 51.523147063012289 ], [ -0.090726539446441, 51.523181320807325 ], [ -0.090769403358408, 51.523398527265066 ], [ -0.09078333053065, 51.523469104014261 ], [ -0.090639305336001, 51.523504203853093 ], [ -0.090632168627728, 51.523505949100432 ], [ -0.090714704298508, 51.523650821450801 ], [ -0.090812486958519, 51.523655619925663 ], [ -0.090921706768745, 51.523691292182292 ], [ -0.090958511079552, 51.523715038775613 ], [ -0.091021398588531, 51.523756233307772 ], [ -0.091091091845961, 51.523801873117556 ], [ -0.091094529173926, 51.523804132304072 ], [ -0.091105891897034, 51.523822662452581 ], [ -0.091116673785657, 51.523839915170491 ], [ -0.091122510988252, 51.523849245730517 ], [ -0.090989444830224, 51.524120582909262 ], [ -0.090986497075479, 51.524126604979465 ], [ -0.090353882152238, 51.52424345782336 ], [ -0.090347344504204, 51.524244664255214 ], [ -0.090455452315375, 51.524506341401519 ], [ -0.090466355404069, 51.524532750720091 ], [ -0.090470844769057, 51.524545350683447 ], [ -0.090476753308788, 51.524561930553126 ], [ -0.090479256965586, 51.524568931687604 ], [ -0.090558372928091, 51.524776252213691 ], [ -0.090625473811893, 51.524952055406501 ], [ -0.090735433145635, 51.525240183039294 ], [ -0.090748190508976, 51.525273618858144 ], [ -0.090752074903988, 51.52528379891455 ], [ -0.090723262111063, 51.525283329619072 ], [ -0.090724197788688, 51.52528680704917 ], [ -0.090736641692898, 51.5253328994866 ], [ -0.090823093615019, 51.525653656021426 ], [ -0.09089819734713, 51.52586426476158 ], [ -0.090900506852329, 51.52587074113351 ], [ -0.09091806740166, 51.525936161105946 ], [ -0.090937486889431, 51.526008490749945 ], [ -0.0908778918143, 51.526067681179541 ], [ -0.090541819489144, 51.526114418677118 ], [ -0.089829156704035, 51.525914348002772 ], [ -0.089822724484063, 51.525918883407023 ], [ -0.089671076229331, 51.525703420542229 ], [ -0.089654299330963, 51.525679577322215 ], [ -0.089573436185984, 51.525460681528962 ], [ -0.089558454706524, 51.525420132096869 ], [ -0.089075517765325, 51.525476728899186 ], [ -0.08863707079667, 51.525528104936186 ], [ -0.088449033755694, 51.52554302405801 ], [ -0.08841754123418, 51.525542510495143 ], [ -0.088405799969534, 51.525542319022854 ], [ -0.088318259900319, 51.525567878431985 ], [ -0.088273897068406, 51.525594114974666 ], [ -0.08815563196612, 51.525664136540946 ], [ -0.08802258371616, 51.525742900538852 ], [ -0.087932754638363, 51.525822369370225 ], [ -0.087827388621465, 51.525928562702255 ], [ -0.087797822085536, 51.525946065736107 ], [ -0.087636712631153, 51.526006386168831 ], [ -0.087578709498519, 51.526014432545246 ], [ -0.087555624246241, 51.526017634994936 ], [ -0.087498434642009, 51.525993896512006 ], [ -0.087414796964026, 51.525959182562858 ], [ -0.087158135125315, 51.525891079110714 ], [ -0.087065114073013, 51.525866476929174 ], [ -0.087035257649975, 51.525858570738102 ], [ -0.087005315175029, 51.525850654142523 ], [ -0.086795709986583, 51.525797494793757 ], [ -0.086769049143923, 51.525790737798133 ], [ -0.086756853232137, 51.525793479343335 ], [ -0.086691129255982, 51.525808251679535 ], [ -0.086436455940349, 51.525865487501719 ], [ -0.086431594772598, 51.525866586185238 ], [ -0.086397538614586, 51.525874600243483 ], [ -0.086385861294685, 51.52587735021563 ], [ -0.086017242342691, 51.525964073353272 ], [ -0.085564842460659, 51.526070505855188 ], [ -0.085548709479688, 51.526074307056682 ], [ -0.085065206691466, 51.526188053249271 ], [ -0.08500058798535, 51.526203256345852 ], [ -0.084994758495586, 51.52620482295535 ] ] ] } },
{ "type": "Feature", "properties": { "lsoa21cd": "E01000003", "lsoa21nm": "City of London 001C", "msoa21cd": "E02000001", "msoa21nm": "City of London 001", "lad22cd": "E09000001", "lad22nm": "City of London", "index_right": 635, "GSS_CODE": "E05009302", "risk_score": 0.00049820100055050656, "allocation_hours": 0.016017339640629878, "patrol_units": 0 }, "geometry": { "type": "Polygon", "coordinates": [ [ [ -0.096504854719924, 51.522950715786287 ], [ -0.096444635975685, 51.522823003494317 ], [ -0.096436813685659, 51.52282529551745 ], [ -0.09640612152379, 51.52283432042266 ], [ -0.096145409135346, 51.522910895172906 ], [ -0.096132128214975, 51.522914798147568 ], [ -0.09599133696369, 51.522956144184974 ], [ -0.095980651766594, 51.522939298127149 ], [ -0.095934674217807, 51.52286657359317 ], [ -0.095781777901353, 51.522899881107655 ], [ -0.095565278898032, 51.522947038120279 ], [ -0.095559408997623, 51.522948314149538 ], [ -0.095527367429136, 51.522955298031924 ], [ -0.095070945848067, 51.523054715619146 ], [ -0.095056317752506, 51.523057908634883 ], [ -0.095035434784393, 51.523062447833468 ], [ -0.095017687524118, 51.523026584237911 ], [ -0.095005282990073, 51.523001553761304 ], [ -0.09500336878967, 51.522997682763531 ], [ -0.094954963776682, 51.522899927658713 ], [ -0.094900270441215, 51.522789480536233 ], [ -0.094891934560976, 51.522772654580521 ], [ -0.094839555220868, 51.522666867295996 ], [ -0.094813950890579, 51.522615147715982 ], [ -0.094767354228058, 51.522521054990058 ], [ -0.094764403496602, 51.522515080831973 ], [ -0.094654845528172, 51.522293850891558 ], [ -0.09465352934469, 51.522291194632729 ], [ -0.094613620090332, 51.522210609695257 ], [ -0.094532901670806, 51.5220481823631 ], [ -0.09449729832908, 51.52197568169025 ], [ -0.094464714823669, 51.521909882907586 ], [ -0.09443770109411, 51.521855343609694 ], [ -0.094384020589929, 51.521746936098303 ], [ -0.094374866362732, 51.521710366782678 ], [ -0.094354666600066, 51.521629706470648 ], [ -0.094312605636795, 51.521462612481628 ], [ -0.09430881860213, 51.521448018686719 ], [ -0.094279786839979, 51.521452160012728 ], [ -0.094266590650995, 51.521454040797281 ], [ -0.093768006061417, 51.52152509754292 ], [ -0.093709015149037, 51.521533490733951 ], [ -0.093597803547872, 51.521552806163484 ], [ -0.093588423800379, 51.52155442519544 ], [ -0.093568570968326, 51.521499651450846 ], [ -0.093567420701815, 51.521496476301671 ], [ -0.093388702505565, 51.521526168415505 ], [ -0.093366374876595, 51.521476120530764 ], [ -0.093323001774865, 51.521378806366926 ], [ -0.09332174970055, 51.521375998261128 ], [ -0.093284914104309, 51.521293340625604 ], [ -0.092815319731121, 51.521375395300424 ], [ -0.092803891586661, 51.521377394610226 ], [ -0.092785173823621, 51.52138066919651 ], [ -0.092737225553573, 51.521389043708915 ], [ -0.0927046578104, 51.521349836193423 ], [ -0.092804353561026, 51.521331512307967 ], [ -0.09332338674915, 51.521236098232208 ], [ -0.093362695600248, 51.521228868923949 ], [ -0.093615233624388, 51.521183596873108 ], [ -0.093578426112821, 51.521117162638419 ], [ -0.093725588304466, 51.521089198070968 ], [ -0.093805809632124, 51.521073954095961 ], [ -0.094014085643973, 51.521034373263511 ], [ -0.093944925919247, 51.520883169358065 ], [ -0.093920689248298, 51.520830158904104 ], [ -0.093910901494042, 51.520808767957782 ], [ -0.093896533121574, 51.520777361084157 ], [ -0.093954250431845, 51.520766235768214 ], [ -0.093982030886878, 51.520761776512039 ], [ -0.093997336772589, 51.52075931945032 ], [ -0.094491309586981, 51.520666626559034 ], [ -0.094552431546716, 51.520655151609859 ], [ -0.094746634699296, 51.520618712965309 ], [ -0.09474627122485, 51.520610847419611 ], [ -0.094744639454151, 51.520596072837193 ], [ -0.09489408182102, 51.520568054786821 ], [ -0.095053441067152, 51.520538177917999 ], [ -0.095208464743467, 51.520510013642337 ], [ -0.095241982287588, 51.520503923392184 ], [ -0.095330313600283, 51.520487874868522 ], [ -0.095414740616472, 51.520472672911623 ], [ -0.095587225710126, 51.520441608379272 ], [ -0.095652975977288, 51.520429744904767 ], [ -0.095774207028245, 51.520407892385926 ], [ -0.095930339752943, 51.520379727167892 ], [ -0.09628805885184, 51.520313603722045 ], [ -0.096303835622067, 51.52031066749398 ], [ -0.09648975560888, 51.520276105774251 ], [ -0.096634897577727, 51.520249119048458 ], [ -0.096647662583663, 51.520275706463757 ], [ -0.096673117723748, 51.520328776658722 ], [ -0.096677056349864, 51.520336988015281 ], [ -0.096680218829187, 51.520343590561538 ], [ -0.09669705419925, 51.520378688227254 ], [ -0.096745680919182, 51.520487399411699 ], [ -0.096789205130733, 51.520588851545064 ], [ -0.096844113234502, 51.520697655674581 ], [ -0.09689013570231, 51.520796936119936 ], [ -0.096895358660755, 51.520808225847063 ], [ -0.096941840737496, 51.520903404058444 ], [ -0.096969962394084, 51.520963581270664 ], [ -0.096980821749438, 51.52100562769477 ], [ -0.096988675877121, 51.521021573399466 ], [ -0.097259893385782, 51.521572868543117 ], [ -0.09726573965096, 51.521584770885156 ], [ -0.097288998611671, 51.521653034502556 ], [ -0.097307427347212, 51.521707155091548 ], [ -0.097334075721182, 51.521785401685094 ], [ -0.097419972728217, 51.522037477091246 ], [ -0.097466183901129, 51.522173432747493 ], [ -0.097486434002452, 51.522232627791745 ], [ -0.097541378343467, 51.52233995741264 ], [ -0.097572621991768, 51.522401012493525 ], [ -0.097614729834263, 51.522483277865057 ], [ -0.097675731948503, 51.522576020608909 ], [ -0.097705994401844, 51.522615324309477 ], [ -0.097762061520297, 51.522688139977674 ], [ -0.097849700116375, 51.522784084623318 ], [ -0.097875797751424, 51.522812646334984 ], [ -0.097907815258215, 51.522844091841527 ], [ -0.097837553073037, 51.522869021691029 ], [ -0.097783620088421, 51.522888155368719 ], [ -0.097693985999712, 51.522919937989435 ], [ -0.097559636595695, 51.522967586460346 ], [ -0.097377016288539, 51.523032355852393 ], [ -0.096759931833589, 51.523251401473317 ], [ -0.096752962307263, 51.52325370736154 ], [ -0.096716144994382, 51.523220187236149 ], [ -0.096567975963054, 51.52308453627559 ], [ -0.096555221981374, 51.523057494896264 ], [ -0.096504854719924, 51.522950715786287 ] ] ] } },
{ "type": "Feature", "properties": { "lsoa21cd": "E01000001", "lsoa21nm": "City of London 001A", "msoa21cd": "E02000001", "msoa21nm": "City of London 001", "lad22cd": "E09000001", "lad22nm": "City of London", "index_right": 635, "GSS_CODE": "E05009302", "risk_score": 0.0, "allocation_hours": 0.0, "patrol_units": 0 }, "geometry": { "type": "Polygon", "coordinates": [ [ [ -0.096647662583663, 51.520275706463757 ], [ -0.096634897577727, 51.520249119048458 ], [ -0.09648975560888, 51.520276105774251 ], [ -0.096303835622067, 51.52031066749398 ], [ -0.09628805885184, 51.520313603722045 ], [ -0.095930339752943, 51.520379727167892 ], [ -0.095774207028245, 51.520407892385926 ], [ -0.095652975977288, 51.520429744904767 ], [ -0.095587225710126, 51.520441608379272 ], [ -0.095414740616472, 51.520472672911623 ], [ -0.095330313600283, 51.520487874868522 ], [ -0.095241982287588, 51.520503923392184 ], [ -0.095208464743467, 51.520510013642337 ], [ -0.095053441067152, 51.520538177917999 ], [ -0.09489408182102, 51.520568054786821 ], [ -0.094744639454151, 51.520596072837193 ], [ -0.094726551464564, 51.520599465889639 ], [ -0.094363466593163, 51.520664526052393 ], [ -0.094370557716503, 51.520640387952582 ], [ -0.094374220811395, 51.52062792063689 ], [ -0.094388674789385, 51.520578659652365 ], [ -0.094426603990699, 51.520447056208319 ], [ -0.094460257343522, 51.520331543164971 ], [ -0.094489694777453, 51.520241042281455 ], [ -0.094513995829502, 51.520166186172339 ], [ -0.094518405063771, 51.520152418039999 ], [ -0.09454717640255, 51.520062328967015 ], [ -0.094589731258669, 51.51992279710327 ], [ -0.094595192503193, 51.519904891427295 ], [ -0.094606382654497, 51.519884417015454 ], [ -0.094617103879188, 51.519864816267827 ], [ -0.094621521892716, 51.51985670469476 ], [ -0.094504605062672, 51.519830497114413 ], [ -0.094445936329387, 51.519811558082942 ], [ -0.094478795754905, 51.519760950567829 ], [ -0.094480598189062, 51.519758174134907 ], [ -0.094497555190844, 51.51972800938443 ], [ -0.094514099110804, 51.519698588809263 ], [ -0.094542831925492, 51.519648593151651 ], [ -0.094589195520583, 51.519660164940888 ], [ -0.094606094450432, 51.51963276898698 ], [ -0.094637511079428, 51.519581841211576 ], [ -0.094719864506672, 51.519443657519247 ], [ -0.094764487888332, 51.519367099246267 ], [ -0.094857290811725, 51.519388418332085 ], [ -0.094981311968178, 51.519417411825422 ], [ -0.095019042076994, 51.519355075838462 ], [ -0.09505818703734, 51.519289921125377 ], [ -0.095059110337068, 51.519288383084181 ], [ -0.095070363602074, 51.519269633550543 ], [ -0.095099435405631, 51.51922064593446 ], [ -0.095102862874703, 51.5192145056374 ], [ -0.095113471029739, 51.519195532489341 ], [ -0.095141293751561, 51.51914573320569 ], [ -0.095173406375982, 51.519088054045483 ], [ -0.095194866636766, 51.519049509183532 ], [ -0.095214922240875, 51.51901622921762 ], [ -0.095268413557155, 51.518927476784242 ], [ -0.095156042570635, 51.518900498424166 ], [ -0.095007945370807, 51.518865772251992 ], [ -0.095270020691623, 51.518430043279849 ], [ -0.095318688097241, 51.518349099051321 ], [ -0.095249627764945, 51.518320162573339 ], [ -0.095126637829065, 51.518266878825465 ], [ -0.095057865753471, 51.518238639361847 ], [ -0.094971634829869, 51.518203236738131 ], [ -0.094941870111118, 51.518182519457639 ], [ -0.094988194999133, 51.518173578030783 ], [ -0.095014381433894, 51.518150532510759 ], [ -0.095003901753977, 51.518120857097614 ], [ -0.094954651624738, 51.518070740733705 ], [ -0.094993729790148, 51.518019244876811 ], [ -0.095060599032201, 51.517939405850093 ], [ -0.09513053183223, 51.517855920544449 ], [ -0.095171035074739, 51.517807568249978 ], [ -0.095238787265801, 51.517802904666432 ], [ -0.09525328890743, 51.517789750095538 ], [ -0.095268749908691, 51.517775711835931 ], [ -0.095263615910112, 51.517747804929812 ], [ -0.09522417583003, 51.517721310079395 ], [ -0.09523384423343, 51.517684093383316 ], [ -0.095272140091528, 51.517629913869335 ], [ -0.095322623993157, 51.517564133885777 ], [ -0.095340285380156, 51.517541750138975 ], [ -0.095359727656795, 51.517517102174665 ], [ -0.095397638055496, 51.517461099820167 ], [ -0.095407652783714, 51.517446316594828 ], [ -0.09542117026301, 51.517426347509435 ], [ -0.09543096734448, 51.517412289157107 ], [ -0.095459500925218, 51.517371323173215 ], [ -0.095498583515144, 51.517319692302728 ], [ -0.095515314611431, 51.517296627951858 ], [ -0.095527916242377, 51.517279260859162 ], [ -0.095554986631824, 51.517241922128342 ], [ -0.095581711144004, 51.517205962652334 ], [ -0.09564855418087, 51.517115295383256 ], [ -0.09570593099281, 51.517038008331625 ], [ -0.095746676950105, 51.516983112878208 ], [ -0.095765949823807, 51.516957158060556 ], [ -0.095787828232346, 51.516929554918391 ], [ -0.095867596811104, 51.516809583112185 ], [ -0.095886938247016, 51.516783017875753 ], [ -0.095907717971008, 51.516754452623076 ], [ -0.095865956227262, 51.516741121581582 ], [ -0.095703086391461, 51.516715158136115 ], [ -0.095695997059043, 51.516714071773002 ], [ -0.095635629719959, 51.51670483591505 ], [ -0.095459612285761, 51.516677903195607 ], [ -0.095154390654516, 51.516630651832088 ], [ -0.095094904944441, 51.516619982192196 ], [ -0.094917449114918, 51.51658816022826 ], [ -0.094921091472717, 51.51658066549949 ], [ -0.094979519442588, 51.516460599381915 ], [ -0.094987637735913, 51.516441522767359 ], [ -0.095014486733931, 51.516378407218021 ], [ -0.095028957142471, 51.516351142487743 ], [ -0.095044789424954, 51.516321291983424 ], [ -0.095164051807093, 51.516334605459569 ], [ -0.095187350651518, 51.516294381692965 ], [ -0.095203196004196, 51.516260070969409 ], [ -0.095221945584121, 51.51622075349627 ], [ -0.095234892261612, 51.516191314712131 ], [ -0.095257211540797, 51.5161313898722 ], [ -0.095292425059892, 51.516021521898026 ], [ -0.095310089247281, 51.51596503758698 ], [ -0.095323696824119, 51.515930465668035 ], [ -0.095333209542273, 51.515906290298631 ], [ -0.095356265276194, 51.51590538336135 ], [ -0.095391004857987, 51.515904257044141 ], [ -0.095506937874452, 51.515910636601319 ], [ -0.09550808714254, 51.515901401722267 ], [ -0.095513717053974, 51.515855944855971 ], [ -0.095513429549915, 51.515835202888461 ], [ -0.095513267185096, 51.515823896355627 ], [ -0.095513021002519, 51.515818397782326 ], [ -0.095511883498207, 51.515792120455281 ], [ -0.095511170100712, 51.515786074727551 ], [ -0.095508555538426, 51.515764107917363 ], [ -0.095507043227742, 51.515735414443249 ], [ -0.095503715274209, 51.515707401905253 ], [ -0.09550128033311, 51.515679403872454 ], [ -0.095499307326003, 51.515665549957014 ], [ -0.095496395569588, 51.515645179029939 ], [ -0.095490582554444, 51.515611784428714 ], [ -0.095484541165754, 51.515583862706862 ], [ -0.095480264948988, 51.515556814976023 ], [ -0.095474299700562, 51.515527068960886 ], [ -0.095470205252383, 51.515508099678236 ], [ -0.095468258331879, 51.515499147238792 ], [ -0.095455365267411, 51.515441653949786 ], [ -0.095507576295969, 51.515442178279734 ], [ -0.095582286172933, 51.51544339175976 ], [ -0.095614133069419, 51.515392758212357 ], [ -0.095697186268697, 51.515388486654174 ], [ -0.095743142005106, 51.515387974036734 ], [ -0.095745446904104, 51.515346204133792 ], [ -0.095746867579443, 51.515320444966569 ], [ -0.095745961890334, 51.515304153363623 ], [ -0.095744281007426, 51.515274315068496 ], [ -0.095739299136986, 51.515242759502264 ], [ -0.095738592312544, 51.515194411942588 ], [ -0.095736681587265, 51.515154192270209 ], [ -0.095741550997671, 51.51510242809578 ], [ -0.095749945912739, 51.515053562888646 ], [ -0.095754633064648, 51.515026202101446 ], [ -0.09577144412999, 51.51496872361826 ], [ -0.095865155517201, 51.514967718519159 ], [ -0.09593526827595, 51.514971662837844 ], [ -0.096088155130549, 51.514977661627988 ], [ -0.096196974817208, 51.514982099402516 ], [ -0.096345442023735, 51.514985903806327 ], [ -0.096348687740409, 51.514942296637528 ], [ -0.096349508644962, 51.514931599584457 ], [ -0.096349474302826, 51.51486780436543 ], [ -0.096362692178978, 51.514831490357103 ], [ -0.096376711592243, 51.514832284508373 ], [ -0.096563103114242, 51.514842891343093 ], [ -0.096563922562968, 51.514887868467568 ], [ -0.096564867727166, 51.514930176781583 ], [ -0.096565602224129, 51.514955764126739 ], [ -0.096612965895348, 51.514964680442588 ], [ -0.096637638175517, 51.514999649136335 ], [ -0.096653669253697, 51.515025475797287 ], [ -0.096728178698024, 51.515032170860913 ], [ -0.09694281848678, 51.515047318362619 ], [ -0.097047926366533, 51.515054365961952 ], [ -0.097099119218829, 51.515057867637431 ], [ -0.097197693767343, 51.515063981739068 ], [ -0.097218624717304, 51.515065283635799 ], [ -0.097227165139102, 51.515067166826945 ], [ -0.097240918515803, 51.515070195759399 ], [ -0.097290918855831, 51.515081213939972 ], [ -0.097274489107331, 51.515155866077386 ], [ -0.0972686944335, 51.515182156824842 ], [ -0.09725797604783, 51.515224563645802 ], [ -0.097254680656504, 51.515237576660475 ], [ -0.09727904523832, 51.515239491820822 ], [ -0.097299573897249, 51.51524111091689 ], [ -0.097305835353574, 51.515241653170051 ], [ -0.097319565142024, 51.515242829201874 ], [ -0.097467418737525, 51.515255498117767 ], [ -0.097666590726152, 51.515274889734009 ], [ -0.097719242109023, 51.515286975928468 ], [ -0.097688538123688, 51.515439921423379 ], [ -0.097688050099846, 51.51544713469994 ], [ -0.09768387560253, 51.515508559533103 ], [ -0.097866786620512, 51.515529089890329 ], [ -0.097957381208586, 51.51553857211583 ], [ -0.097943620470856, 51.515586208416984 ], [ -0.097924378389287, 51.515645707187787 ], [ -0.097916800002752, 51.515669154300973 ], [ -0.097912652171793, 51.515681874733211 ], [ -0.097872398387546, 51.515805285973258 ], [ -0.097826152068167, 51.515942098119517 ], [ -0.097793189786824, 51.516041329143256 ], [ -0.097779767790218, 51.516082559062831 ], [ -0.097771414181274, 51.516111461187556 ], [ -0.097770387988077, 51.516114987689832 ], [ -0.097759759147202, 51.516151793515256 ], [ -0.097759628322457, 51.516198158112424 ], [ -0.09775976747262, 51.516303402750623 ], [ -0.097759036568224, 51.516342032822045 ], [ -0.097757421422996, 51.516380783438542 ], [ -0.097759011209997, 51.516407652647878 ], [ -0.097757700212658, 51.516439106069967 ], [ -0.097758942446597, 51.516495753691594 ], [ -0.097825050286055, 51.516509047404973 ], [ -0.097829670658861, 51.516571100531941 ], [ -0.097828395286023, 51.5166017002202 ], [ -0.097937374349115, 51.516602065357489 ], [ -0.098006553920032, 51.516599068943009 ], [ -0.098194599308041, 51.516590923326348 ], [ -0.098296575358196, 51.516586399372841 ], [ -0.098367914740745, 51.516582070874065 ], [ -0.098529458319415, 51.516574852782846 ], [ -0.09853938489841, 51.516574609095464 ], [ -0.098544023169088, 51.516574504462334 ], [ -0.098714322644982, 51.516570404723531 ], [ -0.098740398853281, 51.516658228356206 ], [ -0.098757358141863, 51.516726515723079 ], [ -0.098815676085968, 51.516732371448278 ], [ -0.098927527359493, 51.516728843412942 ], [ -0.098979892860542, 51.516726041418103 ], [ -0.099107989104716, 51.516721796393796 ], [ -0.099309822851537, 51.516720707058298 ], [ -0.099428805577623, 51.516718984794878 ], [ -0.09948265004285, 51.516723931345531 ], [ -0.099518897513175, 51.516740256268506 ], [ -0.099545765264865, 51.51676584458226 ], [ -0.099663624385039, 51.516769301697479 ], [ -0.099723080637314, 51.51676928515527 ], [ -0.099764130393142, 51.516800436000032 ], [ -0.099798946936641, 51.51682966926753 ], [ -0.099826538437195, 51.516859342982286 ], [ -0.099842624360756, 51.516883911171647 ], [ -0.099856813105218, 51.516911119467984 ], [ -0.099870952291682, 51.516939172281184 ], [ -0.099881673939457, 51.516972074369107 ], [ -0.099882135324287, 51.516973490116044 ], [ -0.099876330385685, 51.51697720897667 ], [ -0.099866867428303, 51.516983278617751 ], [ -0.099805323630531, 51.517022694732816 ], [ -0.099738822558472, 51.517062084422115 ], [ -0.0996097192816, 51.517133759628763 ], [ -0.099439312489672, 51.51723123966616 ], [ -0.099393991431323, 51.517257169363084 ], [ -0.099392845655698, 51.517257824345492 ], [ -0.099423086274481, 51.517288952841334 ], [ -0.099580411584979, 51.517404892569949 ], [ -0.099642094201246, 51.517450806641392 ], [ -0.099643323074643, 51.517451721337878 ], [ -0.099515291081099, 51.517534672403571 ], [ -0.099461127622283, 51.517569757281045 ], [ -0.099409079433308, 51.517603471755884 ], [ -0.09935821607062, 51.517635245895235 ], [ -0.099187217361456, 51.517739262459635 ], [ -0.099145231728826, 51.517760329792026 ], [ -0.099143744876327, 51.517761075464051 ], [ -0.099140299834913, 51.517762809164367 ], [ -0.099100050386469, 51.517729737754912 ], [ -0.099013112631604, 51.517658310677568 ], [ -0.098999194328695, 51.517657731587263 ], [ -0.098996169859216, 51.517657604310514 ], [ -0.098979730853979, 51.51765691510208 ], [ -0.098941182900345, 51.51765531884277 ], [ -0.098873844021839, 51.517649730562987 ], [ -0.098832515134414, 51.517668871395784 ], [ -0.098797521584138, 51.517687134739347 ], [ -0.098746042656778, 51.51771187529183 ], [ -0.098581768167689, 51.517762744986477 ], [ -0.098517648235066, 51.517787828979621 ], [ -0.098441699363767, 51.517816255227402 ], [ -0.098368596749474, 51.517841058552868 ], [ -0.098279136661186, 51.517869265541513 ], [ -0.098174303658401, 51.517899039622101 ], [ -0.098124132900627, 51.517784125918489 ], [ -0.098083737850026, 51.517694388574355 ], [ -0.098057475555785, 51.51763283890547 ], [ -0.09803207064405, 51.517578282403669 ], [ -0.09801778653909, 51.517547609363362 ], [ -0.097924043147762, 51.517562050663663 ], [ -0.097879971439917, 51.517568835600564 ], [ -0.097785748038385, 51.5175816503085 ], [ -0.097655287202244, 51.517599335554607 ], [ -0.097547477047747, 51.517613746144427 ], [ -0.097562565012695, 51.517681521018922 ], [ -0.097567968551945, 51.517705831531948 ], [ -0.097569186004617, 51.517711894405195 ], [ -0.097597077009512, 51.51785018762471 ], [ -0.097488142883688, 51.517864921634491 ], [ -0.097443061822929, 51.517871015566222 ], [ -0.097455350966221, 51.517930620995571 ], [ -0.097468536488829, 51.517994656402401 ], [ -0.097439699030582, 51.518016670273852 ], [ -0.097443909826905, 51.518051196066338 ], [ -0.097446412756179, 51.518071715837401 ], [ -0.097489441638391, 51.518184688382156 ], [ -0.097546647215773, 51.518325138944334 ], [ -0.097505941167885, 51.518328965774288 ], [ -0.097448932732417, 51.518335216865992 ], [ -0.097389939746075, 51.518340320624716 ], [ -0.097353094798979, 51.518343499634391 ], [ -0.097361804776936, 51.518372444711503 ], [ -0.09740255454674, 51.518367224768319 ], [ -0.097436970314231, 51.518362846260111 ], [ -0.097500106163684, 51.518382836485443 ], [ -0.097511513119394, 51.518454963463753 ], [ -0.097526120567871, 51.518548167388317 ], [ -0.097529294134707, 51.518568506494574 ], [ -0.097543707843495, 51.518655295453428 ], [ -0.097544803129376, 51.518661868929861 ], [ -0.097551625057498, 51.518702914555043 ], [ -0.097620607681088, 51.518690544822306 ], [ -0.097689787913039, 51.518803096327495 ], [ -0.09773787134469, 51.518903075370858 ], [ -0.097701286750801, 51.51891624963411 ], [ -0.097673850242578, 51.518922971657375 ], [ -0.097653957263076, 51.518927846669349 ], [ -0.097607672933385, 51.518935809594623 ], [ -0.097599695621191, 51.519019285594005 ], [ -0.097443752593434, 51.519043040789086 ], [ -0.097441399576938, 51.51909947696732 ], [ -0.097443159335206, 51.519112239234957 ], [ -0.097444067486558, 51.519118841149513 ], [ -0.097445548686216, 51.519129607006221 ], [ -0.097465451365893, 51.519170828938528 ], [ -0.097540313991854, 51.519168527628736 ], [ -0.097650598987433, 51.519159498955851 ], [ -0.097681482665646, 51.51930486403041 ], [ -0.09761276249334, 51.519310916148882 ], [ -0.09762252013137, 51.519338250524044 ], [ -0.097632135815279, 51.519365186914776 ], [ -0.097678775559432, 51.519413020673305 ], [ -0.097701331769809, 51.519455256841908 ], [ -0.097709461722811, 51.519504003476079 ], [ -0.097715031871553, 51.519537393949278 ], [ -0.097728014242312, 51.519612199324108 ], [ -0.097737443823668, 51.519666596494922 ], [ -0.097742809881458, 51.519698832585291 ], [ -0.097744748088594, 51.519710428689294 ], [ -0.097756076186283, 51.519741241746217 ], [ -0.09776759723277, 51.519767426675301 ], [ -0.097770015969848, 51.519773374146659 ], [ -0.097778090731187, 51.519793261300372 ], [ -0.097782304006759, 51.519803636234791 ], [ -0.097798600854587, 51.519844925508394 ], [ -0.097813477380666, 51.519877064110595 ], [ -0.097840448968947, 51.519921620080041 ], [ -0.097930562836266, 51.519899620111943 ], [ -0.098105403726217, 51.519854822147202 ], [ -0.098115945690639, 51.519851935637632 ], [ -0.098123075747754, 51.519849982977618 ], [ -0.098273082743004, 51.519808927531841 ], [ -0.098385738043296, 51.519778819901497 ], [ -0.098406606158746, 51.519773242967794 ], [ -0.098419186089385, 51.519769876900597 ], [ -0.098549123783146, 51.519735141195476 ], [ -0.098563249343418, 51.51975141333827 ], [ -0.098571872166634, 51.519761373258369 ], [ -0.098588664937117, 51.519780746187593 ], [ -0.098611034652452, 51.519809148344137 ], [ -0.0986263119662, 51.519828568631866 ], [ -0.098638819220549, 51.519849778510341 ], [ -0.098645189131288, 51.519860567887598 ], [ -0.098658288442422, 51.519882755884019 ], [ -0.098724819412948, 51.519994301646449 ], [ -0.098726503932876, 51.519997116713576 ], [ -0.098750843046478, 51.520035028229614 ], [ -0.098767436947934, 51.520060873579844 ], [ -0.0987865624182, 51.520090688909235 ], [ -0.098621895017992, 51.520129330990684 ], [ -0.098481892660487, 51.52015962296764 ], [ -0.098438343497472, 51.520169028933807 ], [ -0.098399231303341, 51.52017708150472 ], [ -0.098290129753796, 51.520199542700155 ], [ -0.098330391282788, 51.520249655831499 ], [ -0.098347425841656, 51.520273259302542 ], [ -0.098377700919024, 51.520325035954244 ], [ -0.098393447893444, 51.520357746159341 ], [ -0.098399840864549, 51.520371752624541 ], [ -0.098427301165792, 51.520431927785474 ], [ -0.098457125913092, 51.520494515374175 ], [ -0.098498494252385, 51.520539871263857 ], [ -0.098326202492972, 51.520569450450886 ], [ -0.098061275142454, 51.520614747627505 ], [ -0.098010925405478, 51.520623373136971 ], [ -0.097996087405102, 51.520625920152398 ], [ -0.097620105738746, 51.520690295635312 ], [ -0.097619422678816, 51.520694232360206 ], [ -0.097607297393134, 51.520762749059053 ], [ -0.097600567304722, 51.520800742049076 ], [ -0.097599776829161, 51.52080518062359 ], [ -0.097587578497292, 51.520874064834814 ], [ -0.097585030581374, 51.520888501785116 ], [ -0.097542341404172, 51.521129641546196 ], [ -0.097541531265438, 51.521134205699006 ], [ -0.097517677078442, 51.521268979325178 ], [ -0.097508155761141, 51.521322745219493 ], [ -0.09749235774552, 51.521381499135238 ], [ -0.097483640245337, 51.521413911344212 ], [ -0.097475434701949, 51.521444416409132 ], [ -0.097436728281227, 51.521588283423455 ], [ -0.097351178776645, 51.521586467836968 ], [ -0.09726573965096, 51.521584770885156 ], [ -0.097259893385782, 51.521572868543117 ], [ -0.096988675877121, 51.521021573399466 ], [ -0.096980821749438, 51.52100562769477 ], [ -0.096969962394084, 51.520963581270664 ], [ -0.096941840737496, 51.520903404058444 ], [ -0.096895358660755, 51.520808225847063 ], [ -0.09689013570231, 51.520796936119936 ], [ -0.096844113234502, 51.520697655674581 ], [ -0.096789205130733, 51.520588851545064 ], [ -0.096745680919182, 51.520487399411699 ], [ -0.09669705419925, 51.520378688227254 ], [ -0.096680218829187, 51.520343590561538 ], [ -0.096677056349864, 51.520336988015281 ], [ -0.096673117723748, 51.520328776658722 ], [ -0.096647662583663, 51.520275706463757 ] ] ] } },
{ "type": "Feature", "properties": { "lsoa21cd": "E01000002", "lsoa21nm": "City of London 001B", "msoa21cd": "E02000001", "msoa21nm": "City of London 001", "lad22cd": "E09000001", "lad22nm": "City of London", "index_right": 635, "GSS_CODE": "E05009302", "risk_score": 3.1047727239618772, "allocation_hours": 99.819549081012823, "patrol_units": 50 }, "geometry": { "type": "Polygon", "coordinates": [ [ [ -0.089668687432452, 51.520689007431784 ], [ -0.089708694529541, 51.520576621056669 ], [ -0.089919544910871, 51.519984217959205 ], [ -0.089926946398729, 51.519963394537861 ], [ -0.089846734953225, 51.519939165251401 ], [ -0.089815817813339, 51.519929821676541 ], [ -0.089767833399566, 51.51991532595563 ], [ -0.089556708112751, 51.519851544656355 ], [ -0.089225474609194, 51.51975145783188 ], [ -0.088411288939699, 51.51950545840279 ], [ -0.088153607316965, 51.519427615310626 ], [ -0.088103175785578, 51.519412377588814 ], [ -0.088114212983678, 51.519404221349419 ], [ -0.088137581978315, 51.519386940782077 ], [ -0.088170302243166, 51.519327088385786 ], [ -0.088174658090834, 51.519319110951237 ], [ -0.088231586074124, 51.519214042317415 ], [ -0.088256690769136, 51.519167716625411 ], [ -0.088312726637665, 51.519055376286026 ], [ -0.088317316096929, 51.51904663827461 ], [ -0.088331053019532, 51.519020486675025 ], [ -0.088400833788712, 51.518887642228059 ], [ -0.088484733463459, 51.51873430874555 ], [ -0.088554153625857, 51.51860420108067 ], [ -0.088594056552979, 51.518529762574396 ], [ -0.088620606400146, 51.518480231966961 ], [ -0.088653417914154, 51.518416792803862 ], [ -0.088690199567209, 51.518345630671568 ], [ -0.088722326659564, 51.518288547160822 ], [ -0.088750267976398, 51.518245019349251 ], [ -0.088785076752373, 51.518194454281364 ], [ -0.088787670264269, 51.518190692646101 ], [ -0.088856911681837, 51.518082362177331 ], [ -0.088935668211091, 51.517959177935197 ], [ -0.088967950577918, 51.517908697519999 ], [ -0.088980491291634, 51.517889064025468 ], [ -0.088987273363126, 51.51787924662576 ], [ -0.088991048208361, 51.517873777641348 ], [ -0.089065839808366, 51.517765402602642 ], [ -0.089130338615867, 51.517666688778981 ], [ -0.089194482770135, 51.517619119646184 ], [ -0.0892095094497, 51.517603105736342 ], [ -0.089213823899354, 51.5175985178305 ], [ -0.089223720676304, 51.517587977804965 ], [ -0.089260548639681, 51.51752599776524 ], [ -0.089265387343426, 51.517517839303956 ], [ -0.089451174033092, 51.517555857602041 ], [ -0.089472525826886, 51.517516835470829 ], [ -0.089480438509208, 51.517502387233392 ], [ -0.089485154684409, 51.51749405590418 ], [ -0.089501843295008, 51.517464508033015 ], [ -0.089574676106177, 51.517467943017216 ], [ -0.089836113060535, 51.517506482953365 ], [ -0.089856671422536, 51.5174671240812 ], [ -0.089866464194955, 51.517448389945919 ], [ -0.090038446804035, 51.517471848039563 ], [ -0.090093997465619, 51.517479074859885 ], [ -0.090140920297079, 51.517370101196818 ], [ -0.090223408062263, 51.517206896263744 ], [ -0.090235617467577, 51.517181384983274 ], [ -0.090283615335089, 51.517081142540498 ], [ -0.090498396807881, 51.517115135136372 ], [ -0.090476106207813, 51.517157676391058 ], [ -0.090467068731877, 51.51717490314509 ], [ -0.090571875036649, 51.517189253828306 ], [ -0.090657733853721, 51.517204141164363 ], [ -0.090780451183915, 51.517263746904355 ], [ -0.090756477802592, 51.517319983620474 ], [ -0.090708669109584, 51.517428808240922 ], [ -0.090682847345908, 51.517489084038537 ], [ -0.090660780433298, 51.517540572150068 ], [ -0.090763702062899, 51.517556582608641 ], [ -0.090913290453327, 51.517580636971864 ], [ -0.090917327924785, 51.517581287241342 ], [ -0.090999939364572, 51.517594574716469 ], [ -0.091192433682081, 51.517622861474088 ], [ -0.091394015792414, 51.517649605231853 ], [ -0.0914208389963, 51.517571913190274 ], [ -0.091422717148766, 51.517566467201753 ], [ -0.091360898198769, 51.517558158755733 ], [ -0.091376351690496, 51.517533644394987 ], [ -0.091383096875816, 51.517522971937737 ], [ -0.091406358793299, 51.517481489537978 ], [ -0.091412300788157, 51.517470893930671 ], [ -0.091443330929947, 51.517375150044451 ], [ -0.091449429209296, 51.517359610985878 ], [ -0.091493751860833, 51.517246556663459 ], [ -0.091495346849315, 51.517242194182209 ], [ -0.091529392839383, 51.517148082016931 ], [ -0.091545844297234, 51.517103143345672 ], [ -0.091586342149388, 51.516992607412718 ], [ -0.091732335659736, 51.517012978160935 ], [ -0.091762493692605, 51.516981149126288 ], [ -0.091831252735071, 51.516888267163573 ], [ -0.09181316454837, 51.516881354122106 ], [ -0.091791331277658, 51.516873004236764 ], [ -0.091808004549795, 51.516840676939758 ], [ -0.091830487501311, 51.516798327366622 ], [ -0.091845028096372, 51.5167521974764 ], [ -0.091855533382119, 51.516716397510542 ], [ -0.091866587997007, 51.516689176559396 ], [ -0.09196375407867, 51.516692160735758 ], [ -0.092070727200371, 51.516697417715029 ], [ -0.092090346158673, 51.516659095185645 ], [ -0.092112663822107, 51.516599314934425 ], [ -0.092137204149556, 51.516529463008766 ], [ -0.092157292579569, 51.516479907182017 ], [ -0.092164081823701, 51.516447140211639 ], [ -0.092162755149344, 51.516370959136133 ], [ -0.09216442204285, 51.516331085486307 ], [ -0.092166652826453, 51.516277722913458 ], [ -0.092166443513129, 51.516274455144014 ], [ -0.092163893683835, 51.516235807833496 ], [ -0.092162479788615, 51.516205155564407 ], [ -0.092159098528603, 51.51617812233372 ], [ -0.092152982494993, 51.516152033804033 ], [ -0.092147659529314, 51.516106974510883 ], [ -0.092141772676241, 51.516075404140366 ], [ -0.09213656445841, 51.51604932138931 ], [ -0.09225934389843, 51.51604983539039 ], [ -0.092286969601984, 51.516049943159629 ], [ -0.092385100365723, 51.51605153977664 ], [ -0.092389759727868, 51.515832138802239 ], [ -0.092390445482854, 51.515794353477602 ], [ -0.092402852784107, 51.515734411900873 ], [ -0.092417973512596, 51.515674379575998 ], [ -0.092435158672345, 51.515608058938248 ], [ -0.09245591387647, 51.515547704606725 ], [ -0.092459768540768, 51.515536517400662 ], [ -0.09256223954073, 51.515541835500628 ], [ -0.092623720061411, 51.515450237401524 ], [ -0.092690830262108, 51.515353254259395 ], [ -0.092711931518304, 51.515322545571884 ], [ -0.092740199053868, 51.5152927987669 ], [ -0.092778376337166, 51.515263204153719 ], [ -0.092818104482399, 51.515239264208972 ], [ -0.09284738484365, 51.515221665057922 ], [ -0.092856483556443, 51.515209322132648 ], [ -0.092861029298127, 51.515202633528176 ], [ -0.092881241524605, 51.515172845588999 ], [ -0.092912524042469, 51.515114056251448 ], [ -0.092955060570912, 51.515044631672659 ], [ -0.092970895129553, 51.515010608873226 ], [ -0.092984073406541, 51.515012217082152 ], [ -0.093120563563664, 51.515028780321089 ], [ -0.093124984260387, 51.515022323482285 ], [ -0.093137834930185, 51.515003485838449 ], [ -0.093164065660024, 51.514957968488702 ], [ -0.093176893714134, 51.514933806766763 ], [ -0.093185577157204, 51.514917428308138 ], [ -0.093204474697038, 51.5148745974275 ], [ -0.093219580462385, 51.514836623912316 ], [ -0.093235409489956, 51.514802726876624 ], [ -0.093307312959432, 51.514806575975193 ], [ -0.093335247536591, 51.514763046702633 ], [ -0.093387733285315, 51.514692803508275 ], [ -0.09339868643201, 51.514684537422283 ], [ -0.093441680534143, 51.514652089250482 ], [ -0.093473553924101, 51.514622256986421 ], [ -0.093512153896165, 51.514560780692321 ], [ -0.093555429227082, 51.514538157125131 ], [ -0.093590852540381, 51.514516152275981 ], [ -0.093602615593411, 51.514508852567573 ], [ -0.09363723228976, 51.514477518101693 ], [ -0.093687759986589, 51.514432395629363 ], [ -0.093757077215286, 51.514368747781262 ], [ -0.093794603513818, 51.514332964189087 ], [ -0.09381905045704, 51.514286994999736 ], [ -0.093823527841385, 51.51427779626183 ], [ -0.093836790291755, 51.514250467070489 ], [ -0.093899316201083, 51.514263147093764 ], [ -0.093941881685044, 51.514214369905339 ], [ -0.093966477843209, 51.51418691018381 ], [ -0.093981928999408, 51.514161352151 ], [ -0.0940041011695, 51.514100822644849 ], [ -0.094006330304023, 51.514094725823114 ], [ -0.094062642115376, 51.514104004405873 ], [ -0.094153952415012, 51.514119040635251 ], [ -0.094233462990631, 51.514134667385484 ], [ -0.094349222248577, 51.514157178126588 ], [ -0.094414858076502, 51.514169935395877 ], [ -0.094536004407501, 51.514193909396248 ], [ -0.094697175481675, 51.51422580878242 ], [ -0.094744606027907, 51.514236894161833 ], [ -0.094753369880515, 51.514238943025958 ], [ -0.094733361494734, 51.514286675197859 ], [ -0.094723219835184, 51.514313488671732 ], [ -0.094721913711361, 51.51431784692015 ], [ -0.094695038313151, 51.514406474460692 ], [ -0.094672303529254, 51.514476356432077 ], [ -0.094670453123146, 51.514493061879193 ], [ -0.094666510359961, 51.514528815950264 ], [ -0.09485025963282, 51.514550200810312 ], [ -0.094986504290276, 51.514566757867804 ], [ -0.095122729022408, 51.514583449337387 ], [ -0.095201647067115, 51.514591889617229 ], [ -0.095185147208693, 51.514685065311795 ], [ -0.095173103937351, 51.514757791929178 ], [ -0.095147358574599, 51.514792076731965 ], [ -0.09513223565925, 51.514809780592479 ], [ -0.095118946273865, 51.514825337990857 ], [ -0.095105969640624, 51.514877258180682 ], [ -0.0951763745484, 51.514895263371784 ], [ -0.095168421852996, 51.514934900145242 ], [ -0.09523955837428, 51.514957134789803 ], [ -0.095238150411235, 51.514962552535387 ], [ -0.095213792797713, 51.51505648186815 ], [ -0.095195234475163, 51.515090883430226 ], [ -0.095177457727003, 51.515127968533967 ], [ -0.095151140316424, 51.515176299713701 ], [ -0.095075511869578, 51.515175349823963 ], [ -0.09502305982212, 51.515180262011626 ], [ -0.095015349513899, 51.515235496142665 ], [ -0.095009006688853, 51.515279376654924 ], [ -0.095085562511659, 51.515301276793316 ], [ -0.095167332093656, 51.515327757962922 ], [ -0.095182178349999, 51.515381955684227 ], [ -0.095194492279747, 51.515432596097774 ], [ -0.095376351408393, 51.515435127698055 ], [ -0.095417754863019, 51.515435944132449 ], [ -0.095444123186811, 51.515439924586232 ], [ -0.095455365267411, 51.515441653949786 ], [ -0.095468258331879, 51.515499147238792 ], [ -0.095470205252383, 51.515508099678236 ], [ -0.095474299700562, 51.515527068960886 ], [ -0.095480264948988, 51.515556814976023 ], [ -0.095484541165754, 51.515583862706862 ], [ -0.095490582554444, 51.515611784428714 ], [ -0.095496395569588, 51.515645179029939 ], [ -0.095499307326003, 51.515665549957014 ], [ -0.09550128033311, 51.515679403872454 ], [ -0.095503715274209, 51.515707401905253 ], [ -0.095507043227742, 51.515735414443249 ], [ -0.095508555538426, 51.515764107917363 ], [ -0.095511170100712, 51.515786074727551 ], [ -0.095511883498207, 51.515792120455281 ], [ -0.095513021002519, 51.515818397782326 ], [ -0.095513267185096, 51.515823896355627 ], [ -0.095513429549915, 51.515835202888461 ], [ -0.095513717053974, 51.515855944855971 ], [ -0.09550808714254, 51.515901401722267 ], [ -0.095506937874452, 51.515910636601319 ], [ -0.095391004857987, 51.515904257044141 ], [ -0.095356265276194, 51.51590538336135 ], [ -0.095333209542273, 51.515906290298631 ], [ -0.095323696824119, 51.515930465668035 ], [ -0.095310089247281, 51.51596503758698 ], [ -0.095292425059892, 51.516021521898026 ], [ -0.095257211540797, 51.5161313898722 ], [ -0.095234892261612, 51.516191314712131 ], [ -0.095221945584121, 51.51622075349627 ], [ -0.095203196004196, 51.516260070969409 ], [ -0.095187350651518, 51.516294381692965 ], [ -0.095164051807093, 51.516334605459569 ], [ -0.095044789424954, 51.516321291983424 ], [ -0.095028957142471, 51.516351142487743 ], [ -0.095014486733931, 51.516378407218021 ], [ -0.094987637735913, 51.516441522767359 ], [ -0.094979519442588, 51.516460599381915 ], [ -0.094921091472717, 51.51658066549949 ], [ -0.094917449114918, 51.51658816022826 ], [ -0.095094904944441, 51.516619982192196 ], [ -0.095154390654516, 51.516630651832088 ], [ -0.095459612285761, 51.516677903195607 ], [ -0.095635629719959, 51.51670483591505 ], [ -0.095695997059043, 51.516714071773002 ], [ -0.095703086391461, 51.516715158136115 ], [ -0.095865956227262, 51.516741121581582 ], [ -0.095907717971008, 51.516754452623076 ], [ -0.095886938247016, 51.516783017875753 ], [ -0.095867596811104, 51.516809583112185 ], [ -0.095787828232346, 51.516929554918391 ], [ -0.095765949823807, 51.516957158060556 ], [ -0.095746676950105, 51.516983112878208 ], [ -0.09570593099281, 51.517038008331625 ], [ -0.09564855418087, 51.517115295383256 ], [ -0.095581711144004, 51.517205962652334 ], [ -0.095554986631824, 51.517241922128342 ], [ -0.095527916242377, 51.517279260859162 ], [ -0.095515314611431, 51.517296627951858 ], [ -0.095498583515144, 51.517319692302728 ], [ -0.095459500925218, 51.517371323173215 ], [ -0.09543096734448, 51.517412289157107 ], [ -0.09542117026301, 51.517426347509435 ], [ -0.095407652783714, 51.517446316594828 ], [ -0.095397638055496, 51.517461099820167 ], [ -0.095359727656795, 51.517517102174665 ], [ -0.095340285380156, 51.517541750138975 ], [ -0.095322623993157, 51.517564133885777 ], [ -0.095272140091528, 51.517629913869335 ], [ -0.09523384423343, 51.517684093383316 ], [ -0.09522417583003, 51.517721310079395 ], [ -0.095263615910112, 51.517747804929812 ], [ -0.095268749908691, 51.517775711835931 ], [ -0.09525328890743, 51.517789750095538 ], [ -0.095238787265801, 51.517802904666432 ], [ -0.095171035074739, 51.517807568249978 ], [ -0.09513053183223, 51.517855920544449 ], [ -0.095060599032201, 51.517939405850093 ], [ -0.094993729790148, 51.518019244876811 ], [ -0.094954651624738, 51.518070740733705 ], [ -0.095003901753977, 51.518120857097614 ], [ -0.095014381433894, 51.518150532510759 ], [ -0.094988194999133, 51.518173578030783 ], [ -0.094941870111118, 51.518182519457639 ], [ -0.094971634829869, 51.518203236738131 ], [ -0.095057865753471, 51.518238639361847 ], [ -0.095126637829065, 51.518266878825465 ], [ -0.095249627764945, 51.518320162573339 ], [ -0.095318688097241, 51.518349099051321 ], [ -0.095270020691623, 51.518430043279849 ], [ -0.095007945370807, 51.518865772251992 ], [ -0.095156042570635, 51.518900498424166 ], [ -0.095268413557155, 51.518927476784242 ], [ -0.095214922240875, 51.51901622921762 ], [ -0.095194866636766, 51.519049509183532 ], [ -0.095173406375982, 51.519088054045483 ], [ -0.095141293751561, 51.51914573320569 ], [ -0.095113471029739, 51.519195532489341 ], [ -0.095102862874703, 51.5192145056374 ], [ -0.095099435405631, 51.51922064593446 ], [ -0.095070363602074, 51.519269633550543 ], [ -0.095059110337068, 51.519288383084181 ], [ -0.09505818703734, 51.519289921125377 ], [ -0.095019042076994, 51.519355075838462 ], [ -0.094981311968178, 51.519417411825422 ], [ -0.094857290811725, 51.519388418332085 ], [ -0.094764487888332, 51.519367099246267 ], [ -0.094719864506672, 51.519443657519247 ], [ -0.094637511079428, 51.519581841211576 ], [ -0.094606094450432, 51.51963276898698 ], [ -0.094589195520583, 51.519660164940888 ], [ -0.094542831925492, 51.519648593151651 ], [ -0.094514099110804, 51.519698588809263 ], [ -0.094497555190844, 51.51972800938443 ], [ -0.094480598189062, 51.519758174134907 ], [ -0.094478795754905, 51.519760950567829 ], [ -0.094445936329387, 51.519811558082942 ], [ -0.094504605062672, 51.519830497114413 ], [ -0.094621521892716, 51.51985670469476 ], [ -0.094617103879188, 51.519864816267827 ], [ -0.094606382654497, 51.519884417015454 ], [ -0.094595192503193, 51.519904891427295 ], [ -0.094589731258669, 51.51992279710327 ], [ -0.09454717640255, 51.520062328967015 ], [ -0.094518405063771, 51.520152418039999 ], [ -0.094513995829502, 51.520166186172339 ], [ -0.094489694777453, 51.520241042281455 ], [ -0.094460257343522, 51.520331543164971 ], [ -0.094426603990699, 51.520447056208319 ], [ -0.094388674789385, 51.520578659652365 ], [ -0.094374220811395, 51.52062792063689 ], [ -0.094370557716503, 51.520640387952582 ], [ -0.094363466593163, 51.520664526052393 ], [ -0.094726551464564, 51.520599465889639 ], [ -0.094744639454151, 51.520596072837193 ], [ -0.09474627122485, 51.520610847419611 ], [ -0.094746634699296, 51.520618712965309 ], [ -0.094552431546716, 51.520655151609859 ], [ -0.094491309586981, 51.520666626559034 ], [ -0.093997336772589, 51.52075931945032 ], [ -0.093982030886878, 51.520761776512039 ], [ -0.093954250431845, 51.520766235768214 ], [ -0.093896533121574, 51.520777361084157 ], [ -0.093910901494042, 51.520808767957782 ], [ -0.093920689248298, 51.520830158904104 ], [ -0.093944925919247, 51.520883169358065 ], [ -0.094014085643973, 51.521034373263511 ], [ -0.093805809632124, 51.521073954095961 ], [ -0.093725588304466, 51.521089198070968 ], [ -0.093578426112821, 51.521117162638419 ], [ -0.093615233624388, 51.521183596873108 ], [ -0.093362695600248, 51.521228868923949 ], [ -0.09332338674915, 51.521236098232208 ], [ -0.092804353561026, 51.521331512307967 ], [ -0.0927046578104, 51.521349836193423 ], [ -0.092737225553573, 51.521389043708915 ], [ -0.092501977725893, 51.521430314633626 ], [ -0.092488792626577, 51.521432618054746 ], [ -0.092487293432529, 51.521426757390451 ], [ -0.09238514462191, 51.521055189016991 ], [ -0.092380452462893, 51.521038125431623 ], [ -0.092375496688506, 51.521020126810726 ], [ -0.092372443432253, 51.521009029580213 ], [ -0.09237087913145, 51.521003347709396 ], [ -0.092188844107279, 51.520984837064233 ], [ -0.091653764311298, 51.5209304091698 ], [ -0.091555871710691, 51.520920452387976 ], [ -0.091507614236422, 51.520915548129359 ], [ -0.091302326942134, 51.520894670193471 ], [ -0.091039811696477, 51.52086796801251 ], [ -0.090820372313403, 51.520845644778646 ], [ -0.090559436572567, 51.520819102144891 ], [ -0.090545269642138, 51.520817657384143 ], [ -0.089959257809613, 51.520731754103991 ], [ -0.089697456792221, 51.520693370068166 ], [ -0.089668687432452, 51.520689007431784 ] ] ] } }
]
}
