{
"type": "FeatureCollection",
"name": "lsoas_E05009308",
"crs": { "type": "name", "properties": { "name": "urn:ogc:def:crs:OGC:1.3:CRS84" } },
"features": [
{ "type": "Feature", "properties": { "lsoa21cd": "E01000005", "lsoa21nm": "City of London 001E", "msoa21cd": "E02000001", "msoa21nm": "City of London 001", "lad22cd": "E09000001", "lad22nm": "City of London", "index_right": 655, "GSS_CODE": "E05009308", "risk_score": 0.0, "allocation_hours": 0.0, "patrol_units": 0 }, "geometry": { "type": "Polygon", "coordinates": [ [ [ -0.075684645942336, 51.51575119708518 ], [ -0.07539336101026, 51.515547342104682 ], [ -0.075298594878209, 51.515481029232681 ], [ -0.0751193821516, 51.515355605056733 ], [ -0.075084522020706, 51.515328827713667 ], [ -0.074904358424753, 51.51519043810292 ], [ -0.074804401131265, 51.515113626003625 ], [ -0.074787815714437, 51.515100889644273 ], [ -0.074731022192628, 51.515053545258027 ], [ -0.074695726662858, 51.515024116791629 ], [ -0.074619398841591, 51.514960489366402 ], [ -0.074609499133322, 51.514952242274241 ], [ -0.074417107261274, 51.514791861682141 ], [ -0.074305117379122, 51.514707180658448 ], [ -0.074280926084732, 51.514688887648333 ], [ -0.074269178370912, 51.514680718070458 ], [ -0.073942874973887, 51.514454381354348 ], [ -0.073935774036828, 51.514446554302133 ], [ -0.073800424473014, 51.514303778202176 ], [ -0.073637920258889, 51.514132363445064 ], [ -0.073623282602996, 51.514094668229099 ], [ -0.073614303253394, 51.514071454345967 ], [ -0.073580829265241, 51.513984906884637 ], [ -0.073472544168908, 51.513704991519035 ], [ -0.073471232894553, 51.513701570721125 ], [ -0.073461590477518, 51.513676655296429 ], [ -0.073438955561074, 51.513605807385744 ], [ -0.073422327785897, 51.513553808009398 ], [ -0.073420826301508, 51.513549089134983 ], [ -0.073369494787687, 51.513388480902016 ], [ -0.073365306803809, 51.513375363639838 ], [ -0.073339839471347, 51.513286675283915 ], [ -0.073317554936571, 51.51320907239473 ], [ -0.073297881545408, 51.513140561785946 ], [ -0.073279535740802, 51.51307669075257 ], [ -0.073242015500637, 51.512946048394056 ], [ -0.073220198329017, 51.512839800625763 ], [ -0.073165223651436, 51.512571957379826 ], [ -0.073140022986227, 51.512449251270063 ], [ -0.073135647886697, 51.512427938570724 ], [ -0.073126194033866, 51.51238183941124 ], [ -0.073117992925897, 51.512341911857298 ], [ -0.073104329905523, 51.512251112708228 ], [ -0.073098105024153, 51.512209778815844 ], [ -0.073074119004368, 51.512050390746822 ], [ -0.073065646319108, 51.511994094702985 ], [ -0.073063214967671, 51.511977948794403 ], [ -0.073031929606604, 51.511769981711318 ], [ -0.073030645550991, 51.51176148047864 ], [ -0.073018804536447, 51.511682833434627 ], [ -0.072985326638286, 51.511551043424063 ], [ -0.072980223196624, 51.511530941746287 ], [ -0.072969507420102, 51.511488796590399 ], [ -0.072957792048228, 51.511442678206343 ], [ -0.072931896128035, 51.511369781066577 ], [ -0.072890965826878, 51.511254558024625 ], [ -0.072826711385738, 51.511133880399527 ], [ -0.072815695007514, 51.511113195864198 ], [ -0.072808777848433, 51.511100213547856 ], [ -0.072800832195997, 51.511085307863503 ], [ -0.07279564888866, 51.511065735432226 ], [ -0.072776679587015, 51.510994138306806 ], [ -0.072744893694599, 51.510874183459492 ], [ -0.072744158478993, 51.510865997000927 ], [ -0.072742961147588, 51.510852713072317 ], [ -0.072738322560047, 51.510806247026601 ], [ -0.072736758594069, 51.510783897819017 ], [ -0.072730603435346, 51.510714984424425 ], [ -0.072728282278302, 51.510689065249856 ], [ -0.072724072538301, 51.510642000147335 ], [ -0.072708928311662, 51.510472310559656 ], [ -0.072702678915936, 51.510402217566281 ], [ -0.072703541856435, 51.510387582644981 ], [ -0.072704687774435, 51.510367952434649 ], [ -0.072709110594349, 51.510292387546464 ], [ -0.072697682106197, 51.510264573998199 ], [ -0.072693834978342, 51.510227694595955 ], [ -0.072701054946683, 51.510192612302745 ], [ -0.072701758519638, 51.510189192258572 ], [ -0.072718146433467, 51.510163886537939 ], [ -0.072722142681394, 51.510159689721505 ], [ -0.072740762514041, 51.510140229991933 ], [ -0.072747561799616, 51.510135657517061 ], [ -0.072751499829211, 51.510133010084274 ], [ -0.07277136214971, 51.510119654348408 ], [ -0.072802358367284, 51.510102997045216 ], [ -0.072807699366297, 51.510100229699788 ], [ -0.072825901913555, 51.510091846601377 ], [ -0.072844039078449, 51.510083475913937 ], [ -0.072857055604964, 51.510078285363576 ], [ -0.072866436445999, 51.510074554788218 ], [ -0.072882512124329, 51.510068144774394 ], [ -0.072904928850318, 51.510059891218276 ], [ -0.072925509651868, 51.510052352062083 ], [ -0.072969276652774, 51.510039735620879 ], [ -0.072974256201815, 51.510038531550784 ], [ -0.072993853390277, 51.510033808909199 ], [ -0.073006112574398, 51.510030854064205 ], [ -0.073018313392411, 51.510027916243558 ], [ -0.073023875066896, 51.510026577860657 ], [ -0.073029303319492, 51.51002566893326 ], [ -0.073065471704099, 51.510019627068026 ], [ -0.073082845290303, 51.510016711351469 ], [ -0.073094408964736, 51.510015210871266 ], [ -0.073129595702454, 51.510010573691723 ], [ -0.073141710801683, 51.510008983354346 ], [ -0.07314900061593, 51.510008356826972 ], [ -0.073174905168944, 51.510006138020024 ], [ -0.073186693139974, 51.510005127724078 ], [ -0.07320383425843, 51.510003758509306 ], [ -0.073224414029275, 51.510003274959146 ], [ -0.073277745688235, 51.510002029570259 ], [ -0.073283904398119, 51.510001910510113 ], [ -0.073337687520301, 51.510003284897365 ], [ -0.073344611959952, 51.51000346169392 ], [ -0.073389526923542, 51.510007347596208 ], [ -0.07339954916825, 51.5100082227952 ], [ -0.073404718517021, 51.510008667492102 ], [ -0.073435282821655, 51.510012479307193 ], [ -0.073456399436098, 51.51001511961497 ], [ -0.07346566067133, 51.510016270063524 ], [ -0.073517510164654, 51.510025557632602 ], [ -0.073525462366366, 51.510027334030667 ], [ -0.073557442100656, 51.510034487391074 ], [ -0.073568378040492, 51.510036933334163 ], [ -0.073607567136752, 51.51004741559413 ], [ -0.073828234365005, 51.510019091890484 ], [ -0.073932677856875, 51.510005682881228 ], [ -0.074082387195961, 51.509961201549551 ], [ -0.074250397520695, 51.509911283434811 ], [ -0.074307388773301, 51.509894342500324 ], [ -0.074358031206663, 51.509879293590025 ], [ -0.074367429875616, 51.509876502924996 ], [ -0.074461494575647, 51.509896623051226 ], [ -0.074522616354784, 51.509909533720098 ], [ -0.074532458193212, 51.509911610880245 ], [ -0.074542699860818, 51.509913775543573 ], [ -0.074556212921187, 51.509916623447751 ], [ -0.074603593538384, 51.509926628465983 ], [ -0.074758562640835, 51.509959354121122 ], [ -0.074966041269962, 51.509890389389774 ], [ -0.075271368271693, 51.509788715327069 ], [ -0.075367209276274, 51.50975680064132 ], [ -0.075506228438251, 51.509736804403566 ], [ -0.075530992908215, 51.509751023900293 ], [ -0.075629869217838, 51.509807768458572 ], [ -0.075673724479483, 51.509856959311996 ], [ -0.075692693212122, 51.509918412200619 ], [ -0.075743461315177, 51.510082922074197 ], [ -0.076070975684843, 51.5100473739096 ], [ -0.076086408721757, 51.510045702851535 ], [ -0.076092734327912, 51.510091201873841 ], [ -0.076098891648086, 51.510135565051925 ], [ -0.076146528601215, 51.51047834864552 ], [ -0.076128061214927, 51.510510635012501 ], [ -0.076135299725098, 51.510595339217062 ], [ -0.076156525567625, 51.510690111073473 ], [ -0.076166059631526, 51.510741552982182 ], [ -0.076177638999882, 51.510787551911932 ], [ -0.076194090492916, 51.510824638123609 ], [ -0.076236498770159, 51.510929739613722 ], [ -0.076256284918652, 51.510973193437039 ], [ -0.076260779989633, 51.510994768782219 ], [ -0.076282647824867, 51.511086970243653 ], [ -0.076283723916302, 51.511091529223798 ], [ -0.076264799287787, 51.511095337207486 ], [ -0.076230133183636, 51.511102312984661 ], [ -0.076224417343794, 51.511152101668785 ], [ -0.076236678618892, 51.511224667234195 ], [ -0.076246556023889, 51.511267967380547 ], [ -0.076255598443234, 51.511308511044085 ], [ -0.076262471237829, 51.511339324956261 ], [ -0.076272788450708, 51.511387236583154 ], [ -0.076287321054664, 51.511454812507303 ], [ -0.076299184596077, 51.511515276349598 ], [ -0.076308892606461, 51.511568753446312 ], [ -0.076311917862281, 51.511585538527051 ], [ -0.076323941759243, 51.511651944677425 ], [ -0.076329625375717, 51.511690630158185 ], [ -0.076335916467831, 51.511733538691303 ], [ -0.076352020240867, 51.511815133039313 ], [ -0.076353093195432, 51.511820553467608 ], [ -0.076354147121653, 51.511825878260929 ], [ -0.076357446805113, 51.511842649859325 ], [ -0.07636673512885, 51.51190027468715 ], [ -0.076370413599346, 51.511922421145627 ], [ -0.076376366104157, 51.511958318802741 ], [ -0.076401212965237, 51.512108086446453 ], [ -0.076406044768205, 51.512142877587557 ], [ -0.076410504560768, 51.512170423497437 ], [ -0.076427480253447, 51.512275449135174 ], [ -0.076456831960588, 51.512327225306812 ], [ -0.076422899802959, 51.512384131668782 ], [ -0.07641186925415, 51.512410928702387 ], [ -0.076409472675289, 51.512419576310769 ], [ -0.076404424470614, 51.512437793588873 ], [ -0.076407755239867, 51.512465797577526 ], [ -0.076409199746087, 51.512495470222909 ], [ -0.076411949825738, 51.512521522255746 ], [ -0.076412423337388, 51.512526017386051 ], [ -0.076415135620004, 51.512568354578612 ], [ -0.076417708539351, 51.512614340519491 ], [ -0.076418507037716, 51.51262480314471 ], [ -0.076420356976901, 51.512649301749867 ], [ -0.076421180086931, 51.512660206320589 ], [ -0.076488547746261, 51.512664540528995 ], [ -0.076519432901332, 51.512681989738006 ], [ -0.076535185521791, 51.512690881297154 ], [ -0.076536328273591, 51.512727716168918 ], [ -0.076537083226733, 51.512774094922591 ], [ -0.076538884508778, 51.512816848806978 ], [ -0.076537559360498, 51.512848292513127 ], [ -0.076539951170691, 51.512880111974219 ], [ -0.076541025359315, 51.512894293108431 ], [ -0.076544583806388, 51.512915529325362 ], [ -0.076550376571826, 51.512950093426632 ], [ -0.076556852083005, 51.512988976237182 ], [ -0.076560215157264, 51.51301587464733 ], [ -0.076565079740231, 51.513050234665513 ], [ -0.076566746477638, 51.513138930041599 ], [ -0.076551902562585, 51.513141644992608 ], [ -0.076506833371147, 51.513149888924922 ], [ -0.076462529254406, 51.513153658041304 ], [ -0.07637562321978, 51.513163894998115 ], [ -0.076314692847133, 51.513177786689674 ], [ -0.076324304424666, 51.51322740432046 ], [ -0.076345178875693, 51.51326694616931 ], [ -0.076456367723664, 51.513257107835699 ], [ -0.076444504365319, 51.513325203659292 ], [ -0.076366738950156, 51.513331939615561 ], [ -0.076386065032165, 51.513365134171494 ], [ -0.076415612274026, 51.513433487099192 ], [ -0.076481328462208, 51.513434287049201 ], [ -0.076513077481204, 51.513450401532836 ], [ -0.076549729835201, 51.513478412898039 ], [ -0.076584280449121, 51.513513547942765 ], [ -0.076626397937081, 51.51356475123054 ], [ -0.07665524402992, 51.513599821399964 ], [ -0.076679401313223, 51.513629190571244 ], [ -0.076773721944443, 51.513635234959096 ], [ -0.076800822856659, 51.513648791094063 ], [ -0.076818705557046, 51.513657762535779 ], [ -0.076862497872378, 51.51368769851355 ], [ -0.076882346727142, 51.513700973744669 ], [ -0.076887659920727, 51.51370451413667 ], [ -0.076917672015601, 51.513724574777953 ], [ -0.076978177616598, 51.513764218331659 ], [ -0.0770343327842, 51.513799707778674 ], [ -0.077083376052886, 51.513832958219425 ], [ -0.07710394972785, 51.513846479116772 ], [ -0.077111424176341, 51.513851403867982 ], [ -0.077171860418098, 51.513892017394149 ], [ -0.07723508133385, 51.513930851062575 ], [ -0.077328044233242, 51.51399069402612 ], [ -0.077395584194319, 51.514034094820602 ], [ -0.077441177989458, 51.514064392866665 ], [ -0.077458675273472, 51.514076019725522 ], [ -0.077507630009474, 51.514107964593506 ], [ -0.077517420813475, 51.514114357159364 ], [ -0.077606911681848, 51.514170761684035 ], [ -0.077670172253832, 51.514211169488703 ], [ -0.077720947218796, 51.514243602754355 ], [ -0.077736392554768, 51.514253409062093 ], [ -0.077835885578466, 51.514316575426946 ], [ -0.07795099108461, 51.514389694610657 ], [ -0.077970994408228, 51.514402396656834 ], [ -0.078085924462772, 51.514475243048352 ], [ -0.078133917273976, 51.514506092752498 ], [ -0.078177798324541, 51.514534303092006 ], [ -0.078186496424832, 51.514539951970342 ], [ -0.078363756927769, 51.514658808061192 ], [ -0.078381888807389, 51.514670777917324 ], [ -0.078490836068963, 51.514742662501341 ], [ -0.078539921894271, 51.514774950806704 ], [ -0.078565799608225, 51.514791570969308 ], [ -0.078596056062029, 51.514810996702437 ], [ -0.078668845972487, 51.514858133873354 ], [ -0.078752275986867, 51.514908961590578 ], [ -0.078867258525995, 51.514980962756823 ], [ -0.078936486811233, 51.515022672729977 ], [ -0.078974439648258, 51.515045533848699 ], [ -0.079041075340006, 51.515088918863441 ], [ -0.079113672652543, 51.515133804424558 ], [ -0.079121848363898, 51.51513885744675 ], [ -0.079169308023602, 51.515168367065016 ], [ -0.079222792750945, 51.515201635449714 ], [ -0.079274510979053, 51.515235783117916 ], [ -0.079374639568212, 51.515296722100146 ], [ -0.079496580571743, 51.515374322237612 ], [ -0.079609011561762, 51.515442620826235 ], [ -0.079691432713436, 51.515496237058137 ], [ -0.079740597336278, 51.515526691637902 ], [ -0.079758385171023, 51.515536578328771 ], [ -0.079895517824972, 51.515612835279889 ], [ -0.08001000977295, 51.515674998261431 ], [ -0.079940602113087, 51.515723491721367 ], [ -0.079889355923063, 51.515759288280691 ], [ -0.079782742334894, 51.515702739825009 ], [ -0.079723443052671, 51.515734330659008 ], [ -0.079709024236416, 51.515741998957779 ], [ -0.079673292041501, 51.51575813982145 ], [ -0.079646581189468, 51.515770201945479 ], [ -0.079616116885086, 51.515787544213822 ], [ -0.079579987762875, 51.515811403269907 ], [ -0.079535081721554, 51.515847573357924 ], [ -0.079530128121511, 51.515851574859454 ], [ -0.079450372745846, 51.515915779543739 ], [ -0.079351906645716, 51.515986538930854 ], [ -0.079277865897943, 51.516055018763076 ], [ -0.079290585850992, 51.516116485493164 ], [ -0.079172014338715, 51.516258425098137 ], [ -0.079140449934739, 51.516301890974155 ], [ -0.079122993052352, 51.516323311389016 ], [ -0.079082440786016, 51.516372998545862 ], [ -0.07903386969803, 51.516432525337791 ], [ -0.078994173551735, 51.516481181546361 ], [ -0.078917648071096, 51.516523055992891 ], [ -0.078657191007772, 51.516677920550123 ], [ -0.078613933311389, 51.51671872156664 ], [ -0.078764533099586, 51.516757584197407 ], [ -0.078698171129075, 51.516836027557638 ], [ -0.078680848297935, 51.51685822527309 ], [ -0.078629612320231, 51.516923850210496 ], [ -0.078622533166931, 51.516932115329823 ], [ -0.078579406671988, 51.516982459731921 ], [ -0.078515755327614, 51.517060524774919 ], [ -0.078494815037318, 51.51708715949286 ], [ -0.078477210780059, 51.517104397588291 ], [ -0.078470386174154, 51.517111066172625 ], [ -0.078424904531593, 51.517164276537954 ], [ -0.078402086806474, 51.5171927059667 ], [ -0.078381187554546, 51.517218361127959 ], [ -0.078354467160953, 51.517253893722533 ], [ -0.078328388107404, 51.517295758690551 ], [ -0.078312916703193, 51.517321215083257 ], [ -0.078310210592605, 51.517325577124929 ], [ -0.078296487862284, 51.517347501085801 ], [ -0.078293436479869, 51.517352531916842 ], [ -0.07828195977264, 51.517371435193425 ], [ -0.078266379294081, 51.517399137963963 ], [ -0.078245024561497, 51.517435603838898 ], [ -0.07822658813005, 51.517466775910087 ], [ -0.078198575671097, 51.517490201100642 ], [ -0.078135218417833, 51.517488523548373 ], [ -0.078047601385649, 51.517481403174486 ], [ -0.077965140033472, 51.517471480644168 ], [ -0.077902466200732, 51.517462305277789 ], [ -0.077821001698916, 51.517450276721512 ], [ -0.077777979112107, 51.517445083654671 ], [ -0.077721564241176, 51.517436856173326 ], [ -0.077677684608074, 51.517430794704936 ], [ -0.077615827073911, 51.517423458092495 ], [ -0.077554930385359, 51.517414869240909 ], [ -0.07745099379841, 51.517401500550555 ], [ -0.077406180084093, 51.517399821082016 ], [ -0.077358747530518, 51.517398035679975 ], [ -0.077344860348767, 51.517397511072083 ], [ -0.077152549018323, 51.517104098482832 ], [ -0.07714733483905, 51.517096146115158 ], [ -0.077140265268129, 51.517085362977248 ], [ -0.077075388048942, 51.51698636795129 ], [ -0.077049411189703, 51.516948414268022 ], [ -0.07704919280944, 51.51694808964529 ], [ -0.077004600587587, 51.516880109622065 ], [ -0.076998672564126, 51.516871072704781 ], [ -0.076891949583401, 51.516708379059004 ], [ -0.076858245084058, 51.516669008960136 ], [ -0.076855523231843, 51.516665020994132 ], [ -0.076841527686082, 51.516648946178719 ], [ -0.076839520200792, 51.516646647073756 ], [ -0.07682684435208, 51.516632091198481 ], [ -0.076793188507001, 51.516593450287175 ], [ -0.076754170858517, 51.51655939307183 ], [ -0.076743544068131, 51.516550118054482 ], [ -0.076715142502599, 51.516525317682181 ], [ -0.076699266704819, 51.516511451170643 ], [ -0.076695777161724, 51.516508408322977 ], [ -0.076564626052243, 51.516393914455428 ], [ -0.076528091245705, 51.516362033681872 ], [ -0.076524616128799, 51.516358991065793 ], [ -0.076473706557142, 51.51631456782026 ], [ -0.076464887216934, 51.516306868290258 ], [ -0.076431903689352, 51.516278072720709 ], [ -0.07641769549063, 51.516265681368083 ], [ -0.076409146088298, 51.516258211981537 ], [ -0.076395621764472, 51.516248745485427 ], [ -0.076392905529145, 51.516246848402282 ], [ -0.076346214440064, 51.51621416686698 ], [ -0.076325522039296, 51.516199681674202 ], [ -0.076318157972109, 51.516194524876617 ], [ -0.076252790767241, 51.516148767088005 ], [ -0.076223696939997, 51.516128433592833 ], [ -0.076192224645936, 51.51610639739431 ], [ -0.076144973619851, 51.516073328892318 ], [ -0.076137133137981, 51.516067849517391 ], [ -0.076016982771603, 51.515983764580128 ], [ -0.07589179095063, 51.515896469080232 ], [ -0.075810451470892, 51.515839233092585 ], [ -0.075805412159754, 51.51583568815748 ], [ -0.075797879538216, 51.515830429639514 ], [ -0.075732806749661, 51.515784892217305 ], [ -0.075684645942336, 51.51575119708518 ] ] ] } },
{ "type": "Feature", "properties": { "lsoa21cd": "E01032739", "lsoa21nm": "City of London 001F", "msoa21cd": "E02000001", "msoa21nm": "City of London 001", "lad22cd": "E09000001", "lad22nm": "City of London", "index_right": 655, "GSS_CODE": "E05009308", "risk_score": 4.1715462735982163, "allocation_hours": 146.58914520453223, "patrol_units": 73 }, "geometry": { "type": "Polygon", "coordinates": [ [ [ -0.079008697082381, 51.519956078567773 ], [ -0.079076736786517, 51.519709499309393 ], [ -0.079147431789954, 51.519453242430842 ], [ -0.079204369304109, 51.519318323171227 ], [ -0.079246353555095, 51.519218796811813 ], [ -0.079377025398407, 51.518909099081149 ], [ -0.079386440430972, 51.518886780660011 ], [ -0.079403403699395, 51.518846290323637 ], [ -0.07937416011237, 51.518848756134311 ], [ -0.078718373221373, 51.518908598646249 ], [ -0.07842372330876, 51.518935493560171 ], [ -0.07830842750384, 51.518946012796043 ], [ -0.078093683413574, 51.518965530288057 ], [ -0.078086669478885, 51.518966350493415 ], [ -0.078057017090213, 51.51896886772326 ], [ -0.078055339132527, 51.518945396260598 ], [ -0.078035452287086, 51.518668104233292 ], [ -0.078030881318323, 51.518604495906978 ], [ -0.078025386981181, 51.518527904975841 ], [ -0.078023420349981, 51.518500337102381 ], [ -0.078022437423561, 51.518486715040389 ], [ -0.078038342654208, 51.518483823969646 ], [ -0.078119981298981, 51.518470032717914 ], [ -0.078087175747916, 51.518429800947395 ], [ -0.07798779931318, 51.518309485515452 ], [ -0.077939509718208, 51.518251032340558 ], [ -0.077869176495377, 51.518189543145432 ], [ -0.077839170724225, 51.518162822882971 ], [ -0.077828593105977, 51.518153530789455 ], [ -0.07778379634661, 51.518114136398097 ], [ -0.077777930602334, 51.518108986287167 ], [ -0.077764639975948, 51.518095424918691 ], [ -0.077736774977564, 51.518066989768329 ], [ -0.077716877666175, 51.518046672621828 ], [ -0.077708831999507, 51.518038456210974 ], [ -0.077687329574906, 51.51801066678069 ], [ -0.077664049684644, 51.517980591022486 ], [ -0.077660139885421, 51.5179755449333 ], [ -0.077616974474449, 51.51786664574982 ], [ -0.077604425275609, 51.517844623611929 ], [ -0.077551177370213, 51.517751296208367 ], [ -0.077494141220125, 51.517651309591081 ], [ -0.07745789122253, 51.517587762431965 ], [ -0.077411074964808, 51.517505664439717 ], [ -0.077407357343697, 51.517499137700568 ], [ -0.077397498319116, 51.517481861954565 ], [ -0.077377894280579, 51.517447512867498 ], [ -0.077344860348767, 51.517397511072083 ], [ -0.077358747530518, 51.517398035679975 ], [ -0.077406180084093, 51.517399821082016 ], [ -0.07745099379841, 51.517401500550555 ], [ -0.077554930385359, 51.517414869240909 ], [ -0.077615827073911, 51.517423458092495 ], [ -0.077677684608074, 51.517430794704936 ], [ -0.077721564241176, 51.517436856173326 ], [ -0.077777979112107, 51.517445083654671 ], [ -0.077821001698916, 51.517450276721512 ], [ -0.077902466200732, 51.517462305277789 ], [ -0.077965140033472, 51.517471480644168 ], [ -0.078047601385649, 51.517481403174486 ], [ -0.078135218417833, 51.517488523548373 ], [ -0.078198575671097, 51.517490201100642 ], [ -0.07822658813005, 51.517466775910087 ], [ -0.078245024561497, 51.517435603838898 ], [ -0.078266379294081, 51.517399137963963 ], [ -0.07828195977264, 51.517371435193425 ], [ -0.078293436479869, 51.517352531916842 ], [ -0.078296487862284, 51.517347501085801 ], [ -0.078310210592605, 51.517325577124929 ], [ -0.078312916703193, 51.517321215083257 ], [ -0.078328388107404, 51.517295758690551 ], [ -0.078354467160953, 51.517253893722533 ], [ -0.078381187554546, 51.517218361127959 ], [ -0.078402086806474, 51.5171927059667 ], [ -0.078424904531593, 51.517164276537954 ], [ -0.078470386174154, 51.517111066172625 ], [ -0.078477210780059, 51.517104397588291 ], [ -0.078494815037318, 51.51708715949286 ], [ -0.078515755327614, 51.517060524774919 ], [ -0.078579406671988, 51.516982459731921 ], [ -0.078622533166931, 51.516932115329823 ], [ -0.078629612320231, 51.516923850210496 ], [ -0.078680848297935, 51.51685822527309 ], [ -0.078698171129075, 51.516836027557638 ], [ -0.078764533099586, 51.516757584197407 ], [ -0.078613933311389, 51.51671872156664 ], [ -0.078657191007772, 51.516677920550123 ], [ -0.078917648071096, 51.516523055992891 ], [ -0.078994173551735, 51.516481181546361 ], [ -0.07903386969803, 51.516432525337791 ], [ -0.079082440786016, 51.516372998545862 ], [ -0.079122993052352, 51.516323311389016 ], [ -0.079140449934739, 51.516301890974155 ], [ -0.079172014338715, 51.516258425098137 ], [ -0.079290585850992, 51.516116485493164 ], [ -0.079277865897943, 51.516055018763076 ], [ -0.079351906645716, 51.515986538930854 ], [ -0.079450372745846, 51.515915779543739 ], [ -0.079530128121511, 51.515851574859454 ], [ -0.079535081721554, 51.515847573357924 ], [ -0.079579987762875, 51.515811403269907 ], [ -0.079616116885086, 51.515787544213822 ], [ -0.079646581189468, 51.515770201945479 ], [ -0.079673292041501, 51.51575813982145 ], [ -0.079709024236416, 51.515741998957779 ], [ -0.079723443052671, 51.515734330659008 ], [ -0.079782742334894, 51.515702739825009 ], [ -0.079889355923063, 51.515759288280691 ], [ -0.079940602113087, 51.515723491721367 ], [ -0.08001000977295, 51.515674998261431 ], [ -0.079895517824972, 51.515612835279889 ], [ -0.079758385171023, 51.515536578328771 ], [ -0.079740597336278, 51.515526691637902 ], [ -0.079691432713436, 51.515496237058137 ], [ -0.079609011561762, 51.515442620826235 ], [ -0.079496580571743, 51.515374322237612 ], [ -0.079374639568212, 51.515296722100146 ], [ -0.079274510979053, 51.515235783117916 ], [ -0.079222792750945, 51.515201635449714 ], [ -0.079169308023602, 51.515168367065016 ], [ -0.079121848363898, 51.51513885744675 ], [ -0.079113672652543, 51.515133804424558 ], [ -0.079041075340006, 51.515088918863441 ], [ -0.078974439648258, 51.515045533848699 ], [ -0.078936486811233, 51.515022672729977 ], [ -0.078867258525995, 51.514980962756823 ], [ -0.078752275986867, 51.514908961590578 ], [ -0.078668845972487, 51.514858133873354 ], [ -0.078596056062029, 51.514810996702437 ], [ -0.078565799608225, 51.514791570969308 ], [ -0.078539921894271, 51.514774950806704 ], [ -0.078490836068963, 51.514742662501341 ], [ -0.078381888807389, 51.514670777917324 ], [ -0.078363756927769, 51.514658808061192 ], [ -0.078186496424832, 51.514539951970342 ], [ -0.078177798324541, 51.514534303092006 ], [ -0.078133917273976, 51.514506092752498 ], [ -0.078085924462772, 51.514475243048352 ], [ -0.077970994408228, 51.514402396656834 ], [ -0.07795099108461, 51.514389694610657 ], [ -0.077835885578466, 51.514316575426946 ], [ -0.077736392554768, 51.514253409062093 ], [ -0.077720947218796, 51.514243602754355 ], [ -0.077670172253832, 51.514211169488703 ], [ -0.077606911681848, 51.514170761684035 ], [ -0.077517420813475, 51.514114357159364 ], [ -0.077507630009474, 51.514107964593506 ], [ -0.077458675273472, 51.514076019725522 ], [ -0.077441177989458, 51.514064392866665 ], [ -0.077395584194319, 51.514034094820602 ], [ -0.077328044233242, 51.51399069402612 ], [ -0.07723508133385, 51.513930851062575 ], [ -0.077171860418098, 51.513892017394149 ], [ -0.077111424176341, 51.513851403867982 ], [ -0.07710394972785, 51.513846479116772 ], [ -0.077083376052886, 51.513832958219425 ], [ -0.0770343327842, 51.513799707778674 ], [ -0.076978177616598, 51.513764218331659 ], [ -0.076917672015601, 51.513724574777953 ], [ -0.076887659920727, 51.51370451413667 ], [ -0.076882346727142, 51.513700973744669 ], [ -0.076862497872378, 51.51368769851355 ], [ -0.076818705557046, 51.513657762535779 ], [ -0.076800822856659, 51.513648791094063 ], [ -0.076773721944443, 51.513635234959096 ], [ -0.076679401313223, 51.513629190571244 ], [ -0.07665524402992, 51.513599821399964 ], [ -0.076626397937081, 51.51356475123054 ], [ -0.076584280449121, 51.513513547942765 ], [ -0.076549729835201, 51.513478412898039 ], [ -0.076513077481204, 51.513450401532836 ], [ -0.076481328462208, 51.513434287049201 ], [ -0.076415612274026, 51.513433487099192 ], [ -0.076386065032165, 51.513365134171494 ], [ -0.076366738950156, 51.513331939615561 ], [ -0.076444504365319, 51.513325203659292 ], [ -0.076456367723664, 51.513257107835699 ], [ -0.076345178875693, 51.51326694616931 ], [ -0.076324304424666, 51.51322740432046 ], [ -0.076314692847133, 51.513177786689674 ], [ -0.07637562321978, 51.513163894998115 ], [ -0.076462529254406, 51.513153658041304 ], [ -0.076506833371147, 51.513149888924922 ], [ -0.076551902562585, 51.513141644992608 ], [ -0.076566746477638, 51.513138930041599 ], [ -0.076565079740231, 51.513050234665513 ], [ -0.076560215157264, 51.51301587464733 ], [ -0.076556852083005, 51.512988976237182 ], [ -0.076550376571826, 51.512950093426632 ], [ -0.076544583806388, 51.512915529325362 ], [ -0.076541025359315, 51.512894293108431 ], [ -0.076539951170691, 51.512880111974219 ], [ -0.076537559360498, 51.512848292513127 ], [ -0.076538884508778, 51.512816848806978 ], [ -0.076537083226733, 51.512774094922591 ], [ -0.076536328273591, 51.512727716168918 ], [ -0.076535185521791, 51.512690881297154 ], [ -0.076519432901332, 51.512681989738006 ], [ -0.076488547746261, 51.512664540528995 ], [ -0.076421180086931, 51.512660206320589 ], [ -0.076420356976901, 51.512649301749867 ], [ -0.076418507037716, 51.51262480314471 ], [ -0.076417708539351, 51.512614340519491 ], [ -0.076415135620004, 51.512568354578612 ], [ -0.076412423337388, 51.512526017386051 ], [ -0.076411949825738, 51.512521522255746 ], [ -0.076409199746087, 51.512495470222909 ], [ -0.076407755239867, 51.512465797577526 ], [ -0.076404424470614, 51.512437793588873 ], [ -0.076409472675289, 51.512419576310769 ], [ -0.07641186925415, 51.512410928702387 ], [ -0.076422899802959, 51.512384131668782 ], [ -0.076456831960588, 51.512327225306812 ], [ -0.076427480253447, 51.512275449135174 ], [ -0.076410504560768, 51.512170423497437 ], [ -0.076406044768205, 51.512142877587557 ], [ -0.076401212965237, 51.512108086446453 ], [ -0.076376366104157, 51.511958318802741 ], [ -0.076370413599346, 51.511922421145627 ], [ -0.07636673512885, 51.51190027468715 ], [ -0.076357446805113, 51.511842649859325 ], [ -0.076354147121653, 51.511825878260929 ], [ -0.076353093195432, 51.511820553467608 ], [ -0.076352020240867, 51.511815133039313 ], [ -0.076335916467831, 51.511733538691303 ], [ -0.076329625375717, 51.511690630158185 ], [ -0.076323941759243, 51.511651944677425 ], [ -0.076311917862281, 51.511585538527051 ], [ -0.076308892606461, 51.511568753446312 ], [ -0.076299184596077, 51.511515276349598 ], [ -0.076287321054664, 51.511454812507303 ], [ -0.076272788450708, 51.511387236583154 ], [ -0.076262471237829, 51.511339324956261 ], [ -0.076255598443234, 51.511308511044085 ], [ -0.076246556023889, 51.511267967380547 ], [ -0.076236678618892, 51.511224667234195 ], [ -0.076224417343794, 51.511152101668785 ], [ -0.076230133183636, 51.511102312984661 ], [ -0.076264799287787, 51.511095337207486 ], [ -0.076283723916302, 51.511091529223798 ], [ -0.076282647824867, 51.511086970243653 ], [ -0.076260779989633, 51.510994768782219 ], [ -0.076256284918652, 51.510973193437039 ], [ -0.076236498770159, 51.510929739613722 ], [ -0.076194090492916, 51.510824638123609 ], [ -0.076177638999882, 51.510787551911932 ], [ -0.076166059631526, 51.510741552982182 ], [ -0.076156525567625, 51.510690111073473 ], [ -0.076135299725098, 51.510595339217062 ], [ -0.076128061214927, 51.510510635012501 ], [ -0.076146528601215, 51.51047834864552 ], [ -0.07619622107201, 51.510467033303478 ], [ -0.076203321781272, 51.510465423276983 ], [ -0.076245025551641, 51.510455928180143 ], [ -0.076250262782319, 51.510454935033366 ], [ -0.076252199993566, 51.51046214301293 ], [ -0.076272005749112, 51.510535902568265 ], [ -0.076304709839431, 51.51053170029288 ], [ -0.076499020368871, 51.510506760783301 ], [ -0.076556371550282, 51.510499401893647 ], [ -0.076775933331378, 51.510479192893342 ], [ -0.07686519875483, 51.510470981744625 ], [ -0.076885424984735, 51.510469110470304 ], [ -0.076855802619858, 51.510315309528451 ], [ -0.076854621443857, 51.510309173306794 ], [ -0.076852576372027, 51.510298537346863 ], [ -0.076849476737613, 51.510282488457847 ], [ -0.076824878368542, 51.510155197712436 ], [ -0.076944002960529, 51.510151109591426 ], [ -0.076990517879602, 51.510149525827906 ], [ -0.077008875988858, 51.510148891847024 ], [ -0.077374418677746, 51.510136337930312 ], [ -0.07759237098087, 51.510087225421451 ], [ -0.077653380969111, 51.510073388322247 ], [ -0.077671054640489, 51.510067104584429 ], [ -0.077875587955458, 51.50999440837176 ], [ -0.077965494018753, 51.509926531309951 ], [ -0.078083868003605, 51.509837160899828 ], [ -0.078136023436574, 51.509797782929148 ], [ -0.078242856684592, 51.509689538940734 ], [ -0.078298992556063, 51.509632660724925 ], [ -0.078306760376946, 51.509624784603254 ], [ -0.07833620478355, 51.509594953053657 ], [ -0.078350580797481, 51.509580386810789 ], [ -0.078385485424072, 51.50954922394159 ], [ -0.078397000034064, 51.509538954246771 ], [ -0.078415523441687, 51.509522405669287 ], [ -0.078424972004426, 51.509513971675617 ], [ -0.078503989206332, 51.509443443545024 ], [ -0.078516813077249, 51.509442125062328 ], [ -0.078818805721945, 51.509412562525611 ], [ -0.078846988976897, 51.509326739576821 ], [ -0.078847929553421, 51.509323874633736 ], [ -0.078905257887671, 51.509149261599823 ], [ -0.078923144776381, 51.509094753291073 ], [ -0.079020515550004, 51.509114056163455 ], [ -0.079046602084728, 51.509079070523896 ], [ -0.079065969343881, 51.509053075349854 ], [ -0.079075881462552, 51.509039784747813 ], [ -0.0786711743615, 51.508925075559446 ], [ -0.07864864479482, 51.508918690043863 ], [ -0.078724818444246, 51.508815196348742 ], [ -0.078680834049571, 51.508803085898585 ], [ -0.078643367451963, 51.508792763940384 ], [ -0.078656780527706, 51.508776073031882 ], [ -0.078672815683952, 51.508756523158773 ], [ -0.078727249319138, 51.5086901607961 ], [ -0.079005779981097, 51.508350584225006 ], [ -0.079030523040123, 51.508311898425802 ], [ -0.079076400214079, 51.508240151057741 ], [ -0.079079681195504, 51.508234269636965 ], [ -0.079001133863049, 51.508195594747214 ], [ -0.079004919705615, 51.508184051686534 ], [ -0.079179584404304, 51.507816791897788 ], [ -0.079246966701008, 51.507831916041084 ], [ -0.079276831912725, 51.50783861953213 ], [ -0.079385920488187, 51.507846000986788 ], [ -0.079411687865457, 51.507801621498984 ], [ -0.079437081336002, 51.507793701415437 ], [ -0.079492935646501, 51.507776271630647 ], [ -0.07955723194087, 51.507764043077366 ], [ -0.079645447410664, 51.507747422329047 ], [ -0.079677626306494, 51.507692959077403 ], [ -0.079805582545252, 51.507476352509343 ], [ -0.080000671103325, 51.50714611637801 ], [ -0.080176066804666, 51.506849587570578 ], [ -0.080184795333503, 51.506851743141432 ], [ -0.080237380188871, 51.506864735808506 ], [ -0.080640111331416, 51.506946925674328 ], [ -0.080967050432187, 51.507011155527408 ], [ -0.080986199725263, 51.507014568011655 ], [ -0.08172691770097, 51.50714654536808 ], [ -0.08188779453324, 51.507171633606312 ], [ -0.082435752393143, 51.507257111628135 ], [ -0.083058661099696, 51.5073542717561 ], [ -0.083163073655472, 51.507370556948636 ], [ -0.083500456886182, 51.507421983107072 ], [ -0.0835645514182, 51.507431754282528 ], [ -0.083686603500551, 51.507450359846835 ], [ -0.083714256058448, 51.507453482887442 ], [ -0.083781235471637, 51.507461061927252 ], [ -0.083831821638861, 51.507466781157923 ], [ -0.08387301840781, 51.507471663389943 ], [ -0.084060362140534, 51.507493845128103 ], [ -0.084443992957865, 51.507566860910515 ], [ -0.084529213769882, 51.507583091968186 ], [ -0.084802633801573, 51.507635141520872 ], [ -0.084865424022276, 51.507647093897482 ], [ -0.08563731054583, 51.507704167311452 ], [ -0.086024535190502, 51.507732796404362 ], [ -0.086280424161272, 51.507751711175914 ], [ -0.086326280669392, 51.507755103282491 ], [ -0.086602958092261, 51.507776919483959 ], [ -0.08764056956406, 51.507858582617068 ], [ -0.087667621332507, 51.507862089337287 ], [ -0.087819789544246, 51.507880865258208 ], [ -0.087930195334699, 51.507894490735382 ], [ -0.088020916920784, 51.507905690908345 ], [ -0.088098126734514, 51.507915213921947 ], [ -0.088289107223449, 51.507933722659736 ], [ -0.088844705286072, 51.507987552536378 ], [ -0.088914944991541, 51.507994389506493 ], [ -0.088967602713607, 51.507999528088114 ], [ -0.089086346304168, 51.508012622875626 ], [ -0.089665076551842, 51.508076412052418 ], [ -0.08966913583646, 51.508076864859802 ], [ -0.089922073550772, 51.50810474337171 ], [ -0.08994786524685, 51.508107582467396 ], [ -0.090126813974563, 51.508127304137126 ], [ -0.090230444524732, 51.508136878299943 ], [ -0.090806735000633, 51.508190163561295 ], [ -0.091302787927071, 51.508263776784716 ], [ -0.091391633506651, 51.508274386279552 ], [ -0.091487462727149, 51.50828581977904 ], [ -0.091736650165817, 51.508315557816147 ], [ -0.091899831078239, 51.508335029229976 ], [ -0.091943580352665, 51.508340246364774 ], [ -0.092265157924339, 51.508406439566187 ], [ -0.092419922280179, 51.508438354224687 ], [ -0.092892027881969, 51.50855478147259 ], [ -0.093045027126954, 51.508598959713865 ], [ -0.093525952125824, 51.508735824494508 ], [ -0.093584499199832, 51.508752495539262 ], [ -0.09408184324502, 51.508875857026297 ], [ -0.094496591165775, 51.508978728897233 ], [ -0.0945829271994, 51.509000140490343 ], [ -0.094758439362451, 51.509036381964982 ], [ -0.095001748020831, 51.509086620052457 ], [ -0.095256165825412, 51.509141057839905 ], [ -0.095776655887018, 51.509251802687018 ], [ -0.096130965694942, 51.509315405431217 ], [ -0.096294217114097, 51.509344719046318 ], [ -0.09641943483036, 51.509367192115391 ], [ -0.096548165391145, 51.509380765267466 ], [ -0.096560791385068, 51.509382103277481 ], [ -0.097422284019405, 51.509472965904081 ], [ -0.097869305945338, 51.509520113436487 ], [ -0.097953744946343, 51.509529009875088 ], [ -0.098192325415098, 51.509554173893818 ], [ -0.098292824454107, 51.509561891678878 ], [ -0.098384129812898, 51.509568902754751 ], [ -0.098436777853714, 51.509572957840334 ], [ -0.099231103653719, 51.509633963870421 ], [ -0.099278824131692, 51.509636958505112 ], [ -0.099353150492723, 51.509641616320657 ], [ -0.099429589398236, 51.509646416238326 ], [ -0.099442166374878, 51.509647204588084 ], [ -0.100089039385247, 51.509687775674571 ], [ -0.101572080635078, 51.509784156861869 ], [ -0.101773653195026, 51.509788246361843 ], [ -0.10293027275656, 51.509811723832158 ], [ -0.103218139127462, 51.509817566081452 ], [ -0.103252610454618, 51.509818267368104 ], [ -0.10327567799833, 51.509818730292928 ], [ -0.103320343756293, 51.509819641363741 ], [ -0.103338947195316, 51.509820023101817 ], [ -0.103344123991658, 51.509820120295217 ], [ -0.104095699824417, 51.509848704506474 ], [ -0.104100984585978, 51.509767953704909 ], [ -0.104106353853417, 51.509683085568916 ], [ -0.104096359190998, 51.509678760365212 ], [ -0.104012565218098, 51.509642504965683 ], [ -0.103954141536864, 51.509596030108618 ], [ -0.104077109787055, 51.50954125518421 ], [ -0.104088752587833, 51.509152648919134 ], [ -0.104021155831003, 51.509070805540496 ], [ -0.104047654604406, 51.509043639462462 ], [ -0.104086814736217, 51.509003948724818 ], [ -0.104152845138386, 51.508650367686883 ], [ -0.104070753485239, 51.508543711245792 ], [ -0.104119398351253, 51.508544863499651 ], [ -0.104158356110683, 51.508543694606516 ], [ -0.104154012593969, 51.508596232102263 ], [ -0.104175811903105, 51.508609174307992 ], [ -0.104203147768385, 51.508627601653117 ], [ -0.1042095186793, 51.508627674044689 ], [ -0.104349906190836, 51.508629272046576 ], [ -0.104410133795834, 51.508629957590394 ], [ -0.104618714848854, 51.508632320050339 ], [ -0.104670559445591, 51.508632906873181 ], [ -0.104675508170849, 51.508632905900086 ], [ -0.10467266018489, 51.508662591770232 ], [ -0.104661374631232, 51.50878019488669 ], [ -0.104639796742106, 51.509004881687353 ], [ -0.104758332988354, 51.509078325639848 ], [ -0.104677642004243, 51.5091124354839 ], [ -0.104663912370489, 51.509118238811539 ], [ -0.104654030466777, 51.509508285384513 ], [ -0.10481778634285, 51.509593624451249 ], [ -0.104634865620469, 51.509644648168255 ], [ -0.104646245061479, 51.509825686070592 ], [ -0.104621905987146, 51.510013359045615 ], [ -0.104617118030263, 51.510050233060646 ], [ -0.104617623694034, 51.510124827441693 ], [ -0.104627402413351, 51.510171496162634 ], [ -0.104668577145888, 51.510177359290537 ], [ -0.104719867960893, 51.510200247334801 ], [ -0.104679114881254, 51.510227268681675 ], [ -0.104626564368179, 51.510234719928114 ], [ -0.104612844235792, 51.510261458624861 ], [ -0.104608244398503, 51.510307337462024 ], [ -0.10460806811276, 51.510354969427105 ], [ -0.104605794217271, 51.510409734752713 ], [ -0.104604337476686, 51.510466338818119 ], [ -0.104603107238333, 51.510495968170829 ], [ -0.104601422513618, 51.510536543398779 ], [ -0.104599673231611, 51.510578673336191 ], [ -0.104598291489862, 51.510611951313393 ], [ -0.104596425779819, 51.510656885119715 ], [ -0.104622290223017, 51.510706619500269 ], [ -0.104678643864951, 51.510737745817458 ], [ -0.104631033379796, 51.510756365002216 ], [ -0.104622526467793, 51.510787702314964 ], [ -0.104601691793521, 51.510917059690115 ], [ -0.104588695606249, 51.510997856750514 ], [ -0.104586132958396, 51.511013759559816 ], [ -0.104585705940951, 51.511020919913683 ], [ -0.104583880025406, 51.51105309359145 ], [ -0.104582797922246, 51.511072212763835 ], [ -0.104582599263459, 51.511075608828492 ], [ -0.10458053960712, 51.511112023326042 ], [ -0.104580237140477, 51.511117225264123 ], [ -0.104579432277144, 51.511131402881539 ], [ -0.104570568966886, 51.511286897880453 ], [ -0.104569448566039, 51.511306591971902 ], [ -0.10452346573532, 51.511306127742252 ], [ -0.104508872753016, 51.511305981868027 ], [ -0.104268730201753, 51.511303567064871 ], [ -0.104262808778777, 51.511468012457783 ], [ -0.104258610056141, 51.51156911349441 ], [ -0.104258405904293, 51.511574029251427 ], [ -0.104256365129084, 51.511623168847905 ], [ -0.104255979963839, 51.511632443182805 ], [ -0.104256397615857, 51.511663681892522 ], [ -0.104256857092373, 51.511698077747319 ], [ -0.10425476337824, 51.511760984448905 ], [ -0.104253491935841, 51.511798886496834 ], [ -0.104253154892089, 51.511808737147739 ], [ -0.104248676176516, 51.511916578247018 ], [ -0.10424570025021, 51.512031610884129 ], [ -0.104243174401271, 51.512108044747485 ], [ -0.104242128825321, 51.512139466642473 ], [ -0.104241063993639, 51.512251859302054 ], [ -0.104238002726646, 51.512325568687984 ], [ -0.10423061338226, 51.512503488511165 ], [ -0.104226694363982, 51.512597849461656 ], [ -0.104226034380302, 51.512620680479728 ], [ -0.1042244147618, 51.512674251327297 ], [ -0.104223721623111, 51.512720436081807 ], [ -0.104223375064591, 51.512742660654993 ], [ -0.104222436356751, 51.512765262348545 ], [ -0.104221811919409, 51.512780297192734 ], [ -0.10422057573343, 51.51281006133128 ], [ -0.10421999570891, 51.512845888220419 ], [ -0.10422044897923, 51.512878350519557 ], [ -0.10422050129226, 51.512883684088585 ], [ -0.104220637661573, 51.512897751013675 ], [ -0.104220782591631, 51.512913346851157 ], [ -0.1042204186737, 51.512943970407626 ], [ -0.104221744218684, 51.512977292124823 ], [ -0.104222278856969, 51.513007795310351 ], [ -0.104224416520114, 51.513064592336121 ], [ -0.104224602716232, 51.513069478429188 ], [ -0.104226831507648, 51.513136573669463 ], [ -0.104229849492666, 51.513174257259926 ], [ -0.104231571613931, 51.513195948716714 ], [ -0.104236684978103, 51.513246337007011 ], [ -0.104240469740647, 51.513284644497297 ], [ -0.10424177207076, 51.513297705085868 ], [ -0.104247127845713, 51.513341910253978 ], [ -0.104250605019388, 51.513363333309741 ], [ -0.10425429836701, 51.51338614474799 ], [ -0.104263990522994, 51.513456418140009 ], [ -0.104266481062311, 51.513474183171631 ], [ -0.104275095399385, 51.513535707147021 ], [ -0.104281467410673, 51.513585288434676 ], [ -0.104281912731346, 51.513588793825299 ], [ -0.104292653226738, 51.513677204618851 ], [ -0.10429409167061, 51.513686467952603 ], [ -0.10429877951958, 51.51371687907595 ], [ -0.104299047314912, 51.513718620809911 ], [ -0.104292966948415, 51.513718927228474 ], [ -0.104279188624827, 51.513719621838149 ], [ -0.104255492738762, 51.513720810853307 ], [ -0.104231340454643, 51.513722023063721 ], [ -0.104135147496823, 51.513724901966867 ], [ -0.10409425162677, 51.513726129524386 ], [ -0.103995877455368, 51.51373086154743 ], [ -0.103906531293867, 51.513734759194492 ], [ -0.10385604577129, 51.513735768721524 ], [ -0.103805560247063, 51.513736778226793 ], [ -0.103697393403129, 51.513738545962042 ], [ -0.103653175595357, 51.513740636931971 ], [ -0.103538624523406, 51.513744126854817 ], [ -0.103389805427954, 51.513748888181745 ], [ -0.103286126615919, 51.513750862989724 ], [ -0.103134710678393, 51.513752911148103 ], [ -0.103079757766423, 51.513752867891135 ], [ -0.102968039691052, 51.513753732208151 ], [ -0.102961797311069, 51.513753775146974 ], [ -0.102921532247905, 51.513754041275511 ], [ -0.102825302179573, 51.513754688293389 ], [ -0.102771615054646, 51.513755052052595 ], [ -0.102767276456227, 51.513755062820806 ], [ -0.102646198605596, 51.513755379774835 ], [ -0.102629276669092, 51.513755420829895 ], [ -0.10257522553214, 51.51375552681349 ], [ -0.102480700105998, 51.5137539978859 ], [ -0.102351353895238, 51.513753169103616 ], [ -0.102327483115641, 51.513753605801227 ], [ -0.102267294026015, 51.513754709472849 ], [ -0.102204984363545, 51.513755859743128 ], [ -0.102203830348592, 51.513772522705402 ], [ -0.102202713358588, 51.513788988425162 ], [ -0.102195132643102, 51.513819486248323 ], [ -0.102184075405343, 51.513868776723385 ], [ -0.102176717876581, 51.513881427461691 ], [ -0.102162901692985, 51.513905214704039 ], [ -0.102152766135773, 51.513922631642728 ], [ -0.102144785394127, 51.513936405388833 ], [ -0.102107439486028, 51.514000603269032 ], [ -0.102091057260951, 51.514047973056996 ], [ -0.102061274978873, 51.514157643946547 ], [ -0.102026084572529, 51.514288881977038 ], [ -0.102009346219673, 51.514353476183857 ], [ -0.102007818088317, 51.514359377710768 ], [ -0.10199497660535, 51.514408936063688 ], [ -0.101990087181366, 51.51442808354831 ], [ -0.101979909784477, 51.514467990771486 ], [ -0.101966518457734, 51.514508241677518 ], [ -0.10193635198217, 51.514598023255566 ], [ -0.101934655076995, 51.514603130685074 ], [ -0.101917547613989, 51.514659265682042 ], [ -0.101898136684975, 51.514722962316874 ], [ -0.101884154879905, 51.514774670370286 ], [ -0.101863032818085, 51.514852789832183 ], [ -0.101819078601619, 51.514999614398008 ], [ -0.101770633891475, 51.515180934583142 ], [ -0.10176573508536, 51.515199263562856 ], [ -0.101731473908787, 51.515329949998169 ], [ -0.101713387669645, 51.515382921651863 ], [ -0.101679082612137, 51.515483398774336 ], [ -0.101674030965722, 51.515498192908346 ], [ -0.101666589801391, 51.515521507715853 ], [ -0.101654344078595, 51.515559843675653 ], [ -0.101621612595813, 51.515653738341669 ], [ -0.101615824871401, 51.515685119458212 ], [ -0.10159612341583, 51.515746769980602 ], [ -0.101564682427913, 51.51586056839902 ], [ -0.1015621886923, 51.51586958376312 ], [ -0.101556914023679, 51.515885856246427 ], [ -0.101534844215387, 51.515953744295913 ], [ -0.101534303653836, 51.515955409101771 ], [ -0.101689059569901, 51.515986590921052 ], [ -0.101689744225835, 51.515986728797976 ], [ -0.101647219502188, 51.516077659250932 ], [ -0.101630262659898, 51.516115319154999 ], [ -0.101628306220191, 51.516119664288233 ], [ -0.101624423621937, 51.516128284900773 ], [ -0.101619889997236, 51.516138350012177 ], [ -0.101602564295357, 51.516176837575557 ], [ -0.10158298876788, 51.516214317497464 ], [ -0.101559103316323, 51.516246952281548 ], [ -0.101519845311458, 51.516281163681995 ], [ -0.101455124529736, 51.516299648034817 ], [ -0.101416523106535, 51.51625293491351 ], [ -0.101411638474866, 51.516260868392756 ], [ -0.101392377514296, 51.516292166155012 ], [ -0.101365605498163, 51.516329394430812 ], [ -0.101342726703306, 51.516359653383049 ], [ -0.101314189292963, 51.516396007733711 ], [ -0.101289761212882, 51.516420198429479 ], [ -0.101237934419662, 51.51645336985198 ], [ -0.101185213029827, 51.51646473723337 ], [ -0.101005861706844, 51.51646660764424 ], [ -0.100948239602186, 51.516467239088058 ], [ -0.100803982685497, 51.516468814306933 ], [ -0.100749040769966, 51.516468769644504 ], [ -0.10064631800626, 51.516469776463737 ], [ -0.100556240325804, 51.51646928841398 ], [ -0.100532067125686, 51.516508815766507 ], [ -0.100511994669624, 51.516615280796572 ], [ -0.100506634096655, 51.516643718164076 ], [ -0.100498386709719, 51.516712010646359 ], [ -0.100447827378951, 51.516714707693971 ], [ -0.100398134706743, 51.516718398974703 ], [ -0.100337590030702, 51.516722750733443 ], [ -0.100096556589461, 51.516735149045402 ], [ -0.099995840575829, 51.51674021656121 ], [ -0.099946702857872, 51.516742693623648 ], [ -0.099929791427765, 51.516716142650587 ], [ -0.099863348060987, 51.516732349974582 ], [ -0.099785882385791, 51.516753999106349 ], [ -0.099724890593244, 51.516768844168254 ], [ -0.099723080637314, 51.51676928515527 ], [ -0.099663624385039, 51.516769301697479 ], [ -0.099545765264865, 51.51676584458226 ], [ -0.099518897513175, 51.516740256268506 ], [ -0.09948265004285, 51.516723931345531 ], [ -0.099428805577623, 51.516718984794878 ], [ -0.099309822851537, 51.516720707058298 ], [ -0.099107989104716, 51.516721796393796 ], [ -0.098979892860542, 51.516726041418103 ], [ -0.098927527359493, 51.516728843412942 ], [ -0.098815676085968, 51.516732371448278 ], [ -0.098757358141863, 51.516726515723079 ], [ -0.098740398853281, 51.516658228356206 ], [ -0.098714322644982, 51.516570404723531 ], [ -0.098544023169088, 51.516574504462334 ], [ -0.09853938489841, 51.516574609095464 ], [ -0.098529458319415, 51.516574852782846 ], [ -0.098367914740745, 51.516582070874065 ], [ -0.098296575358196, 51.516586399372841 ], [ -0.098194599308041, 51.516590923326348 ], [ -0.098006553920032, 51.516599068943009 ], [ -0.097937374349115, 51.516602065357489 ], [ -0.097828395286023, 51.5166017002202 ], [ -0.097829670658861, 51.516571100531941 ], [ -0.097825050286055, 51.516509047404973 ], [ -0.097758942446597, 51.516495753691594 ], [ -0.097757700212658, 51.516439106069967 ], [ -0.097759011209997, 51.516407652647878 ], [ -0.097757421422996, 51.516380783438542 ], [ -0.097759036568224, 51.516342032822045 ], [ -0.09775976747262, 51.516303402750623 ], [ -0.097759628322457, 51.516198158112424 ], [ -0.097759759147202, 51.516151793515256 ], [ -0.097770387988077, 51.516114987689832 ], [ -0.097771414181274, 51.516111461187556 ], [ -0.097779767790218, 51.516082559062831 ], [ -0.097793189786824, 51.516041329143256 ], [ -0.097826152068167, 51.515942098119517 ], [ -0.097872398387546, 51.515805285973258 ], [ -0.097912652171793, 51.515681874733211 ], [ -0.097916800002752, 51.515669154300973 ], [ -0.097924378389287, 51.515645707187787 ], [ -0.097943620470856, 51.515586208416984 ], [ -0.097957381208586, 51.51553857211583 ], [ -0.097866786620512, 51.515529089890329 ], [ -0.09768387560253, 51.515508559533103 ], [ -0.097688050099846, 51.51544713469994 ], [ -0.097688538123688, 51.515439921423379 ], [ -0.097719242109023, 51.515286975928468 ], [ -0.097666590726152, 51.515274889734009 ], [ -0.097467418737525, 51.515255498117767 ], [ -0.097319565142024, 51.515242829201874 ], [ -0.097305835353574, 51.515241653170051 ], [ -0.097299573897249, 51.51524111091689 ], [ -0.09727904523832, 51.515239491820822 ], [ -0.097254680656504, 51.515237576660475 ], [ -0.09725797604783, 51.515224563645802 ], [ -0.0972686944335, 51.515182156824842 ], [ -0.097274489107331, 51.515155866077386 ], [ -0.097290918855831, 51.515081213939972 ], [ -0.097240918515803, 51.515070195759399 ], [ -0.097227165139102, 51.515067166826945 ], [ -0.097218624717304, 51.515065283635799 ], [ -0.097197693767343, 51.515063981739068 ], [ -0.097099119218829, 51.515057867637431 ], [ -0.097047926366533, 51.515054365961952 ], [ -0.09694281848678, 51.515047318362619 ], [ -0.096728178698024, 51.515032170860913 ], [ -0.096653669253697, 51.515025475797287 ], [ -0.096637638175517, 51.514999649136335 ], [ -0.096612965895348, 51.514964680442588 ], [ -0.096565602224129, 51.514955764126739 ], [ -0.096564867727166, 51.514930176781583 ], [ -0.096563922562968, 51.514887868467568 ], [ -0.096563103114242, 51.514842891343093 ], [ -0.096376711592243, 51.514832284508373 ], [ -0.096362692178978, 51.514831490357103 ], [ -0.096349474302826, 51.51486780436543 ], [ -0.096349508644962, 51.514931599584457 ], [ -0.096348687740409, 51.514942296637528 ], [ -0.096345442023735, 51.514985903806327 ], [ -0.096196974817208, 51.514982099402516 ], [ -0.096088155130549, 51.514977661627988 ], [ -0.09593526827595, 51.514971662837844 ], [ -0.095865155517201, 51.514967718519159 ], [ -0.09577144412999, 51.51496872361826 ], [ -0.095754633064648, 51.515026202101446 ], [ -0.095749945912739, 51.515053562888646 ], [ -0.095741550997671, 51.51510242809578 ], [ -0.095736681587265, 51.515154192270209 ], [ -0.095738592312544, 51.515194411942588 ], [ -0.095739299136986, 51.515242759502264 ], [ -0.095744281007426, 51.515274315068496 ], [ -0.095745961890334, 51.515304153363623 ], [ -0.095746867579443, 51.515320444966569 ], [ -0.095745446904104, 51.515346204133792 ], [ -0.095743142005106, 51.515387974036734 ], [ -0.095697186268697, 51.515388486654174 ], [ -0.095614133069419, 51.515392758212357 ], [ -0.095582286172933, 51.51544339175976 ], [ -0.095507576295969, 51.515442178279734 ], [ -0.095455365267411, 51.515441653949786 ], [ -0.095444123186811, 51.515439924586232 ], [ -0.095417754863019, 51.515435944132449 ], [ -0.095376351408393, 51.515435127698055 ], [ -0.095194492279747, 51.515432596097774 ], [ -0.095182178349999, 51.515381955684227 ], [ -0.095167332093656, 51.515327757962922 ], [ -0.095085562511659, 51.515301276793316 ], [ -0.095009006688853, 51.515279376654924 ], [ -0.095015349513899, 51.515235496142665 ], [ -0.09502305982212, 51.515180262011626 ], [ -0.095075511869578, 51.515175349823963 ], [ -0.095151140316424, 51.515176299713701 ], [ -0.095177457727003, 51.515127968533967 ], [ -0.095195234475163, 51.515090883430226 ], [ -0.095213792797713, 51.51505648186815 ], [ -0.095238150411235, 51.514962552535387 ], [ -0.09523955837428, 51.514957134789803 ], [ -0.095168421852996, 51.514934900145242 ], [ -0.0951763745484, 51.514895263371784 ], [ -0.095105969640624, 51.514877258180682 ], [ -0.095118946273865, 51.514825337990857 ], [ -0.09513223565925, 51.514809780592479 ], [ -0.095147358574599, 51.514792076731965 ], [ -0.095173103937351, 51.514757791929178 ], [ -0.095185147208693, 51.514685065311795 ], [ -0.095201647067115, 51.514591889617229 ], [ -0.095122729022408, 51.514583449337387 ], [ -0.094986504290276, 51.514566757867804 ], [ -0.09485025963282, 51.514550200810312 ], [ -0.094666510359961, 51.514528815950264 ], [ -0.094670453123146, 51.514493061879193 ], [ -0.094672303529254, 51.514476356432077 ], [ -0.094695038313151, 51.514406474460692 ], [ -0.094721913711361, 51.51431784692015 ], [ -0.094723219835184, 51.514313488671732 ], [ -0.094733361494734, 51.514286675197859 ], [ -0.094753369880515, 51.514238943025958 ], [ -0.094744606027907, 51.514236894161833 ], [ -0.094697175481675, 51.51422580878242 ], [ -0.094536004407501, 51.514193909396248 ], [ -0.094414858076502, 51.514169935395877 ], [ -0.094349222248577, 51.514157178126588 ], [ -0.094233462990631, 51.514134667385484 ], [ -0.094153952415012, 51.514119040635251 ], [ -0.094062642115376, 51.514104004405873 ], [ -0.094006330304023, 51.514094725823114 ], [ -0.0940041011695, 51.514100822644849 ], [ -0.093981928999408, 51.514161352151 ], [ -0.093966477843209, 51.51418691018381 ], [ -0.093941881685044, 51.514214369905339 ], [ -0.093899316201083, 51.514263147093764 ], [ -0.093836790291755, 51.514250467070489 ], [ -0.093823527841385, 51.51427779626183 ], [ -0.09381905045704, 51.514286994999736 ], [ -0.093794603513818, 51.514332964189087 ], [ -0.093757077215286, 51.514368747781262 ], [ -0.093687759986589, 51.514432395629363 ], [ -0.09363723228976, 51.514477518101693 ], [ -0.093602615593411, 51.514508852567573 ], [ -0.093590852540381, 51.514516152275981 ], [ -0.093555429227082, 51.514538157125131 ], [ -0.093512153896165, 51.514560780692321 ], [ -0.093473553924101, 51.514622256986421 ], [ -0.093441680534143, 51.514652089250482 ], [ -0.09339868643201, 51.514684537422283 ], [ -0.093387733285315, 51.514692803508275 ], [ -0.093335247536591, 51.514763046702633 ], [ -0.093307312959432, 51.514806575975193 ], [ -0.093235409489956, 51.514802726876624 ], [ -0.093219580462385, 51.514836623912316 ], [ -0.093204474697038, 51.5148745974275 ], [ -0.093185577157204, 51.514917428308138 ], [ -0.093176893714134, 51.514933806766763 ], [ -0.093164065660024, 51.514957968488702 ], [ -0.093137834930185, 51.515003485838449 ], [ -0.093124984260387, 51.515022323482285 ], [ -0.093120563563664, 51.515028780321089 ], [ -0.092984073406541, 51.515012217082152 ], [ -0.092970895129553, 51.515010608873226 ], [ -0.092955060570912, 51.515044631672659 ], [ -0.092912524042469, 51.515114056251448 ], [ -0.092881241524605, 51.515172845588999 ], [ -0.092861029298127, 51.515202633528176 ], [ -0.092856483556443, 51.515209322132648 ], [ -0.09284738484365, 51.515221665057922 ], [ -0.092818104482399, 51.515239264208972 ], [ -0.092778376337166, 51.515263204153719 ], [ -0.092740199053868, 51.5152927987669 ], [ -0.092711931518304, 51.515322545571884 ], [ -0.092690830262108, 51.515353254259395 ], [ -0.092623720061411, 51.515450237401524 ], [ -0.09256223954073, 51.515541835500628 ], [ -0.092459768540768, 51.515536517400662 ], [ -0.09245591387647, 51.515547704606725 ], [ -0.092435158672345, 51.515608058938248 ], [ -0.092417973512596, 51.515674379575998 ], [ -0.092402852784107, 51.515734411900873 ], [ -0.092390445482854, 51.515794353477602 ], [ -0.092389759727868, 51.515832138802239 ], [ -0.092385100365723, 51.51605153977664 ], [ -0.092286969601984, 51.516049943159629 ], [ -0.09225934389843, 51.51604983539039 ], [ -0.09213656445841, 51.51604932138931 ], [ -0.092141772676241, 51.516075404140366 ], [ -0.092147659529314, 51.516106974510883 ], [ -0.092152982494993, 51.516152033804033 ], [ -0.092159098528603, 51.51617812233372 ], [ -0.092162479788615, 51.516205155564407 ], [ -0.092163893683835, 51.516235807833496 ], [ -0.092166443513129, 51.516274455144014 ], [ -0.092166652826453, 51.516277722913458 ], [ -0.09216442204285, 51.516331085486307 ], [ -0.092162755149344, 51.516370959136133 ], [ -0.092164081823701, 51.516447140211639 ], [ -0.092157292579569, 51.516479907182017 ], [ -0.092137204149556, 51.516529463008766 ], [ -0.092112663822107, 51.516599314934425 ], [ -0.092090346158673, 51.516659095185645 ], [ -0.092070727200371, 51.516697417715029 ], [ -0.09196375407867, 51.516692160735758 ], [ -0.091866587997007, 51.516689176559396 ], [ -0.091855533382119, 51.516716397510542 ], [ -0.091845028096372, 51.5167521974764 ], [ -0.091830487501311, 51.516798327366622 ], [ -0.091808004549795, 51.516840676939758 ], [ -0.091791331277658, 51.516873004236764 ], [ -0.09181316454837, 51.516881354122106 ], [ -0.091831252735071, 51.516888267163573 ], [ -0.091762493692605, 51.516981149126288 ], [ -0.091732335659736, 51.517012978160935 ], [ -0.091586342149388, 51.516992607412718 ], [ -0.091545844297234, 51.517103143345672 ], [ -0.091529392839383, 51.517148082016931 ], [ -0.091495346849315, 51.517242194182209 ], [ -0.091493751860833, 51.517246556663459 ], [ -0.091449429209296, 51.517359610985878 ], [ -0.091443330929947, 51.517375150044451 ], [ -0.091412300788157, 51.517470893930671 ], [ -0.091406358793299, 51.517481489537978 ], [ -0.091383096875816, 51.517522971937737 ], [ -0.091376351690496, 51.517533644394987 ], [ -0.091360898198769, 51.517558158755733 ], [ -0.091422717148766, 51.517566467201753 ], [ -0.0914208389963, 51.517571913190274 ], [ -0.091394015792414, 51.517649605231853 ], [ -0.091192433682081, 51.517622861474088 ], [ -0.090999939364572, 51.517594574716469 ], [ -0.090917327924785, 51.517581287241342 ], [ -0.090913290453327, 51.517580636971864 ], [ -0.090763702062899, 51.517556582608641 ], [ -0.090660780433298, 51.517540572150068 ], [ -0.090682847345908, 51.517489084038537 ], [ -0.090708669109584, 51.517428808240922 ], [ -0.090756477802592, 51.517319983620474 ], [ -0.090780451183915, 51.517263746904355 ], [ -0.090657733853721, 51.517204141164363 ], [ -0.090571875036649, 51.517189253828306 ], [ -0.090467068731877, 51.51717490314509 ], [ -0.090476106207813, 51.517157676391058 ], [ -0.090498396807881, 51.517115135136372 ], [ -0.090283615335089, 51.517081142540498 ], [ -0.090235617467577, 51.517181384983274 ], [ -0.090223408062263, 51.517206896263744 ], [ -0.090140920297079, 51.517370101196818 ], [ -0.090093997465619, 51.517479074859885 ], [ -0.090038446804035, 51.517471848039563 ], [ -0.089866464194955, 51.517448389945919 ], [ -0.089856671422536, 51.5174671240812 ], [ -0.089836113060535, 51.517506482953365 ], [ -0.089574676106177, 51.517467943017216 ], [ -0.089501843295008, 51.517464508033015 ], [ -0.089485154684409, 51.51749405590418 ], [ -0.089480438509208, 51.517502387233392 ], [ -0.089472525826886, 51.517516835470829 ], [ -0.089451174033092, 51.517555857602041 ], [ -0.089265387343426, 51.517517839303956 ], [ -0.089260548639681, 51.51752599776524 ], [ -0.089223720676304, 51.517587977804965 ], [ -0.089213823899354, 51.5175985178305 ], [ -0.0892095094497, 51.517603105736342 ], [ -0.089194482770135, 51.517619119646184 ], [ -0.089130338615867, 51.517666688778981 ], [ -0.089065839808366, 51.517765402602642 ], [ -0.088991048208361, 51.517873777641348 ], [ -0.088987273363126, 51.51787924662576 ], [ -0.088980491291634, 51.517889064025468 ], [ -0.088967950577918, 51.517908697519999 ], [ -0.088935668211091, 51.517959177935197 ], [ -0.088856911681837, 51.518082362177331 ], [ -0.088787670264269, 51.518190692646101 ], [ -0.088785076752373, 51.518194454281364 ], [ -0.088750267976398, 51.518245019349251 ], [ -0.088722326659564, 51.518288547160822 ], [ -0.088690199567209, 51.518345630671568 ], [ -0.088653417914154, 51.518416792803862 ], [ -0.088620606400146, 51.518480231966961 ], [ -0.088594056552979, 51.518529762574396 ], [ -0.088554153625857, 51.51860420108067 ], [ -0.088484733463459, 51.51873430874555 ], [ -0.088400833788712, 51.518887642228059 ], [ -0.088331053019532, 51.519020486675025 ], [ -0.088317316096929, 51.51904663827461 ], [ -0.088312726637665, 51.519055376286026 ], [ -0.088256690769136, 51.519167716625411 ], [ -0.088231586074124, 51.519214042317415 ], [ -0.088174658090834, 51.519319110951237 ], [ -0.088170302243166, 51.519327088385786 ], [ -0.088137581978315, 51.519386940782077 ], [ -0.088114212983678, 51.519404221349419 ], [ -0.088103175785578, 51.519412377588814 ], [ -0.08787260945456, 51.519324193840596 ], [ -0.087837851409963, 51.519310902266952 ], [ -0.087709218580995, 51.519261709410898 ], [ -0.087686675292705, 51.519253095395051 ], [ -0.087680674489649, 51.519250794302025 ], [ -0.087672985546808, 51.51924784517638 ], [ -0.087658394493038, 51.519242261013545 ], [ -0.087065165719264, 51.519015382361545 ], [ -0.086778878078192, 51.518905887401147 ], [ -0.086769699409309, 51.518902374345473 ], [ -0.086161219525681, 51.518737759588269 ], [ -0.086154010129533, 51.518769431073437 ], [ -0.086146854866628, 51.518800842653413 ], [ -0.086115081565477, 51.518849747814478 ], [ -0.085931517849896, 51.519132179125876 ], [ -0.085727935110231, 51.519445415922902 ], [ -0.08540606947145, 51.519956394361536 ], [ -0.085298412842683, 51.520127322767856 ], [ -0.085228647622138, 51.520264338010556 ], [ -0.085201174269675, 51.520318241100966 ], [ -0.085195596690847, 51.520329211008914 ], [ -0.085192348639491, 51.520335506796258 ], [ -0.085084159142639, 51.520305808385771 ], [ -0.084922103381734, 51.520261318275722 ], [ -0.084901482980348, 51.52025565763433 ], [ -0.084625109951124, 51.520179792640185 ], [ -0.084616117886732, 51.52017732555052 ], [ -0.083822631205638, 51.519959481792995 ], [ -0.083351970815884, 51.51983036537235 ], [ -0.083300395787014, 51.519816293558762 ], [ -0.083270627878568, 51.519829034904483 ], [ -0.082907097226709, 51.51998469580537 ], [ -0.082841674418217, 51.520012707841069 ], [ -0.08270799596377, 51.520069935437085 ], [ -0.082299448664595, 51.52031603476464 ], [ -0.082269760188628, 51.520339217665629 ], [ -0.081991133222947, 51.520556740970179 ], [ -0.081950613679023, 51.520588964015687 ], [ -0.08193690828654, 51.52059986364084 ], [ -0.081926901477021, 51.52060782024563 ], [ -0.081884189142857, 51.520641796920913 ], [ -0.08185895507268, 51.520661878209857 ], [ -0.081847889219412, 51.520670680770635 ], [ -0.081736664928294, 51.520759128708164 ], [ -0.08164500578649, 51.520872150108531 ], [ -0.081636324870084, 51.520882853177852 ], [ -0.081620361963123, 51.520902528641962 ], [ -0.081591628166455, 51.520937957052261 ], [ -0.08157344495547, 51.520960383894234 ], [ -0.081396829798686, 51.521218936757172 ], [ -0.081365240282025, 51.52126810414309 ], [ -0.081332710956234, 51.521318742623578 ], [ -0.081258731987329, 51.521433902987177 ], [ -0.081064849584742, 51.521864364548001 ], [ -0.081045498016077, 51.521907356430091 ], [ -0.081024209420416, 51.521954588114021 ], [ -0.080916088719523, 51.521930758446189 ], [ -0.080815423794044, 51.521908570549989 ], [ -0.080674944340467, 51.521877608267886 ], [ -0.080674488669101, 51.521877509079161 ], [ -0.08020429154382, 51.521773881012031 ], [ -0.080203714526854, 51.521773753754708 ], [ -0.080165216991013, 51.521765268840021 ], [ -0.07986516721523, 51.521699130503116 ], [ -0.079743221923912, 51.521672258515437 ], [ -0.079675277702251, 51.521663834059964 ], [ -0.079254413128359, 51.521611640316131 ], [ -0.079076257361968, 51.521589547644467 ], [ -0.078820026816361, 51.521557766562736 ], [ -0.078769635362111, 51.521551517815155 ], [ -0.078744973165008, 51.521548457935239 ], [ -0.078665812611995, 51.521538637684678 ], [ -0.078527046858655, 51.521521432755328 ], [ -0.078522052187573, 51.52152081309454 ], [ -0.07851092908021, 51.521519454463636 ], [ -0.078445363490298, 51.521511447789159 ], [ -0.078561585208435, 51.521299881522857 ], [ -0.078647839890202, 51.521142880623053 ], [ -0.078659658423281, 51.521121357061226 ], [ -0.07866181245003, 51.521117444589031 ], [ -0.078677439835741, 51.521088996157346 ], [ -0.078704010515873, 51.52104063748309 ], [ -0.07871532370334, 51.520998251588878 ], [ -0.07877130266851, 51.520788614601997 ], [ -0.078784221808184, 51.520740265899391 ], [ -0.078815694319224, 51.520655594156395 ], [ -0.078825865560425, 51.52061875600085 ], [ -0.078867405680024, 51.52046820699794 ], [ -0.078868597915469, 51.520463856097436 ], [ -0.078884009064173, 51.520408012363582 ], [ -0.078886458336714, 51.520399140763523 ], [ -0.079008697082381, 51.519956078567773 ] ] ] } },
{ "type": "Feature", "properties": { "lsoa21cd": "E01032767", "lsoa21nm": "Tower Hamlets 021F", "msoa21cd": "E02000884", "msoa21nm": "Tower Hamlets 021", "lad22cd": "E09000030", "lad22nm": "Tower Hamlets", "index_right": 655, "GSS_CODE": "E05009308", "risk_score": 5.0111301303661122, "allocation_hours": 176.09232503740785, "patrol_units": 88 }, "geometry": { "type": "Polygon", "coordinates": [ [ [ -0.071644491856461, 51.514854181060599 ], [ -0.071612674525772, 51.514583876546297 ], [ -0.071392848238809, 51.514670185825715 ], [ -0.071387841178112, 51.514672027856633 ], [ -0.071275711725143, 51.514713221421125 ], [ -0.071266246017594, 51.514596160554298 ], [ -0.071252982500664, 51.514568964154634 ], [ -0.071165330700032, 51.514464096424078 ], [ -0.071136369207673, 51.514429456455879 ], [ -0.071115790464417, 51.514404837439074 ], [ -0.07100511874238, 51.51429510331063 ], [ -0.070988944205408, 51.514277963156268 ], [ -0.070948731932671, 51.514235353856222 ], [ -0.070841310354453, 51.514121545424707 ], [ -0.070798201194038, 51.514075872230151 ], [ -0.0707808472381, 51.514057825949521 ], [ -0.070714317488102, 51.513988628928949 ], [ -0.070701561007673, 51.513975361509573 ], [ -0.070680412664159, 51.513924098461629 ], [ -0.070675414897657, 51.513911982148365 ], [ -0.070573442182415, 51.513937281307086 ], [ -0.070491279090291, 51.513971899256909 ], [ -0.070470738297911, 51.513980553735024 ], [ -0.070366845103101, 51.514028770458225 ], [ -0.070342827876636, 51.513969454808084 ], [ -0.070054993152783, 51.513258592659525 ], [ -0.070019445975289, 51.513170802305055 ], [ -0.070010325521966, 51.513173466808233 ], [ -0.069123712205649, 51.512834057356308 ], [ -0.068682470556986, 51.512665138628904 ], [ -0.068512678187186, 51.512662340131726 ], [ -0.068222560943993, 51.512657558107428 ], [ -0.06810451931459, 51.512572286597624 ], [ -0.067630287619273, 51.512543283983035 ], [ -0.067606198891446, 51.512410667261882 ], [ -0.067587111650034, 51.512305614666573 ], [ -0.066993153447805, 51.51237650523845 ], [ -0.06701588258924, 51.512520763183758 ], [ -0.066798693854551, 51.512544160013611 ], [ -0.066738313840367, 51.512553856642782 ], [ -0.066668099013543, 51.512557222062036 ], [ -0.066669764470979, 51.512564857349993 ], [ -0.066493964167411, 51.512593090776427 ], [ -0.066450757624333, 51.512592378174929 ], [ -0.0664458851176, 51.512568422200033 ], [ -0.066403964642865, 51.512362328585141 ], [ -0.066379192703954, 51.512240482615987 ], [ -0.066377144117653, 51.512228965152026 ], [ -0.066374827103528, 51.512215959465536 ], [ -0.066358051136376, 51.512121736051078 ], [ -0.066345348899977, 51.51205042127846 ], [ -0.066332625511384, 51.511978926301239 ], [ -0.066310828733719, 51.511829386911685 ], [ -0.066310293538582, 51.51182569107776 ], [ -0.066290627560668, 51.511609532945833 ], [ -0.06641948295062, 51.511629643648895 ], [ -0.06643737031334, 51.511634695804688 ], [ -0.066690073380852, 51.511706047827069 ], [ -0.066749118372538, 51.511724440374898 ], [ -0.06690343764772, 51.51177251509516 ], [ -0.066905721286793, 51.511718596553216 ], [ -0.066902298530853, 51.511682695214716 ], [ -0.066861896263577, 51.511256125756269 ], [ -0.066856389305362, 51.511197978078023 ], [ -0.066854281722642, 51.511185299588824 ], [ -0.067390107080784, 51.511146787225513 ], [ -0.06749134095456, 51.511139508265174 ], [ -0.0675501326829, 51.51113527958865 ], [ -0.067581988602666, 51.511133097876417 ], [ -0.067651800026712, 51.511128313386216 ], [ -0.067940382570452, 51.511108537523079 ], [ -0.067963053259703, 51.511106982201717 ], [ -0.068211346053043, 51.511089963413852 ], [ -0.068369079437602, 51.511079150641471 ], [ -0.068451205432501, 51.511073521530719 ], [ -0.068553450691458, 51.511066519858055 ], [ -0.068576533167201, 51.511064939898105 ], [ -0.068585075396333, 51.511064352282489 ], [ -0.068645896559969, 51.511060183916833 ], [ -0.068879881681185, 51.511043941413114 ], [ -0.069240023032612, 51.511018940904876 ], [ -0.06963894484884, 51.510991241834333 ], [ -0.069715638592551, 51.510985922527198 ], [ -0.069769711917614, 51.510982164002115 ], [ -0.069807688434673, 51.51098008273739 ], [ -0.069843613823788, 51.510978111558956 ], [ -0.069944326632811, 51.510972576220112 ], [ -0.070123783366511, 51.51096272170156 ], [ -0.070139598054069, 51.510961853566293 ], [ -0.070143859859842, 51.510961609008149 ], [ -0.070295780947029, 51.510953265652347 ], [ -0.070666074382944, 51.510932922492714 ], [ -0.070733935419435, 51.510929194485215 ], [ -0.070917066148113, 51.510919286830529 ], [ -0.071028782069316, 51.510913239255466 ], [ -0.071046346960437, 51.510912287399393 ], [ -0.071107448490363, 51.510908976678124 ], [ -0.071118640317471, 51.510908370441811 ], [ -0.071160950486999, 51.510906080398996 ], [ -0.07137356447037, 51.510894571015122 ], [ -0.071456015091947, 51.510890109696533 ], [ -0.071493933103786, 51.510888044907929 ], [ -0.07154513903115, 51.510885290520619 ], [ -0.0716376435832, 51.510880275112505 ], [ -0.072172583892987, 51.510844302175578 ], [ -0.072446570592354, 51.510825874326997 ], [ -0.072730909598471, 51.510806749202253 ], [ -0.072738322560047, 51.510806247026601 ], [ -0.072742961147588, 51.510852713072317 ], [ -0.072744158478993, 51.510865997000927 ], [ -0.072744893694599, 51.510874183459492 ], [ -0.072776679587015, 51.510994138306806 ], [ -0.07279564888866, 51.511065735432226 ], [ -0.072800832195997, 51.511085307863503 ], [ -0.072808777848433, 51.511100213547856 ], [ -0.072815695007514, 51.511113195864198 ], [ -0.072826711385738, 51.511133880399527 ], [ -0.072890965826878, 51.511254558024625 ], [ -0.072931896128035, 51.511369781066577 ], [ -0.072957792048228, 51.511442678206343 ], [ -0.072969507420102, 51.511488796590399 ], [ -0.072980223196624, 51.511530941746287 ], [ -0.072985326638286, 51.511551043424063 ], [ -0.073018804536447, 51.511682833434627 ], [ -0.073030645550991, 51.51176148047864 ], [ -0.073031929606604, 51.511769981711318 ], [ -0.073063214967671, 51.511977948794403 ], [ -0.073065646319108, 51.511994094702985 ], [ -0.073074119004368, 51.512050390746822 ], [ -0.073098105024153, 51.512209778815844 ], [ -0.073104329905523, 51.512251112708228 ], [ -0.073117992925897, 51.512341911857298 ], [ -0.073126194033866, 51.51238183941124 ], [ -0.073135647886697, 51.512427938570724 ], [ -0.073140022986227, 51.512449251270063 ], [ -0.073165223651436, 51.512571957379826 ], [ -0.073220198329017, 51.512839800625763 ], [ -0.073242015500637, 51.512946048394056 ], [ -0.073279535740802, 51.51307669075257 ], [ -0.073297881545408, 51.513140561785946 ], [ -0.073317554936571, 51.51320907239473 ], [ -0.073339839471347, 51.513286675283915 ], [ -0.073365306803809, 51.513375363639838 ], [ -0.073369494787687, 51.513388480902016 ], [ -0.073420826301508, 51.513549089134983 ], [ -0.073422327785897, 51.513553808009398 ], [ -0.073438955561074, 51.513605807385744 ], [ -0.073461590477518, 51.513676655296429 ], [ -0.073471232894553, 51.513701570721125 ], [ -0.073472544168908, 51.513704991519035 ], [ -0.073580829265241, 51.513984906884637 ], [ -0.073614303253394, 51.514071454345967 ], [ -0.073623282602996, 51.514094668229099 ], [ -0.073637920258889, 51.514132363445064 ], [ -0.073800424473014, 51.514303778202176 ], [ -0.073935774036828, 51.514446554302133 ], [ -0.073942874973887, 51.514454381354348 ], [ -0.073895458926025, 51.514471814014122 ], [ -0.073870046784735, 51.514481156994826 ], [ -0.073710953548391, 51.514539647272308 ], [ -0.073650033354632, 51.514562043936273 ], [ -0.07360425679936, 51.514578873041103 ], [ -0.073526181473502, 51.514607571177578 ], [ -0.073509623600315, 51.514613656805352 ], [ -0.073383617681463, 51.514659980307947 ], [ -0.072972900905116, 51.514810971486973 ], [ -0.072965756528701, 51.514813596773543 ], [ -0.072843042098725, 51.514858709447651 ], [ -0.072803176923459, 51.514873359403509 ], [ -0.072799390302328, 51.514874834880011 ], [ -0.072776428928684, 51.514883198156546 ], [ -0.07276029681496, 51.514889128811838 ], [ -0.072606294299326, 51.514945740902348 ], [ -0.072584202950192, 51.514954080681704 ], [ -0.072249290374721, 51.515080509767714 ], [ -0.071920218995156, 51.515204721081297 ], [ -0.071847853707631, 51.515178386815251 ], [ -0.071890836561407, 51.515163986321809 ], [ -0.07188416995103, 51.515157006210309 ], [ -0.071882299813867, 51.515155045606619 ], [ -0.071733177653905, 51.514998750213763 ], [ -0.071725214163735, 51.514990399848124 ], [ -0.071697547268225, 51.51496296648947 ], [ -0.071670639823108, 51.514917560226763 ], [ -0.071644491856461, 51.514854181060599 ] ] ] } },
{ "type": "Feature", "properties": { "lsoa21cd": "E01004310", "lsoa21nm": "Tower Hamlets 015E", "msoa21cd": "E02000878", "msoa21nm": "Tower Hamlets 015", "lad22cd": "E09000030", "lad22nm": "Tower Hamlets", "index_right": 655, "GSS_CODE": "E05009308", "risk_score": 3.5832454125672299, "allocation_hours": 125.91611063041577, "patrol_units": 63 }, "geometry": { "type": "Polygon", "coordinates": [ [ [ -0.07501700412472, 51.518305730149329 ], [ -0.074852304081917, 51.518172612491867 ], [ -0.074732774289978, 51.51821210504518 ], [ -0.07453729726791, 51.51821537702515 ], [ -0.074532507919879, 51.518215469191659 ], [ -0.074452756843324, 51.518216793617427 ], [ -0.074392871689284, 51.518267220790939 ], [ -0.074267278962447, 51.518278565037569 ], [ -0.074264265232279, 51.51827312888966 ], [ -0.074200704160682, 51.518158263852442 ], [ -0.074186923179472, 51.518133361430195 ], [ -0.074036444615776, 51.51794204183048 ], [ -0.074031862800164, 51.517936534940674 ], [ -0.073794634039618, 51.517651524194626 ], [ -0.07375792804606, 51.517608358423807 ], [ -0.073678342486459, 51.517513601726925 ], [ -0.073527791263889, 51.51752177054572 ], [ -0.07304410756259, 51.51754803508976 ], [ -0.072856098819819, 51.517562928725766 ], [ -0.072827291170802, 51.517562454965891 ], [ -0.072812507798482, 51.517571204533255 ], [ -0.072782941036842, 51.517588703662121 ], [ -0.072777239390721, 51.517595381389008 ], [ -0.072767778090129, 51.51760643967323 ], [ -0.072767398532538, 51.517615426122859 ], [ -0.072830964671611, 51.5180187865693 ], [ -0.072835603399205, 51.518048197015545 ], [ -0.072819302033836, 51.518092883391205 ], [ -0.072790114111644, 51.51810140505237 ], [ -0.07276054699248, 51.518118904168411 ], [ -0.072731359422496, 51.518127416828015 ], [ -0.072550251196111, 51.518135175353308 ], [ -0.072428116165129, 51.518140414508409 ], [ -0.072148292263865, 51.518157582614066 ], [ -0.071982201374353, 51.518167772542924 ], [ -0.071734431218549, 51.518182958074128 ], [ -0.071648021560812, 51.518181536165322 ], [ -0.07161959333317, 51.518172075661219 ], [ -0.0716059489146, 51.518153865744736 ], [ -0.071592684302818, 51.518126669385502 ], [ -0.07157486140364, 51.518047033569808 ], [ -0.071568433924564, 51.518018358015638 ], [ -0.071567972987545, 51.518013917033343 ], [ -0.07156012462217, 51.517937691721109 ], [ -0.071504157449673, 51.517927067566447 ], [ -0.071441222139897, 51.517903972748378 ], [ -0.07135480173016, 51.517884403194515 ], [ -0.071092502614945, 51.51786892597007 ], [ -0.071077875602027, 51.51785896410076 ], [ -0.07102063015275, 51.517819937738651 ], [ -0.071015037697446, 51.517811410535344 ], [ -0.070974105135726, 51.517756789570591 ], [ -0.070960768088814, 51.517742910122323 ], [ -0.070935722629196, 51.517716859664894 ], [ -0.070959764339369, 51.517684144342788 ], [ -0.071050852828455, 51.517560204716538 ], [ -0.071065412413464, 51.517540390676238 ], [ -0.071149347146123, 51.517447232104843 ], [ -0.071308165532361, 51.517401708277127 ], [ -0.071335379598465, 51.517371338225956 ], [ -0.071338753445013, 51.517367562867378 ], [ -0.071510514560698, 51.517372862654199 ], [ -0.071551453769518, 51.517374129900823 ], [ -0.071543541939233, 51.517351248186827 ], [ -0.071507700068641, 51.517247449211297 ], [ -0.071485071653018, 51.517181942740962 ], [ -0.071475260504368, 51.517153526231667 ], [ -0.071335019337808, 51.517174572184764 ], [ -0.071322871263668, 51.517161890385538 ], [ -0.07107531531769, 51.516903772082244 ], [ -0.070697360535212, 51.516509677151383 ], [ -0.07123311066366, 51.516379739194363 ], [ -0.071332443114304, 51.516355645999887 ], [ -0.071547231073983, 51.516266313328693 ], [ -0.07162517780708, 51.51623768634235 ], [ -0.07176220169166, 51.516227216465957 ], [ -0.071872228831197, 51.516218802199731 ], [ -0.071921889575673, 51.516214757851571 ], [ -0.071988779149995, 51.516112618656535 ], [ -0.072077329345564, 51.515977406340305 ], [ -0.072084308783405, 51.51596674971583 ], [ -0.072219702050161, 51.515760010267279 ], [ -0.072321747325353, 51.515881498654579 ], [ -0.072339257072216, 51.515900049956286 ], [ -0.072390727139097, 51.515954574925281 ], [ -0.072401060542905, 51.515951423901463 ], [ -0.072462668135307, 51.51593263807478 ], [ -0.072467077526018, 51.515931298750964 ], [ -0.072507026983753, 51.515919114296594 ], [ -0.072726547504733, 51.515852186166782 ], [ -0.072842922340679, 51.51582712199432 ], [ -0.072955296817765, 51.515803367804224 ], [ -0.073119240699752, 51.515768717026475 ], [ -0.073123534845023, 51.51576703406046 ], [ -0.073208296667916, 51.515733981266202 ], [ -0.073250767105937, 51.515725916196956 ], [ -0.073440664957597, 51.515666089499433 ], [ -0.073429992614886, 51.515653953753898 ], [ -0.073344395005871, 51.515556594374523 ], [ -0.073255203852554, 51.515473180171966 ], [ -0.073164668126564, 51.515388506396739 ], [ -0.073109122415741, 51.515336559497861 ], [ -0.072790590071043, 51.515038653999738 ], [ -0.072729512822519, 51.514981535071847 ], [ -0.072708867496489, 51.514962220933342 ], [ -0.072678848953082, 51.514934146618536 ], [ -0.072786162088455, 51.514895039743557 ], [ -0.072794578834642, 51.514882182819207 ], [ -0.072795806785779, 51.514880306454273 ], [ -0.072799390302328, 51.514874834880011 ], [ -0.072803176923459, 51.514873359403509 ], [ -0.072843042098725, 51.514858709447651 ], [ -0.072965756528701, 51.514813596773543 ], [ -0.072972900905116, 51.514810971486973 ], [ -0.073383617681463, 51.514659980307947 ], [ -0.073509623600315, 51.514613656805352 ], [ -0.073526181473502, 51.514607571177578 ], [ -0.07360425679936, 51.514578873041103 ], [ -0.073650033354632, 51.514562043936273 ], [ -0.073710953548391, 51.514539647272308 ], [ -0.073870046784735, 51.514481156994826 ], [ -0.073895458926025, 51.514471814014122 ], [ -0.073942874973887, 51.514454381354348 ], [ -0.074269178370912, 51.514680718070458 ], [ -0.074280926084732, 51.514688887648333 ], [ -0.074305117379122, 51.514707180658448 ], [ -0.074417107261274, 51.514791861682141 ], [ -0.074609499133322, 51.514952242274241 ], [ -0.074619398841591, 51.514960489366402 ], [ -0.074695726662858, 51.515024116791629 ], [ -0.074731022192628, 51.515053545258027 ], [ -0.074787815714437, 51.515100889644273 ], [ -0.074804401131265, 51.515113626003625 ], [ -0.074904358424753, 51.51519043810292 ], [ -0.075084522020706, 51.515328827713667 ], [ -0.0751193821516, 51.515355605056733 ], [ -0.075298594878209, 51.515481029232681 ], [ -0.07539336101026, 51.515547342104682 ], [ -0.075684645942336, 51.51575119708518 ], [ -0.075732806749661, 51.515784892217305 ], [ -0.075797879538216, 51.515830429639514 ], [ -0.075805412159754, 51.51583568815748 ], [ -0.075810451470892, 51.515839233092585 ], [ -0.07589179095063, 51.515896469080232 ], [ -0.075705732604296, 51.515954065162319 ], [ -0.075683819403868, 51.51596084821734 ], [ -0.075647396885397, 51.515972129454269 ], [ -0.075554252395383, 51.515999298215938 ], [ -0.075545144950178, 51.516001956168196 ], [ -0.075515623637663, 51.516010567460199 ], [ -0.075393846093793, 51.516046093984379 ], [ -0.07540914107301, 51.516139680373648 ], [ -0.075409660748634, 51.516142737432446 ], [ -0.075636223491615, 51.516248381429158 ], [ -0.075663748383052, 51.516312411790103 ], [ -0.075684488750137, 51.516359937049451 ], [ -0.075707423095987, 51.516412516256452 ], [ -0.075697889430188, 51.516438987072235 ], [ -0.075666275467739, 51.516526990218118 ], [ -0.075657047250646, 51.516552676487414 ], [ -0.075668317647119, 51.516554066586167 ], [ -0.075709944434914, 51.516539696382587 ], [ -0.075782734316481, 51.516522906264768 ], [ -0.075820068559524, 51.516572736326957 ], [ -0.07586459418905, 51.516632162758924 ], [ -0.075937346543774, 51.516712531701508 ], [ -0.075960695754044, 51.516738325732568 ], [ -0.075988542979853, 51.516769088334591 ], [ -0.07600029441116, 51.516832230140515 ], [ -0.075999915528908, 51.516841216614331 ], [ -0.076016740503106, 51.516863677834579 ], [ -0.076027207269631, 51.516877635483894 ], [ -0.075886790990939, 51.51691384569159 ], [ -0.075872482695113, 51.516917535165298 ], [ -0.075664727223561, 51.51697110679013 ], [ -0.075503758120634, 51.517012610252728 ], [ -0.075734590955266, 51.51732246549247 ], [ -0.075743360937342, 51.517320262410891 ], [ -0.07577972484144, 51.517367135925866 ], [ -0.07578087317845, 51.517368616094657 ], [ -0.075797702132953, 51.517390299537624 ], [ -0.075793754054593, 51.517398130292101 ], [ -0.075815854695707, 51.517426397515621 ], [ -0.075847898304155, 51.517467372803857 ], [ -0.075898410997413, 51.517531987373907 ], [ -0.075963462502274, 51.517615176733507 ], [ -0.076015462822932, 51.5176816762648 ], [ -0.076039462167061, 51.517712367574042 ], [ -0.076043360391209, 51.517717341585929 ], [ -0.076076497985387, 51.517759728638318 ], [ -0.076066588898355, 51.517762623465366 ], [ -0.075813816545093, 51.517836358849266 ], [ -0.075769832773786, 51.517853613005919 ], [ -0.075749081283614, 51.517857948450825 ], [ -0.075715228288881, 51.517865000368957 ], [ -0.075691990595796, 51.517869843531713 ], [ -0.075661430037416, 51.517936220329027 ], [ -0.075566254883519, 51.518060276269075 ], [ -0.075543676632936, 51.518066569062498 ], [ -0.075385484666847, 51.518110616125973 ], [ -0.075161877303673, 51.518056017793548 ], [ -0.075153873615817, 51.518054060809746 ], [ -0.075146701423094, 51.518162574708363 ], [ -0.0750756397532, 51.518300623279394 ], [ -0.07501700412472, 51.518305730149329 ] ] ] } },
{ "type": "Feature", "properties": { "lsoa21cd": "E01004307", "lsoa21nm": "Tower Hamlets 015B", "msoa21cd": "E02000878", "msoa21nm": "Tower Hamlets 015", "lad22cd": "E09000030", "lad22nm": "Tower Hamlets", "index_right": 655, "GSS_CODE": "E05009308", "risk_score": 10.0, "allocation_hours": 351.40241912764407, "patrol_units": 176 }, "geometry": { "type": "Polygon", "coordinates": [ [ [ -0.076450259551036, 51.522029235180085 ], [ -0.076428398852073, 51.522013166117155 ], [ -0.076421698586864, 51.522016689177214 ], [ -0.076413177212942, 51.52202118053134 ], [ -0.07639710665276, 51.522029636038162 ], [ -0.076363038716508, 51.52204756036555 ], [ -0.076358262282749, 51.522050071851176 ], [ -0.076161841751797, 51.522153067132649 ], [ -0.076153168848768, 51.522152809640673 ], [ -0.075663353052528, 51.522138094575496 ], [ -0.07556634591836, 51.522135179606735 ], [ -0.075556844112475, 51.522134888674174 ], [ -0.075426191168393, 51.522130962411978 ], [ -0.075339276109936, 51.522128356885375 ], [ -0.075295898003708, 51.52212705090605 ], [ -0.07497447210278, 51.522125889808272 ], [ -0.074392991089778, 51.522123791087083 ], [ -0.07414243435094, 51.522122883971804 ], [ -0.074101025614851, 51.522122734001549 ], [ -0.073362485585613, 51.522120063184168 ], [ -0.073327735510977, 51.522119941482345 ], [ -0.073149662426446, 51.522119288718699 ], [ -0.07308169038005, 51.52211904332794 ], [ -0.072937833229009, 51.522112046485852 ], [ -0.072801385844281, 51.522096853093501 ], [ -0.072796163210059, 51.5220962726046 ], [ -0.072789161537041, 51.522095491996303 ], [ -0.072759561938248, 51.522092199478571 ], [ -0.072712759539158, 51.522086987356715 ], [ -0.072594050941331, 51.522076725691754 ], [ -0.072587429484719, 51.522076158156864 ], [ -0.072000881057941, 51.522025475657763 ], [ -0.071987021030216, 51.522024276411152 ], [ -0.071881095445965, 51.522015123609179 ], [ -0.071875766680226, 51.522014667230593 ], [ -0.07174811023825, 51.522003636986639 ], [ -0.071689223881399, 51.52199845582755 ], [ -0.071745916537009, 51.521663317642584 ], [ -0.071788399724369, 51.521340279972833 ], [ -0.071797266523214, 51.52127953189234 ], [ -0.071828983304896, 51.521062174451998 ], [ -0.07183901041297, 51.520950092716475 ], [ -0.071843786429799, 51.52089677272356 ], [ -0.071854199315541, 51.520780335878065 ], [ -0.071856271446774, 51.520757227291234 ], [ -0.071856779328275, 51.520738899557671 ], [ -0.071861805963064, 51.520361923355665 ], [ -0.071862531899044, 51.520303473833764 ], [ -0.071861800845187, 51.520298328778544 ], [ -0.071856090050302, 51.520215095610695 ], [ -0.071862330876468, 51.520198058232978 ], [ -0.071862000895465, 51.520176191577832 ], [ -0.071860885041975, 51.52010163282241 ], [ -0.0718483042638, 51.520089960139998 ], [ -0.071843105818557, 51.520006269577813 ], [ -0.07184193143119, 51.519987329637217 ], [ -0.071835520371262, 51.519884239876376 ], [ -0.071825793172672, 51.51977741753911 ], [ -0.071847131249825, 51.519776968290465 ], [ -0.072175790684013, 51.519773023226193 ], [ -0.072211500058586, 51.519797819004772 ], [ -0.072144220136297, 51.519905110036539 ], [ -0.072178492313662, 51.519949252432156 ], [ -0.072253297385157, 51.52004561670006 ], [ -0.072491869603876, 51.52000033312725 ], [ -0.072508580090176, 51.520000239289757 ], [ -0.072611119151117, 51.520027006461987 ], [ -0.072686007814776, 51.52005521624065 ], [ -0.072774458221223, 51.520101913161376 ], [ -0.07279199281999, 51.520095618889187 ], [ -0.072953205228028, 51.52007686748356 ], [ -0.072996332077938, 51.520088511790995 ], [ -0.073055223549318, 51.520124848448255 ], [ -0.073064046114967, 51.520130290217793 ], [ -0.073081944463624, 51.520141321801653 ], [ -0.07330787385217, 51.520280727340563 ], [ -0.073303566862452, 51.520304891821354 ], [ -0.073347069829103, 51.520304905644693 ], [ -0.073358196015482, 51.520311779133038 ], [ -0.073658999934578, 51.520304997857913 ], [ -0.073666315257326, 51.520304830345538 ], [ -0.073736105358839, 51.520303261782196 ], [ -0.073947957801517, 51.520298488727505 ], [ -0.073951455493768, 51.520286657882302 ], [ -0.073962837131422, 51.520285774821986 ], [ -0.073941468008663, 51.520102566271817 ], [ -0.073944504640997, 51.520070242504033 ], [ -0.073950078865191, 51.520010928422465 ], [ -0.073952699504762, 51.519982995241406 ], [ -0.073948998825821, 51.519977781605952 ], [ -0.073916395050255, 51.519853443375105 ], [ -0.073899250098803, 51.519788027526658 ], [ -0.073970835667994, 51.519730589780679 ], [ -0.074055528777264, 51.519711622316024 ], [ -0.074132393871696, 51.519700871355532 ], [ -0.074126706645605, 51.519487624177536 ], [ -0.074485293683582, 51.5194837166475 ], [ -0.074496363015003, 51.519339770902711 ], [ -0.074499620305847, 51.519262586214566 ], [ -0.074498137538054, 51.519236923692517 ], [ -0.074493076504702, 51.519149521515516 ], [ -0.07449128377468, 51.519118566198195 ], [ -0.07449040708612, 51.519095278711703 ], [ -0.074473926631727, 51.519095736319066 ], [ -0.074282771620726, 51.519100679591865 ], [ -0.074188500172033, 51.519045057317172 ], [ -0.074166953559824, 51.519032356252268 ], [ -0.074021629949876, 51.518946614625975 ], [ -0.073987992374352, 51.51895229370335 ], [ -0.073951430504936, 51.518952807866349 ], [ -0.073746484036079, 51.518955644113007 ], [ -0.073698317707747, 51.518953791212596 ], [ -0.073602647281354, 51.518950105231603 ], [ -0.073444089850994, 51.518889351845097 ], [ -0.073205039723277, 51.51887545760264 ], [ -0.0730432766545, 51.518866053181505 ], [ -0.072894618815284, 51.518836792370905 ], [ -0.072714874352993, 51.518866286428441 ], [ -0.072672396757113, 51.518873254072943 ], [ -0.072518717121781, 51.518872111268188 ], [ -0.072463336526429, 51.518872819018732 ], [ -0.072446782534006, 51.518874336268865 ], [ -0.072405145072187, 51.518875575803172 ], [ -0.072382169178384, 51.51887522484067 ], [ -0.072329432997884, 51.518874411299201 ], [ -0.072307367794105, 51.518871269583556 ], [ -0.072269213446339, 51.518867854197651 ], [ -0.072261545862463, 51.518867494251865 ], [ -0.07215817799291, 51.518866890854504 ], [ -0.072102933509504, 51.518861989235269 ], [ -0.071878014857032, 51.518873899986176 ], [ -0.071811122223126, 51.518884381911519 ], [ -0.071744009599259, 51.518872441401982 ], [ -0.071618296481321, 51.518850085218226 ], [ -0.071574288999947, 51.518825890098718 ], [ -0.071530084464303, 51.518801583807388 ], [ -0.071528552018733, 51.518782593004204 ], [ -0.071528126402899, 51.518777316283355 ], [ -0.071550934288124, 51.518773456069326 ], [ -0.071549302343341, 51.518770119902918 ], [ -0.071523184070828, 51.518716570258405 ], [ -0.071463148845179, 51.518593461513262 ], [ -0.071449433200429, 51.518565340462388 ], [ -0.071431552101524, 51.518528688734257 ], [ -0.071440958429023, 51.518528151102757 ], [ -0.071431441770529, 51.518520215803797 ], [ -0.071427259308543, 51.518515326887957 ], [ -0.071422157248508, 51.518510539742458 ], [ -0.071414199537366, 51.518495220121594 ], [ -0.071400765485179, 51.518472646793612 ], [ -0.071502197790287, 51.518401094027745 ], [ -0.071513383355634, 51.518396314143232 ], [ -0.071570836516501, 51.518371792332417 ], [ -0.071764935512353, 51.518288935294677 ], [ -0.071989605722618, 51.518322406784606 ], [ -0.072003344002634, 51.518319638252137 ], [ -0.071982201374353, 51.518167772542924 ], [ -0.072148292263865, 51.518157582614066 ], [ -0.072428116165129, 51.518140414508409 ], [ -0.072550251196111, 51.518135175353308 ], [ -0.072731359422496, 51.518127416828015 ], [ -0.07276054699248, 51.518118904168411 ], [ -0.072790114111644, 51.51810140505237 ], [ -0.072819302033836, 51.518092883391205 ], [ -0.072835603399205, 51.518048197015545 ], [ -0.072830964671611, 51.5180187865693 ], [ -0.072767398532538, 51.517615426122859 ], [ -0.072767778090129, 51.51760643967323 ], [ -0.072777239390721, 51.517595381389008 ], [ -0.072782941036842, 51.517588703662121 ], [ -0.072812507798482, 51.517571204533255 ], [ -0.072827291170802, 51.517562454965891 ], [ -0.072856098819819, 51.517562928725766 ], [ -0.07304410756259, 51.51754803508976 ], [ -0.073527791263889, 51.51752177054572 ], [ -0.073678342486459, 51.517513601726925 ], [ -0.07375792804606, 51.517608358423807 ], [ -0.073794634039618, 51.517651524194626 ], [ -0.074031862800164, 51.517936534940674 ], [ -0.074036444615776, 51.51794204183048 ], [ -0.074186923179472, 51.518133361430195 ], [ -0.074200704160682, 51.518158263852442 ], [ -0.074264265232279, 51.51827312888966 ], [ -0.074267278962447, 51.518278565037569 ], [ -0.074392871689284, 51.518267220790939 ], [ -0.074452756843324, 51.518216793617427 ], [ -0.074532507919879, 51.518215469191659 ], [ -0.07453729726791, 51.51821537702515 ], [ -0.074732774289978, 51.51821210504518 ], [ -0.074852304081917, 51.518172612491867 ], [ -0.07501700412472, 51.518305730149329 ], [ -0.0750756397532, 51.518300623279394 ], [ -0.075146701423094, 51.518162574708363 ], [ -0.075153873615817, 51.518054060809746 ], [ -0.075161877303673, 51.518056017793548 ], [ -0.075385484666847, 51.518110616125973 ], [ -0.075543676632936, 51.518066569062498 ], [ -0.075566254883519, 51.518060276269075 ], [ -0.075661430037416, 51.517936220329027 ], [ -0.075691990595796, 51.517869843531713 ], [ -0.075715228288881, 51.517865000368957 ], [ -0.075749081283614, 51.517857948450825 ], [ -0.075769832773786, 51.517853613005919 ], [ -0.075813816545093, 51.517836358849266 ], [ -0.076066588898355, 51.517762623465366 ], [ -0.076076497985387, 51.517759728638318 ], [ -0.076043360391209, 51.517717341585929 ], [ -0.076039462167061, 51.517712367574042 ], [ -0.076015462822932, 51.5176816762648 ], [ -0.075963462502274, 51.517615176733507 ], [ -0.075898410997413, 51.517531987373907 ], [ -0.075847898304155, 51.517467372803857 ], [ -0.075815854695707, 51.517426397515621 ], [ -0.075793754054593, 51.517398130292101 ], [ -0.075797702132953, 51.517390299537624 ], [ -0.07578087317845, 51.517368616094657 ], [ -0.07577972484144, 51.517367135925866 ], [ -0.075743360937342, 51.517320262410891 ], [ -0.075734590955266, 51.51732246549247 ], [ -0.075503758120634, 51.517012610252728 ], [ -0.075664727223561, 51.51697110679013 ], [ -0.075872482695113, 51.516917535165298 ], [ -0.075886790990939, 51.51691384569159 ], [ -0.076027207269631, 51.516877635483894 ], [ -0.076016740503106, 51.516863677834579 ], [ -0.075999915528908, 51.516841216614331 ], [ -0.07600029441116, 51.516832230140515 ], [ -0.075988542979853, 51.516769088334591 ], [ -0.075960695754044, 51.516738325732568 ], [ -0.075937346543774, 51.516712531701508 ], [ -0.07586459418905, 51.516632162758924 ], [ -0.075820068559524, 51.516572736326957 ], [ -0.075782734316481, 51.516522906264768 ], [ -0.075709944434914, 51.516539696382587 ], [ -0.075668317647119, 51.516554066586167 ], [ -0.075657047250646, 51.516552676487414 ], [ -0.075666275467739, 51.516526990218118 ], [ -0.075697889430188, 51.516438987072235 ], [ -0.075707423095987, 51.516412516256452 ], [ -0.075684488750137, 51.516359937049451 ], [ -0.075663748383052, 51.516312411790103 ], [ -0.075636223491615, 51.516248381429158 ], [ -0.075409660748634, 51.516142737432446 ], [ -0.07540914107301, 51.516139680373648 ], [ -0.075393846093793, 51.516046093984379 ], [ -0.075515623637663, 51.516010567460199 ], [ -0.075545144950178, 51.516001956168196 ], [ -0.075554252395383, 51.515999298215938 ], [ -0.075647396885397, 51.515972129454269 ], [ -0.075683819403868, 51.51596084821734 ], [ -0.075705732604296, 51.515954065162319 ], [ -0.07589179095063, 51.515896469080232 ], [ -0.076016982771603, 51.515983764580128 ], [ -0.076137133137981, 51.516067849517391 ], [ -0.076144973619851, 51.516073328892318 ], [ -0.076192224645936, 51.51610639739431 ], [ -0.076223696939997, 51.516128433592833 ], [ -0.076252790767241, 51.516148767088005 ], [ -0.076318157972109, 51.516194524876617 ], [ -0.076325522039296, 51.516199681674202 ], [ -0.076346214440064, 51.51621416686698 ], [ -0.076392905529145, 51.516246848402282 ], [ -0.076395621764472, 51.516248745485427 ], [ -0.076409146088298, 51.516258211981537 ], [ -0.07641769549063, 51.516265681368083 ], [ -0.076431903689352, 51.516278072720709 ], [ -0.076464887216934, 51.516306868290258 ], [ -0.076473706557142, 51.51631456782026 ], [ -0.076524616128799, 51.516358991065793 ], [ -0.076528091245705, 51.516362033681872 ], [ -0.076564626052243, 51.516393914455428 ], [ -0.076695777161724, 51.516508408322977 ], [ -0.076699266704819, 51.516511451170643 ], [ -0.076715142502599, 51.516525317682181 ], [ -0.076743544068131, 51.516550118054482 ], [ -0.076754170858517, 51.51655939307183 ], [ -0.076793188507001, 51.516593450287175 ], [ -0.07682684435208, 51.516632091198481 ], [ -0.076839520200792, 51.516646647073756 ], [ -0.076841527686082, 51.516648946178719 ], [ -0.076855523231843, 51.516665020994132 ], [ -0.076858245084058, 51.516669008960136 ], [ -0.076891949583401, 51.516708379059004 ], [ -0.076998672564126, 51.516871072704781 ], [ -0.077004600587587, 51.516880109622065 ], [ -0.07704919280944, 51.51694808964529 ], [ -0.077049411189703, 51.516948414268022 ], [ -0.077075388048942, 51.51698636795129 ], [ -0.077140265268129, 51.517085362977248 ], [ -0.07714733483905, 51.517096146115158 ], [ -0.077152549018323, 51.517104098482832 ], [ -0.077344860348767, 51.517397511072083 ], [ -0.077377894280579, 51.517447512867498 ], [ -0.077397498319116, 51.517481861954565 ], [ -0.077407357343697, 51.517499137700568 ], [ -0.077411074964808, 51.517505664439717 ], [ -0.07745789122253, 51.517587762431965 ], [ -0.077494141220125, 51.517651309591081 ], [ -0.077551177370213, 51.517751296208367 ], [ -0.077604425275609, 51.517844623611929 ], [ -0.077616974474449, 51.51786664574982 ], [ -0.077660139885421, 51.5179755449333 ], [ -0.077664049684644, 51.517980591022486 ], [ -0.077687329574906, 51.51801066678069 ], [ -0.077708831999507, 51.518038456210974 ], [ -0.077716877666175, 51.518046672621828 ], [ -0.077736774977564, 51.518066989768329 ], [ -0.077764639975948, 51.518095424918691 ], [ -0.077777930602334, 51.518108986287167 ], [ -0.07778379634661, 51.518114136398097 ], [ -0.077828593105977, 51.518153530789455 ], [ -0.077839170724225, 51.518162822882971 ], [ -0.077869176495377, 51.518189543145432 ], [ -0.077939509718208, 51.518251032340558 ], [ -0.07798779931318, 51.518309485515452 ], [ -0.078087175747916, 51.518429800947395 ], [ -0.078119981298981, 51.518470032717914 ], [ -0.078038342654208, 51.518483823969646 ], [ -0.078022437423561, 51.518486715040389 ], [ -0.078023420349981, 51.518500337102381 ], [ -0.078025386981181, 51.518527904975841 ], [ -0.078030881318323, 51.518604495906978 ], [ -0.078035452287086, 51.518668104233292 ], [ -0.078055339132527, 51.518945396260598 ], [ -0.078057017090213, 51.51896886772326 ], [ -0.078086669478885, 51.518966350493415 ], [ -0.078093683413574, 51.518965530288057 ], [ -0.07830842750384, 51.518946012796043 ], [ -0.07842372330876, 51.518935493560171 ], [ -0.078718373221373, 51.518908598646249 ], [ -0.07937416011237, 51.518848756134311 ], [ -0.079403403699395, 51.518846290323637 ], [ -0.079386440430972, 51.518886780660011 ], [ -0.079377025398407, 51.518909099081149 ], [ -0.079246353555095, 51.519218796811813 ], [ -0.079204369304109, 51.519318323171227 ], [ -0.079147431789954, 51.519453242430842 ], [ -0.079076736786517, 51.519709499309393 ], [ -0.079008697082381, 51.519956078567773 ], [ -0.078886458336714, 51.520399140763523 ], [ -0.078884009064173, 51.520408012363582 ], [ -0.078868597915469, 51.520463856097436 ], [ -0.078867405680024, 51.52046820699794 ], [ -0.078825865560425, 51.52061875600085 ], [ -0.078815694319224, 51.520655594156395 ], [ -0.078784221808184, 51.520740265899391 ], [ -0.07877130266851, 51.520788614601997 ], [ -0.07871532370334, 51.520998251588878 ], [ -0.078704010515873, 51.52104063748309 ], [ -0.078677439835741, 51.521088996157346 ], [ -0.07866181245003, 51.521117444589031 ], [ -0.078659658423281, 51.521121357061226 ], [ -0.078647839890202, 51.521142880623053 ], [ -0.078561585208435, 51.521299881522857 ], [ -0.078445363490298, 51.521511447789159 ], [ -0.078433157918501, 51.521532709589266 ], [ -0.078425989153148, 51.521545136833737 ], [ -0.078408354013961, 51.521570593712958 ], [ -0.078403932432847, 51.521576970761892 ], [ -0.078388018521191, 51.521599927119524 ], [ -0.078380528924711, 51.521610730416526 ], [ -0.07836684651932, 51.52163046801175 ], [ -0.078216815203014, 51.52184689140983 ], [ -0.078211121470207, 51.521855098283041 ], [ -0.078105227439699, 51.521884530245686 ], [ -0.077993103412712, 51.521915698035542 ], [ -0.077948880104832, 51.521927990504459 ], [ -0.077901688883444, 51.5219410993721 ], [ -0.077898442066983, 51.521942001139642 ], [ -0.077728684633394, 51.521979045184843 ], [ -0.077633970730256, 51.521999712396195 ], [ -0.077244231560298, 51.522084755821382 ], [ -0.077121349808478, 51.522111579052705 ], [ -0.077105520794951, 51.522115024298643 ], [ -0.077091980315563, 51.522118210337126 ], [ -0.076693289151202, 51.522212097718281 ], [ -0.07655665681324, 51.522109280935176 ], [ -0.076535921936177, 51.522093688998595 ], [ -0.076525094283729, 51.522085525767466 ], [ -0.076498909972799, 51.522065842631157 ], [ -0.0764960792511, 51.522063712561312 ], [ -0.076450259551036, 51.522029235180085 ] ] ] } }
]
}
