{
"type": "FeatureCollection",
"name": "wards_Islington",
"crs": { "type": "name", "properties": { "name": "urn:ogc:def:crs:OGC:1.3:CRS84" } },
"features": [
{ "type": "Feature", "properties": { "NAME": "Clerkenwell", "GSS_CODE": "E05000370", "DISTRICT": "Islington", "LAGSSCODE": "E09000019", "HECTARES": 93.263, "NONLD_AREA": 0.0 }, "geometry": { "type": "Polygon", "coordinates": [ [ [ -0.119870254408998, 51.530939459085431 ], [ -0.119337467920644, 51.530993851673692 ], [ -0.116977142439949, 51.531135792815526 ], [ -0.114735290635031, 51.53134170755925 ], [ -0.11309643988372, 51.531468278210788 ], [ -0.112455345720992, 51.531525389623781 ], [ -0.1122933103615, 51.53153986332407 ], [ -0.111374868943558, 51.531611384291118 ], [ -0.110626155076494, 51.531689318020383 ], [ -0.109760520872617, 51.53177156598101 ], [ -0.109730234133902, 51.531773774945115 ], [ -0.109120200806673, 51.531809792143584 ], [ -0.108298279627374, 51.531846884148294 ], [ -0.107018110348114, 51.53187747477935 ], [ -0.106518993877251, 51.531884701899436 ], [ -0.106273171508982, 51.531901410672106 ], [ -0.10625340698941, 51.531821978387846 ], [ -0.106201378517898, 51.531511787835896 ], [ -0.106186457444949, 51.531421645578902 ], [ -0.106077335353766, 51.531097946971926 ], [ -0.105965081040483, 51.530849714836386 ], [ -0.105759090096545, 51.53056580640439 ], [ -0.105473558537635, 51.530222177143713 ], [ -0.105343573800285, 51.530086124697689 ], [ -0.105180561419573, 51.529915286209828 ], [ -0.105005150656402, 51.529696689422302 ], [ -0.104888687712411, 51.529549976900924 ], [ -0.1046099720691, 51.529629081937294 ], [ -0.10455038159989, 51.529504055245887 ], [ -0.104447428758868, 51.529518573863697 ], [ -0.104412734406391, 51.529483850720922 ], [ -0.104351783398934, 51.529494552921477 ], [ -0.104339177707683, 51.529520420586607 ], [ -0.10420720868157, 51.529538066126406 ], [ -0.104163941649284, 51.529400716890343 ], [ -0.104117775378032, 51.529401768775706 ], [ -0.104056285582642, 51.529353936375202 ], [ -0.103749213130303, 51.52914579595241 ], [ -0.103739414591605, 51.529138445453668 ], [ -0.103621048865104, 51.529212049044794 ], [ -0.10370100539349, 51.529264585353253 ], [ -0.103475853831891, 51.529373411887946 ], [ -0.103462643955705, 51.529379491402807 ], [ -0.103412086813811, 51.52934891667558 ], [ -0.103403639087656, 51.529343386014737 ], [ -0.103402138866489, 51.529345159784008 ], [ -0.102968401001442, 51.529616030928885 ], [ -0.10290372109233, 51.529576327366371 ], [ -0.102822008712266, 51.529566015708333 ], [ -0.102759737138065, 51.529571301638818 ], [ -0.102479990150846, 51.529780831523738 ], [ -0.101722058914757, 51.529286518311693 ], [ -0.101449079500847, 51.529090609288474 ], [ -0.101338829125804, 51.529003417367747 ], [ -0.101284850651494, 51.52894941140628 ], [ -0.101175150977306, 51.528811883589107 ], [ -0.100980565417991, 51.528431955370145 ], [ -0.100973880230607, 51.528418361884405 ], [ -0.100565442827258, 51.527561908094988 ], [ -0.10019688744293, 51.526752847917194 ], [ -0.100102878224539, 51.526518480124054 ], [ -0.101366248919511, 51.526265560544523 ], [ -0.102124631589472, 51.526124912766463 ], [ -0.103496060493305, 51.525871004437334 ], [ -0.10373784295411, 51.526296729834748 ], [ -0.103886330118952, 51.526333292400594 ], [ -0.103980064043235, 51.526054225311938 ], [ -0.104089999211333, 51.52569990281205 ], [ -0.10413661746679, 51.525547734001961 ], [ -0.104115308255362, 51.52540264808259 ], [ -0.104016740624543, 51.525171715975162 ], [ -0.103730463564513, 51.52484425209196 ], [ -0.103625174128664, 51.524743658326315 ], [ -0.103468417078845, 51.524594494660988 ], [ -0.103228703290361, 51.524362268941424 ], [ -0.102814142464886, 51.523930150826878 ], [ -0.102677909923167, 51.523739154123 ], [ -0.102480460758874, 51.523462569647414 ], [ -0.102354635086036, 51.523298621490781 ], [ -0.102214928186801, 51.522948352147722 ], [ -0.102071076012564, 51.522457768917256 ], [ -0.101612383453864, 51.521355884051538 ], [ -0.101547124422218, 51.521156144814626 ], [ -0.101533889471542, 51.520988623400861 ], [ -0.101593159470511, 51.52081238681933 ], [ -0.101691604073342, 51.520662944899485 ], [ -0.101701512098834, 51.520424775755764 ], [ -0.101766236881225, 51.520117370217733 ], [ -0.101795059311189, 51.51966733899377 ], [ -0.102058255126195, 51.519577110480768 ], [ -0.103231024982594, 51.519208510960638 ], [ -0.104730416017246, 51.518749880752814 ], [ -0.105315388715252, 51.518546172377697 ], [ -0.105324207718467, 51.51854271873259 ], [ -0.105463835000737, 51.519138505064227 ], [ -0.105858663892423, 51.520286093252992 ], [ -0.106010711600778, 51.520686003641721 ], [ -0.106139261590316, 51.520921913327527 ], [ -0.106326725409131, 51.521267554938994 ], [ -0.106475927928503, 51.521495616545891 ], [ -0.106621956864936, 51.521691352018692 ], [ -0.10699474389445, 51.522191108125512 ], [ -0.108248730242572, 51.522091676266491 ], [ -0.108260027827907, 51.522097252544697 ], [ -0.108311271537928, 51.522148423810442 ], [ -0.108576388250587, 51.522462050272956 ], [ -0.108732579765038, 51.522693907658287 ], [ -0.108941033919562, 51.522986841435355 ], [ -0.108965512248455, 51.523021398661527 ], [ -0.109218688617064, 51.522929284493117 ], [ -0.109295891352019, 51.522944913010413 ], [ -0.109455867236745, 51.523016715438409 ], [ -0.10957894300666, 51.523072639759306 ], [ -0.109783859443103, 51.523101114046796 ], [ -0.109959473959199, 51.523142601170015 ], [ -0.110576875453028, 51.523273104450581 ], [ -0.111175584620641, 51.523398718549316 ], [ -0.111859358243909, 51.523562648300526 ], [ -0.112168524972564, 51.523651232353657 ], [ -0.112332250690612, 51.523701514792201 ], [ -0.112537309479919, 51.523795614835443 ], [ -0.113186493015132, 51.52423866465827 ], [ -0.113481187378394, 51.524433096546197 ], [ -0.113586501813508, 51.524536468878345 ], [ -0.113653974606099, 51.524612172239586 ], [ -0.113855149268764, 51.524906778292646 ], [ -0.114077453435774, 51.525282635218772 ], [ -0.114181114416109, 51.525460598863951 ], [ -0.114227676502374, 51.525518884431946 ], [ -0.113709559465575, 51.525881039971622 ], [ -0.113198902941044, 51.526237918918987 ], [ -0.112923599225585, 51.52641068701859 ], [ -0.113411937631956, 51.526524625344123 ], [ -0.11359958765484, 51.526588776094684 ], [ -0.113734608992627, 51.526634999022427 ], [ -0.113799071559165, 51.52668008734387 ], [ -0.11446915524006, 51.52707312159334 ], [ -0.114679957256442, 51.527204170103538 ], [ -0.115277881062579, 51.527597748417399 ], [ -0.115406630529173, 51.527723971226266 ], [ -0.115450427108532, 51.527783110976181 ], [ -0.115503051616417, 51.527870262079205 ], [ -0.115544079493265, 51.527959024907453 ], [ -0.115654551242137, 51.528320586419383 ], [ -0.11570112653559, 51.528726881485156 ], [ -0.115757541127785, 51.529456171825132 ], [ -0.115781308634842, 51.529545556350506 ], [ -0.115815348103516, 51.529628003627266 ], [ -0.115854528962306, 51.529692463223164 ], [ -0.115917624991261, 51.529770792196182 ], [ -0.115990885524462, 51.529844789305038 ], [ -0.116027196484125, 51.529875129984319 ], [ -0.116506733339886, 51.530096797070016 ], [ -0.117077208039541, 51.530284051246369 ], [ -0.117531972808239, 51.530409121714719 ], [ -0.118115379941345, 51.530559718784545 ], [ -0.118985743189475, 51.53074808566631 ], [ -0.119870254408998, 51.530939459085431 ] ] ] } },
{ "type": "Feature", "properties": { "NAME": "Caledonian", "GSS_CODE": "E05000368", "DISTRICT": "Islington", "LAGSSCODE": "E09000019", "HECTARES": 113.611, "NONLD_AREA": 0.0 }, "geometry": { "type": "Polygon", "coordinates": [ [ [ -0.126336085494864, 51.545063378400442 ], [ -0.125115907907205, 51.545413561598316 ], [ -0.124014565224755, 51.545716096431718 ], [ -0.122767977106577, 51.546080126971553 ], [ -0.121000349556649, 51.546589532287385 ], [ -0.120460783849166, 51.546734711254771 ], [ -0.120129445349464, 51.546793232984818 ], [ -0.119841649446183, 51.546813794021205 ], [ -0.119449432077786, 51.546846165968262 ], [ -0.118874369871762, 51.546836947851361 ], [ -0.118074345490317, 51.546824116492829 ], [ -0.117519316437663, 51.546853862725499 ], [ -0.116701053003448, 51.547250848720019 ], [ -0.115317068500618, 51.547932710559749 ], [ -0.114711026016192, 51.548217930087723 ], [ -0.114610992022177, 51.54812642038241 ], [ -0.113996497455828, 51.547603921157247 ], [ -0.113043435471098, 51.546794580706269 ], [ -0.11254937760041, 51.546325256894356 ], [ -0.112092878211055, 51.545960011844343 ], [ -0.111740477309431, 51.545519127337982 ], [ -0.111290397121345, 51.5449992640022 ], [ -0.110865904648364, 51.544490599624019 ], [ -0.111082942888586, 51.544438358086339 ], [ -0.112455820958271, 51.544092684249641 ], [ -0.113682394721717, 51.543830944715971 ], [ -0.113322820808886, 51.543284675609854 ], [ -0.113317526224056, 51.543099394734945 ], [ -0.113403393440777, 51.542348935739689 ], [ -0.113451060153862, 51.541857854012967 ], [ -0.113563229574907, 51.540612369620497 ], [ -0.113698616474803, 51.53897789603333 ], [ -0.113751014349327, 51.538685570957774 ], [ -0.113882965851486, 51.536854966491617 ], [ -0.113887682513705, 51.536812788756059 ], [ -0.113889503159147, 51.536768766419847 ], [ -0.11466799398233, 51.536806456187875 ], [ -0.115608651621709, 51.536898889362554 ], [ -0.116582928745874, 51.53694600529159 ], [ -0.116586077090616, 51.536938863741909 ], [ -0.116681696059389, 51.536474620196969 ], [ -0.116690431319654, 51.536438710012618 ], [ -0.11691846082899, 51.535526006493079 ], [ -0.117093332689679, 51.534783351438321 ], [ -0.117124767290651, 51.534580588936542 ], [ -0.117136555681999, 51.534505260973432 ], [ -0.117177677305146, 51.534240621951945 ], [ -0.117362061155751, 51.53354666458975 ], [ -0.117383890197639, 51.533366312395465 ], [ -0.117378809306713, 51.533247470590581 ], [ -0.117357612092653, 51.533130258038454 ], [ -0.117322125226831, 51.533013625232044 ], [ -0.117258611135692, 51.532873257971495 ], [ -0.117151097659686, 51.532091004865791 ], [ -0.116977142439949, 51.531135792815526 ], [ -0.119337467920644, 51.530993851673692 ], [ -0.119870254408998, 51.530939459085431 ], [ -0.121193226377522, 51.530849982091453 ], [ -0.121969876713276, 51.530791393581929 ], [ -0.122530388124414, 51.530727543562769 ], [ -0.122527524272247, 51.530831783739529 ], [ -0.122537715603043, 51.531109833043963 ], [ -0.12243905132963, 51.532738621813451 ], [ -0.122334770159037, 51.534044482941418 ], [ -0.122314625778014, 51.534568466102982 ], [ -0.122315237767739, 51.534588254224275 ], [ -0.122312989044039, 51.535520766337704 ], [ -0.122303371885985, 51.535823670315715 ], [ -0.122314856999852, 51.536070274040313 ], [ -0.122326564133848, 51.536311487219329 ], [ -0.122347474851651, 51.536571726972298 ], [ -0.122374921673465, 51.536886911191417 ], [ -0.12249523272303, 51.537363605915154 ], [ -0.122581165813679, 51.537621289918235 ], [ -0.12269866708807, 51.537920833578546 ], [ -0.12304969589239, 51.538500200180202 ], [ -0.123150515078672, 51.538644756130225 ], [ -0.123352151907798, 51.538893501993144 ], [ -0.123708496449089, 51.539240016959397 ], [ -0.124024560397376, 51.539516662739672 ], [ -0.124271820536106, 51.539815582172821 ], [ -0.124835290773121, 51.540596122178009 ], [ -0.124983084213859, 51.540859287925869 ], [ -0.125060445285107, 51.541117732010086 ], [ -0.125067405435612, 51.54119425941596 ], [ -0.125240958296776, 51.541461432473284 ], [ -0.125453621404539, 51.541760695564136 ], [ -0.125664108414219, 51.542112965313855 ], [ -0.125715306021795, 51.542481569259962 ], [ -0.125801384959585, 51.542739252677883 ], [ -0.125874717471499, 51.542919417365319 ], [ -0.125912690774699, 51.543048582661122 ], [ -0.125883877072538, 51.543188368404131 ], [ -0.125968264445475, 51.543556693101813 ], [ -0.126129429578612, 51.544195048599875 ], [ -0.126336085494864, 51.545063378400442 ] ] ] } },
{ "type": "Feature", "properties": { "NAME": "St. Mary's", "GSS_CODE": "E05000379", "DISTRICT": "Islington", "LAGSSCODE": "E09000019", "HECTARES": 86.831, "NONLD_AREA": 0.0 }, "geometry": { "type": "Polygon", "coordinates": [ [ [ -0.105996298875724, 51.533118159870916 ], [ -0.10654929608489, 51.533551602424119 ], [ -0.106847141627054, 51.533773971533783 ], [ -0.106903858497048, 51.533902636549371 ], [ -0.107031924249372, 51.53428867058868 ], [ -0.107049883958455, 51.534342901033611 ], [ -0.107160632911089, 51.534662128755663 ], [ -0.107207947045761, 51.534983029703746 ], [ -0.107236371244236, 51.535303625782277 ], [ -0.107181913675517, 51.535610298116957 ], [ -0.107125029635051, 51.536006922088987 ], [ -0.107030194218996, 51.536799396588108 ], [ -0.107010097146029, 51.537040096614696 ], [ -0.106973602599158, 51.53732638141831 ], [ -0.106903165766286, 51.537983498984602 ], [ -0.106860275080732, 51.538773215413826 ], [ -0.106720467699261, 51.539222440671466 ], [ -0.106223880356571, 51.540692752075103 ], [ -0.106170332146941, 51.540802555215045 ], [ -0.106135815772483, 51.540903585714517 ], [ -0.106116430042743, 51.540989577428888 ], [ -0.106108447558302, 51.541075843211345 ], [ -0.10611129254902, 51.541181972149005 ], [ -0.106796680161196, 51.543151614620712 ], [ -0.107089462047719, 51.543846956291453 ], [ -0.10741031195035, 51.544456446183212 ], [ -0.107858313767094, 51.545234393236491 ], [ -0.109483237608615, 51.544828005079601 ], [ -0.110865904648364, 51.544490599624019 ], [ -0.111290397121345, 51.5449992640022 ], [ -0.111740477309431, 51.545519127337982 ], [ -0.112092878211055, 51.545960011844343 ], [ -0.11254937760041, 51.546325256894356 ], [ -0.113043435471098, 51.546794580706269 ], [ -0.112270517101832, 51.547140931020131 ], [ -0.111684728448472, 51.547387713603385 ], [ -0.111079404095697, 51.547620783054576 ], [ -0.110597641595612, 51.547830668573241 ], [ -0.109867619729244, 51.548113863740291 ], [ -0.110236154837318, 51.548618843248306 ], [ -0.110267371872053, 51.548666184675731 ], [ -0.110488357881515, 51.549006963908475 ], [ -0.11074334994049, 51.549293451582507 ], [ -0.11081541952335, 51.549537344636825 ], [ -0.110809570483063, 51.549678484136777 ], [ -0.110697849882513, 51.549869070629249 ], [ -0.110434932313591, 51.550261473664627 ], [ -0.110304430709005, 51.550451756890688 ], [ -0.110146489269393, 51.550781931053685 ], [ -0.110024396345844, 51.550872649454391 ], [ -0.109533168877329, 51.550509532294157 ], [ -0.10911343629936, 51.550197909488844 ], [ -0.108852168460605, 51.549994025618247 ], [ -0.10715249100648, 51.548615928497696 ], [ -0.107151064889862, 51.548615905469532 ], [ -0.105785997221469, 51.547624461034374 ], [ -0.105222601467106, 51.547262767586361 ], [ -0.104573494340743, 51.546917755898725 ], [ -0.103680201108814, 51.546479790279918 ], [ -0.10327813571881, 51.546296991985983 ], [ -0.103111636797651, 51.546243055100838 ], [ -0.102718910974491, 51.546184558100549 ], [ -0.102211069602139, 51.546154762428692 ], [ -0.101544032710386, 51.546172730321267 ], [ -0.101229647428642, 51.546206292536475 ], [ -0.100826312585667, 51.546262685005132 ], [ -0.100672325300814, 51.546288147593103 ], [ -0.100455866445557, 51.54632599219044 ], [ -0.100048849909685, 51.545677327512394 ], [ -0.099475747468717, 51.544856866182279 ], [ -0.099066771083619, 51.544255813939792 ], [ -0.099026138137731, 51.544192224834532 ], [ -0.099056430741257, 51.544155857375301 ], [ -0.099100808714561, 51.54412960740207 ], [ -0.09898741535708, 51.544082817801389 ], [ -0.098918403924641, 51.544009688357448 ], [ -0.098680716868928, 51.543447463960888 ], [ -0.098272749883968, 51.54251190881044 ], [ -0.098012664711582, 51.541797206706256 ], [ -0.096373135484493, 51.540892976026761 ], [ -0.095896027451291, 51.540646898650607 ], [ -0.095848085788104, 51.540621846549271 ], [ -0.095859874123276, 51.540615745073268 ], [ -0.096374245841092, 51.540313855734084 ], [ -0.097221354168879, 51.539816799238928 ], [ -0.098042797588045, 51.539310329567975 ], [ -0.098384269449461, 51.539110897929696 ], [ -0.098895413922103, 51.538748710939615 ], [ -0.099064233372111, 51.538609316683633 ], [ -0.099169115938114, 51.53851482431692 ], [ -0.099339275246646, 51.538340390132944 ], [ -0.10002505989425, 51.537732814427613 ], [ -0.100682605251182, 51.53721476711717 ], [ -0.101419151595236, 51.536666440401468 ], [ -0.101508189964614, 51.536606750290723 ], [ -0.101814450597406, 51.536418332015479 ], [ -0.102044818756453, 51.536290805280103 ], [ -0.102541097790006, 51.536075791819286 ], [ -0.103409664144561, 51.535716662762361 ], [ -0.103599641461344, 51.535656804203924 ], [ -0.103686162697163, 51.535620354940463 ], [ -0.103759848692039, 51.535583787989751 ], [ -0.103827899700858, 51.535542634845818 ], [ -0.103964778952025, 51.535438764799181 ], [ -0.104071673764264, 51.535332611855907 ], [ -0.104158591747941, 51.535217954912277 ], [ -0.104950148008555, 51.534419661716946 ], [ -0.105054183651632, 51.534310674627186 ], [ -0.105263824648011, 51.534089219353149 ], [ -0.105922301666484, 51.533233926559873 ], [ -0.105982304732775, 51.533143106263296 ], [ -0.105996298875724, 51.533118159870916 ] ] ] } },
{ "type": "Feature", "properties": { "NAME": "Holloway", "GSS_CODE": "E05000375", "DISTRICT": "Islington", "LAGSSCODE": "E09000019", "HECTARES": 100.874, "NONLD_AREA": 0.0 }, "geometry": { "type": "Polygon", "coordinates": [ [ [ -0.126336085494864, 51.545063378400442 ], [ -0.126369734968584, 51.545190766356427 ], [ -0.126483499653121, 51.545617006595542 ], [ -0.126627834120904, 51.546106755544798 ], [ -0.126862343611391, 51.546998004285186 ], [ -0.127062681876087, 51.547456282254309 ], [ -0.12711305189919, 51.547529906249821 ], [ -0.127147165128774, 51.54761136184603 ], [ -0.127178140645156, 51.547664987877575 ], [ -0.12724266950613, 51.547744231885552 ], [ -0.127583982109015, 51.54803925085325 ], [ -0.127673510428151, 51.54810630740004 ], [ -0.127755871524998, 51.548174148526712 ], [ -0.127946453578692, 51.548308535084054 ], [ -0.128209805759483, 51.548428709140815 ], [ -0.129111692293995, 51.548840546566922 ], [ -0.129023428178975, 51.548916454185758 ], [ -0.128966571890428, 51.548965982121949 ], [ -0.128965145747581, 51.548965959380048 ], [ -0.126390397751483, 51.551181118333091 ], [ -0.125601331592529, 51.551883404585588 ], [ -0.124475097203889, 51.552824915075909 ], [ -0.124388392425374, 51.552897247436249 ], [ -0.123987049017029, 51.553184895260678 ], [ -0.123969075502884, 51.553202587964108 ], [ -0.123753687027335, 51.553422186806394 ], [ -0.123596314623611, 51.553567196699134 ], [ -0.122267992523473, 51.555208653325934 ], [ -0.121247600984542, 51.556444090226982 ], [ -0.120958216122049, 51.556747004716215 ], [ -0.120810274250537, 51.556870495557789 ], [ -0.120300172519363, 51.55727604491468 ], [ -0.119428231418536, 51.557814148669962 ], [ -0.117242563850346, 51.556349301643742 ], [ -0.11690072437286, 51.556104585027256 ], [ -0.115174770300528, 51.554864626052172 ], [ -0.114352801606593, 51.554263277285429 ], [ -0.113535101901486, 51.553665587739161 ], [ -0.113021121341293, 51.553258966187741 ], [ -0.112740949801565, 51.553022422832854 ], [ -0.111811498594206, 51.552235031015428 ], [ -0.110621935421276, 51.551316590509728 ], [ -0.110024396345844, 51.550872649454391 ], [ -0.110146489269393, 51.550781931053685 ], [ -0.110304430709005, 51.550451756890688 ], [ -0.110434932313591, 51.550261473664627 ], [ -0.110697849882513, 51.549869070629249 ], [ -0.110809570483063, 51.549678484136777 ], [ -0.11081541952335, 51.549537344636825 ], [ -0.11074334994049, 51.549293451582507 ], [ -0.110488357881515, 51.549006963908475 ], [ -0.110267371872053, 51.548666184675731 ], [ -0.110236154837318, 51.548618843248306 ], [ -0.109867619729244, 51.548113863740291 ], [ -0.110597641595612, 51.547830668573241 ], [ -0.111079404095697, 51.547620783054576 ], [ -0.111684728448472, 51.547387713603385 ], [ -0.112270517101832, 51.547140931020131 ], [ -0.113043435471098, 51.546794580706269 ], [ -0.113996497455828, 51.547603921157247 ], [ -0.114610992022177, 51.54812642038241 ], [ -0.114711026016192, 51.548217930087723 ], [ -0.115317068500618, 51.547932710559749 ], [ -0.116701053003448, 51.547250848720019 ], [ -0.117519316437663, 51.546853862725499 ], [ -0.118074345490317, 51.546824116492829 ], [ -0.118874369871762, 51.546836947851361 ], [ -0.119449432077786, 51.546846165968262 ], [ -0.119841649446183, 51.546813794021205 ], [ -0.120129445349464, 51.546793232984818 ], [ -0.120460783849166, 51.546734711254771 ], [ -0.121000349556649, 51.546589532287385 ], [ -0.122767977106577, 51.546080126971553 ], [ -0.124014565224755, 51.545716096431718 ], [ -0.125115907907205, 51.545413561598316 ], [ -0.126336085494864, 51.545063378400442 ] ] ] } },
{ "type": "Feature", "properties": { "NAME": "Highbury East", "GSS_CODE": "E05000372", "DISTRICT": "Islington", "LAGSSCODE": "E09000019", "HECTARES": 100.809, "NONLD_AREA": 0.0 }, "geometry": { "type": "Polygon", "coordinates": [ [ [ -0.098558601881038, 51.546792451158701 ], [ -0.09969797541221, 51.546480915375604 ], [ -0.100101085159443, 51.546395755292814 ], [ -0.100428309508327, 51.546330939385797 ], [ -0.100455866445557, 51.54632599219044 ], [ -0.100672325300814, 51.546288147593103 ], [ -0.100826312585667, 51.546262685005132 ], [ -0.101229647428642, 51.546206292536475 ], [ -0.101544032710386, 51.546172730321267 ], [ -0.102211069602139, 51.546154762428692 ], [ -0.102718910974491, 51.546184558100549 ], [ -0.103111636797651, 51.546243055100838 ], [ -0.10327813571881, 51.546296991985983 ], [ -0.103680201108814, 51.546479790279918 ], [ -0.104573494340743, 51.546917755898725 ], [ -0.105222601467106, 51.547262767586361 ], [ -0.105785997221469, 51.547624461034374 ], [ -0.107151064889862, 51.548615905469532 ], [ -0.10715249100648, 51.548615928497696 ], [ -0.108852168460605, 51.549994025618247 ], [ -0.10911343629936, 51.550197909488844 ], [ -0.109533168877329, 51.550509532294157 ], [ -0.108816363783224, 51.551029368454472 ], [ -0.108542276052553, 51.551274957866042 ], [ -0.108274140983504, 51.551480187631284 ], [ -0.108054272890109, 51.551599801906846 ], [ -0.107705513052808, 51.551695758911599 ], [ -0.107175069140422, 51.551790668862033 ], [ -0.106385640114647, 51.551938838635969 ], [ -0.106002285201813, 51.552034321459132 ], [ -0.105720450074689, 51.552153828865421 ], [ -0.105572700827099, 51.552237744878177 ], [ -0.105302823457241, 51.552450131373661 ], [ -0.10506313242336, 51.552663005242067 ], [ -0.104897655789902, 51.55289586765479 ], [ -0.104848625422053, 51.552965286732586 ], [ -0.10397106230593, 51.553081448735959 ], [ -0.103947579424047, 51.553022633911603 ], [ -0.103944844331078, 51.552879558902283 ], [ -0.103395727728183, 51.552833815606007 ], [ -0.102283864013445, 51.552724120679407 ], [ -0.101357443728721, 51.552628205457573 ], [ -0.10039881533999, 51.552543351710121 ], [ -0.09920792282903, 51.552426942453209 ], [ -0.098948588819279, 51.552799505070453 ], [ -0.09885044073192, 51.552940044169524 ], [ -0.098710953133466, 51.553170711267818 ], [ -0.09846415208258, 51.553173897477244 ], [ -0.098403498293814, 51.55341923895957 ], [ -0.098258089660702, 51.55382610341146 ], [ -0.098111415339825, 51.554266120283927 ], [ -0.098100831864489, 51.554345959478319 ], [ -0.098109364047604, 51.554452269903194 ], [ -0.098108652449656, 51.554469339352607 ], [ -0.098103072000216, 51.554603199770149 ], [ -0.098116901441525, 51.555794958852459 ], [ -0.098030702635739, 51.556444615255472 ], [ -0.097976470060543, 51.556843879685296 ], [ -0.097955410520101, 51.556935325687995 ], [ -0.097956352829848, 51.55698118997654 ], [ -0.097965972116852, 51.557027195126075 ], [ -0.098002901851339, 51.557111401613327 ], [ -0.098331042935307, 51.557579892618378 ], [ -0.098429418398989, 51.557710945179558 ], [ -0.098466574144821, 51.557789761145678 ], [ -0.098479346416227, 51.557828625403836 ], [ -0.098526659397205, 51.558111768945032 ], [ -0.098536329582084, 51.558262148668369 ], [ -0.098618199634275, 51.558926219865391 ], [ -0.098621469019453, 51.5601294984858 ], [ -0.098634145160593, 51.560553224422776 ], [ -0.09856153687392, 51.560839817007931 ], [ -0.096006128619409, 51.561229034358192 ], [ -0.095732805342886, 51.561176945636106 ], [ -0.094799470786389, 51.560966690207451 ], [ -0.094472961052388, 51.560872289647939 ], [ -0.094265483919716, 51.560798793142247 ], [ -0.093730292968054, 51.560554458666459 ], [ -0.093609237971115, 51.560516529051412 ], [ -0.093314587495931, 51.56049105773711 ], [ -0.093100050128558, 51.560481273530485 ], [ -0.092959162930436, 51.560468192601718 ], [ -0.092742523877413, 51.560440393448609 ], [ -0.092256470056051, 51.560298529277397 ], [ -0.092141916835142, 51.560278684067626 ], [ -0.091676713208816, 51.560224270470385 ], [ -0.091565352843293, 51.560162223477356 ], [ -0.09153042144127, 51.560064562045952 ], [ -0.09148542997914, 51.559968534753395 ], [ -0.091223961812856, 51.559562240802151 ], [ -0.091021497338403, 51.559263978966122 ], [ -0.090857936945774, 51.558999703706476 ], [ -0.090744754797452, 51.558776614517924 ], [ -0.090531603918708, 51.558318964551347 ], [ -0.090349172215475, 51.557920339871025 ], [ -0.090285367875115, 51.557824904551374 ], [ -0.090266364287581, 51.557795826689791 ], [ -0.090357219063687, 51.557728084225808 ], [ -0.090394105897918, 51.55767375629096 ], [ -0.090293781196298, 51.556694634265682 ], [ -0.090240171273716, 51.555804375781356 ], [ -0.090281733240696, 51.55536265335833 ], [ -0.090306765908693, 51.554935045543594 ], [ -0.090367114144501, 51.554425215082389 ], [ -0.090720234610485, 51.554430970521288 ], [ -0.091179862225653, 51.554443854324319 ], [ -0.091557435857701, 51.554453601670524 ], [ -0.092028744542782, 51.55442891427996 ], [ -0.092397561509568, 51.554403455185543 ], [ -0.092353817423524, 51.554070021826135 ], [ -0.09232186360124, 51.553798811633079 ], [ -0.092915816356301, 51.553807583039379 ], [ -0.092907146786852, 51.553636541450643 ], [ -0.092905756122437, 51.553393788012556 ], [ -0.092850701878791, 51.553399184779572 ], [ -0.092773278668729, 51.552699129221935 ], [ -0.092762984399301, 51.552598273269517 ], [ -0.092669563438742, 51.551970866187638 ], [ -0.092633249028611, 51.5516986860003 ], [ -0.092639224359467, 51.551626863025525 ], [ -0.092639261910669, 51.551625964633594 ], [ -0.092640725649402, 51.551625089463634 ], [ -0.092825591651596, 51.551652372494146 ], [ -0.092967466502334, 51.551467599700374 ], [ -0.093025860929796, 51.551487519305056 ], [ -0.093051398717964, 51.551462673051624 ], [ -0.09311395746521, 51.551414246264613 ], [ -0.093183239899587, 51.551412677057634 ], [ -0.093382530091892, 51.551407829913714 ], [ -0.093649484887261, 51.551576782075827 ], [ -0.093668600801888, 51.551569002140425 ], [ -0.093747347524764, 51.551514545449521 ], [ -0.093820874786813, 51.551479691936791 ], [ -0.093979418738169, 51.551448109642266 ], [ -0.094180135216252, 51.551443284348011 ], [ -0.094414836326961, 51.55145339560044 ], [ -0.094424628394619, 51.551218915251347 ], [ -0.09454070139182, 51.551133510282263 ], [ -0.09450069743316, 51.55077856267404 ], [ -0.094491569102835, 51.550652553830901 ], [ -0.094485519370683, 51.550589525241357 ], [ -0.094799864292299, 51.550523527306531 ], [ -0.094768507849893, 51.550445703628419 ], [ -0.094568731641404, 51.549944321244396 ], [ -0.09451075872323, 51.54988305569632 ], [ -0.094919084905909, 51.549776423736191 ], [ -0.095183438897873, 51.549662954305745 ], [ -0.095435554395475, 51.549532114447182 ], [ -0.095730623319829, 51.549375092289637 ], [ -0.095984649087172, 51.549198433420308 ], [ -0.096179826916322, 51.549012726599209 ], [ -0.09639028587549, 51.548808478699932 ], [ -0.096363776477481, 51.548754108168872 ], [ -0.096340152624749, 51.548627774953118 ], [ -0.096285515023759, 51.548554967400143 ], [ -0.096446712561938, 51.548493758130462 ], [ -0.096639115304366, 51.548445641580713 ], [ -0.096914615613684, 51.548375410857993 ], [ -0.097542289838948, 51.548232776376764 ], [ -0.097907826740609, 51.548147913310686 ], [ -0.098228644632566, 51.548063132211176 ], [ -0.098277897840957, 51.547920092207391 ], [ -0.098450233547453, 51.547246663804394 ], [ -0.098558601881038, 51.546792451158701 ] ] ] } },
{ "type": "Feature", "properties": { "NAME": "Highbury West", "GSS_CODE": "E05000373", "DISTRICT": "Islington", "LAGSSCODE": "E09000019", "HECTARES": 108.254, "NONLD_AREA": 0.0 }, "geometry": { "type": "Polygon", "coordinates": [ [ [ -0.110024396345844, 51.550872649454391 ], [ -0.110621935421276, 51.551316590509728 ], [ -0.111811498594206, 51.552235031015428 ], [ -0.112740949801565, 51.553022422832854 ], [ -0.113021121341293, 51.553258966187741 ], [ -0.113535101901486, 51.553665587739161 ], [ -0.114352801606593, 51.554263277285429 ], [ -0.115174770300528, 51.554864626052172 ], [ -0.11690072437286, 51.556104585027256 ], [ -0.116211745588658, 51.556474779634819 ], [ -0.115722996079408, 51.556745703204911 ], [ -0.115371491368274, 51.556875890438327 ], [ -0.114621829499912, 51.557142523355687 ], [ -0.113917926984843, 51.557383906632076 ], [ -0.112847667584056, 51.557763227003043 ], [ -0.111923499136338, 51.55806398096523 ], [ -0.111557882760178, 51.558184040073115 ], [ -0.111438803961118, 51.558236061237501 ], [ -0.111319372207043, 51.558333925616381 ], [ -0.111184473988876, 51.558457701506114 ], [ -0.110812982783215, 51.55833475361991 ], [ -0.110754587739738, 51.558351792273761 ], [ -0.110411350242308, 51.557931729502386 ], [ -0.109711612765841, 51.557027468313557 ], [ -0.109468813881277, 51.556933651900849 ], [ -0.109377930171126, 51.557040065822491 ], [ -0.108966587713807, 51.557565817124804 ], [ -0.10856524884599, 51.558162749235585 ], [ -0.108412739480304, 51.558432774554269 ], [ -0.108222862615295, 51.558731863428832 ], [ -0.108131744412257, 51.558947051434693 ], [ -0.107740631988927, 51.559715944495188 ], [ -0.107574084925239, 51.560043278097339 ], [ -0.107374089337197, 51.560551759194681 ], [ -0.107358065913042, 51.560591056422425 ], [ -0.107177271445587, 51.561124030408102 ], [ -0.107092810417168, 51.56141942613047 ], [ -0.106875917070387, 51.562475304234745 ], [ -0.106768869938395, 51.56310844871799 ], [ -0.106716134018833, 51.563613823566293 ], [ -0.106174091309407, 51.563916210467184 ], [ -0.105872006343232, 51.564031884995465 ], [ -0.105516300617385, 51.564189754210076 ], [ -0.105215579850864, 51.564344106169266 ], [ -0.104484780773879, 51.564708162155092 ], [ -0.103767809279117, 51.564324289153717 ], [ -0.102138561307809, 51.563290768582867 ], [ -0.102060013940415, 51.56323726470054 ], [ -0.101903877273334, 51.563104381033305 ], [ -0.101489668460268, 51.562795517558556 ], [ -0.101391320874219, 51.562731892984566 ], [ -0.101303906477666, 51.562682829509662 ], [ -0.101075862428059, 51.562582851094632 ], [ -0.100973080032223, 51.562520053289504 ], [ -0.100935179506646, 51.562496065006066 ], [ -0.100838820781748, 51.562418987150672 ], [ -0.099453594134925, 51.561487366852958 ], [ -0.09856153687392, 51.560839817007931 ], [ -0.098634145160593, 51.560553224422776 ], [ -0.098621469019453, 51.5601294984858 ], [ -0.098618199634275, 51.558926219865391 ], [ -0.098536329582084, 51.558262148668369 ], [ -0.098526659397205, 51.558111768945032 ], [ -0.098479346416227, 51.557828625403836 ], [ -0.098466574144821, 51.557789761145678 ], [ -0.098429418398989, 51.557710945179558 ], [ -0.098331042935307, 51.557579892618378 ], [ -0.098002901851339, 51.557111401613327 ], [ -0.097965972116852, 51.557027195126075 ], [ -0.097956352829848, 51.55698118997654 ], [ -0.097955410520101, 51.556935325687995 ], [ -0.097976470060543, 51.556843879685296 ], [ -0.098030702635739, 51.556444615255472 ], [ -0.098116901441525, 51.555794958852459 ], [ -0.098103072000216, 51.554603199770149 ], [ -0.098108652449656, 51.554469339352607 ], [ -0.098109364047604, 51.554452269903194 ], [ -0.098100831864489, 51.554345959478319 ], [ -0.098111415339825, 51.554266120283927 ], [ -0.098258089660702, 51.55382610341146 ], [ -0.098403498293814, 51.55341923895957 ], [ -0.09846415208258, 51.553173897477244 ], [ -0.098710953133466, 51.553170711267818 ], [ -0.09885044073192, 51.552940044169524 ], [ -0.098948588819279, 51.552799505070453 ], [ -0.09920792282903, 51.552426942453209 ], [ -0.10039881533999, 51.552543351710121 ], [ -0.101357443728721, 51.552628205457573 ], [ -0.102283864013445, 51.552724120679407 ], [ -0.103395727728183, 51.552833815606007 ], [ -0.103944844331078, 51.552879558902283 ], [ -0.103947579424047, 51.553022633911603 ], [ -0.10397106230593, 51.553081448735959 ], [ -0.104848625422053, 51.552965286732586 ], [ -0.104897655789902, 51.55289586765479 ], [ -0.10506313242336, 51.552663005242067 ], [ -0.105302823457241, 51.552450131373661 ], [ -0.105572700827099, 51.552237744878177 ], [ -0.105720450074689, 51.552153828865421 ], [ -0.106002285201813, 51.552034321459132 ], [ -0.106385640114647, 51.551938838635969 ], [ -0.107175069140422, 51.551790668862033 ], [ -0.107705513052808, 51.551695758911599 ], [ -0.108054272890109, 51.551599801906846 ], [ -0.108274140983504, 51.551480187631284 ], [ -0.108542276052553, 51.551274957866042 ], [ -0.108816363783224, 51.551029368454472 ], [ -0.109533168877329, 51.550509532294157 ], [ -0.110024396345844, 51.550872649454391 ] ] ] } },
{ "type": "Feature", "properties": { "NAME": "Tollington", "GSS_CODE": "E05000381", "DISTRICT": "Islington", "LAGSSCODE": "E09000019", "HECTARES": 84.866, "NONLD_AREA": 0.0 }, "geometry": { "type": "Polygon", "coordinates": [ [ [ -0.124026312214274, 51.561032458750695 ], [ -0.124475980091575, 51.561428193447348 ], [ -0.124601752117654, 51.561563255120852 ], [ -0.124678235412989, 51.56163280124148 ], [ -0.124850314155091, 51.56176419775737 ], [ -0.124957140904515, 51.561830632697038 ], [ -0.125138272308993, 51.561953093616374 ], [ -0.125334564566835, 51.562056917637968 ], [ -0.125531555663625, 51.562143761509127 ], [ -0.125755782573803, 51.562233647229228 ], [ -0.126085582492541, 51.562353986623407 ], [ -0.126322188143291, 51.562423482009052 ], [ -0.126471278274174, 51.562483398538241 ], [ -0.126663693811119, 51.562574572451773 ], [ -0.126950541738748, 51.562721283188615 ], [ -0.127778472913808, 51.56322004433234 ], [ -0.128129893942906, 51.563410934162114 ], [ -0.128275206024296, 51.563490565880521 ], [ -0.128433476789111, 51.563570404133579 ], [ -0.128695098528835, 51.563665375552127 ], [ -0.129212048037435, 51.56383193233345 ], [ -0.129180626893173, 51.56385840106978 ], [ -0.127364165340429, 51.565296128437815 ], [ -0.126789049752467, 51.565740129807523 ], [ -0.125759328514565, 51.566534846187309 ], [ -0.125283529848817, 51.56691210347536 ], [ -0.125023555431592, 51.567095029646225 ], [ -0.124782300134684, 51.567242204523794 ], [ -0.124451737184735, 51.567489626650058 ], [ -0.124114850357012, 51.567717168982455 ], [ -0.123855869059651, 51.567875745073053 ], [ -0.123134180233842, 51.568266140782207 ], [ -0.123771735782757, 51.56893727425976 ], [ -0.123841919036337, 51.569125476099948 ], [ -0.123894522108347, 51.569318790719663 ], [ -0.123952499833552, 51.569734241451798 ], [ -0.123975077398239, 51.569850571987828 ], [ -0.123909982223264, 51.569856723061918 ], [ -0.123766705058499, 51.569866118866145 ], [ -0.123597101331784, 51.569884982349421 ], [ -0.12348962458598, 51.569900434174862 ], [ -0.123372259520503, 51.569948001439251 ], [ -0.123209929561461, 51.570001142272119 ], [ -0.123218165343228, 51.570012061872823 ], [ -0.123267770576918, 51.570101855206083 ], [ -0.123325505148765, 51.570208050237447 ], [ -0.123365403648963, 51.570325556916494 ], [ -0.123395839988527, 51.570392568879072 ], [ -0.123317073352154, 51.570412884780907 ], [ -0.12326298484908, 51.570429100421016 ], [ -0.123154519796981, 51.570471415893785 ], [ -0.123188730427098, 51.570516103466851 ], [ -0.12290887517152, 51.570617707275431 ], [ -0.122726868316286, 51.57069210837308 ], [ -0.122666734117256, 51.570647095783279 ], [ -0.122621361818742, 51.570662551600996 ], [ -0.122314696199324, 51.570785300736567 ], [ -0.121971332263342, 51.570923733372879 ], [ -0.121681040143501, 51.571035955069199 ], [ -0.121724036405916, 51.57107529988393 ], [ -0.121469803152781, 51.571187289204111 ], [ -0.121199277186298, 51.571310614038332 ], [ -0.121099109994835, 51.57135935340763 ], [ -0.12089743822211, 51.571489263960608 ], [ -0.120687245102286, 51.571618048793376 ], [ -0.120523535983456, 51.571704426409248 ], [ -0.120396331591544, 51.571779791639329 ], [ -0.120378268042676, 51.571796583051416 ], [ -0.120240737868598, 51.571877086729515 ], [ -0.120040129323852, 51.572018609798654 ], [ -0.119917909662073, 51.571938439453035 ], [ -0.119736161545226, 51.571830345379837 ], [ -0.119632247792816, 51.571762154937637 ], [ -0.119531633352159, 51.571821673668701 ], [ -0.119367254350911, 51.571924220735795 ], [ -0.119148779165676, 51.572043071097255 ], [ -0.119330908141832, 51.572173646898946 ], [ -0.119616241861344, 51.572360804635835 ], [ -0.119579168616322, 51.572382685202236 ], [ -0.119250628469125, 51.572582388794579 ], [ -0.118786743922963, 51.572841142662384 ], [ -0.118081847157742, 51.573311874223272 ], [ -0.117736604297543, 51.573495119367706 ], [ -0.117609614193601, 51.573565089433764 ], [ -0.11755359917364, 51.573630715188273 ], [ -0.117532511994636, 51.573686113892641 ], [ -0.11752134632638, 51.57374616684708 ], [ -0.117518118863978, 51.573824327037769 ], [ -0.117376412545584, 51.57383283943696 ], [ -0.117210537733702, 51.573830175666181 ], [ -0.117158612626202, 51.573828442767834 ], [ -0.116561134165841, 51.573374655243249 ], [ -0.115793025864326, 51.572826335416046 ], [ -0.115559488317274, 51.572575269773445 ], [ -0.116102025740774, 51.572192839101838 ], [ -0.116073577944691, 51.572181594081187 ], [ -0.11572325778579, 51.572035721606518 ], [ -0.115379891981796, 51.571894364895122 ], [ -0.115575682085941, 51.571625028509658 ], [ -0.115580267079116, 51.571620607262503 ], [ -0.115481808234927, 51.571558792266508 ], [ -0.115173764124368, 51.571435173376763 ], [ -0.115116869935336, 51.57141268287706 ], [ -0.115113487154652, 51.571321830527715 ], [ -0.11513369892954, 51.570832925283433 ], [ -0.1151402392228, 51.570674718340264 ], [ -0.115067606782304, 51.570650176774045 ], [ -0.115022031358922, 51.570635959112316 ], [ -0.115020069202514, 51.570614351806157 ], [ -0.115017311679631, 51.570577448883562 ], [ -0.111595376687395, 51.569055672448336 ], [ -0.110681751207184, 51.568608446448984 ], [ -0.110810756302508, 51.568524222391439 ], [ -0.110625333906831, 51.568405174188491 ], [ -0.110601318810812, 51.568390403257283 ], [ -0.110684361679062, 51.568338701204368 ], [ -0.110629651921924, 51.56830096077887 ], [ -0.110680012672864, 51.568268509780054 ], [ -0.110675911458555, 51.568261251748538 ], [ -0.110670614105007, 51.568251277464057 ], [ -0.11077855054073, 51.568187390682738 ], [ -0.111015203258921, 51.568049073894635 ], [ -0.110981685168659, 51.568022463016369 ], [ -0.111243456839711, 51.567869357615365 ], [ -0.110670545771442, 51.56745180323562 ], [ -0.110650073949318, 51.567457766219363 ], [ -0.110518411002629, 51.567362148915286 ], [ -0.111352660834162, 51.566904429971245 ], [ -0.111953367807392, 51.567311552717264 ], [ -0.112228689755931, 51.567144189517414 ], [ -0.112388169015245, 51.567019100185902 ], [ -0.112459377482177, 51.566974398007495 ], [ -0.112324032836477, 51.566895803801728 ], [ -0.112479887937148, 51.566792142025335 ], [ -0.112426419020644, 51.566758917145677 ], [ -0.112509226215194, 51.566709906733522 ], [ -0.112379596179183, 51.566634101583027 ], [ -0.112709779439093, 51.566431660035953 ], [ -0.112659052518996, 51.56640117639364 ], [ -0.112963414520722, 51.566264934084899 ], [ -0.113409455651871, 51.566016708948169 ], [ -0.113613261304139, 51.565901231564823 ], [ -0.114032438784999, 51.565744359388994 ], [ -0.114270101972428, 51.56565010258457 ], [ -0.114619073729248, 51.565513674832388 ], [ -0.114937051392261, 51.565361464702804 ], [ -0.114883177547494, 51.565338033483279 ], [ -0.115057794551199, 51.565232063137763 ], [ -0.115509186145049, 51.565064016989474 ], [ -0.115964673032784, 51.565355421757104 ], [ -0.116188086882854, 51.565185506423802 ], [ -0.115898087228736, 51.565009047253824 ], [ -0.115820832968984, 51.564958360672335 ], [ -0.116377277783065, 51.56462289890159 ], [ -0.116736459514589, 51.564414619664156 ], [ -0.117234039433956, 51.564104279120244 ], [ -0.11768401765546, 51.563863383662053 ], [ -0.117962803698789, 51.564066538346985 ], [ -0.118688116382083, 51.563691518003296 ], [ -0.11843429117961, 51.563445528013169 ], [ -0.11830929131569, 51.563326653901321 ], [ -0.119122305242439, 51.563028548735204 ], [ -0.119827747894128, 51.562751189026002 ], [ -0.120519501497024, 51.562456524966713 ], [ -0.121459622996835, 51.562084025609096 ], [ -0.122195603209135, 51.561798150984124 ], [ -0.122590109448868, 51.561678515708671 ], [ -0.122943541815224, 51.561539432989917 ], [ -0.123091807077345, 51.561442915747612 ], [ -0.123357234321396, 51.561303232929532 ], [ -0.124026312214274, 51.561032458750695 ] ] ] } },
{ "type": "Feature", "properties": { "NAME": "Bunhill", "GSS_CODE": "E05000367", "DISTRICT": "Islington", "LAGSSCODE": "E09000019", "HECTARES": 108.263, "NONLD_AREA": 0.0 }, "geometry": { "type": "Polygon", "coordinates": [ [ [ -0.097598280572419, 51.52103360490117 ], [ -0.09764434379909, 51.520724102040653 ], [ -0.098425496452448, 51.520588437631559 ], [ -0.098876113438394, 51.520498652194043 ], [ -0.099322521856466, 51.520370049150685 ], [ -0.099628768773303, 51.520285112172459 ], [ -0.100084404197572, 51.520143170466369 ], [ -0.100231695136265, 51.520136567214152 ], [ -0.100275226165682, 51.520130080484016 ], [ -0.100404275188666, 51.520110595176185 ], [ -0.100776936415098, 51.519988972526342 ], [ -0.101046892232271, 51.519910635956805 ], [ -0.101549348956974, 51.519751466446174 ], [ -0.101795059311189, 51.51966733899377 ], [ -0.101766236881225, 51.520117370217733 ], [ -0.101701512098834, 51.520424775755764 ], [ -0.101691604073342, 51.520662944899485 ], [ -0.101593159470511, 51.52081238681933 ], [ -0.101533889471542, 51.520988623400861 ], [ -0.101547124422218, 51.521156144814626 ], [ -0.101612383453864, 51.521355884051538 ], [ -0.102071076012564, 51.522457768917256 ], [ -0.102214928186801, 51.522948352147722 ], [ -0.102354635086036, 51.523298621490781 ], [ -0.102480460758874, 51.523462569647414 ], [ -0.102677909923167, 51.523739154123 ], [ -0.102814142464886, 51.523930150826878 ], [ -0.103228703290361, 51.524362268941424 ], [ -0.103468417078845, 51.524594494660988 ], [ -0.103625174128664, 51.524743658326315 ], [ -0.103730463564513, 51.52484425209196 ], [ -0.104016740624543, 51.525171715975162 ], [ -0.104115308255362, 51.52540264808259 ], [ -0.10413661746679, 51.525547734001961 ], [ -0.104089999211333, 51.52569990281205 ], [ -0.103980064043235, 51.526054225311938 ], [ -0.103886330118952, 51.526333292400594 ], [ -0.10373784295411, 51.526296729834748 ], [ -0.103496060493305, 51.525871004437334 ], [ -0.102124631589472, 51.526124912766463 ], [ -0.101366248919511, 51.526265560544523 ], [ -0.100102878224539, 51.526518480124054 ], [ -0.10019688744293, 51.526752847917194 ], [ -0.100565442827258, 51.527561908094988 ], [ -0.100973880230607, 51.528418361884405 ], [ -0.100980565417991, 51.528431955370145 ], [ -0.101175150977306, 51.528811883589107 ], [ -0.101284850651494, 51.52894941140628 ], [ -0.101338829125804, 51.529003417367747 ], [ -0.101449079500847, 51.529090609288474 ], [ -0.101722058914757, 51.529286518311693 ], [ -0.102479990150846, 51.529780831523738 ], [ -0.102759737138065, 51.529571301638818 ], [ -0.102822008712266, 51.529566015708333 ], [ -0.10290372109233, 51.529576327366371 ], [ -0.102968401001442, 51.529616030928885 ], [ -0.103402138866489, 51.529345159784008 ], [ -0.103403639087656, 51.529343386014737 ], [ -0.103412086813811, 51.52934891667558 ], [ -0.103462643955705, 51.529379491402807 ], [ -0.103475853831891, 51.529373411887946 ], [ -0.10370100539349, 51.529264585353253 ], [ -0.103621048865104, 51.529212049044794 ], [ -0.103739414591605, 51.529138445453668 ], [ -0.103749213130303, 51.52914579595241 ], [ -0.104056285582642, 51.529353936375202 ], [ -0.104117775378032, 51.529401768775706 ], [ -0.104163941649284, 51.529400716890343 ], [ -0.10420720868157, 51.529538066126406 ], [ -0.104339177707683, 51.529520420586607 ], [ -0.104351783398934, 51.529494552921477 ], [ -0.104412734406391, 51.529483850720922 ], [ -0.104447428758868, 51.529518573863697 ], [ -0.10455038159989, 51.529504055245887 ], [ -0.1046099720691, 51.529629081937294 ], [ -0.104888687712411, 51.529549976900924 ], [ -0.105005150656402, 51.529696689422302 ], [ -0.105180561419573, 51.529915286209828 ], [ -0.105343573800285, 51.530086124697689 ], [ -0.105473558537635, 51.530222177143713 ], [ -0.105759090096545, 51.53056580640439 ], [ -0.105965081040483, 51.530849714836386 ], [ -0.106077335353766, 51.531097946971926 ], [ -0.106186457444949, 51.531421645578902 ], [ -0.106201378517898, 51.531511787835896 ], [ -0.10625340698941, 51.531821978387846 ], [ -0.106273171508982, 51.531901410672106 ], [ -0.106269847924099, 51.531981459112167 ], [ -0.105838232987948, 51.531888993714013 ], [ -0.105531321695175, 51.531816611112895 ], [ -0.105003973987909, 51.53166784657347 ], [ -0.104593456517612, 51.53155414123524 ], [ -0.103957262284696, 51.531390128009072 ], [ -0.103252303233155, 51.531213222422906 ], [ -0.1020375977514, 51.530919375229175 ], [ -0.101053003860926, 51.530672297582917 ], [ -0.099530111217671, 51.53026634490125 ], [ -0.098896656390761, 51.530105847751265 ], [ -0.098120565856354, 51.529908061403802 ], [ -0.097151894759861, 51.529662103342737 ], [ -0.095379242737024, 51.529195314868574 ], [ -0.089575123368856, 51.527706136623195 ], [ -0.089150603684133, 51.527585042709063 ], [ -0.08902386215539, 51.527548814155431 ], [ -0.088754239213046, 51.527444538230135 ], [ -0.088636847438932, 51.527392279531718 ], [ -0.088572070114594, 51.527355262852055 ], [ -0.088526098851168, 51.527317653799116 ], [ -0.088458583091453, 51.527241035963947 ], [ -0.088284083996422, 51.527070884429222 ], [ -0.088105766745227, 51.526818860459329 ], [ -0.087811719482438, 51.526234022814634 ], [ -0.08777795532493, 51.5261094086394 ], [ -0.087413733574731, 51.525959624877622 ], [ -0.087268309339171, 51.525921201713921 ], [ -0.087006054590437, 51.525851294366213 ], [ -0.086769199708694, 51.525790791108207 ], [ -0.086430128267431, 51.525866167281698 ], [ -0.086272864465524, 51.525903156338238 ], [ -0.084994521626064, 51.526205113542524 ], [ -0.084882824123954, 51.525878656163172 ], [ -0.084724840559629, 51.525417489271646 ], [ -0.085004680273823, 51.525207108775994 ], [ -0.085244539192549, 51.524850433741804 ], [ -0.085383528339317, 51.524594597913797 ], [ -0.085417248259207, 51.524513338658608 ], [ -0.085084896874996, 51.524428796997036 ], [ -0.085113230297523, 51.523926532910203 ], [ -0.084501647784963, 51.523899457421301 ], [ -0.084197356092575, 51.523902574145261 ], [ -0.08428922298135, 51.523602817442736 ], [ -0.084312007819107, 51.523402710475331 ], [ -0.084415160110728, 51.522491630805092 ], [ -0.084497633750041, 51.522072960950204 ], [ -0.08467711845413, 51.521608318964944 ], [ -0.084880203715829, 51.52099473659743 ], [ -0.085041047726138, 51.520631376769558 ], [ -0.085191778639566, 51.520336176085742 ], [ -0.085350414407303, 51.520130106408118 ], [ -0.085530114978466, 51.519832681283383 ], [ -0.085787733484567, 51.519428646656984 ], [ -0.085878615363491, 51.519290693769896 ], [ -0.086201463188556, 51.518810408016222 ], [ -0.086331066013386, 51.518845787019174 ], [ -0.087516855771863, 51.51920145705013 ], [ -0.088103315494499, 51.519412491157404 ], [ -0.088612637152738, 51.519572729205336 ], [ -0.089277012205122, 51.519782330849104 ], [ -0.08968045146471, 51.519891392937751 ], [ -0.089754485022958, 51.519911478543804 ], [ -0.08997836761348, 51.519971764119219 ], [ -0.089678712281984, 51.520690856931822 ], [ -0.08966752604485, 51.520716746029137 ], [ -0.090237667849243, 51.520801552276126 ], [ -0.090900278139392, 51.520880669533369 ], [ -0.091346061404779, 51.520940969917213 ], [ -0.091795485429456, 51.520982448598673 ], [ -0.092150153146915, 51.521016180343999 ], [ -0.092348561733584, 51.521029298242048 ], [ -0.092490805791539, 51.521487502768835 ], [ -0.093275668999762, 51.521334852307 ], [ -0.093388656972421, 51.521526381955994 ], [ -0.093567216030249, 51.521496921336443 ], [ -0.09358935450044, 51.521587182781495 ], [ -0.093849310524107, 51.521541065096073 ], [ -0.094318748599767, 51.521484867082208 ], [ -0.09438423375297, 51.521746735693796 ], [ -0.094596903404374, 51.522314953456892 ], [ -0.094902952279471, 51.522855830083685 ], [ -0.095062757133141, 51.52313900946605 ], [ -0.095961687060957, 51.522910789751407 ], [ -0.095991521837634, 51.522956314980703 ], [ -0.096443851408422, 51.522823324616361 ], [ -0.096597698093832, 51.523178326533532 ], [ -0.09665876132256, 51.52316763080313 ], [ -0.096671820391475, 51.52316514578991 ], [ -0.096687962446891, 51.523194176361066 ], [ -0.096760316824458, 51.523323101152855 ], [ -0.097946596120547, 51.522879182337711 ], [ -0.097907635591857, 51.522844387589572 ], [ -0.097875808071692, 51.522812405616122 ], [ -0.097761295117261, 51.522688281362463 ], [ -0.097675161890598, 51.522576214843426 ], [ -0.097614131581061, 51.522483524868626 ], [ -0.09748622091081, 51.52223323087177 ], [ -0.097357774059498, 51.521856166856793 ], [ -0.097348684847386, 51.521729258145015 ], [ -0.097367218457968, 51.52162967831336 ], [ -0.09737734988167, 51.521594781135953 ], [ -0.097490796657982, 51.521604713430818 ], [ -0.097542269070733, 51.521305187616662 ], [ -0.097598280572419, 51.52103360490117 ] ] ] } },
{ "type": "Feature", "properties": { "NAME": "St. Peter's", "GSS_CODE": "E05000380", "DISTRICT": "Islington", "LAGSSCODE": "E09000019", "HECTARES": 81.053, "NONLD_AREA": 0.0 }, "geometry": { "type": "Polygon", "coordinates": [ [ [ -0.105996298875724, 51.533118159870916 ], [ -0.105982304732775, 51.533143106263296 ], [ -0.105922301666484, 51.533233926559873 ], [ -0.105263824648011, 51.534089219353149 ], [ -0.105054183651632, 51.534310674627186 ], [ -0.104950148008555, 51.534419661716946 ], [ -0.104158591747941, 51.535217954912277 ], [ -0.104071673764264, 51.535332611855907 ], [ -0.103964778952025, 51.535438764799181 ], [ -0.103827899700858, 51.535542634845818 ], [ -0.103759848692039, 51.535583787989751 ], [ -0.103686162697163, 51.535620354940463 ], [ -0.103599641461344, 51.535656804203924 ], [ -0.103409664144561, 51.535716662762361 ], [ -0.102541097790006, 51.536075791819286 ], [ -0.102044818756453, 51.536290805280103 ], [ -0.101814450597406, 51.536418332015479 ], [ -0.101508189964614, 51.536606750290723 ], [ -0.101419151595236, 51.536666440401468 ], [ -0.100682605251182, 51.53721476711717 ], [ -0.10002505989425, 51.537732814427613 ], [ -0.099339275246646, 51.538340390132944 ], [ -0.099169115938114, 51.53851482431692 ], [ -0.099064233372111, 51.538609316683633 ], [ -0.098895413922103, 51.538748710939615 ], [ -0.098384269449461, 51.539110897929696 ], [ -0.098042797588045, 51.539310329567975 ], [ -0.097221354168879, 51.539816799238928 ], [ -0.096374245841092, 51.540313855734084 ], [ -0.095859874123276, 51.540615745073268 ], [ -0.095848085788104, 51.540621846549271 ], [ -0.095370604796741, 51.54090005991393 ], [ -0.094967424487429, 51.541127247024065 ], [ -0.094319032491505, 51.541423354265469 ], [ -0.094235081556311, 51.541466130014207 ], [ -0.094159914856687, 51.541503564648956 ], [ -0.093532530930407, 51.54109222428734 ], [ -0.092950056933344, 51.540676307562421 ], [ -0.092887021424053, 51.540631230600866 ], [ -0.092155779148135, 51.540150767963389 ], [ -0.091397969173148, 51.5396151191919 ], [ -0.090779873738894, 51.539190431431429 ], [ -0.090061920680348, 51.538737233130789 ], [ -0.089612168134865, 51.538424152170407 ], [ -0.089303451643059, 51.538184390177058 ], [ -0.089009112194113, 51.537981810807821 ], [ -0.088840796579335, 51.537870197124136 ], [ -0.088080610626339, 51.537704967890988 ], [ -0.087136036327158, 51.537499775544951 ], [ -0.086544520184812, 51.537403815473994 ], [ -0.086590979557147, 51.537257138024152 ], [ -0.086789457071568, 51.537270267260894 ], [ -0.087059687638111, 51.537222446458792 ], [ -0.087383223185762, 51.537139624834658 ], [ -0.087674933353005, 51.537027514987479 ], [ -0.088172605921339, 51.536781127356249 ], [ -0.088635177945816, 51.536549448058921 ], [ -0.089112981259481, 51.536294641124741 ], [ -0.08966421378134, 51.536009563939011 ], [ -0.089692298499826, 51.53599473867714 ], [ -0.090231314586653, 51.535759893521281 ], [ -0.090746681862034, 51.535504792566606 ], [ -0.091348836141902, 51.53524391051689 ], [ -0.091562248743421, 51.535138606394582 ], [ -0.091955375989884, 51.534946237487546 ], [ -0.09252200022851, 51.5346703865969 ], [ -0.093258331076609, 51.534336161480468 ], [ -0.093753060734992, 51.534127458930769 ], [ -0.093960009139962, 51.534040025114152 ], [ -0.094457839611903, 51.533856541964759 ], [ -0.094527026766555, 51.53389362691528 ], [ -0.095023574534235, 51.533706613394216 ], [ -0.095019410907175, 51.533635523917837 ], [ -0.095985588919239, 51.533285145998825 ], [ -0.096137730829717, 51.533234575751401 ], [ -0.096526350383487, 51.533112329020838 ], [ -0.097007461967184, 51.532984300706715 ], [ -0.096235285071943, 51.531863011572931 ], [ -0.095869111200872, 51.53131118431655 ], [ -0.095498775714651, 51.530788056669451 ], [ -0.095291574700609, 51.530466350172517 ], [ -0.095086740596348, 51.53005388170412 ], [ -0.095057424376793, 51.529927543767052 ], [ -0.095055886813464, 51.529861890996152 ], [ -0.095067414075922, 51.529793663617305 ], [ -0.095115907696447, 51.529668590203826 ], [ -0.095379242737024, 51.529195314868574 ], [ -0.097151894759861, 51.529662103342737 ], [ -0.098120565856354, 51.529908061403802 ], [ -0.098896656390761, 51.530105847751265 ], [ -0.099530111217671, 51.53026634490125 ], [ -0.101053003860926, 51.530672297582917 ], [ -0.1020375977514, 51.530919375229175 ], [ -0.103252303233155, 51.531213222422906 ], [ -0.103957262284696, 51.531390128009072 ], [ -0.104593456517612, 51.53155414123524 ], [ -0.105003973987909, 51.53166784657347 ], [ -0.105531321695175, 51.531816611112895 ], [ -0.105838232987948, 51.531888993714013 ], [ -0.106269847924099, 51.531981459112167 ], [ -0.106258827105234, 51.532349966585677 ], [ -0.106198694427109, 51.53265295212524 ], [ -0.106129901624172, 51.532852411245322 ], [ -0.106086793542224, 51.532951505658495 ], [ -0.105996298875724, 51.533118159870916 ] ] ] } },
{ "type": "Feature", "properties": { "NAME": "Canonbury", "GSS_CODE": "E05000369", "DISTRICT": "Islington", "LAGSSCODE": "E09000019", "HECTARES": 80.72, "NONLD_AREA": 0.0 }, "geometry": { "type": "Polygon", "coordinates": [ [ [ -0.086544520184812, 51.537403815473994 ], [ -0.087136036327158, 51.537499775544951 ], [ -0.088080610626339, 51.537704967890988 ], [ -0.088840796579335, 51.537870197124136 ], [ -0.089009112194113, 51.537981810807821 ], [ -0.089303451643059, 51.538184390177058 ], [ -0.089612168134865, 51.538424152170407 ], [ -0.090061920680348, 51.538737233130789 ], [ -0.090779873738894, 51.539190431431429 ], [ -0.091397969173148, 51.5396151191919 ], [ -0.092155779148135, 51.540150767963389 ], [ -0.092887021424053, 51.540631230600866 ], [ -0.092950056933344, 51.540676307562421 ], [ -0.093532530930407, 51.54109222428734 ], [ -0.094159914856687, 51.541503564648956 ], [ -0.094235081556311, 51.541466130014207 ], [ -0.094319032491505, 51.541423354265469 ], [ -0.094967424487429, 51.541127247024065 ], [ -0.095370604796741, 51.54090005991393 ], [ -0.095848085788104, 51.540621846549271 ], [ -0.095896027451291, 51.540646898650607 ], [ -0.096373135484493, 51.540892976026761 ], [ -0.098012664711582, 51.541797206706256 ], [ -0.098272749883968, 51.54251190881044 ], [ -0.098680716868928, 51.543447463960888 ], [ -0.098918403924641, 51.544009688357448 ], [ -0.09898741535708, 51.544082817801389 ], [ -0.099100808714561, 51.54412960740207 ], [ -0.099056430741257, 51.544155857375301 ], [ -0.099026138137731, 51.544192224834532 ], [ -0.099066771083619, 51.544255813939792 ], [ -0.099475747468717, 51.544856866182279 ], [ -0.100048849909685, 51.545677327512394 ], [ -0.100455866445557, 51.54632599219044 ], [ -0.100428309508327, 51.546330939385797 ], [ -0.100101085159443, 51.546395755292814 ], [ -0.09969797541221, 51.546480915375604 ], [ -0.098558601881038, 51.546792451158701 ], [ -0.097937070414964, 51.546962251399037 ], [ -0.096999985881576, 51.547230307527464 ], [ -0.096871266722337, 51.547271368426451 ], [ -0.096804436253626, 51.547285565705153 ], [ -0.096715933293318, 51.547297612861549 ], [ -0.096627692791339, 51.54730337123987 ], [ -0.096081467231659, 51.54729269756433 ], [ -0.094532916209253, 51.547212682488549 ], [ -0.093311078238381, 51.547217076305522 ], [ -0.092804209377145, 51.54719803800279 ], [ -0.091781383026742, 51.547098675290705 ], [ -0.090750644840869, 51.547017963805636 ], [ -0.089988977823752, 51.54695250817894 ], [ -0.08928990633913, 51.546908745369294 ], [ -0.089243872830497, 51.546906196615474 ], [ -0.08918920186021, 51.546902607976541 ], [ -0.088919942967569, 51.546891923148912 ], [ -0.08859507670889, 51.546865946630788 ], [ -0.087835820637476, 51.546777142770146 ], [ -0.087158655130969, 51.546656321868504 ], [ -0.085570115140716, 51.546566546800058 ], [ -0.085122462264596, 51.546579008848859 ], [ -0.084709465416197, 51.54662709529692 ], [ -0.084504372509931, 51.546631832216804 ], [ -0.084293841448074, 51.546632973773669 ], [ -0.083811847309962, 51.546605221522604 ], [ -0.083602937743744, 51.545225988374888 ], [ -0.083634134443556, 51.545066478540726 ], [ -0.084059713054903, 51.543931364707191 ], [ -0.084662640346587, 51.542383728426444 ], [ -0.08546790223439, 51.540378101840815 ], [ -0.085655775129123, 51.539783156910197 ], [ -0.086009826571768, 51.538735852231142 ], [ -0.086377774730135, 51.537733812728874 ], [ -0.086435889209821, 51.537553073786214 ], [ -0.086544520184812, 51.537403815473994 ] ] ] } },
{ "type": "Feature", "properties": { "NAME": "Barnsbury", "GSS_CODE": "E05000366", "DISTRICT": "Islington", "LAGSSCODE": "E09000019", "HECTARES": 83.012, "NONLD_AREA": 0.0 }, "geometry": { "type": "Polygon", "coordinates": [ [ [ -0.110865904648364, 51.544490599624019 ], [ -0.109483237608615, 51.544828005079601 ], [ -0.107858313767094, 51.545234393236491 ], [ -0.10741031195035, 51.544456446183212 ], [ -0.107089462047719, 51.543846956291453 ], [ -0.106796680161196, 51.543151614620712 ], [ -0.10611129254902, 51.541181972149005 ], [ -0.106108447558302, 51.541075843211345 ], [ -0.106116430042743, 51.540989577428888 ], [ -0.106135815772483, 51.540903585714517 ], [ -0.106170332146941, 51.540802555215045 ], [ -0.106223880356571, 51.540692752075103 ], [ -0.106720467699261, 51.539222440671466 ], [ -0.106860275080732, 51.538773215413826 ], [ -0.106903165766286, 51.537983498984602 ], [ -0.106973602599158, 51.53732638141831 ], [ -0.107010097146029, 51.537040096614696 ], [ -0.107030194218996, 51.536799396588108 ], [ -0.107125029635051, 51.536006922088987 ], [ -0.107181913675517, 51.535610298116957 ], [ -0.107236371244236, 51.535303625782277 ], [ -0.107207947045761, 51.534983029703746 ], [ -0.107160632911089, 51.534662128755663 ], [ -0.107049883958455, 51.534342901033611 ], [ -0.107031924249372, 51.53428867058868 ], [ -0.106903858497048, 51.533902636549371 ], [ -0.106847141627054, 51.533773971533783 ], [ -0.10654929608489, 51.533551602424119 ], [ -0.105996298875724, 51.533118159870916 ], [ -0.106086793542224, 51.532951505658495 ], [ -0.106129901624172, 51.532852411245322 ], [ -0.106198694427109, 51.53265295212524 ], [ -0.106258827105234, 51.532349966585677 ], [ -0.106269847924099, 51.531981459112167 ], [ -0.106273171508982, 51.531901410672106 ], [ -0.106518993877251, 51.531884701899436 ], [ -0.107018110348114, 51.53187747477935 ], [ -0.108298279627374, 51.531846884148294 ], [ -0.109120200806673, 51.531809792143584 ], [ -0.109730234133902, 51.531773774945115 ], [ -0.109760520872617, 51.53177156598101 ], [ -0.110626155076494, 51.531689318020383 ], [ -0.111374868943558, 51.531611384291118 ], [ -0.1122933103615, 51.53153986332407 ], [ -0.112455345720992, 51.531525389623781 ], [ -0.11309643988372, 51.531468278210788 ], [ -0.114735290635031, 51.53134170755925 ], [ -0.116977142439949, 51.531135792815526 ], [ -0.117151097659686, 51.532091004865791 ], [ -0.117258611135692, 51.532873257971495 ], [ -0.117322125226831, 51.533013625232044 ], [ -0.117357612092653, 51.533130258038454 ], [ -0.117378809306713, 51.533247470590581 ], [ -0.117383890197639, 51.533366312395465 ], [ -0.117362061155751, 51.53354666458975 ], [ -0.117177677305146, 51.534240621951945 ], [ -0.117136555681999, 51.534505260973432 ], [ -0.117124767290651, 51.534580588936542 ], [ -0.117093332689679, 51.534783351438321 ], [ -0.11691846082899, 51.535526006493079 ], [ -0.116690431319654, 51.536438710012618 ], [ -0.116681696059389, 51.536474620196969 ], [ -0.116586077090616, 51.536938863741909 ], [ -0.116582928745874, 51.53694600529159 ], [ -0.115608651621709, 51.536898889362554 ], [ -0.11466799398233, 51.536806456187875 ], [ -0.113889503159147, 51.536768766419847 ], [ -0.113887682513705, 51.536812788756059 ], [ -0.113882965851486, 51.536854966491617 ], [ -0.113751014349327, 51.538685570957774 ], [ -0.113698616474803, 51.53897789603333 ], [ -0.113563229574907, 51.540612369620497 ], [ -0.113451060153862, 51.541857854012967 ], [ -0.113403393440777, 51.542348935739689 ], [ -0.113317526224056, 51.543099394734945 ], [ -0.113322820808886, 51.543284675609854 ], [ -0.113682394721717, 51.543830944715971 ], [ -0.112455820958271, 51.544092684249641 ], [ -0.111082942888586, 51.544438358086339 ], [ -0.110865904648364, 51.544490599624019 ] ] ] } },
{ "type": "Feature", "properties": { "NAME": "St. George's", "GSS_CODE": "E05000378", "DISTRICT": "Islington", "LAGSSCODE": "E09000019", "HECTARES": 84.582, "NONLD_AREA": 0.0 }, "geometry": { "type": "Polygon", "coordinates": [ [ [ -0.125755782573803, 51.562233647229228 ], [ -0.125531555663625, 51.562143761509127 ], [ -0.125334564566835, 51.562056917637968 ], [ -0.125138272308993, 51.561953093616374 ], [ -0.124957140904515, 51.561830632697038 ], [ -0.124850314155091, 51.56176419775737 ], [ -0.124678235412989, 51.56163280124148 ], [ -0.124601752117654, 51.561563255120852 ], [ -0.124475980091575, 51.561428193447348 ], [ -0.124026312214274, 51.561032458750695 ], [ -0.123469381542714, 51.560540702066504 ], [ -0.123252851415786, 51.560368137564339 ], [ -0.123117011473444, 51.560269772024682 ], [ -0.121483391078027, 51.559159077908795 ], [ -0.121189129234091, 51.55898535456268 ], [ -0.120998063228134, 51.558859132120929 ], [ -0.120279726341821, 51.558331416797294 ], [ -0.119821599590978, 51.558070466533955 ], [ -0.119606955041277, 51.557924983771215 ], [ -0.119428231418536, 51.557814148669962 ], [ -0.120300172519363, 51.55727604491468 ], [ -0.120810274250537, 51.556870495557789 ], [ -0.120958216122049, 51.556747004716215 ], [ -0.121247600984542, 51.556444090226982 ], [ -0.122267992523473, 51.555208653325934 ], [ -0.123596314623611, 51.553567196699134 ], [ -0.123753687027335, 51.553422186806394 ], [ -0.123969075502884, 51.553202587964108 ], [ -0.123987049017029, 51.553184895260678 ], [ -0.124388392425374, 51.552897247436249 ], [ -0.124475097203889, 51.552824915075909 ], [ -0.125601331592529, 51.551883404585588 ], [ -0.126390397751483, 51.551181118333091 ], [ -0.128965145747581, 51.548965959380048 ], [ -0.128966571890428, 51.548965982121949 ], [ -0.129023428178975, 51.548916454185758 ], [ -0.129111692293995, 51.548840546566922 ], [ -0.1293212061357, 51.548971636737356 ], [ -0.129324058422325, 51.548971682212496 ], [ -0.129808805295639, 51.549322023243697 ], [ -0.12999957490904, 51.549486886004992 ], [ -0.130136925544344, 51.549620420647734 ], [ -0.130318919708095, 51.549894912423596 ], [ -0.130688572874726, 51.550659747465438 ], [ -0.130736091930432, 51.550872760133281 ], [ -0.130788225292932, 51.551219798365338 ], [ -0.130811409081513, 51.551286694241618 ], [ -0.130853113643128, 51.5513601782149 ], [ -0.130899731517898, 51.551421154344787 ], [ -0.131001191661807, 51.551513660226668 ], [ -0.131219072504656, 51.551652880858697 ], [ -0.131329002725826, 51.551715764238914 ], [ -0.131814801168884, 51.5519690193656 ], [ -0.132135889992104, 51.552123456678117 ], [ -0.133224595872779, 51.552837694663801 ], [ -0.133979163094172, 51.553362222534425 ], [ -0.134353612832097, 51.553622686600683 ], [ -0.134613546246546, 51.553862449661807 ], [ -0.134696545894692, 51.553950074048196 ], [ -0.134857519758522, 51.554140615800129 ], [ -0.135063275242269, 51.55443435510594 ], [ -0.135121284287321, 51.554499106359764 ], [ -0.135178262866739, 51.554551255098907 ], [ -0.135230087565449, 51.554589836807608 ], [ -0.135311661931312, 51.554639679216727 ], [ -0.135448948084637, 51.554705779627518 ], [ -0.135886867985933, 51.554860172674218 ], [ -0.136518233975925, 51.555048291534966 ], [ -0.136991512610022, 51.555292243324629 ], [ -0.137153063098549, 51.555399182059439 ], [ -0.137246541143588, 51.555477980167133 ], [ -0.137358381939592, 51.555599322903007 ], [ -0.137419753415363, 51.555686691320339 ], [ -0.138368605362294, 51.556861731721121 ], [ -0.137882159508349, 51.556901663199504 ], [ -0.137364200730654, 51.556938485513435 ], [ -0.136794051619659, 51.556983377320087 ], [ -0.135900455629218, 51.557069878668955 ], [ -0.135386114857682, 51.557122842013733 ], [ -0.134892237798127, 51.557169835021881 ], [ -0.134328294641825, 51.557237373529773 ], [ -0.131830872420668, 51.557456634264419 ], [ -0.131945472598223, 51.557614886301764 ], [ -0.132077248950856, 51.557780693675618 ], [ -0.132323371205927, 51.558111041603539 ], [ -0.132236098172111, 51.558127632284901 ], [ -0.131640957666812, 51.55818108592414 ], [ -0.130552780395871, 51.558263540019396 ], [ -0.129641465295726, 51.558357793916663 ], [ -0.128842999454923, 51.558444041529299 ], [ -0.12885170277634, 51.558582627214058 ], [ -0.128887566469658, 51.558728928048637 ], [ -0.129060337240828, 51.55887822098051 ], [ -0.129153772651703, 51.558957923460056 ], [ -0.129516566878357, 51.559221809372289 ], [ -0.129999443760195, 51.55958290151132 ], [ -0.129647395119102, 51.559723915052984 ], [ -0.129390576542631, 51.559831295433987 ], [ -0.12912807576831, 51.559935078577013 ], [ -0.128920057797531, 51.560012670421862 ], [ -0.128451086382604, 51.560260593726277 ], [ -0.128140175101317, 51.560419250071135 ], [ -0.127886740034544, 51.560548346953901 ], [ -0.127574496976131, 51.560739344338366 ], [ -0.127454638150529, 51.560845400360442 ], [ -0.127213700612518, 51.561058211772647 ], [ -0.126989961924015, 51.561234528473008 ], [ -0.126826176917238, 51.561358671535018 ], [ -0.126437008459075, 51.561667194735818 ], [ -0.126129518464113, 51.561915889777545 ], [ -0.125944112764308, 51.562073937960704 ], [ -0.125755782573803, 51.562233647229228 ] ] ] } },
{ "type": "Feature", "properties": { "NAME": "Junction", "GSS_CODE": "E05000376", "DISTRICT": "Islington", "LAGSSCODE": "E09000019", "HECTARES": 102.75, "NONLD_AREA": 0.0 }, "geometry": { "type": "Polygon", "coordinates": [ [ [ -0.127364165340429, 51.565296128437815 ], [ -0.129180626893173, 51.56385840106978 ], [ -0.129212048037435, 51.56383193233345 ], [ -0.128695098528835, 51.563665375552127 ], [ -0.128433476789111, 51.563570404133579 ], [ -0.128275206024296, 51.563490565880521 ], [ -0.128129893942906, 51.563410934162114 ], [ -0.127778472913808, 51.56322004433234 ], [ -0.126950541738748, 51.562721283188615 ], [ -0.126663693811119, 51.562574572451773 ], [ -0.126471278274174, 51.562483398538241 ], [ -0.126322188143291, 51.562423482009052 ], [ -0.126085582492541, 51.562353986623407 ], [ -0.125755782573803, 51.562233647229228 ], [ -0.125944112764308, 51.562073937960704 ], [ -0.126129518464113, 51.561915889777545 ], [ -0.126437008459075, 51.561667194735818 ], [ -0.126826176917238, 51.561358671535018 ], [ -0.126989961924015, 51.561234528473008 ], [ -0.127213700612518, 51.561058211772647 ], [ -0.127454638150529, 51.560845400360442 ], [ -0.127574496976131, 51.560739344338366 ], [ -0.127886740034544, 51.560548346953901 ], [ -0.128140175101317, 51.560419250071135 ], [ -0.128451086382604, 51.560260593726277 ], [ -0.128920057797531, 51.560012670421862 ], [ -0.12912807576831, 51.559935078577013 ], [ -0.129390576542631, 51.559831295433987 ], [ -0.129647395119102, 51.559723915052984 ], [ -0.129999443760195, 51.55958290151132 ], [ -0.129516566878357, 51.559221809372289 ], [ -0.129153772651703, 51.558957923460056 ], [ -0.129060337240828, 51.55887822098051 ], [ -0.128887566469658, 51.558728928048637 ], [ -0.12885170277634, 51.558582627214058 ], [ -0.128842999454923, 51.558444041529299 ], [ -0.129641465295726, 51.558357793916663 ], [ -0.130552780395871, 51.558263540019396 ], [ -0.131640957666812, 51.55818108592414 ], [ -0.132236098172111, 51.558127632284901 ], [ -0.132323371205927, 51.558111041603539 ], [ -0.132077248950856, 51.557780693675618 ], [ -0.131945472598223, 51.557614886301764 ], [ -0.131830872420668, 51.557456634264419 ], [ -0.134328294641825, 51.557237373529773 ], [ -0.134892237798127, 51.557169835021881 ], [ -0.135386114857682, 51.557122842013733 ], [ -0.135900455629218, 51.557069878668955 ], [ -0.136794051619659, 51.556983377320087 ], [ -0.137364200730654, 51.556938485513435 ], [ -0.137882159508349, 51.556901663199504 ], [ -0.138368605362294, 51.556861731721121 ], [ -0.13848941515037, 51.557011174530658 ], [ -0.139241986160285, 51.558013181534747 ], [ -0.139425243983109, 51.558258907657127 ], [ -0.139667217563958, 51.558587373431251 ], [ -0.140503218654642, 51.559805630239403 ], [ -0.140676443805617, 51.559982778222931 ], [ -0.140778241154821, 51.560067996642161 ], [ -0.14085843650389, 51.560152063770907 ], [ -0.140911917148627, 51.560220335036547 ], [ -0.14098011632789, 51.56035356669291 ], [ -0.141005693725366, 51.560432273824595 ], [ -0.141030587858345, 51.560530658026536 ], [ -0.141052075403604, 51.560712594413175 ], [ -0.141006371062317, 51.561054565917011 ], [ -0.141017382990007, 51.561172508071841 ], [ -0.141017415367188, 51.561241730863856 ], [ -0.140992300372962, 51.561399645404379 ], [ -0.140970733360237, 51.561467627162358 ], [ -0.140779478595319, 51.561913284546613 ], [ -0.140673264681248, 51.562111268156421 ], [ -0.140633249944316, 51.562208624357105 ], [ -0.140612961987899, 51.562280222266814 ], [ -0.140571733054223, 51.562550255293118 ], [ -0.140566843318383, 51.562845136623388 ], [ -0.140596818954462, 51.563066852954584 ], [ -0.14069297886639, 51.563255455873474 ], [ -0.140729433126429, 51.563350427217927 ], [ -0.140777020500094, 51.563528281979067 ], [ -0.140791440400424, 51.563635580098072 ], [ -0.140791142127405, 51.563855828002239 ], [ -0.140656721012784, 51.56424943462401 ], [ -0.140647205990862, 51.564307718290792 ], [ -0.140641522174755, 51.564374153548165 ], [ -0.14064507320758, 51.5644650078046 ], [ -0.140655790451418, 51.564555166467514 ], [ -0.140664466737979, 51.564590364501321 ], [ -0.141010485892803, 51.565163286811568 ], [ -0.141085933487924, 51.565328996681096 ], [ -0.141119838845804, 51.565419432549227 ], [ -0.141171445431366, 51.56567385476265 ], [ -0.14117628188918, 51.565698204070891 ], [ -0.141277599925711, 51.5661135234255 ], [ -0.141515694170239, 51.567282653218683 ], [ -0.141644741150548, 51.567692117711147 ], [ -0.141864480733676, 51.56831967377942 ], [ -0.142198793329204, 51.568684649982188 ], [ -0.14251070141254, 51.568925120420722 ], [ -0.142475217540669, 51.569016345725288 ], [ -0.142390091780037, 51.5691228774377 ], [ -0.142145186123423, 51.569150466628926 ], [ -0.141561876030396, 51.569263586555273 ], [ -0.140890152652861, 51.569353637881377 ], [ -0.140680419692291, 51.569399760758486 ], [ -0.140495369306175, 51.569479536785209 ], [ -0.139463900960484, 51.570002767375769 ], [ -0.139068629316787, 51.570213248487015 ], [ -0.138831132110198, 51.570338937874752 ], [ -0.138651407579845, 51.570462935709884 ], [ -0.138422371841555, 51.570559091805542 ], [ -0.138403300544176, 51.570568678260422 ], [ -0.138318125457014, 51.570603287121621 ], [ -0.138133715521998, 51.570419576118994 ], [ -0.138101826272726, 51.570387605785051 ], [ -0.137813989105734, 51.570085385451343 ], [ -0.137413727332572, 51.56967530018288 ], [ -0.136946628637148, 51.569171557110643 ], [ -0.13669150161204, 51.568881539947625 ], [ -0.136539260084439, 51.568653387577498 ], [ -0.136114547594187, 51.568099880712808 ], [ -0.135654377440297, 51.567497263847223 ], [ -0.135500847070333, 51.567297947171525 ], [ -0.135248264767993, 51.567053815393777 ], [ -0.134864889562075, 51.566653877035669 ], [ -0.134593042443648, 51.566529000616221 ], [ -0.134271716393655, 51.566447477202395 ], [ -0.133821372885674, 51.566344123063381 ], [ -0.133600214242853, 51.566283069769284 ], [ -0.133492393091402, 51.566310122264049 ], [ -0.133342383439296, 51.566379655030438 ], [ -0.133223998100092, 51.566449690778285 ], [ -0.132880847268282, 51.566761664261364 ], [ -0.132532095762482, 51.567033093038617 ], [ -0.132258877354342, 51.567255379485609 ], [ -0.131958605706262, 51.567507799789453 ], [ -0.131732032104213, 51.56771815150568 ], [ -0.131613392052023, 51.567797171287545 ], [ -0.131446486749484, 51.567750462907469 ], [ -0.131174197560084, 51.567598692110536 ], [ -0.130895222270333, 51.567435936399221 ], [ -0.130633447729132, 51.567274442954613 ], [ -0.130452359166818, 51.567150104175212 ], [ -0.130174628434761, 51.566991950870971 ], [ -0.129595745391543, 51.566646411196622 ], [ -0.129242879348748, 51.566420442494945 ], [ -0.128918293455997, 51.566241761169159 ], [ -0.128602843352171, 51.566055043799565 ], [ -0.128392428949094, 51.565941111413267 ], [ -0.128091220788657, 51.565758215765889 ], [ -0.127926834886262, 51.565650410823352 ], [ -0.127738774257656, 51.56552236011445 ], [ -0.127364165340429, 51.565296128437815 ] ] ] } },
{ "type": "Feature", "properties": { "NAME": "Finsbury Park", "GSS_CODE": "E05000371", "DISTRICT": "Islington", "LAGSSCODE": "E09000019", "HECTARES": 91.626, "NONLD_AREA": 0.0 }, "geometry": { "type": "Polygon", "coordinates": [ [ [ -0.11690072437286, 51.556104585027256 ], [ -0.117242563850346, 51.556349301643742 ], [ -0.119428231418536, 51.557814148669962 ], [ -0.119606955041277, 51.557924983771215 ], [ -0.119821599590978, 51.558070466533955 ], [ -0.120279726341821, 51.558331416797294 ], [ -0.120998063228134, 51.558859132120929 ], [ -0.121189129234091, 51.55898535456268 ], [ -0.121483391078027, 51.559159077908795 ], [ -0.123117011473444, 51.560269772024682 ], [ -0.123252851415786, 51.560368137564339 ], [ -0.123469381542714, 51.560540702066504 ], [ -0.124026312214274, 51.561032458750695 ], [ -0.123357234321396, 51.561303232929532 ], [ -0.123091807077345, 51.561442915747612 ], [ -0.122943541815224, 51.561539432989917 ], [ -0.122590109448868, 51.561678515708671 ], [ -0.122195603209135, 51.561798150984124 ], [ -0.121459622996835, 51.562084025609096 ], [ -0.120519501497024, 51.562456524966713 ], [ -0.119827747894128, 51.562751189026002 ], [ -0.119122305242439, 51.563028548735204 ], [ -0.11830929131569, 51.563326653901321 ], [ -0.11843429117961, 51.563445528013169 ], [ -0.118688116382083, 51.563691518003296 ], [ -0.117962803698789, 51.564066538346985 ], [ -0.11768401765546, 51.563863383662053 ], [ -0.117234039433956, 51.564104279120244 ], [ -0.116736459514589, 51.564414619664156 ], [ -0.116377277783065, 51.56462289890159 ], [ -0.115820832968984, 51.564958360672335 ], [ -0.115898087228736, 51.565009047253824 ], [ -0.116188086882854, 51.565185506423802 ], [ -0.115964673032784, 51.565355421757104 ], [ -0.115509186145049, 51.565064016989474 ], [ -0.115057794551199, 51.565232063137763 ], [ -0.114883177547494, 51.565338033483279 ], [ -0.114937051392261, 51.565361464702804 ], [ -0.114619073729248, 51.565513674832388 ], [ -0.114270101972428, 51.56565010258457 ], [ -0.114032438784999, 51.565744359388994 ], [ -0.113613261304139, 51.565901231564823 ], [ -0.113409455651871, 51.566016708948169 ], [ -0.112963414520722, 51.566264934084899 ], [ -0.112659052518996, 51.56640117639364 ], [ -0.112709779439093, 51.566431660035953 ], [ -0.112379596179183, 51.566634101583027 ], [ -0.112509226215194, 51.566709906733522 ], [ -0.112426419020644, 51.566758917145677 ], [ -0.112479887937148, 51.566792142025335 ], [ -0.112324032836477, 51.566895803801728 ], [ -0.112459377482177, 51.566974398007495 ], [ -0.112388169015245, 51.567019100185902 ], [ -0.112228689755931, 51.567144189517414 ], [ -0.111953367807392, 51.567311552717264 ], [ -0.111352660834162, 51.566904429971245 ], [ -0.110518411002629, 51.567362148915286 ], [ -0.110650073949318, 51.567457766219363 ], [ -0.110670545771442, 51.56745180323562 ], [ -0.111243456839711, 51.567869357615365 ], [ -0.110981685168659, 51.568022463016369 ], [ -0.111015203258921, 51.568049073894635 ], [ -0.11077855054073, 51.568187390682738 ], [ -0.110670614105007, 51.568251277464057 ], [ -0.110675911458555, 51.568261251748538 ], [ -0.110680012672864, 51.568268509780054 ], [ -0.110629651921924, 51.56830096077887 ], [ -0.110684361679062, 51.568338701204368 ], [ -0.110601318810812, 51.568390403257283 ], [ -0.110625333906831, 51.568405174188491 ], [ -0.110810756302508, 51.568524222391439 ], [ -0.110681751207184, 51.568608446448984 ], [ -0.110646433959497, 51.568590796397096 ], [ -0.110311475089759, 51.568422679801891 ], [ -0.109282714480917, 51.567794597113576 ], [ -0.109030269492406, 51.567653788408791 ], [ -0.108834552432794, 51.567536459050913 ], [ -0.108789540928785, 51.567508763101408 ], [ -0.108588562178865, 51.567377773640132 ], [ -0.108396676766315, 51.567239828515532 ], [ -0.108294546004396, 51.567160866967441 ], [ -0.107817930342061, 51.566791597088439 ], [ -0.107744206145747, 51.566724780081124 ], [ -0.107585365115391, 51.566553204034406 ], [ -0.107304431110442, 51.56633371754419 ], [ -0.106995671164457, 51.566125467932331 ], [ -0.106878030982958, 51.566039062108651 ], [ -0.106608224927214, 51.565829642513677 ], [ -0.106178715530796, 51.565541316993702 ], [ -0.104845551887103, 51.564637580848078 ], [ -0.104577616730835, 51.564767199450849 ], [ -0.104437633253164, 51.564835057745761 ], [ -0.104376396585358, 51.56478282438723 ], [ -0.104365238277477, 51.564773653924313 ], [ -0.104484780773879, 51.564708162155092 ], [ -0.105215579850864, 51.564344106169266 ], [ -0.105516300617385, 51.564189754210076 ], [ -0.105872006343232, 51.564031884995465 ], [ -0.106174091309407, 51.563916210467184 ], [ -0.106716134018833, 51.563613823566293 ], [ -0.106768869938395, 51.56310844871799 ], [ -0.106875917070387, 51.562475304234745 ], [ -0.107092810417168, 51.56141942613047 ], [ -0.107177271445587, 51.561124030408102 ], [ -0.107358065913042, 51.560591056422425 ], [ -0.107374089337197, 51.560551759194681 ], [ -0.107574084925239, 51.560043278097339 ], [ -0.107740631988927, 51.559715944495188 ], [ -0.108131744412257, 51.558947051434693 ], [ -0.108222862615295, 51.558731863428832 ], [ -0.108412739480304, 51.558432774554269 ], [ -0.10856524884599, 51.558162749235585 ], [ -0.108966587713807, 51.557565817124804 ], [ -0.109377930171126, 51.557040065822491 ], [ -0.109468813881277, 51.556933651900849 ], [ -0.109711612765841, 51.557027468313557 ], [ -0.110411350242308, 51.557931729502386 ], [ -0.110754587739738, 51.558351792273761 ], [ -0.110812982783215, 51.55833475361991 ], [ -0.111184473988876, 51.558457701506114 ], [ -0.111319372207043, 51.558333925616381 ], [ -0.111438803961118, 51.558236061237501 ], [ -0.111557882760178, 51.558184040073115 ], [ -0.111923499136338, 51.55806398096523 ], [ -0.112847667584056, 51.557763227003043 ], [ -0.113917926984843, 51.557383906632076 ], [ -0.114621829499912, 51.557142523355687 ], [ -0.115371491368274, 51.556875890438327 ], [ -0.115722996079408, 51.556745703204911 ], [ -0.116211745588658, 51.556474779634819 ], [ -0.11690072437286, 51.556104585027256 ] ] ] } },
{ "type": "Feature", "properties": { "NAME": "Hillrise", "GSS_CODE": "E05000374", "DISTRICT": "Islington", "LAGSSCODE": "E09000019", "HECTARES": 82.471, "NONLD_AREA": 0.0 }, "geometry": { "type": "Polygon", "coordinates": [ [ [ -0.133401353738344, 51.572868592681147 ], [ -0.13337029310768, 51.572886168199751 ], [ -0.133086303334181, 51.573019195030838 ], [ -0.132951321874412, 51.573072784468408 ], [ -0.132775773034698, 51.573132021087787 ], [ -0.132655877973937, 51.573168769502374 ], [ -0.132327769452033, 51.573251737924679 ], [ -0.131889735591636, 51.573377814802434 ], [ -0.131706857280596, 51.573438731106044 ], [ -0.131586257218217, 51.573492637869741 ], [ -0.131363942712208, 51.5735664104675 ], [ -0.131171766185023, 51.573607400126832 ], [ -0.130999076747028, 51.57363161911659 ], [ -0.130504030384457, 51.573702843403069 ], [ -0.129726101753106, 51.57381010119505 ], [ -0.129349184162484, 51.573849940961175 ], [ -0.128729566434563, 51.573935353436184 ], [ -0.127470655419596, 51.574156287798615 ], [ -0.127098453742132, 51.574118882646196 ], [ -0.126751571107015, 51.574131324871253 ], [ -0.12667379643652, 51.574127386194625 ], [ -0.126504376103802, 51.57410670137422 ], [ -0.12620654770201, 51.574048905192953 ], [ -0.126129704648759, 51.574025203297666 ], [ -0.125451976784665, 51.574044943279439 ], [ -0.125450549879517, 51.574044920482798 ], [ -0.125079786220252, 51.574076753965819 ], [ -0.124855128952541, 51.574100133491946 ], [ -0.124687928558647, 51.57413252181555 ], [ -0.124597437143835, 51.574157146128442 ], [ -0.124552202897449, 51.574273291558391 ], [ -0.124528251298904, 51.574363796402878 ], [ -0.12448079838973, 51.57436034093562 ], [ -0.124378713049078, 51.574351517200071 ], [ -0.124257729151265, 51.574345088220383 ], [ -0.124093588151359, 51.574407191212906 ], [ -0.123934547665817, 51.574518819870697 ], [ -0.123819451610756, 51.574615059114585 ], [ -0.123797107389573, 51.574631782596953 ], [ -0.123749565053813, 51.574665183913055 ], [ -0.123583278500672, 51.574672413615943 ], [ -0.123409709345772, 51.574683122560103 ], [ -0.123247851412758, 51.574686826665257 ], [ -0.122381786710071, 51.574971524670829 ], [ -0.122345345262459, 51.57491160830309 ], [ -0.121769054892516, 51.575062404555212 ], [ -0.121750044831656, 51.575067494176295 ], [ -0.121732967571149, 51.575028564318806 ], [ -0.119902503691248, 51.57545961992853 ], [ -0.119624913383199, 51.575508301824136 ], [ -0.119542596895477, 51.575510578551409 ], [ -0.119513664198169, 51.575511013843347 ], [ -0.119368122764206, 51.575260470559073 ], [ -0.11921303144789, 51.574996289171125 ], [ -0.119238276097166, 51.574981411025682 ], [ -0.119114541464175, 51.574900316626504 ], [ -0.118864416404013, 51.574736196975302 ], [ -0.118873245130189, 51.574732742567598 ], [ -0.119461589195372, 51.57442833681727 ], [ -0.119541216605267, 51.57438736055628 ], [ -0.119038170477652, 51.574372105417908 ], [ -0.118842200503284, 51.57436626670269 ], [ -0.118208623077227, 51.574261712747287 ], [ -0.117774270428249, 51.574190911973645 ], [ -0.117559502150843, 51.574150515304446 ], [ -0.117425434460012, 51.574043180891039 ], [ -0.117158612626202, 51.573828442767834 ], [ -0.117210537733702, 51.573830175666181 ], [ -0.117376412545584, 51.57383283943696 ], [ -0.117518118863978, 51.573824327037769 ], [ -0.11752134632638, 51.57374616684708 ], [ -0.117532511994636, 51.573686113892641 ], [ -0.11755359917364, 51.573630715188273 ], [ -0.117609614193601, 51.573565089433764 ], [ -0.117736604297543, 51.573495119367706 ], [ -0.118081847157742, 51.573311874223272 ], [ -0.118786743922963, 51.572841142662384 ], [ -0.119250628469125, 51.572582388794579 ], [ -0.119579168616322, 51.572382685202236 ], [ -0.119616241861344, 51.572360804635835 ], [ -0.119330908141832, 51.572173646898946 ], [ -0.119148779165676, 51.572043071097255 ], [ -0.119367254350911, 51.571924220735795 ], [ -0.119531633352159, 51.571821673668701 ], [ -0.119632247792816, 51.571762154937637 ], [ -0.119736161545226, 51.571830345379837 ], [ -0.119917909662073, 51.571938439453035 ], [ -0.120040129323852, 51.572018609798654 ], [ -0.120240737868598, 51.571877086729515 ], [ -0.120378268042676, 51.571796583051416 ], [ -0.120396331591544, 51.571779791639329 ], [ -0.120523535983456, 51.571704426409248 ], [ -0.120687245102286, 51.571618048793376 ], [ -0.12089743822211, 51.571489263960608 ], [ -0.121099109994835, 51.57135935340763 ], [ -0.121199277186298, 51.571310614038332 ], [ -0.121469803152781, 51.571187289204111 ], [ -0.121724036405916, 51.57107529988393 ], [ -0.121681040143501, 51.571035955069199 ], [ -0.121971332263342, 51.570923733372879 ], [ -0.122314696199324, 51.570785300736567 ], [ -0.122621361818742, 51.570662551600996 ], [ -0.122666734117256, 51.570647095783279 ], [ -0.122726868316286, 51.57069210837308 ], [ -0.12290887517152, 51.570617707275431 ], [ -0.123188730427098, 51.570516103466851 ], [ -0.123154519796981, 51.570471415893785 ], [ -0.12326298484908, 51.570429100421016 ], [ -0.123317073352154, 51.570412884780907 ], [ -0.123395839988527, 51.570392568879072 ], [ -0.123365403648963, 51.570325556916494 ], [ -0.123325505148765, 51.570208050237447 ], [ -0.123267770576918, 51.570101855206083 ], [ -0.123218165343228, 51.570012061872823 ], [ -0.123209929561461, 51.570001142272119 ], [ -0.123372259520503, 51.569948001439251 ], [ -0.12348962458598, 51.569900434174862 ], [ -0.123597101331784, 51.569884982349421 ], [ -0.123766705058499, 51.569866118866145 ], [ -0.123909982223264, 51.569856723061918 ], [ -0.123975077398239, 51.569850571987828 ], [ -0.123952499833552, 51.569734241451798 ], [ -0.123894522108347, 51.569318790719663 ], [ -0.123841919036337, 51.569125476099948 ], [ -0.123771735782757, 51.56893727425976 ], [ -0.123134180233842, 51.568266140782207 ], [ -0.123855869059651, 51.567875745073053 ], [ -0.124114850357012, 51.567717168982455 ], [ -0.124451737184735, 51.567489626650058 ], [ -0.124782300134684, 51.567242204523794 ], [ -0.125023555431592, 51.567095029646225 ], [ -0.125283529848817, 51.56691210347536 ], [ -0.125759328514565, 51.566534846187309 ], [ -0.126789049752467, 51.565740129807523 ], [ -0.127364165340429, 51.565296128437815 ], [ -0.127738774257656, 51.56552236011445 ], [ -0.127926834886262, 51.565650410823352 ], [ -0.128091220788657, 51.565758215765889 ], [ -0.128392428949094, 51.565941111413267 ], [ -0.128602843352171, 51.566055043799565 ], [ -0.128918293455997, 51.566241761169159 ], [ -0.129242879348748, 51.566420442494945 ], [ -0.129595745391543, 51.566646411196622 ], [ -0.130174628434761, 51.566991950870971 ], [ -0.130452359166818, 51.567150104175212 ], [ -0.130633447729132, 51.567274442954613 ], [ -0.130895222270333, 51.567435936399221 ], [ -0.131174197560084, 51.567598692110536 ], [ -0.131446486749484, 51.567750462907469 ], [ -0.131613392052023, 51.567797171287545 ], [ -0.131732032104213, 51.56771815150568 ], [ -0.131958605706262, 51.567507799789453 ], [ -0.132258877354342, 51.567255379485609 ], [ -0.132532095762482, 51.567033093038617 ], [ -0.132880847268282, 51.566761664261364 ], [ -0.133223998100092, 51.566449690778285 ], [ -0.133342383439296, 51.566379655030438 ], [ -0.133492393091402, 51.566310122264049 ], [ -0.133600214242853, 51.566283069769284 ], [ -0.133821372885674, 51.566344123063381 ], [ -0.134271716393655, 51.566447477202395 ], [ -0.134593042443648, 51.566529000616221 ], [ -0.134864889562075, 51.566653877035669 ], [ -0.135248264767993, 51.567053815393777 ], [ -0.135500847070333, 51.567297947171525 ], [ -0.135654377440297, 51.567497263847223 ], [ -0.136114547594187, 51.568099880712808 ], [ -0.136539260084439, 51.568653387577498 ], [ -0.13669150161204, 51.568881539947625 ], [ -0.136946628637148, 51.569171557110643 ], [ -0.137413727332572, 51.56967530018288 ], [ -0.137813989105734, 51.570085385451343 ], [ -0.138101826272726, 51.570387605785051 ], [ -0.138133715521998, 51.570419576118994 ], [ -0.138318125457014, 51.570603287121621 ], [ -0.138046573971391, 51.570714950045577 ], [ -0.137569746848718, 51.570943910264035 ], [ -0.13725918750586, 51.571055042407849 ], [ -0.136867168882716, 51.571185467794123 ], [ -0.136677999182356, 51.571257980453375 ], [ -0.136525012529429, 51.571330168163136 ], [ -0.136144507809387, 51.57153098482808 ], [ -0.135879139454312, 51.571633750971039 ], [ -0.135577325056537, 51.57174321950415 ], [ -0.135232343596713, 51.5718869722091 ], [ -0.135164744511634, 51.571916464011721 ], [ -0.134199411968348, 51.572443389025636 ], [ -0.133401353738344, 51.572868592681147 ] ] ] } },
{ "type": "Feature", "properties": { "NAME": "Mildmay", "GSS_CODE": "E05000377", "DISTRICT": "Islington", "LAGSSCODE": "E09000019", "HECTARES": 82.68, "NONLD_AREA": 0.0 }, "geometry": { "type": "Polygon", "coordinates": [ [ [ -0.098558601881038, 51.546792451158701 ], [ -0.098450233547453, 51.547246663804394 ], [ -0.098277897840957, 51.547920092207391 ], [ -0.098228644632566, 51.548063132211176 ], [ -0.097907826740609, 51.548147913310686 ], [ -0.097542289838948, 51.548232776376764 ], [ -0.096914615613684, 51.548375410857993 ], [ -0.096639115304366, 51.548445641580713 ], [ -0.096446712561938, 51.548493758130462 ], [ -0.096285515023759, 51.548554967400143 ], [ -0.096340152624749, 51.548627774953118 ], [ -0.096363776477481, 51.548754108168872 ], [ -0.09639028587549, 51.548808478699932 ], [ -0.096179826916322, 51.549012726599209 ], [ -0.095984649087172, 51.549198433420308 ], [ -0.095730623319829, 51.549375092289637 ], [ -0.095435554395475, 51.549532114447182 ], [ -0.095183438897873, 51.549662954305745 ], [ -0.094919084905909, 51.549776423736191 ], [ -0.09451075872323, 51.54988305569632 ], [ -0.094568731641404, 51.549944321244396 ], [ -0.094768507849893, 51.550445703628419 ], [ -0.094799864292299, 51.550523527306531 ], [ -0.094485519370683, 51.550589525241357 ], [ -0.094491569102835, 51.550652553830901 ], [ -0.09450069743316, 51.55077856267404 ], [ -0.09454070139182, 51.551133510282263 ], [ -0.094424628394619, 51.551218915251347 ], [ -0.094414836326961, 51.55145339560044 ], [ -0.094180135216252, 51.551443284348011 ], [ -0.093979418738169, 51.551448109642266 ], [ -0.093820874786813, 51.551479691936791 ], [ -0.093747347524764, 51.551514545449521 ], [ -0.093668600801888, 51.551569002140425 ], [ -0.093649484887261, 51.551576782075827 ], [ -0.093382530091892, 51.551407829913714 ], [ -0.093183239899587, 51.551412677057634 ], [ -0.09311395746521, 51.551414246264613 ], [ -0.093051398717964, 51.551462673051624 ], [ -0.093025860929796, 51.551487519305056 ], [ -0.092967466502334, 51.551467599700374 ], [ -0.092825591651596, 51.551652372494146 ], [ -0.092640725649402, 51.551625089463634 ], [ -0.092639261910669, 51.551625964633594 ], [ -0.092639224359467, 51.551626863025525 ], [ -0.092633249028611, 51.5516986860003 ], [ -0.092669563438742, 51.551970866187638 ], [ -0.092762984399301, 51.552598273269517 ], [ -0.092773278668729, 51.552699129221935 ], [ -0.092850701878791, 51.553399184779572 ], [ -0.092905756122437, 51.553393788012556 ], [ -0.092907146786852, 51.553636541450643 ], [ -0.092915816356301, 51.553807583039379 ], [ -0.09232186360124, 51.553798811633079 ], [ -0.092353817423524, 51.554070021826135 ], [ -0.092397561509568, 51.554403455185543 ], [ -0.092028744542782, 51.55442891427996 ], [ -0.091557435857701, 51.554453601670524 ], [ -0.091179862225653, 51.554443854324319 ], [ -0.090720234610485, 51.554430970521288 ], [ -0.090367114144501, 51.554425215082389 ], [ -0.090377121162413, 51.554151991025272 ], [ -0.090231598915102, 51.554147820857899 ], [ -0.090011154386357, 51.554140631027977 ], [ -0.089846557866785, 51.55407501709584 ], [ -0.089727174800653, 51.554031716288989 ], [ -0.089619815811935, 51.553979621384499 ], [ -0.089502841142367, 51.553912895587061 ], [ -0.089273398906315, 51.55374283772592 ], [ -0.089023697940858, 51.553815180247312 ], [ -0.08856218074483, 51.553949783727326 ], [ -0.087718497784392, 51.552946749271008 ], [ -0.087629690207769, 51.552897652251687 ], [ -0.087526054405004, 51.552824938929142 ], [ -0.087330297292605, 51.552745327420034 ], [ -0.08696705364272, 51.552669273609325 ], [ -0.086762626658504, 51.552626288882209 ], [ -0.086483502692048, 51.552574981518539 ], [ -0.086325073887392, 51.552535534276984 ], [ -0.086243959305081, 51.552507238967685 ], [ -0.086052527775689, 51.552429493903759 ], [ -0.085613271593538, 51.55220646479291 ], [ -0.085478052352927, 51.55216379961562 ], [ -0.085378015684723, 51.552141487470749 ], [ -0.085274862891201, 51.552125417354596 ], [ -0.085154094275507, 51.552115352246162 ], [ -0.08467227187595, 51.552048141404377 ], [ -0.084606105121361, 51.552043463668412 ], [ -0.084486198294473, 51.552046897359034 ], [ -0.084352545099733, 51.552068985323253 ], [ -0.083687859183107, 51.552130935022319 ], [ -0.083191267386755, 51.552140791726643 ], [ -0.081095066990102, 51.551977919889083 ], [ -0.080261199276195, 51.551911217982543 ], [ -0.079936914604065, 51.551870752720056 ], [ -0.079698477706814, 51.551813803398623 ], [ -0.079553023138378, 51.551740397588688 ], [ -0.07948273497574, 51.551695194017007 ], [ -0.079434941725934, 51.551666541307085 ], [ -0.079306872101628, 51.551589824132748 ], [ -0.079014645849444, 51.55133591781378 ], [ -0.078842343679961, 51.551146008878298 ], [ -0.07877654085569, 51.551064918069343 ], [ -0.07865757660407, 51.550944298042346 ], [ -0.077878778123569, 51.549675259903758 ], [ -0.077723128574287, 51.549465846857075 ], [ -0.077691788541936, 51.549422180750035 ], [ -0.077063917909366, 51.548678923462795 ], [ -0.076889777423133, 51.548431537294476 ], [ -0.076731044264013, 51.548160040863685 ], [ -0.076702406550864, 51.548120014736206 ], [ -0.07660920366829, 51.547935897804734 ], [ -0.07641451379157, 51.547318504872571 ], [ -0.076388622856275, 51.54697637022084 ], [ -0.076347363328132, 51.546654660083711 ], [ -0.076331156046315, 51.546424160256755 ], [ -0.076351340910967, 51.546354369862385 ], [ -0.076812826324012, 51.546081371172932 ], [ -0.07829447482322, 51.546243328087925 ], [ -0.079693282456601, 51.546350776827836 ], [ -0.083139443851772, 51.54657803701452 ], [ -0.083811847309962, 51.546605221522604 ], [ -0.084293841448074, 51.546632973773669 ], [ -0.084504372509931, 51.546631832216804 ], [ -0.084709465416197, 51.54662709529692 ], [ -0.085122462264596, 51.546579008848859 ], [ -0.085570115140716, 51.546566546800058 ], [ -0.087158655130969, 51.546656321868504 ], [ -0.087835820637476, 51.546777142770146 ], [ -0.08859507670889, 51.546865946630788 ], [ -0.088919942967569, 51.546891923148912 ], [ -0.08918920186021, 51.546902607976541 ], [ -0.089243872830497, 51.546906196615474 ], [ -0.08928990633913, 51.546908745369294 ], [ -0.089988977823752, 51.54695250817894 ], [ -0.090750644840869, 51.547017963805636 ], [ -0.091781383026742, 51.547098675290705 ], [ -0.092804209377145, 51.54719803800279 ], [ -0.093311078238381, 51.547217076305522 ], [ -0.094532916209253, 51.547212682488549 ], [ -0.096081467231659, 51.54729269756433 ], [ -0.096627692791339, 51.54730337123987 ], [ -0.096715933293318, 51.547297612861549 ], [ -0.096804436253626, 51.547285565705153 ], [ -0.096871266722337, 51.547271368426451 ], [ -0.096999985881576, 51.547230307527464 ], [ -0.097937070414964, 51.546962251399037 ], [ -0.098558601881038, 51.546792451158701 ] ] ] } }
]
}
